Corrected accelerogram 20160214_001343_ROLC_20 GNS Science
Site ROLC      43 35 34S  172 22 52E     Cusp file:  20160214_001350_ROLC
Rolleston School
Instrument Cusp_42042
Resolution: 18-bit   Instr Period: 0.0050 s   Damping: 0.700
Accelerogram 20160214_001343_ROLC_20                 Processed 2016 February 22
11 km east of CHRISTCHURCH
2016 February 14         00:13:43 UT
Epicentre  43 29 50S 172 45 18E  Bearing N71E  Dist   32km  Depth    8km M  5.70
Number of points  8192    Duration 163.82 sec
Instrument corrected data at 0.020 sec intervals
Band-pass filter transition bands are .10-.25 Hz and 24.50-25.50 Hz
Component N00E  Horizontal Axis 1
Acceleration:  peak   -197.5 mm/s/s at  47.40 sec     rms     13.1 mm/s/s
Velocity:      peak   -16.60 mm/s   at  53.10 sec     rms     2.66 mm/s
Displacement:  peak   -8.392 mm     at  60.24 sec     rms    1.541 mm
    2016       2      14       0      13     430       0       0    2016       2
      43      29      50     172      45      18       8       0      14       0
      43      35      34     172      22      52       0       0      71      32
   36365     250     250    8192    8192    8192       0       0      13   10356
   200.0    0.70    0.00   0.000  0.0000   0.000   0.000   1.000     0.0    0.00
  43.593 172.381   43.50  172.76    5.70    0.00    0.00    0.00      0.      0.
  181.82    5.00    5.00  163.82  0.0050  0.0200      0.      0.      0.  9806.6
   200.3   47.65    13.8   0.000      0.  -197.5   47.40    13.1   280.0   0.308
  -16.60   53.10    2.66   18.69   0.308   -8.39   60.24    1.54    9.34   0.223
   0.100   0.150   0.250      0.      0.  24.500   1.000  25.500      0.      0.
    -0.0    -0.0    -0.0    -0.0    -0.0    -0.0    -0.0    -0.0    -0.0    -0.0
    -0.0    -0.0    -0.0    -0.0    -0.0    -0.0    -0.0    -0.0    -0.0    -0.0
    -0.0    -0.0    -0.0    -0.0    -0.0    -0.0    -0.0    -0.0    -0.0    -0.0
    -0.0    -0.0    -0.0    -0.0    -0.0    -0.0    -0.0    -0.0    -0.0    -0.0
    -0.0    -0.0    -0.0    -0.0    -0.0    -0.0    -0.0    -0.0    -0.0    -0.0
    -0.0    -0.0    -0.0    -0.0    -0.0    -0.0    -0.0    -0.0    -0.0    -0.0
    -0.0    -0.0    -0.0    -0.0    -0.0    -0.0    -0.0    -0.0    -0.0    -0.0
    -0.0    -0.0    -0.0    -0.0    -0.0    -0.0    -0.0    -0.0    -0.0    -0.0
    -0.0    -0.0    -0.0    -0.0    -0.0    -0.0    -0.0    -0.0    -0.0    -0.0
    -0.0    -0.0    -0.0    -0.0    -0.0    -0.0    -0.0    -0.0    -0.0    -0.0
    -0.0    -0.0    -0.0    -0.0    -0.0    -0.0    -0.0    -0.0    -0.0    -0.0
    -0.0    -0.0    -0.0    -0.0    -0.0    -0.0    -0.0    -0.0    -0.0    -0.0
    -0.0    -0.0    -0.0    -0.0    -0.0    -0.0    -0.0    -0.0    -0.0    -0.0
    -0.0     0.0    -0.0     0.0     0.0     0.0     0.0     0.0     0.0     0.0
     0.0     0.0     0.0     0.0     0.0     0.0     0.0     0.0     0.0     0.0
     0.0     0.0     0.0     0.0     0.0     0.0     0.0     0.1     0.1     0.1
     0.1     0.1     0.1     0.1     0.1     0.1     0.1     0.1     0.1     0.1
     0.1     0.1     0.1     0.1     0.1     0.1     0.1     0.1     0.1     0.1
     0.1     0.1     0.1     0.1     0.1     0.1     0.1     0.1     0.1     0.1
     0.1     0.1     0.1     0.2     0.1     0.2     0.2     0.2     0.2     0.2
     0.2     0.2     0.2     0.2     0.2     0.2     0.2     0.2     0.2     0.2
     0.2     0.2     0.2     0.2     0.2     0.2     0.2     0.2     0.2     0.2
     0.2     0.2     0.2     0.2     0.2     0.2     0.2     0.2     0.2     0.2
     0.2     0.3     0.2     0.3     0.2     0.3     0.2     0.3     0.2     0.3
     0.2     0.3     0.2     0.3     0.2     0.3     0.2     0.3     0.2     0.4
    -0.2    -0.5    -0.3    -0.3    -0.4    -0.4    -0.7    -0.7    -0.4    -0.5
    -0.4    -0.5    -0.5    -0.4    -0.5    -0.4    -0.5    -0.5    -0.7    -0.5
    -0.4     0.0     0.0    -0.7     0.1    -0.4    -0.6    -0.9    -0.5    -0.6
    -0.5    -0.6    -0.6    -0.7    -1.1    -0.4    -0.5    -0.0    -0.5    -0.5
    -0.3     0.3     0.8     0.0     0.0    -0.8    -0.7    -0.2    -0.4    -0.7
     0.2    -0.0    -0.5    -0.1    -0.4    -0.2    -0.6    -0.3    -0.3    -0.4
    -1.5    -1.1    -0.3    -0.4    -0.2    -0.4    -0.3    -0.3    -0.1    -0.1
    -0.2     0.0    -0.1     0.1    -0.0    -0.4    -0.2    -0.1     0.1     0.1
    -0.1    -0.1     0.1    -0.3     0.0    -0.2    -0.4    -0.3     0.2     0.4
    -0.2     1.2     0.5     0.0     0.2    -0.1     0.4     0.6     0.1     0.2
     0.8     0.7     1.0     0.6     0.8     0.7     0.6     0.3     0.2     0.3
     0.2     0.4     0.2     0.2     0.5     0.3    -0.1     0.1     0.3     0.0
     0.2     0.5     0.6     0.6     0.6     0.4     0.5     0.4     0.4     0.5
     1.0     0.5     0.6     0.8     0.8     0.3     0.4     0.0     0.1     0.7
     0.8     0.5     0.4     0.5     0.7     0.4     0.3    -0.3    -0.0     0.7
    -0.3    -0.6    -0.4    -0.1     0.1    -0.6     0.2     0.1     0.2     0.4
    -0.2    -0.2     0.2     0.4    -0.0     0.2    -0.2     0.9     0.6     0.9
     0.5     0.3    -0.1     0.2     0.4    -0.1     0.6    -0.1    -0.5    -0.0
    -0.2     0.4    -0.5     0.2    -0.2    -0.0     0.4     0.4     0.1    -0.0
     0.2     0.2     0.1    -0.2     0.1    -0.5     0.0     0.5    -0.2    -0.2
     0.3     0.0     0.6     0.0    -0.0    -0.4    -1.5    -1.1    -0.5    -0.7
    -1.3    -0.9    -1.4    -1.4    -0.7    -0.2    -0.4    -1.4    -0.2     0.3
    -0.1    -0.3    -0.6     0.1    -0.3    -0.1    -0.6    -1.2    -1.1    -0.3
    -0.4     0.0     0.2    -0.2    -0.6     0.6    -0.3    -0.2    -0.1    -0.4
    -0.4    -0.1     0.3    -0.3     0.4     0.3     0.1     0.1     0.3     0.5
     0.4    -0.3    -0.0     0.1    -0.0     0.2    -0.1    -0.3    -0.4    -0.2
     0.1     0.1    -0.3    -0.7    -0.3    -0.3    -0.4    -0.2     0.3     0.4
    -0.1    -0.1    -0.1    -0.0    -0.2    -0.0     0.0     0.2     0.1    -0.1
     0.1    -0.2     0.2     0.1    -0.4    -0.0    -0.0     0.1    -0.1     0.1
    -0.1    -0.1    -0.0    -0.2     0.2    -0.1     0.2     0.1     0.0     0.2
    -0.2    -0.2     0.3    -0.2    -0.3     0.2    -0.2     0.0    -0.1    -0.1
    -0.3    -0.5     0.2     0.2     0.4     0.2     0.5     0.1     0.3     0.7
    -0.1     0.3     0.5    -0.1     0.3     0.2     0.3     0.3     0.1     0.1
    -0.0    -0.3    -0.4     0.2    -0.4     0.2     0.4    -0.3    -0.1    -0.2
    -0.1    -0.2    -0.2     0.3     0.3    -0.3    -0.0     0.3     0.1    -0.1
     0.1     0.4     0.4    -0.0     0.2     0.5     0.1     0.5     0.4     0.2
     0.1     0.3     0.5     0.8     0.3    -0.0     0.5     0.3     0.0     0.2
     0.4     0.0     0.1     0.1    -0.1    -0.9    -0.2     0.2     0.0    -0.1
    -0.2     0.2    -0.0     0.1    -0.0    -0.4     0.1     0.7     0.9     0.3
     0.2     0.4     0.9     0.1    -0.2     0.0    -0.1     0.6     0.7     0.1
     0.7     0.7     0.2    -0.2    -0.3    -0.4    -0.7    -0.2     0.0    -0.6
     0.1     0.6    -0.5     0.0     0.2     0.0     0.2    -0.9     0.1    -0.1
    -0.1    -1.2    -0.4    -0.5     0.2     0.4    -0.3    -0.2     0.1    -0.4
    -0.7    -0.1     0.4     0.6     0.0     0.0     0.0     0.3    -0.5     0.0
    -0.4     0.4     0.0     0.4     0.4     0.3    -0.7     0.3     0.2     0.2
    -0.1     0.1    -0.5    -0.4     0.0    -0.8     0.6    -0.0     0.0    -0.3
     0.0    -0.3     0.0     0.1    -0.4    -0.2    -0.2    -0.2    -0.7    -0.9
    -0.3    -0.0     0.1    -0.2    -0.3     0.1    -0.2     0.3    -0.3     0.2
     0.0     0.3     0.1    -0.6     0.2    -0.4    -0.1    -0.2     0.2    -0.2
     0.8    -0.1    -0.5    -0.6    -0.4    -0.2     0.2     0.2    -0.3     0.7
    -0.1     0.2    -0.0    -0.0    -0.1    -0.2    -0.2    -0.0    -0.1    -0.3
    -0.2    -0.1    -0.4    -0.6    -0.4    -0.8    -0.4    -0.2    -0.8    -0.2
    -0.9    -0.5    -0.7    -0.1    -0.2     0.0     0.2     0.1     0.4     0.3
     0.3     0.1    -0.1     0.1     0.2     0.2     0.4    -0.1     0.4     0.2
     0.2     0.4    -0.0     0.1     0.2     0.0    -0.2     0.5     0.2     0.3
     0.5     0.6     0.1     0.1     0.1     0.3     1.0     0.5     0.5     0.8
    -0.3     0.6     0.5     0.8     0.4     0.5    -0.5    -0.3     0.1     0.1
     0.7     0.6     0.3     0.6     0.3     0.8    -0.1    -0.7     0.1     0.6
    -0.2    -0.2    -0.0    -0.2     0.4     0.3    -0.2     0.4     0.1     0.2
    -0.3    -0.2     0.1     0.6    -0.3     0.7     0.2     0.3    -0.2    -0.2
    -0.5     0.1    -0.6     0.3    -0.6    -0.0    -0.2    -0.9    -0.2    -1.1
    -0.0    -0.1     0.1     0.4    -0.5    -0.1     0.2    -0.5    -0.6     0.1
     0.5     0.5    -0.1    -0.5     0.2    -0.6    -0.3     0.0     0.3    -0.3
    -0.2    -1.0    -0.3    -0.0    -0.1    -0.3    -0.0     0.2     0.4     0.0
     0.2     0.2    -0.4    -0.4    -0.1     0.0     0.2     0.2     0.3    -0.0
    -0.2     0.4     1.0     0.7     0.4     0.7    -0.7    -1.3    -0.4    -0.8
    -0.1     0.0     0.2     0.0     0.4     0.6     0.5     0.1     0.0    -0.7
    -0.2     0.4    -0.2    -0.1    -0.2    -0.1    -0.1     0.2     0.2     0.0
     0.0    -0.3     0.6     0.0     0.0    -0.4    -0.5    -0.4     0.2     0.3
    -0.3     0.1    -0.3    -0.1     0.7     0.4     0.1     0.4    -0.0     0.3
     0.1     0.2     0.6     0.1    -0.0    -0.7    -1.0    -0.4    -0.3    -0.2
    -0.2     0.1     0.4    -0.4    -0.1    -0.1     0.2    -0.1    -0.6     0.1
    -0.3    -0.3    -0.2    -0.1    -0.0    -0.2     0.1    -0.1     0.6     0.3
     0.6     0.4    -0.4     0.4     0.0     0.5    -0.1    -0.7    -0.2    -0.3
     0.4     0.0     0.4    -0.1    -0.1    -0.1    -0.1    -0.6    -0.6     0.1
    -1.2    -0.1     0.0     0.0     0.0     0.4    -0.4    -0.4     0.3    -0.6
     0.1     0.0     0.0     0.2    -0.0     0.1    -0.4     0.1     0.3     0.4
    -0.2    -0.3    -0.2     0.3     0.5    -0.2     0.9     0.2     0.5    -0.5
    -0.2    -0.4    -0.2     0.7     0.1    -0.2    -0.2    -0.3     0.1     0.3
    -0.1    -0.2     0.2     0.2    -0.3     0.1     0.2    -0.5     0.4    -0.1
    -0.2     0.2     0.0    -0.4     0.8    -0.4    -0.2    -0.6    -0.1    -0.3
    -0.7     0.0     0.3     0.1     0.2     0.2    -0.1     0.3     0.5     0.7
     0.7     1.1     0.6     0.8     0.6     0.5     0.4     0.3     0.4    -0.1
     0.4     0.5    -0.2    -1.2     0.2     0.6     0.6     0.6    -0.0     0.5
     0.1    -0.3    -0.3     0.4     0.3     0.7     0.5     0.1     0.2     0.5
     0.7     0.5     0.6     0.7     1.0     0.9     0.3     0.3     0.5     0.3
     0.2    -0.0     0.1    -1.2    -1.2    -0.3    -0.5    -0.0     0.6    -0.4
     0.1     0.4    -0.4    -0.1    -0.1    -1.2    -0.6    -1.1     0.2    -0.7
     0.0    -0.6     0.3    -0.9    -0.6    -0.1    -1.1    -1.3    -1.1    -0.6
    -0.3    -0.3     0.3    -0.6    -0.4    -0.0    -0.1    -0.0     0.0     0.2
    -0.8    -0.4    -0.5    -0.6    -0.2     0.4     0.5    -0.1    -0.4    -0.1
    -0.3    -0.3    -0.1    -0.6    -0.5     0.0    -0.1    -0.2     0.0    -0.6
     0.3    -0.1     0.2     0.1     0.3    -0.3    -0.3    -0.5    -0.6    -0.4
    -0.2     0.2    -0.9    -0.3    -0.5    -0.1    -0.4    -0.4     0.1     0.2
     0.2     0.3     0.1    -0.4     0.1     0.2     0.1     0.3    -0.0    -0.2
    -0.4    -0.3    -0.3     0.2     0.5     0.3     0.6     0.3    -0.1     0.2
     0.2    -0.1    -0.1    -0.0     0.3    -0.1     0.2     0.2    -0.2    -0.1
    -0.2    -0.1     0.1     0.4     0.3     0.3     0.3     0.4     0.4     0.4
     0.5     0.3     0.4     0.3    -0.0     0.1     0.4     0.5     0.4     0.4
     0.6     0.7     0.2    -0.2     0.1    -0.4    -0.0    -0.2     0.2     0.1
     0.1     0.1     0.1    -0.1    -0.3     0.2    -0.0    -0.1     0.3    -0.1
    -0.0     0.3     0.5     0.1     0.3     0.2     0.1    -0.2     0.1     0.1
     0.1     0.0     0.3     0.0     0.2     0.1     0.3     0.5     0.5    -0.2
     0.5    -0.3    -0.0    -0.0     0.3     0.4    -0.2    -0.2    -0.3    -0.2
    -0.6    -0.1    -0.3    -0.3    -0.5    -0.3    -0.7    -0.1    -0.6    -0.5
    -0.8    -0.5     0.3    -0.3    -0.3     0.2     0.1     0.3     0.1     0.3
    -0.1     0.5     0.1     0.1     0.2     0.1     0.1     0.4     0.4     0.2
     0.0    -0.0     0.0     0.2     0.3    -0.0    -0.0     0.4    -0.1    -0.4
    -0.0     0.3    -0.0     0.3    -0.1     0.0     0.5     0.5     0.4    -0.5
    -0.3    -0.3    -0.5    -0.3     0.1     0.4     0.1    -0.1     0.6     0.3
     0.4     0.3     0.2     0.1     0.2     0.3     0.2    -0.1     0.1     0.1
     0.1     0.1     0.1    -0.0     0.0     0.1     0.3     0.4     0.2     0.1
     0.1     0.7     0.3     0.1     0.2     0.2    -0.2    -0.4     0.1    -0.0
    -0.4    -0.8    -0.3    -0.3    -0.1    -0.4    -0.5    -0.1    -0.2    -0.0
    -0.4     0.0    -0.3    -0.3    -0.2    -0.3    -0.1    -0.1     0.3     0.0
    -0.6    -0.7     0.4    -0.2    -1.0    -0.1    -0.3    -0.7    -0.4    -0.1
    -1.0    -0.5     0.0    -1.1     0.0    -0.2     0.4    -0.1    -0.3     0.3
    -0.2    -0.0     0.3    -0.4    -0.1     0.1    -0.3     0.1    -0.0    -0.1
    -0.5     0.6     0.1    -0.1    -0.1     0.3    -0.2    -0.2     0.1     0.2
    -0.3    -0.1    -0.4    -0.3    -0.1    -0.1    -0.6     0.2     0.2     0.3
    -0.4    -0.0    -0.2    -0.3    -0.1    -0.1    -0.2     0.7     0.3    -0.4
     0.1    -0.1     0.1     0.0     0.2    -0.1     0.1    -0.1     0.3    -0.2
    -0.1     0.1     0.2     0.8    -0.5     0.2    -0.2     0.6     0.4    -0.2
     0.1    -0.7     0.6     0.0    -0.3     1.0    -0.5    -0.4     0.2     0.3
     0.3     0.4     0.5     0.0    -0.7    -0.3    -0.0     0.3     0.4     0.4
     0.1     0.3     1.0     0.4     0.2     0.1    -0.3    -0.2    -0.4     0.1
     0.6     1.0     0.3    -0.3    -0.1    -0.0    -0.1     0.5    -0.7    -0.3
     0.4     0.4     0.7     0.6     0.2     0.1    -0.6     0.4    -0.0    -0.6
    -0.7    -1.4    -0.7     0.5     0.7     0.7     0.5    -0.4     0.5     0.8
     0.1     0.3     0.3     0.0     0.4     0.2    -0.7    -0.4    -1.0    -0.4
    -0.2     0.2     0.4     0.4     0.6     0.2     0.4     0.1     0.3     0.8
     0.1     0.5     0.5     0.1    -0.2     0.7     0.4    -0.2    -0.2    -0.0
     0.0    -0.3    -0.1     1.1     0.7     0.4     0.4     0.4     0.2    -0.0
    -0.0    -0.0     0.2     0.2     0.1    -0.2    -0.1     0.1    -0.0    -0.2
    -0.5    -0.7    -0.6    -0.7    -0.4     0.2    -0.1    -0.1    -0.6     0.0
    -0.3    -0.7    -0.1    -0.5    -0.5    -0.5    -0.4    -0.3    -0.4    -0.5
    -0.4    -0.3    -0.2    -0.3     0.1     0.2     0.1     0.3     0.2     0.2
    -0.0     0.3     0.0     0.1     0.3    -0.0    -0.2    -0.1     0.1     0.0
     0.0    -0.3     0.2     0.0     0.3     0.5     0.0     0.3     0.3     0.4
     0.1    -0.2    -0.4     0.3     1.0     0.3     0.2     0.2    -0.2    -0.1
    -0.1     0.0    -0.0     0.1     0.2     0.3    -0.5    -0.3    -0.0     0.3
     0.2     0.4    -0.0     0.3    -0.0    -0.4     0.4    -0.4     0.0    -0.0
    -0.0    -0.5    -0.3    -0.4    -0.5    -0.1    -0.7     0.2    -0.1    -0.1
    -0.2    -0.1    -0.1    -0.2    -0.8    -0.5    -0.2    -0.1    -0.6    -0.3
    -0.3    -0.2    -0.0     0.4    -0.3    -0.0     0.1    -0.1    -0.1    -0.1
    -0.0    -0.3    -0.5    -0.5    -0.5     0.2    -0.4    -0.2    -0.1     0.1
     0.3     0.5     0.3     0.2     0.1     0.0    -0.3    -0.2     0.0    -0.1
    -0.2    -0.4    -0.3    -0.2    -0.3    -0.6    -0.2    -0.7    -0.7    -0.5
    -0.3    -0.5     0.0     0.2     0.1     0.2    -0.1    -0.0     0.3     0.0
     0.6    -0.1     0.2     0.6     0.5     0.7     0.5    -0.3     0.2     0.4
     0.1     0.1     0.2    -0.0     0.1    -0.4    -0.3    -0.1     0.2     0.4
     0.3     0.4     0.3     0.4     0.4    -0.2    -0.1    -0.1     0.3     1.1
     0.8     0.5    -0.3    -0.1     0.0     0.1    -0.2    -0.1    -0.6    -0.5
     0.0     0.2     0.2    -0.3    -0.1     0.1    -0.1    -0.2     0.4     1.0
     0.3     0.9     0.3     0.5     1.2     1.2     0.4     1.0    -0.2    -0.2
    -0.2     0.0    -0.1    -0.1    -0.4    -1.0    -0.2    -0.1     0.3     0.6
     0.5     0.3    -0.3     0.1     0.3     0.1    -0.1    -0.2     0.3     0.1
     0.1     0.2    -0.5    -0.7    -0.6    -0.6    -0.6    -0.5    -0.3    -0.3
    -0.2    -0.3    -0.1     0.0    -0.2    -0.4     0.2    -0.2    -0.2     0.3
     0.3     0.2     0.3     0.5     0.5     0.5     0.4     0.3     0.2     0.5
     0.2     0.2     0.2     0.5     0.0     0.2     0.2    -0.2    -0.2     0.1
     0.0    -0.6    -0.2    -0.3    -0.0    -0.4    -0.2    -0.4     0.0    -0.2
    -0.2    -0.1     0.1     0.1    -0.1    -0.1    -0.1    -0.3     0.1    -0.0
    -0.7    -0.2    -0.5    -0.1    -0.1     0.1     0.2     0.3     0.0    -0.3
    -0.1     0.0    -0.1    -0.1    -0.3    -0.3     0.2    -0.2     0.1    -0.1
    -0.2    -0.2     0.0     0.1    -0.6    -0.4     0.0     0.3    -0.0     0.2
     0.5     0.2     0.1    -0.3    -0.2    -0.7    -1.1    -0.0    -0.1     0.2
     0.1     0.4    -0.4     0.4     0.5     0.2     0.1     0.2     0.3    -0.0
    -0.1     0.1    -0.0    -0.6    -0.5    -0.1    -0.1     0.0    -1.2     0.1
     0.2    -0.4     0.4    -0.5    -1.0    -0.3    -0.1     0.2     0.2     0.3
     0.4     0.5     0.7     0.5     0.8     0.5     0.1     0.3     0.1    -0.2
     0.5     0.5     0.8    -0.1     0.2    -0.1     0.1     0.1     0.3     0.1
     0.4     0.5     0.1     0.2     0.3     0.3    -0.2     0.4     0.7     0.3
    -0.2     0.1    -0.2    -0.0    -0.3    -0.7    -0.7    -0.4    -0.4    -0.4
     0.0    -0.4    -0.0    -0.2    -0.1    -0.2     0.0    -0.8    -0.8    -0.5
     0.2     0.3    -0.6    -0.7    -0.4    -0.5    -0.8    -0.1    -0.1     0.1
     0.2     0.0    -0.3    -0.3     0.2    -0.2    -0.1     0.3     0.4    -0.3
    -0.5    -0.0     0.0    -0.1     0.4    -0.2    -0.4    -0.2     0.2     0.0
     0.0     0.4    -0.1     0.0     0.0    -0.1    -0.1    -0.4    -0.2     0.6
    -0.2     0.3    -0.1    -0.5    -0.4    -0.4    -0.1     0.1     0.1     0.2
    -0.3    -0.3    -0.2     0.2     0.1    -0.1    -0.0     0.0    -0.2    -0.4
    -0.1     0.4    -0.2    -0.4    -0.1    -0.1     0.4     0.1    -0.4    -1.0
    -0.9    -0.9    -0.4     0.7     0.6     0.5     0.5     0.4    -0.0     0.6
     0.5     0.2    -0.0     0.4     0.2    -0.1     0.5     0.5     1.0     0.8
     0.6     0.5     0.6     0.3     0.2     0.5     0.7     0.6     0.8     0.7
     0.7     0.7     0.4     0.5     0.8     0.3     0.7     0.7     0.3     0.4
     0.3     0.6    -0.3    -0.2     0.1    -0.3     0.5     0.4     0.3    -0.3
    -0.3     0.3     0.2     0.2     0.3     0.8     0.6     0.6     0.3     0.8
     0.7     0.7    -0.3    -0.5    -0.1     0.2    -0.2     0.6     0.3    -0.1
     0.0     0.3     0.2     0.2     0.7     0.4     0.1     0.6     0.9     0.2
     0.0     0.7     0.8     0.3    -0.2     0.3     0.4     0.1     0.2    -0.2
     0.2     0.3    -0.1     0.1     0.2    -0.2    -0.6     0.2     0.4    -0.1
     0.3     0.2     0.3    -0.0     0.1    -0.1     0.2    -0.2    -0.1     0.1
     0.0     0.0     0.1     0.4     0.1     0.3    -0.1     0.0     0.1    -0.2
    -0.4    -0.3    -0.5    -0.8    -0.4    -0.6    -0.7    -0.4    -0.7    -0.7
    -0.7    -0.5     0.1     0.0    -0.5    -0.2    -0.3    -0.1    -0.1    -0.1
    -0.3    -0.3    -0.2    -0.4    -0.2    -0.4    -0.3     0.1    -0.2    -0.4
    -0.4    -0.6    -0.2    -0.5    -0.4    -0.6    -0.4    -0.2    -0.3    -0.6
    -0.7    -0.6    -0.7    -0.9    -0.8    -0.8    -0.7    -0.9    -1.1    -0.9
    -1.0    -0.6    -0.8    -1.3    -0.5    -0.1    -0.4    -0.9    -0.2    -1.1
    -1.5    -0.9    -0.1     0.1    -0.2    -1.1    -1.5    -2.6    -1.2     0.4
