Corrected accelerogram 20160214_001343_MCAS_20 GNS Science
Site MCAS      41 47 60S  172 19 41E     Cusp file:  20160214_001415_MCAS
Murchison Area School
Instrument Cusp_42272
Resolution: 18-bit   Instr Period: 0.0050 s   Damping: 0.700
Accelerogram 20160214_001343_MCAS_20                 Processed 2016 February 22
11 km east of CHRISTCHURCH
2016 February 14         00:13:43 UT
Epicentre  43 29 50S 172 45 18E  Bearing S10E  Dist  192km  Depth    8km M  5.70
Number of points  8192    Duration 163.82 sec
Instrument corrected data at 0.020 sec intervals
Band-pass filter transition bands are .10-.25 Hz and 24.50-25.50 Hz
Component N00E  Horizontal Axis 1
Acceleration:  peak     29.9 mm/s/s at  69.00 sec     rms      4.8 mm/s/s
Velocity:      peak     6.61 mm/s   at  69.20 sec     rms     0.97 mm/s
Displacement:  peak    1.620 mm     at  79.78 sec     rms    0.309 mm
    2016       2      14       0      13     430       0       0    2016       2
      43      29      50     172      45      18       8       0      14       0
      41      47      60     172      19      41       0       0     170     192
   34804     250     250    8192    8192    8192       0       0      13   35663
   200.0    0.70    0.00   0.000  0.0000   0.000   0.000   1.000     0.0    0.00
  41.800 172.328   43.50  172.76    5.70    0.00    0.00    0.00      0.      0.
  174.02    5.00    5.00  163.82  0.0050  0.0200      0.      0.      0.  9806.6
    30.6   69.00     5.0   0.000      0.    29.9   69.00     4.8    31.1   0.589
    6.61   69.20    0.97    6.62   0.589    1.62   79.78    0.31    2.38   0.482
   0.100   0.150   0.250      0.      0.  24.500   1.000  25.500      0.      0.
  -0.001   0.000  -0.001   0.000  -0.001   0.000  -0.001   0.000  -0.001   0.000
  -0.001   0.000  -0.001   0.000  -0.001   0.000  -0.001   0.000  -0.001   0.000
  -0.001   0.000  -0.001   0.000  -0.001   0.000  -0.001   0.000  -0.001   0.000
  -0.001   0.000  -0.001  -0.000  -0.001  -0.000  -0.001  -0.000  -0.001  -0.000
  -0.001  -0.000  -0.001  -0.000  -0.001  -0.000  -0.001  -0.000  -0.001   0.000
  -0.001   0.000  -0.001   0.000  -0.001   0.000  -0.001   0.000  -0.001   0.000
  -0.001   0.000  -0.001   0.000  -0.001   0.000  -0.001   0.000  -0.001   0.000
  -0.001   0.000  -0.001   0.000  -0.001   0.000  -0.001   0.000  -0.001   0.000
  -0.001   0.000  -0.001   0.000  -0.001   0.000  -0.001   0.000  -0.001   0.000
  -0.001   0.000  -0.001   0.000  -0.001   0.000  -0.001   0.000  -0.001   0.000
  -0.001   0.000  -0.001   0.000  -0.001   0.000  -0.001   0.000  -0.001   0.000
  -0.001   0.000  -0.001   0.000  -0.001   0.001  -0.001   0.001  -0.001   0.001
  -0.001   0.001  -0.001   0.001  -0.001   0.001  -0.001   0.001  -0.001   0.001
  -0.001   0.001  -0.001   0.001  -0.001   0.001  -0.000   0.001  -0.000   0.001
  -0.000   0.001  -0.000   0.001  -0.000   0.001  -0.000   0.001  -0.000   0.001
  -0.000   0.001  -0.000   0.001  -0.000   0.001  -0.000   0.001  -0.000   0.001
  -0.000   0.001  -0.000   0.001  -0.000   0.001  -0.000   0.001  -0.000   0.001
  -0.000   0.001  -0.000   0.001  -0.000   0.001  -0.001   0.001  -0.001   0.001
  -0.001   0.001  -0.001   0.001  -0.001   0.001  -0.001   0.001  -0.001   0.001
  -0.001   0.001  -0.001   0.001  -0.001   0.001  -0.001   0.001  -0.001   0.001
  -0.001   0.001  -0.001   0.000  -0.001   0.000  -0.001   0.000  -0.001   0.000
  -0.001   0.000  -0.001   0.000  -0.001   0.000  -0.001   0.000  -0.001   0.000
  -0.001   0.000  -0.001   0.000  -0.001   0.000  -0.001   0.000  -0.002   0.000
  -0.002   0.000  -0.002   0.000  -0.002   0.000  -0.002   0.000  -0.002   0.000
  -0.002   0.000  -0.002   0.001  -0.003   0.001  -0.004   0.002  -0.006   0.008
  -0.038   0.015   0.036   0.006   0.099   0.025  -0.016   0.052   0.007   0.011
  -0.050   0.006  -0.093   0.006   0.036   0.120  -0.068   0.095  -0.048   0.051
   0.001  -0.090   0.021   0.020   0.088  -0.066  -0.007  -0.090  -0.075  -0.118
   0.021  -0.025  -0.045   0.040  -0.080  -0.034   0.119   0.002   0.093   0.010
  -0.073   0.005   0.022   0.022  -0.022  -0.087   0.023  -0.057  -0.010   0.022
  -0.048  -0.037  -0.053   0.024  -0.005  -0.060   0.019  -0.025   0.044   0.006
  -0.024   0.101   0.027   0.014  -0.032   0.025   0.074   0.099   0.143   0.106
   0.040  -0.024  -0.014   0.049   0.034   0.095   0.062  -0.026   0.095   0.002
  -0.058   0.002  -0.146  -0.046  -0.057  -0.062  -0.048  -0.012  -0.146   0.040
   0.032  -0.018   0.052  -0.012   0.055   0.024   0.038   0.057  -0.036   0.040
  -0.074  -0.002  -0.012  -0.036   0.037  -0.053   0.092  -0.008   0.038   0.042
  -0.066   0.124   0.008   0.024   0.003   0.126  -0.041   0.005  -0.020  -0.004
   0.026  -0.078   0.056  -0.075   0.010  -0.058   0.067  -0.038   0.003  -0.082
   0.055  -0.109  -0.047  -0.063  -0.107  -0.011  -0.025  -0.035  -0.007  -0.093
  -0.099   0.044  -0.091   0.044   0.054   0.064   0.052  -0.026  -0.015  -0.038
   0.014   0.081  -0.069  -0.028   0.010   0.007   0.018   0.020  -0.001   0.028
   0.013   0.102   0.099   0.077   0.054   0.214   0.122   0.050  -0.010  -0.019
  -0.029   0.025  -0.111   0.070   0.062   0.089  -0.060   0.056   0.062  -0.048
  -0.088   0.006  -0.041  -0.028  -0.046  -0.084  -0.024  -0.110  -0.187  -0.113
  -0.035   0.064  -0.011   0.060   0.023  -0.050  -0.002  -0.172   0.049  -0.105
  -0.041  -0.016  -0.066  -0.055   0.043  -0.084   0.015  -0.016   0.011   0.097
  -0.009  -0.038  -0.051  -0.064   0.010  -0.068  -0.045  -0.064  -0.028  -0.044
  -0.080   0.054   0.058   0.037   0.027   0.038   0.092   0.102   0.161  -0.049
   0.042  -0.066  -0.066  -0.143  -0.038  -0.047  -0.010   0.143  -0.005   0.015
  -0.031   0.075   0.006  -0.025  -0.091  -0.057  -0.020  -0.028   0.028  -0.011
  -0.064  -0.033  -0.010  -0.020   0.073   0.056  -0.005   0.051  -0.043  -0.002
   0.043   0.061  -0.019   0.104   0.083   0.011  -0.025   0.175   0.004  -0.023
   0.067   0.040  -0.043   0.002  -0.091   0.003   0.062  -0.012   0.030  -0.002
   0.010   0.025  -0.097  -0.026  -0.074  -0.046  -0.037   0.045  -0.107   0.061
   0.076  -0.043  -0.070  -0.057   0.008  -0.025  -0.078   0.004   0.055  -0.113
   0.013  -0.037  -0.039  -0.119   0.007   0.067   0.002   0.044  -0.073   0.043
   0.023   0.022   0.052  -0.018  -0.021   0.049   0.062   0.048   0.054  -0.007
   0.040   0.090   0.102   0.035   0.133  -0.010   0.059  -0.016  -0.021  -0.054
   0.023  -0.070  -0.039  -0.098   0.010  -0.069   0.011  -0.029  -0.012  -0.019
   0.025   0.103   0.138   0.156  -0.022  -0.006  -0.019  -0.014   0.050   0.043
   0.030   0.114   0.111   0.045   0.049   0.072  -0.001   0.041   0.087   0.057
   0.050   0.101  -0.043   0.081   0.105   0.025   0.024   0.104   0.060   0.048
   0.023   0.126   0.038  -0.002   0.061  -0.016   0.077   0.027   0.043   0.005
   0.038  -0.012   0.010  -0.021   0.029  -0.003   0.015  -0.036   0.091  -0.013
   0.047  -0.069  -0.043   0.033   0.112   0.010   0.015  -0.118  -0.089  -0.030
   0.006  -0.069  -0.014  -0.013   0.031  -0.072  -0.142   0.048  -0.099  -0.016
  -0.075  -0.135  -0.136  -0.085  -0.103  -0.066   0.032   0.012  -0.069  -0.003
   0.061   0.010  -0.085  -0.088   0.018  -0.166  -0.086  -0.039  -0.002  -0.083
  -0.028  -0.057  -0.073  -0.145  -0.052  -0.040  -0.126  -0.051  -0.044  -0.094
   0.017  -0.075  -0.199   0.007  -0.003  -0.074   0.033   0.105   0.074   0.041
  -0.032   0.073   0.087  -0.025  -0.045   0.012  -0.036  -0.009  -0.040   0.067
  -0.019   0.067  -0.106   0.047  -0.032   0.009  -0.086  -0.054  -0.027   0.028
  -0.056  -0.038   0.037  -0.022  -0.009   0.056  -0.066  -0.078   0.027  -0.000
  -0.033  -0.073   0.013  -0.056  -0.024  -0.008   0.029  -0.137  -0.020  -0.065
   0.029  -0.054   0.095   0.071   0.089   0.069   0.040  -0.061   0.049  -0.091
  -0.047  -0.092  -0.030  -0.038   0.021  -0.027  -0.003   0.089  -0.059  -0.024
   0.078   0.046   0.012   0.006   0.106   0.039   0.005   0.035   0.109   0.069
   0.152   0.220   0.003   0.161   0.144   0.036   0.008   0.051   0.010   0.097
  -0.033   0.081   0.149  -0.023   0.016  -0.061   0.085   0.045   0.123  -0.029
  -0.003  -0.139  -0.015  -0.036   0.022  -0.025  -0.037  -0.048  -0.087   0.007
  -0.082   0.002   0.057   0.016   0.004  -0.018  -0.002   0.024   0.113  -0.051
   0.027   0.065   0.007  -0.098   0.065  -0.000   0.000  -0.030  -0.162   0.006
  -0.011  -0.047   0.088  -0.103  -0.105   0.067  -0.033  -0.033   0.005  -0.047
  -0.044  -0.032  -0.085  -0.029  -0.051   0.057  -0.099   0.022   0.005   0.074
  -0.026   0.051   0.100   0.108   0.014   0.056   0.044   0.008   0.067   0.102
  -0.001  -0.005   0.068  -0.025   0.066   0.007  -0.028   0.032   0.023  -0.044
   0.073   0.099   0.055   0.017  -0.021   0.012  -0.050   0.039  -0.041   0.003
   0.021   0.001  -0.064  -0.042  -0.099   0.016  -0.035  -0.073  -0.057  -0.125
  -0.122  -0.094  -0.051  -0.100   0.034  -0.033  -0.063   0.027  -0.089   0.048
  -0.067  -0.037  -0.006   0.079  -0.219  -0.022  -0.020   0.085   0.011   0.010
   0.107   0.048   0.103   0.115   0.044   0.004   0.090   0.137   0.177   0.150
   0.052   0.034   0.045  -0.011   0.029   0.039  -0.006   0.075  -0.023  -0.056
  -0.040  -0.103  -0.133   0.009  -0.109  -0.064  -0.007  -0.012   0.037   0.102
   0.090  -0.063   0.116   0.133   0.057  -0.037   0.106   0.014   0.138   0.026
   0.115   0.056   0.025   0.012   0.029   0.096   0.029   0.031   0.116   0.027
  -0.167  -0.072   0.094   0.066   0.004  -0.130   0.012  -0.097  -0.033  -0.117
  -0.016  -0.015  -0.117  -0.028   0.085   0.034  -0.071  -0.076  -0.059  -0.087
  -0.107  -0.047  -0.097  -0.079  -0.122  -0.186  -0.064  -0.155  -0.053   0.074
  -0.015   0.017  -0.077  -0.004   0.026  -0.035  -0.028  -0.004  -0.032  -0.015
   0.007   0.050  -0.009   0.008  -0.084   0.011  -0.006  -0.031   0.011  -0.046
  -0.058  -0.133  -0.076  -0.025   0.111   0.028   0.081  -0.015  -0.042   0.060
  -0.004   0.028   0.006   0.046   0.144  -0.090   0.016   0.111  -0.015  -0.010
   0.002   0.078  -0.002  -0.149  -0.006   0.046   0.052   0.001  -0.019   0.036
  -0.018  -0.134   0.044  -0.067  -0.025  -0.027  -0.063   0.106  -0.051  -0.027
   0.012   0.041  -0.049   0.045   0.098  -0.061  -0.067  -0.109   0.104  -0.167
   0.110   0.091  -0.061   0.107   0.159  -0.007  -0.047   0.110  -0.025  -0.087
   0.092   0.100  -0.060   0.050  -0.030   0.092  -0.146   0.112   0.020   0.167
   0.038   0.021   0.011  -0.057   0.058  -0.053   0.191   0.120   0.129   0.123
   0.129   0.061   0.070   0.016  -0.089  -0.008   0.114  -0.068  -0.008  -0.053
  -0.054  -0.080   0.129  -0.074  -0.047  -0.051  -0.094   0.006  -0.108   0.002
  -0.056  -0.073   0.065  -0.101  -0.025  -0.036   0.061   0.111  -0.005   0.119
   0.102   0.014   0.063   0.036  -0.028   0.076  -0.157   0.070   0.020   0.013
  -0.052  -0.002  -0.000   0.004   0.009  -0.029   0.009   0.089  -0.062  -0.034
   0.004   0.015  -0.018  -0.071  -0.038   0.003   0.018  -0.093  -0.008   0.002
  -0.129   0.081  -0.083   0.026   0.019   0.014  -0.121  -0.138  -0.017   0.016
   0.051  -0.000  -0.012   0.121   0.042  -0.064   0.149  -0.013  -0.082   0.031
   0.001  -0.066  -0.064  -0.008  -0.104  -0.026  -0.066  -0.040   0.018   0.033
   0.008   0.055  -0.045  -0.044   0.008  -0.199   0.064  -0.115  -0.004   0.002
  -0.062  -0.022   0.053  -0.081  -0.080  -0.031   0.022  -0.124  -0.159  -0.246
   0.022  -0.084  -0.154  -0.089  -0.017  -0.117  -0.093  -0.121  -0.025  -0.065
   0.081   0.099  -0.033  -0.110   0.078  -0.021  -0.007   0.070   0.105   0.134
   0.101   0.041   0.101   0.116   0.022   0.036   0.001   0.151  -0.013  -0.168
   0.128   0.085  -0.027  -0.020   0.110  -0.183   0.042   0.092  -0.093  -0.023
  -0.116  -0.094   0.121  -0.041   0.003   0.157   0.262   0.061   0.074   0.151
   0.060   0.180  -0.055  -0.006   0.104   0.246  -0.036   0.157   0.091   0.048
  -0.082   0.012   0.130   0.110  -0.069  -0.076   0.037   0.008  -0.032   0.068
  -0.068  -0.003  -0.024  -0.074   0.071  -0.049  -0.089   0.007  -0.001  -0.050
  -0.073  -0.044   0.020   0.057  -0.005   0.116   0.091  -0.042   0.005   0.085
   0.076  -0.025   0.119  -0.093  -0.023   0.124  -0.007  -0.003  -0.028   0.119
  -0.066  -0.116  -0.014  -0.044   0.087  -0.120  -0.069  -0.042   0.136   0.007
   0.048   0.018  -0.001  -0.109   0.067   0.066   0.061  -0.034  -0.050  -0.030
   0.024   0.055  -0.032  -0.039   0.114  -0.034  -0.090   0.028  -0.068  -0.044
  -0.092  -0.013   0.107  -0.141   0.043  -0.128   0.035  -0.045  -0.121   0.162
  -0.075  -0.115  -0.008  -0.023   0.085  -0.014  -0.054  -0.086   0.080   0.072
  -0.124   0.195  -0.023   0.181   0.127   0.014  -0.123   0.174  -0.086   0.099
   0.034   0.057  -0.032   0.040   0.166  -0.096  -0.007   0.032   0.046   0.055
  -0.063  -0.002  -0.040   0.021  -0.042  -0.053   0.028  -0.044  -0.050  -0.005
   0.047  -0.043  -0.075   0.063   0.027  -0.040  -0.128  -0.016  -0.028   0.015
   0.038   0.065   0.040  -0.029  -0.058   0.015  -0.120  -0.038  -0.120  -0.128
  -0.037  -0.001  -0.142  -0.131  -0.022  -0.055  -0.071   0.071  -0.208  -0.117
   0.095   0.055  -0.010  -0.028   0.003   0.099   0.167   0.013   0.085  -0.019
  -0.050  -0.002   0.132  -0.072  -0.132   0.021  -0.018  -0.023   0.136  -0.006
   0.093   0.021   0.059  -0.095  -0.028  -0.120   0.043  -0.024  -0.125  -0.134
  -0.159  -0.098  -0.070  -0.100  -0.044   0.026   0.036   0.012  -0.014   0.059
  -0.052   0.079  -0.009   0.053   0.061   0.064   0.052   0.074   0.116   0.036
   0.121   0.125   0.059  -0.013   0.062  -0.013  -0.131   0.034   0.047  -0.041
   0.039   0.239   0.073   0.033   0.066   0.143   0.006  -0.007  -0.052  -0.103
   0.052  -0.043   0.011   0.001   0.056  -0.012   0.054   0.029   0.115   0.047
  -0.014  -0.070  -0.007  -0.034   0.153   0.012   0.061   0.021  -0.081  -0.001
  -0.054  -0.112  -0.067  -0.146  -0.100  -0.023  -0.110  -0.128  -0.060  -0.110
  -0.083   0.003  -0.089  -0.038  -0.121  -0.147  -0.078  -0.041  -0.115  -0.120
  -0.123  -0.025  -0.121   0.019  -0.065  -0.101   0.003  -0.088   0.018  -0.053
  -0.071  -0.021   0.066  -0.027  -0.029   0.002   0.002   0.030   0.085   0.066
  -0.029   0.121   0.100   0.194   0.072   0.066   0.091   0.079   0.050   0.097
   0.109  -0.037   0.081  -0.063  -0.066   0.073   0.046   0.075   0.090   0.034
   0.031   0.038  -0.037   0.025   0.032   0.012  -0.076   0.114   0.058   0.120
  -0.038   0.036   0.009  -0.006  -0.044  -0.054  -0.016  -0.022   0.113  -0.005
   0.087  -0.010   0.055  -0.020   0.023  -0.074  -0.087  -0.048   0.040   0.015
  -0.062   0.048   0.030  -0.062   0.022  -0.027   0.096   0.049   0.006   0.064
   0.020   0.016   0.112  -0.060  -0.022  -0.056  -0.062  -0.083  -0.012  -0.040
  -0.075  -0.107  -0.062  -0.010  -0.011  -0.033  -0.022   0.118  -0.022   0.155
  -0.036   0.042   0.011   0.040   0.010  -0.044   0.090   0.122   0.134   0.166
   0.031  -0.020   0.016   0.058  -0.037  -0.020   0.080   0.006   0.015   0.068
   0.035   0.161  -0.043  -0.032  -0.038   0.066   0.052   0.140   0.050   0.019
   0.055   0.089   0.036   0.043   0.125   0.007  -0.029   0.151  -0.013   0.081
   0.051   0.039   0.060   0.110   0.064   0.030   0.009   0.029   0.040  -0.051
  -0.016   0.018   0.009  -0.075   0.080   0.025  -0.027  -0.184   0.004  -0.153
  -0.104  -0.109  -0.130  -0.155  -0.050  -0.157  -0.163  -0.113  -0.022  -0.073
  -0.115  -0.046  -0.024  -0.167   0.008  -0.090  -0.027  -0.059   0.006  -0.070
  -0.000   0.010  -0.095  -0.062   0.180  -0.006  -0.014  -0.077   0.011   0.029
  -0.156   0.022  -0.077  -0.104   0.064  -0.077  -0.081   0.160  -0.082   0.015
  -0.009  -0.000  -0.018  -0.031   0.028  -0.046  -0.068  -0.013  -0.029   0.025
   0.025   0.145  -0.069  -0.032   0.028   0.054  -0.117   0.003  -0.088   0.007
  -0.086   0.023  -0.042   0.029   0.046  -0.112   0.099   0.071  -0.092   0.078
  -0.014  -0.023   0.001  -0.059   0.044  -0.002  -0.094  -0.011  -0.023  -0.157
   0.118   0.061  -0.147   0.046   0.004  -0.118   0.035   0.024   0.035  -0.053
   0.027   0.062  -0.019   0.038   0.127  -0.101   0.129  -0.054  -0.085   0.005
   0.109  -0.004  -0.012  -0.069  -0.008   0.029   0.013  -0.012  -0.053   0.078
  -0.036  -0.038  -0.099   0.122  -0.111   0.029   0.012  -0.106   0.083   0.073
   0.130  -0.005   0.062  -0.042  -0.032   0.101   0.089   0.091  -0.005   0.105
   0.018   0.023   0.040   0.038   0.021   0.024   0.051  -0.015   0.067  -0.016
  -0.006   0.075   0.007   0.055  -0.069   0.036   0.003   0.026   0.093   0.059
   0.008   0.138  -0.056   0.063   0.044  -0.009   0.088   0.035  -0.012  -0.016
  -0.056  -0.031  -0.038  -0.064   0.090   0.032   0.000   0.015   0.080  -0.023
   0.005  -0.047  -0.018  -0.036  -0.080  -0.068   0.023  -0.031   0.046  -0.020
  -0.031  -0.035  -0.026   0.026   0.102  -0.118  -0.094   0.115   0.001  -0.182
   0.037  -0.101   0.035   0.024  -0.015   0.007   0.085  -0.084   0.018   0.048
  -0.052   0.059  -0.014  -0.056   0.065   0.033   0.039  -0.010  -0.102  -0.026
  -0.006   0.080   0.034  -0.107   0.093   0.048   0.046   0.050  -0.016   0.066
  -0.102   0.076  -0.018  -0.094   0.010  -0.031   0.005  -0.115   0.023   0.049
  -0.045   0.036  -0.074  -0.038   0.007  -0.023  -0.046   0.039  -0.063   0.082
   0.001  -0.048  -0.096  -0.083  -0.064  -0.073   0.053  -0.016  -0.013  -0.001
  -0.030  -0.054  -0.067  -0.093   0.042   0.081  -0.054   0.054  -0.043   0.047
  -0.010   0.084  -0.032  -0.003  -0.048  -0.070   0.050  -0.023   0.012  -0.047
   0.096  -0.001   0.030  -0.027   0.074   0.076  -0.007   0.072   0.052   0.136
   0.077   0.030  -0.047  -0.047   0.057  -0.042  -0.002   0.018   0.027   0.078
   0.005  -0.018  -0.018   0.051   0.040   0.087   0.211   0.065   0.060   0.102
   0.003   0.002   0.160  -0.024   0.096  -0.019   0.006  -0.024  -0.038  -0.123
  -0.067   0.103   0.009  -0.028  -0.047  -0.035  -0.070   0.018  -0.066  -0.037
   0.007  -0.055  -0.080   0.062  -0.056   0.043   0.021  -0.002  -0.062   0.111
  -0.047  -0.012   0.014   0.014   0.006   0.064  -0.074   0.046  -0.019  -0.114
  -0.031  -0.034   0.074   0.030   0.026  -0.080   0.100   0.045   0.057  -0.066
  -0.061  -0.009   0.052  -0.013  -0.134   0.033  -0.069  -0.075   0.053   0.000
  -0.158   0.020  -0.051  -0.025  -0.078   0.052  -0.040  -0.015  -0.043  -0.187
   0.130  -0.069  -0.169   0.085  -0.084  -0.095   0.010   0.047  -0.118   0.068
  -0.131  -0.033  -0.059  -0.138  -0.102   0.003  -0.125   0.083  -0.034  -0.033
   0.109  -0.010   0.042   0.008   0.004  -0.004   0.084  -0.048  -0.023   0.051
   0.006  -0.010   0.067   0.078   0.022   0.134   0.013   0.012   0.094   0.036
  -0.009   0.133  -0.099   0.019   0.094   0.032  -0.114  -0.000  -0.099  -0.059
  -0.064   0.076   0.060   0.000  -0.050  -0.029   0.005  -0.078   0.025  -0.026
   0.006  -0.042  -0.108   0.063   0.058  -0.046   0.019   0.017   0.051  -0.064
   0.124  -0.044  -0.003   0.074  -0.048  -0.180   0.116  -0.049   0.021   0.064
   0.100  -0.079  -0.022  -0.160  -0.069  -0.031  -0.185  -0.102  -0.180   0.073
  -0.136  -0.045  -0.002   0.018  -0.040  -0.052   0.119  -0.212   0.023  -0.116
  -0.029  -0.009  -0.076  -0.033  -0.148  -0.010   0.039  -0.022  -0.041  -0.045
   0.027  -0.009   0.034   0.004  -0.052  -0.074   0.038   0.072   0.007   0.021
  -0.161   0.135  -0.044   0.070   0.041   0.120   0.030   0.181   0.254   0.076
  -0.002   0.172   0.100   0.116   0.178  -0.002   0.143   0.004   0.143   0.217
   0.133   0.256   0.182   0.211   0.280   0.146   0.238   0.243   0.246   0.410
   0.059   0.308   0.144   0.351   0.183   0.156   0.279   0.173   0.404  -0.050
  -0.093  -0.203  -0.428  -0.325   0.025  -0.239   0.345   0.158   0.488   0.229
   0.097  -0.312   0.064   0.076  -0.095  -0.154  -0.071   0.116   0.646   0.617
   0.076  -0.083  -0.247  -0.143  -0.042  -0.119  -0.305  -0.269   0.275   0.572
  -0.088  -0.631  -0.634  -0.382  -0.129   0.294   0.340   0.713   0.846   1.008
   0.212  -0.784  -0.405  -0.414  -0.740  -0.662  -0.905  -0.401  -0.097  -0.184
  -0.296   0.261   0.071  -0.055   0.080   0.566   0.894   0.706   0.303   0.262
