Corrected accelerogram 20160214_001343_TOKS_20 GNS Science
Site TOKS      43 49 21S  172 46 51E     Basalt file:  20160214_001351_TOKS
Te Oka Bay Road SW Banks Peninsula
Instrument Basalt_2425
Resolution: 24-bit   Instr Period: 0.0050 s   Damping: 0.700
Accelerogram 20160214_001343_TOKS_20                 Processed 2016 February 22
11 km east of CHRISTCHURCH
2016 February 14         00:13:43 UT
Epicentre  43 29 50S 172 45 18E  Bearing N03W  Dist   36km  Depth    8km M  5.70
Number of points  8192    Duration 163.82 sec
Instrument corrected data at 0.020 sec intervals
Band-pass filter transition bands are .10-.25 Hz and 24.50-25.50 Hz
Component N00E  Transverse Accelerometer Axis
Acceleration:  peak    410.3 mm/s/s at  48.16 sec     rms     28.2 mm/s/s
Velocity:      peak   -19.46 mm/s   at  51.62 sec     rms     1.69 mm/s
Displacement:  peak   -5.082 mm     at  52.20 sec     rms    0.582 mm
    2016       2      14       0      13     430       0       0    2016       2
      43      29      50     172      45      18       8       0      14       0
      43      49      21     172      46      51       0       0     357      36
   32600     250     250    8192    8192    8192       0       0      13   11000
   200.0    0.70    0.00   0.000  0.0000   0.000   0.000   1.000     0.0    0.00
  43.822 172.781   43.50  172.76    5.70    0.00    0.00    0.00      0.      0.
  163.00    5.00    5.00  163.82  0.0050  0.0200      0.      0.      0.  9806.6
   451.7   48.16    29.4   0.000      0.   410.3   48.16    28.2   607.4   8.472
  -19.46   51.62    1.69   25.99   0.247   -5.08   52.20    0.58    6.28   0.247
   0.100   0.150   0.250      0.      0.  24.500   1.000  25.500      0.      0.
    -0.0     0.0    -0.0     0.0    -0.0     0.0    -0.0     0.0    -0.0     0.0
    -0.0     0.0    -0.0     0.0    -0.0     0.0    -0.0     0.0    -0.0     0.0
    -0.0     0.0    -0.0     0.0    -0.0     0.0    -0.0     0.0    -0.0     0.0
    -0.0     0.0    -0.0     0.0    -0.0     0.0    -0.0     0.0    -0.0     0.0
    -0.0     0.0    -0.0     0.0    -0.0     0.0    -0.0     0.0    -0.0     0.0
    -0.0     0.0    -0.0     0.0    -0.0     0.0    -0.0     0.0    -0.0     0.0
    -0.0     0.0    -0.0     0.0    -0.0     0.0    -0.0     0.0    -0.0     0.0
    -0.0     0.0    -0.0     0.0    -0.0     0.0    -0.0     0.0    -0.0     0.0
    -0.0     0.0    -0.0     0.0    -0.0     0.0    -0.0     0.0    -0.0     0.0
    -0.0     0.0    -0.0     0.0    -0.0     0.0    -0.0     0.0    -0.0     0.0
    -0.0     0.0    -0.0     0.0    -0.0     0.0    -0.0     0.0    -0.0     0.0
    -0.0     0.0    -0.0     0.0    -0.0     0.0    -0.0     0.0    -0.0     0.0
    -0.0     0.0    -0.0     0.0    -0.0     0.0    -0.0     0.0    -0.0     0.0
    -0.0     0.0    -0.0     0.0    -0.0     0.0    -0.0     0.0    -0.0     0.0
    -0.0     0.0    -0.0     0.0    -0.0     0.0    -0.0     0.0    -0.0     0.0
    -0.0     0.0    -0.0     0.0    -0.0     0.0    -0.0     0.0    -0.0     0.0
    -0.0     0.0    -0.0     0.0    -0.0     0.0    -0.0     0.0    -0.0     0.0
    -0.0     0.0    -0.0     0.0    -0.0     0.0    -0.0     0.0    -0.0     0.0
    -0.0     0.0    -0.0     0.0    -0.0     0.0    -0.0     0.0    -0.0     0.0
    -0.0     0.0    -0.0     0.0    -0.0     0.0    -0.0     0.0    -0.0     0.0
    -0.0     0.0    -0.0     0.0    -0.0     0.0    -0.0     0.0    -0.0     0.0
    -0.0     0.0    -0.0     0.0    -0.0     0.0    -0.0     0.0    -0.0     0.0
    -0.0     0.0    -0.0     0.0    -0.0     0.0    -0.0     0.0    -0.0     0.0
    -0.0     0.0    -0.0     0.0    -0.0     0.0    -0.0     0.0    -0.0     0.0
    -0.0     0.0    -0.0     0.0    -0.0     0.0    -0.0     0.0    -0.0     0.0
     0.0     0.0     0.0     0.0    -0.0     0.0    -0.0     0.0    -0.0     0.0
    -0.0     0.0    -0.0     0.0    -0.0     0.0    -0.0     0.0    -0.0     0.0
    -0.0     0.0    -0.0     0.0    -0.0     0.0    -0.0     0.0    -0.0     0.0
    -0.0     0.0    -0.0     0.0    -0.0     0.0    -0.0     0.0    -0.0     0.0
    -0.0     0.0    -0.0     0.0    -0.0     0.0    -0.0     0.0    -0.0     0.0
    -0.0     0.0    -0.0     0.0    -0.0     0.0    -0.0     0.0    -0.0     0.0
    -0.0     0.0    -0.0     0.0    -0.0     0.0    -0.0     0.0    -0.0     0.0
    -0.0     0.0    -0.0     0.0    -0.0     0.0    -0.0     0.0    -0.0     0.0
    -0.0     0.0    -0.0     0.0    -0.0     0.0    -0.0     0.0    -0.0     0.0
    -0.0     0.0    -0.0     0.0    -0.0     0.0    -0.0     0.0    -0.0     0.0
    -0.0     0.0    -0.0     0.0    -0.0     0.0    -0.0     0.0    -0.0     0.0
    -0.0     0.0     0.0     0.0    -0.0     0.0    -0.0     0.0    -0.0     0.0
    -0.0     0.0    -0.0     0.0    -0.0     0.0    -0.0     0.0    -0.0     0.0
    -0.0     0.0    -0.0     0.0    -0.0     0.0    -0.0     0.0    -0.0     0.0
    -0.0     0.0    -0.0     0.0    -0.0     0.0    -0.0     0.0    -0.0     0.0
    -0.0     0.0    -0.0     0.0    -0.0     0.0    -0.0     0.0    -0.0     0.0
    -0.0     0.0    -0.0     0.0    -0.0     0.0    -0.0     0.0    -0.0     0.0
    -0.0     0.0    -0.0     0.0    -0.0     0.0    -0.0     0.0    -0.0     0.0
    -0.0     0.0    -0.0     0.0    -0.0     0.0    -0.0     0.0    -0.0     0.0
    -0.0     0.0    -0.0     0.0    -0.0     0.0    -0.0     0.0    -0.0     0.0
    -0.0     0.0    -0.0     0.0    -0.0     0.0    -0.0     0.0    -0.0     0.0
    -0.0     0.0    -0.0     0.0    -0.0     0.0    -0.0     0.0    -0.0     0.0
    -0.0     0.0    -0.0     0.0    -0.0     0.0    -0.0     0.0    -0.0     0.0
    -0.0     0.0    -0.0     0.0    -0.0     0.0    -0.0     0.0     0.0     0.0
    -0.0     0.0    -0.0     0.0    -0.0     0.0    -0.0     0.0    -0.0     0.0
    -0.0     0.1    -0.0     0.0    -0.0     0.0    -0.0     0.0    -0.0     0.1
    -0.0     0.0    -0.0     0.0    -0.0     0.0    -0.0     0.0    -0.0     0.0
    -0.0     0.0    -0.0     0.0    -0.0     0.0    -0.0     0.0    -0.0     0.0
    -0.0     0.0    -0.0     0.0    -0.0     0.0    -0.0     0.0    -0.0     0.0
    -0.0     0.0    -0.0     0.0    -0.0     0.0    -0.0     0.0    -0.0     0.0
    -0.0     0.0    -0.0     0.1    -0.0     0.0    -0.0     0.0    -0.0     0.0
    -0.0     0.0    -0.0     0.0    -0.0     0.0    -0.0     0.0    -0.0     0.0
    -0.0     0.0    -0.0     0.0    -0.0     0.0    -0.0     0.0    -0.0     0.0
    -0.0     0.0    -0.0     0.0    -0.0     0.0    -0.0     0.0    -0.0     0.0
    -0.0     0.0    -0.0     0.0    -0.0     0.0    -0.0     0.0    -0.0     0.0
    -0.0     0.0    -0.0     0.0    -0.0     0.0    -0.0     0.0    -0.0     0.0
    -0.0     0.0    -0.0     0.0    -0.0     0.0    -0.0     0.0    -0.0     0.0
    -0.0     0.0     0.0     0.0    -0.0     0.0    -0.0     0.0    -0.0     0.0
    -0.0     0.0    -0.0     0.0    -0.0     0.0    -0.0     0.0    -0.0     0.1
    -0.0     0.0    -0.0     0.0    -0.0     0.1    -0.0     0.0    -0.0     0.0
    -0.0     0.0    -0.0     0.0    -0.0     0.0    -0.0     0.0    -0.0     0.0
    -0.0     0.0    -0.0     0.0    -0.0     0.0    -0.0     0.0    -0.0     0.1
    -0.0     0.0    -0.0     0.0    -0.0     0.0    -0.0     0.0    -0.0     0.0
    -0.0     0.0    -0.0     0.0    -0.0     0.1    -0.0     0.0    -0.0     0.0
    -0.0     0.0    -0.0     0.0    -0.0     0.0    -0.0     0.0    -0.0     0.0
    -0.0     0.0    -0.0     0.0    -0.0     0.0    -0.0     0.0    -0.0     0.0
    -0.0     0.0    -0.0     0.1    -0.0     0.0    -0.0     0.0    -0.0     0.0
    -0.0     0.0    -0.0     0.0    -0.0     0.0    -0.0     0.0    -0.0     0.0
    -0.0     0.1    -0.0     0.0    -0.0     0.0    -0.0     0.0    -0.0     0.0
    -0.0     0.0    -0.0     0.0    -0.0     0.1    -0.0     0.0    -0.0     0.0
    -0.0     0.0    -0.0     0.0    -0.0     0.0    -0.0     0.0    -0.0     0.0
    -0.0     0.0     0.0     0.0    -0.0     0.0    -0.0     0.0    -0.0     0.0
    -0.0     0.0    -0.0     0.0    -0.0     0.0    -0.0     0.1    -0.1     0.1
    -0.0     0.0    -0.0     0.0    -0.0     0.0    -0.0     0.0    -0.0     0.0
    -0.0     0.0    -0.0     0.0    -0.0     0.0    -0.0     0.0    -0.0     0.0
    -0.0     0.0    -0.0     0.1    -0.0     0.0    -0.0     0.0    -0.0     0.0
    -0.0     0.0    -0.0     0.0    -0.0     0.0    -0.0     0.0    -0.0     0.0
    -0.0     0.0    -0.0     0.0    -0.0     0.1    -0.0     0.0    -0.0     0.0
    -0.0     0.0    -0.0     0.0    -0.0     0.0    -0.0     0.0    -0.0     0.0
    -0.0     0.0    -0.0     0.0    -0.0     0.1    -0.0     0.0    -0.1     0.1
    -0.1     0.1     0.0     0.1    -0.0     0.0    -0.0     0.0    -0.0     0.0
    -0.0     0.0    -0.0     0.0    -0.0     0.0    -0.0     0.0    -0.0     0.1
    -0.0     0.0    -0.0     0.0    -0.0     0.0    -0.0     0.0    -0.0     0.0
    -0.0     0.0    -0.0     0.0    -0.0     0.0    -0.0     0.0    -0.0     0.0
    -0.0     0.0    -0.0     0.1    -0.1     0.0    -0.0     0.0    -0.0     0.1
    -0.1     0.0    -0.0     0.0    -0.1     0.0    -0.0     0.0    -0.0     0.1
    -0.0     0.0    -0.0     0.1    -0.1     0.0    -0.0     0.0    -0.1     0.1
    -0.0     0.0    -0.0     0.0    -0.0     0.0    -0.0     0.0    -0.0     0.0
    -0.1     0.0    -0.0     0.0    -0.0     0.0    -0.0     0.0    -0.1     0.1
    -0.0     0.0    -0.0     0.0    -0.0     0.0    -0.0     0.0    -0.0     0.0
    -0.0     0.1    -0.0     0.1    -0.1     0.0    -0.0     0.0    -0.0     0.1
    -0.1     0.1    -0.0     0.1    -0.1     0.1    -0.0     0.0    -0.0     0.0
    -0.0     0.0     0.0     0.1    -0.1     0.0    -0.0     0.1    -0.0     0.1
    -0.0     0.0    -0.0     0.0    -0.0     0.0    -0.0     0.0    -0.0     0.1
    -0.1     0.0    -0.0     0.1    -0.1     0.0    -0.1     0.0    -0.1     0.1
    -0.0     0.0    -0.0     0.0    -0.1     0.0    -0.1     0.1    -0.0     0.1
    -0.0     0.0    -0.0     0.0    -0.0     0.0    -0.0     0.0    -0.0     0.0
    -0.0     0.0    -0.0     0.0    -0.0     0.0    -0.0     0.0    -0.1     0.0
    -0.0     0.0    -0.0     0.0    -0.0     0.0    -0.0     0.1    -0.0     0.1
    -0.0     0.0    -0.1     0.1    -0.0     0.0    -0.0     0.0    -0.0     0.1
    -0.1     0.0    -0.1     0.0    -0.1     0.0    -0.1     0.0    -0.1     0.0
    -0.1     0.0    -0.0     0.1    -0.0     0.0    -0.1     0.0    -0.1     0.0
    -0.1     0.0    -0.1     0.1    -0.0     0.0    -0.0     0.0    -0.1     0.0
    -0.1     0.0    -0.1     0.0    -0.0     0.0    -0.0     0.0    -0.1     0.0
    -0.1     0.0    -0.1     0.0    -0.1     0.0    -0.1     0.0    -0.1     0.0
    -0.1     0.0    -0.1     0.1    -0.0     0.0    -0.0     0.1    -0.0     0.1
    -0.1     0.1    -0.1     0.0    -0.1     0.1    -0.0     0.1    -0.0     0.0
    -0.1     0.0    -0.1     0.0    -0.1     0.0    -0.0     0.1    -0.1     0.0
    -0.1     0.0    -0.1     0.0    -0.1     0.0    -0.1     0.0    -0.1     0.0
    -0.1     0.0    -0.1     0.0    -0.0     0.0    -0.1     0.0    -0.1     0.0
    -0.1     0.0    -0.0     0.1    -0.1     0.0    -0.1     0.1    -0.0     0.0
    -0.0     0.0    -0.1     0.1    -0.0     0.1    -0.1     0.0    -0.1     0.0
    -0.1     0.0    -0.1     0.0    -0.1     0.1    -0.1     0.1    -0.1     0.1
    -0.0     0.0    -0.1     0.0    -0.1     0.0    -0.1     0.1    -0.1     0.1
    -0.0     0.0    -0.0     0.0    -0.1     0.0    -0.1     0.0    -0.0     0.0
    -0.0     0.1    -0.1     0.1    -0.1     0.1    -0.1     0.1    -0.1     0.0
    -0.0     0.1    -0.0     0.1    -0.0     0.1    -0.1     0.1    -0.0     0.0
    -0.1     0.0    -0.1     0.0    -0.1     0.0    -0.1     0.1    -0.0     0.0
    -0.0     0.1    -0.1     0.0    -0.1     0.0    -0.1     0.1    -0.0     0.1
    -0.1     0.0    -0.1     0.0    -0.0     0.1    -0.1     0.1    -0.1     0.1
    -0.1     0.1    -0.1     0.0    -0.0     0.1    -0.0     0.1    -0.1     0.1
    -0.1     0.1    -0.1     0.1    -0.0     0.1    -0.1     0.1    -0.1     0.1
    -0.1     0.0    -0.1     0.0    -0.1     0.0    -0.1     0.0    -0.1     0.0
    -0.1     0.1    -0.1     0.1    -0.1     0.1    -0.1     0.1    -0.1     0.1
    -0.1     0.1    -0.0     0.0    -0.1     0.0    -0.1     0.1    -0.1     0.1
    -0.0     0.1    -0.1     0.0    -0.1     0.1    -0.1     0.1    -0.0     0.1
    -0.0     0.1    -0.1     0.1    -0.1     0.1    -0.1     0.1    -0.1     0.1
    -0.1     0.1    -0.1     0.1    -0.1     0.1    -0.1     0.1    -0.1     0.1
    -0.1     0.1    -0.1     0.1    -0.0     0.1    -0.1     0.1    -0.1     0.1
    -0.1     0.1    -0.1     0.1    -0.1     0.1    -0.1     0.1    -0.1     0.1
    -0.1     0.1    -0.1     0.1    -0.1     0.1    -0.1     0.1    -0.1     0.1
    -0.1     0.1    -0.1     0.1    -0.1     0.1    -0.1     0.1    -0.1     0.1
    -0.1     0.1    -0.1     0.1    -0.1     0.1    -0.0     0.1    -0.1     0.1
    -0.0     0.1    -0.1     0.1    -0.1     0.1    -0.1     0.1    -0.1     0.1
    -0.1     0.1    -0.1     0.1    -0.1     0.1    -0.1     0.1    -0.1     0.1
    -0.1     0.1    -0.1     0.1    -0.1     0.1    -0.1     0.1    -0.1     0.1
    -0.1     0.1    -0.1     0.1    -0.1     0.1    -0.1     0.1    -0.0     0.1
    -0.1     0.1    -0.0     0.1    -0.1     0.1    -0.0     0.1    -0.1     0.1
    -0.1     0.1    -0.0     0.1    -0.1     0.1    -0.1     0.1    -0.1     0.1
    -0.1     0.1    -0.1     0.1    -0.1     0.1    -0.0     0.1    -0.1     0.1
    -0.1     0.1    -0.1     0.1    -0.1     0.1    -0.1     0.1    -0.1     0.1
    -0.1     0.1    -0.1     0.1    -0.1     0.1    -0.1     0.1    -0.1     0.1
    -0.1     0.1    -0.1     0.1    -0.1     0.1    -0.1     0.1    -0.1     0.1
    -0.1     0.1    -0.1     0.1    -0.1     0.1    -0.1     0.1    -0.1     0.1
    -0.1     0.1    -0.1     0.1    -0.1     0.1    -0.1     0.1    -0.1     0.1
    -0.1     0.1    -0.1     0.1    -0.1     0.1    -0.1     0.1    -0.1     0.1
    -0.1     0.1    -0.1     0.1    -0.1     0.1    -0.1     0.1    -0.1     0.1
    -0.1     0.1    -0.1     0.1    -0.1     0.1    -0.1     0.1    -0.1     0.1
    -0.1     0.1    -0.1     0.1    -0.1     0.1    -0.1     0.1    -0.1     0.1
    -0.1     0.1    -0.1     0.1    -0.1     0.1    -0.1     0.1    -0.1     0.1
    -0.1     0.1    -0.1     0.1    -0.1     0.1    -0.1     0.1    -0.1     0.1
    -0.1     0.1    -0.1     0.1    -0.1     0.1    -0.1     0.1    -0.1     0.1
    -0.0     0.1    -0.1     0.1    -0.1     0.1    -0.1     0.1    -0.0     0.1
    -0.1     0.1    -0.1     0.1    -0.1     0.1    -0.1     0.1    -0.1     0.1
    -0.1     0.1    -0.1     0.1    -0.1     0.1    -0.1     0.1    -0.1     0.1
    -0.1     0.1    -0.1     0.1    -0.1     0.1    -0.1     0.1    -0.1     0.1
    -0.1     0.1    -0.1     0.1    -0.1     0.1    -0.1     0.1    -0.1     0.1
    -0.1     0.1    -0.1     0.1    -0.1     0.1    -0.1     0.1    -0.1     0.1
    -0.1     0.1    -0.1     0.1    -0.1     0.1    -0.1     0.1    -0.1     0.1
    -0.1     0.1    -0.1     0.1    -0.1     0.1    -0.1     0.1    -0.1     0.1
    -0.1     0.1    -0.1     0.1    -0.1     0.1    -0.1     0.1    -0.1     0.1
    -0.1     0.1    -0.1     0.1    -0.1     0.1    -0.1     0.1    -0.1     0.1
    -0.1     0.1    -0.1     0.1    -0.1     0.1    -0.1     0.1    -0.1     0.1
    -0.1     0.1    -0.1     0.1    -0.1     0.1    -0.1     0.1    -0.1     0.1
    -0.1     0.1    -0.1     0.1    -0.1     0.1    -0.1     0.1    -0.1     0.1
    -0.1     0.1    -0.1     0.1    -0.1     0.1    -0.1     0.1    -0.1     0.1
    -0.1     0.1    -0.1     0.1    -0.1     0.1    -0.1     0.1    -0.1     0.1
    -0.1     0.1    -0.1     0.1    -0.1     0.1    -0.1     0.1    -0.1     0.1
    -0.1     0.1    -0.1     0.1    -0.1     0.1    -0.1     0.1    -0.1     0.1
    -0.1     0.1    -0.1     0.1    -0.1     0.1    -0.1     0.1    -0.1     0.1
    -0.1     0.1    -0.1     0.1    -0.1     0.1    -0.1     0.1    -0.1     0.1
    -0.1     0.1    -0.1     0.1    -0.1     0.1    -0.1     0.1    -0.1     0.1
    -0.1     0.1    -0.1     0.1    -0.1     0.1    -0.1     0.1    -0.1     0.1
    -0.1     0.1    -0.1     0.1    -0.1     0.1    -0.1     0.1    -0.1     0.1
    -0.1     0.1    -0.1     0.1    -0.1     0.1    -0.1     0.1    -0.1     0.1
    -0.1     0.1    -0.1     0.1    -0.1     0.1    -0.1     0.1    -0.1     0.1
    -0.1     0.1    -0.1     0.1    -0.1     0.1    -0.1     0.1    -0.1     0.1
    -0.1     0.1    -0.1     0.1    -0.1     0.1    -0.1     0.1    -0.1     0.1
    -0.1     0.1    -0.1     0.1    -0.1     0.1    -0.1     0.1    -0.1     0.1
    -0.1     0.1    -0.1     0.1    -0.1     0.1    -0.1     0.1    -0.1     0.1
    -0.1     0.1    -0.1     0.1    -0.1     0.1    -0.1     0.1    -0.1     0.1
    -0.1     0.1    -0.1     0.1    -0.1     0.1    -0.1     0.1    -0.1     0.1
    -0.1     0.1    -0.1     0.1    -0.1     0.1    -0.1     0.1    -0.1     0.1
    -0.1     0.2    -0.1     0.1    -0.1     0.1    -0.1     0.2    -0.1     0.2
    -0.1     0.1    -0.1     0.1    -0.1     0.1    -0.1     0.1    -0.1     0.1
    -0.2     0.1    -0.1     0.1    -0.1     0.1    -0.1     0.1    -0.1     0.1
    -0.1     0.1    -0.2     0.2    -0.1     0.1    -0.1     0.1    -0.1     0.1
    -0.1     0.1    -0.1     0.1    -0.1     0.1    -0.1     0.1    -0.1     0.1
    -0.1     0.1    -0.1     0.1    -0.1     0.1    -0.1     0.2    -0.1     0.2
    -0.1     0.2    -0.1     0.2    -0.1     0.2    -0.1     0.2    -0.1     0.2
    -0.1     0.2    -0.1     0.2    -0.1     0.2    -0.1     0.2    -0.1     0.2
    -0.1     0.2    -0.1     0.2    -0.1     0.2    -0.1     0.2    -0.1     0.2
    -0.1     0.2    -0.1     0.2    -0.1     0.2    -0.1     0.2    -0.1     0.2
    -0.1     0.2    -0.1     0.2    -0.1     0.2    -0.1     0.2    -0.1     0.2
    -0.1     0.2    -0.1     0.2    -0.1     0.2    -0.1     0.2    -0.1     0.2
    -0.1     0.2    -0.1     0.2    -0.2     0.2    -0.2     0.2    -0.2     0.2
    -0.2     0.2    -0.2     0.2    -0.2     0.2    -0.2     0.2    -0.1     0.2
    -0.2     0.2    -0.2     0.2    -0.2     0.2    -0.2     0.2    -0.2     0.2
    -0.2     0.2    -0.2     0.2    -0.2     0.2    -0.2     0.2    -0.2     0.2
    -0.2     0.2    -0.2     0.2    -0.2     0.2    -0.2     0.2    -0.2     0.2
    -0.3     0.2    -0.2     0.2    -0.2     0.1    -0.2     0.1    -0.2     0.2
    -0.3     0.1    -0.2     0.1    -0.2     0.2    -0.3     0.1    -0.3     0.1
    -0.3     0.1    -0.3     0.1    -0.3     0.1    -0.3     0.1    -0.3     0.1
    -0.3     0.1    -0.3     0.1    -0.3     0.1    -0.3     0.1    -0.3     0.1
    -0.3     0.1    -0.3     0.1    -0.3     0.1    -0.3     0.1    -0.3     0.1
    -0.3     0.1    -0.3     0.1    -0.3     0.1    -0.3     0.1    -0.3     0.1
    -0.3     0.2    -0.3     0.1    -0.3     0.1    -0.3     0.2    -0.3     0.2
    -0.3     0.2    -0.3     0.2    -0.3     0.2    -0.3     0.2    -0.3     0.2
    -0.3     0.2    -0.3     0.2    -0.3     0.2    -0.3     0.2    -0.3     0.2
    -0.3     0.2    -0.3     0.2    -0.2     0.3    -0.3     0.3    -0.3     0.3
    -0.2     0.3    -0.2     0.3    -0.2     0.3    -0.2     0.3    -0.2     0.3
    -0.2     0.3    -0.2     0.4    -0.2     0.4    -0.2     0.4    -0.2     0.4
    -0.2     0.4    -0.2     0.4    -0.2     0.4    -0.1     0.4    -0.1     0.5
    -0.1     0.5    -0.1     0.5    -0.1     0.5    -0.1     0.5    -0.1     0.5
    -0.1     0.5    -0.1     0.5    -0.1     0.6    -0.1     0.6    -0.1     0.6
    -0.1     0.6    -0.1     0.6    -0.0     0.6    -0.0     0.6    -0.0     0.6
    -0.0     0.7    -0.0     0.7    -0.0     0.7    -0.0     0.7    -0.0     0.7
    -0.0     0.7    -0.0     0.7    -0.0     0.7    -0.0     0.7    -0.0     0.7
    -0.0     0.8    -0.0     0.8    -0.1     0.8    -0.1     0.8    -0.1     0.8
    -0.1     0.8    -0.1     0.8    -0.1     0.8    -0.1     0.8    -0.1     0.8
