Corrected accelerogram 20160214_001343_CVZ_20 GNS Science
Site CVZ       44 22 59S  171 00 22E     Basalt file:  20160214_001414_CVZ
Cave
Instrument Basalt_557
Resolution: 24-bit   Instr Period: 0.0050 s   Damping: 0.700
Accelerogram 20160214_001343_CVZ_20                  Processed 2016 February 22
11 km east of CHRISTCHURCH
2016 February 14         00:13:43 UT
Epicentre  43 29 50S 172 45 18E  Bearing N56E  Dist  172km  Depth    8km M  5.70
Number of points  7700    Duration 153.98 sec
Instrument corrected data at 0.020 sec intervals
Band-pass filter transition bands are .10-.25 Hz and 24.50-25.50 Hz
Component N00E  Transverse Accelerometer Axis
Acceleration:  peak    -28.5 mm/s/s at  64.20 sec     rms      2.9 mm/s/s
Velocity:      peak    -2.53 mm/s   at  68.44 sec     rms     0.46 mm/s
Displacement:  peak   -0.866 mm     at  79.24 sec     rms    0.182 mm
    2016       2      14       0      13     430       0       0    2016       2
      43      29      50     172      45      18       8       0      14       0
      44      22      59     171       0      22       0       0      56     172
   28800     250     250    7700    7700    7700       0       0      13   34000
   200.0    0.70    0.00   0.000  0.0000   0.000   0.000   1.000     0.0    0.00
  44.383 171.006   43.50  172.76    5.70    0.00    0.00    0.00      0.      0.
  144.00    5.00    5.00  153.98  0.0050  0.0200      0.      0.      0.  9806.6
   -29.0   64.21     3.0   0.000      0.   -28.5   64.20     2.9    32.3   0.616
   -2.53   68.44    0.46    2.83   0.293   -0.87   79.24    0.18    0.87   0.259
   0.100   0.150   0.250      0.      0.  24.500   1.000  25.500      0.      0.
   0.000   0.000   0.000   0.000   0.000   0.000   0.000   0.000   0.000   0.000
   0.000  -0.000   0.000  -0.000   0.000  -0.000   0.000  -0.000   0.000  -0.000
   0.000  -0.000  -0.000  -0.000  -0.000  -0.000  -0.000  -0.000  -0.000  -0.000
  -0.000  -0.000  -0.000  -0.001  -0.000  -0.001  -0.000  -0.001  -0.000  -0.001
  -0.001  -0.001  -0.001  -0.001  -0.001  -0.001  -0.001  -0.001  -0.001  -0.001
  -0.001  -0.001  -0.001  -0.001  -0.001  -0.001  -0.001  -0.001  -0.001  -0.001
  -0.001  -0.001  -0.001  -0.001  -0.001  -0.001  -0.001  -0.001  -0.001  -0.002
  -0.001  -0.002  -0.001  -0.002  -0.001  -0.002  -0.002  -0.002  -0.002  -0.002
  -0.002  -0.002  -0.002  -0.002  -0.002  -0.002  -0.002  -0.002  -0.002  -0.002
  -0.002  -0.002  -0.002  -0.002  -0.002  -0.002  -0.002  -0.002  -0.002  -0.002
  -0.002  -0.002  -0.002  -0.002  -0.002  -0.002  -0.002  -0.002  -0.002  -0.002
  -0.002  -0.002  -0.002  -0.002  -0.002  -0.002  -0.002  -0.002  -0.002  -0.002
  -0.002  -0.002  -0.002  -0.002  -0.002  -0.002  -0.002  -0.002  -0.001  -0.002
  -0.001  -0.001  -0.001  -0.001  -0.001  -0.001  -0.001  -0.001  -0.001  -0.001
  -0.001  -0.001  -0.001  -0.001  -0.001  -0.001  -0.001  -0.001  -0.000  -0.001
  -0.000  -0.000  -0.000  -0.000  -0.000  -0.000   0.000   0.000   0.000   0.000
   0.000   0.000   0.001   0.001   0.001   0.001   0.001   0.001   0.001   0.001
   0.001   0.001   0.002   0.002   0.002   0.002   0.002   0.002   0.002   0.002
   0.003   0.003   0.003   0.003   0.003   0.003   0.003   0.003   0.004   0.004
   0.004   0.004   0.004   0.004   0.004   0.004   0.005   0.005   0.005   0.005
   0.005   0.005   0.006   0.006   0.006   0.006   0.006   0.006   0.007   0.006
   0.007   0.007   0.007   0.007   0.008   0.007   0.008   0.008   0.008   0.008
   0.009   0.008   0.009   0.009   0.009   0.009   0.010   0.009   0.010   0.010
   0.011   0.010   0.011   0.011   0.011   0.011   0.012   0.011   0.012   0.012
   0.012   0.012   0.013   0.012   0.013   0.013   0.014   0.013   0.014   0.014
  -0.001  -0.026  -0.037  -0.013  -0.007  -0.037  -0.014   0.019  -0.032  -0.041
   0.003  -0.047  -0.026   0.048  -0.055  -0.005  -0.007  -0.008  -0.056  -0.038
  -0.007   0.008  -0.031  -0.008  -0.005  -0.051  -0.002   0.012  -0.011   0.012
  -0.000   0.033  -0.016  -0.018  -0.009  -0.028  -0.022   0.020  -0.012   0.011
   0.015  -0.031   0.021   0.018   0.041  -0.015   0.025  -0.028  -0.009  -0.042
   0.013   0.000  -0.050   0.013  -0.019  -0.035  -0.024   0.006  -0.019  -0.019
   0.012   0.026   0.006  -0.019   0.015  -0.010  -0.038   0.026   0.008  -0.009
   0.016   0.028  -0.054   0.017  -0.012  -0.042  -0.030   0.025   0.025  -0.059
  -0.007   0.008   0.033  -0.004   0.039  -0.001  -0.033   0.042  -0.026   0.025
  -0.012   0.020  -0.018  -0.002   0.034  -0.024   0.011   0.017   0.014  -0.023
   0.003   0.027  -0.014   0.016   0.014   0.017  -0.043   0.004  -0.000  -0.033
  -0.013   0.046  -0.019  -0.021   0.017  -0.015   0.011   0.016  -0.001   0.002
   0.016  -0.001   0.014  -0.021   0.041   0.009  -0.031   0.038   0.010  -0.039
   0.028   0.033  -0.006  -0.011   0.048  -0.011  -0.017   0.017   0.037  -0.015
   0.028   0.038   0.011  -0.020   0.032   0.024  -0.028   0.034   0.011  -0.024
   0.031   0.020   0.013  -0.010  -0.005  -0.005  -0.009   0.019   0.024  -0.007
  -0.010   0.033  -0.002  -0.033   0.017   0.004   0.005   0.013  -0.002  -0.005
  -0.008   0.019  -0.023  -0.054   0.045  -0.012  -0.005   0.036  -0.006  -0.004
  -0.038   0.008   0.017  -0.033  -0.002   0.003  -0.021   0.018   0.016   0.027
  -0.038   0.014   0.011  -0.026   0.019   0.041  -0.014  -0.007   0.001  -0.019
  -0.035   0.032   0.015  -0.030  -0.000   0.023  -0.012   0.007  -0.004   0.006
  -0.038   0.004   0.007  -0.013   0.021  -0.001  -0.020  -0.040  -0.004  -0.038
   0.022   0.000   0.011  -0.027   0.008   0.011  -0.005   0.009   0.009  -0.016
  -0.028  -0.002  -0.007  -0.018  -0.027   0.044  -0.027  -0.028   0.017  -0.006
  -0.005   0.017   0.024  -0.008   0.037  -0.014  -0.026   0.017  -0.033  -0.019
  -0.013   0.011   0.005  -0.012   0.004   0.036  -0.040  -0.031   0.047   0.011
  -0.030  -0.011  -0.003  -0.026  -0.030   0.011   0.024   0.016   0.017   0.015
  -0.038  -0.001   0.026  -0.038   0.004   0.019  -0.004  -0.044   0.017  -0.007
  -0.021  -0.023   0.018  -0.019   0.015  -0.001  -0.013  -0.020   0.038  -0.006
  -0.029   0.000   0.010   0.016   0.033   0.029  -0.014  -0.033   0.038  -0.012
  -0.012   0.032   0.024  -0.011   0.021   0.020  -0.020  -0.019   0.004  -0.018
  -0.010   0.006   0.028  -0.038  -0.019   0.010   0.012   0.007   0.023  -0.029
  -0.006   0.019   0.017   0.001   0.008   0.026  -0.012   0.006   0.015  -0.002
  -0.001  -0.006   0.009  -0.009  -0.013   0.034   0.009   0.003   0.011   0.015
  -0.012   0.012  -0.025   0.003  -0.023   0.004   0.002  -0.004  -0.002   0.012
  -0.006   0.003  -0.004  -0.042   0.011   0.003   0.022  -0.034   0.013   0.007
  -0.018   0.008   0.025   0.026   0.002   0.017   0.002   0.023   0.025  -0.007
  -0.005  -0.023  -0.010  -0.019  -0.007  -0.032  -0.019  -0.032  -0.004   0.004
  -0.010   0.019   0.029   0.007   0.004  -0.003   0.005   0.008   0.000  -0.009
   0.018   0.028  -0.001   0.018   0.026  -0.010  -0.036  -0.009   0.019   0.027
   0.001   0.015   0.030  -0.004   0.022  -0.000  -0.011  -0.019  -0.013   0.035
  -0.023  -0.009  -0.008  -0.003  -0.006   0.010   0.009  -0.005  -0.004   0.014
   0.005  -0.006  -0.000   0.015   0.015   0.003   0.020  -0.002   0.004   0.020
  -0.038  -0.022  -0.018  -0.003  -0.028  -0.008   0.032  -0.027  -0.001  -0.003
   0.024   0.007   0.009   0.024  -0.045   0.019  -0.008  -0.022  -0.019   0.017
  -0.007  -0.010   0.004  -0.004  -0.022   0.002   0.005  -0.036  -0.037  -0.004
   0.002  -0.014   0.029   0.022   0.023   0.000   0.004   0.015   0.031  -0.000
  -0.018  -0.043  -0.002   0.009  -0.002  -0.008  -0.014   0.017  -0.008   0.006
   0.021   0.001   0.013   0.004   0.009   0.027   0.004  -0.016   0.004  -0.011
  -0.004  -0.002   0.011  -0.022  -0.023   0.032   0.017  -0.011   0.009  -0.010
   0.013   0.030   0.007   0.015  -0.029  -0.009  -0.007  -0.008  -0.018  -0.009
   0.005  -0.000  -0.026   0.010  -0.037   0.008   0.007  -0.034  -0.007  -0.018
  -0.014  -0.010   0.018  -0.030   0.002   0.014   0.000  -0.007  -0.023   0.051
  -0.009  -0.005  -0.014  -0.009  -0.028  -0.025   0.022  -0.015  -0.012   0.010
   0.022  -0.020   0.034   0.007  -0.006  -0.026  -0.007  -0.008   0.009  -0.012
   0.014   0.008   0.023   0.000   0.035  -0.010   0.033   0.030   0.003   0.021
  -0.004   0.004  -0.006   0.001   0.001  -0.044  -0.006   0.005   0.006  -0.007
   0.012  -0.010  -0.014   0.036  -0.002  -0.002   0.027  -0.000  -0.002  -0.010
   0.008   0.008  -0.017   0.020   0.019  -0.019   0.007   0.017   0.001  -0.032
  -0.005  -0.010  -0.033   0.015   0.022  -0.018  -0.003   0.034  -0.001  -0.022
   0.026   0.004  -0.034   0.033   0.010  -0.011  -0.001   0.026  -0.022  -0.033
   0.041  -0.001  -0.022  -0.002   0.019   0.001  -0.026   0.054   0.005  -0.004
   0.024  -0.019  -0.015   0.003   0.020  -0.041  -0.002   0.001   0.001  -0.004
   0.023   0.040  -0.014   0.013   0.005  -0.045  -0.011   0.033  -0.026  -0.004
   0.034   0.008  -0.036   0.026  -0.007  -0.001  -0.004  -0.016  -0.032  -0.000
   0.030   0.041  -0.025   0.037  -0.000  -0.051   0.007   0.024   0.011  -0.044
   0.029  -0.009   0.024  -0.007  -0.039  -0.010  -0.005   0.013  -0.045  -0.001
   0.003  -0.001   0.002   0.013  -0.002  -0.006   0.003   0.048  -0.037   0.001
   0.029   0.024  -0.024  -0.024  -0.001   0.017  -0.016   0.003  -0.003   0.021
   0.021   0.005  -0.030  -0.002   0.020  -0.012   0.010   0.037  -0.021  -0.018
   0.028  -0.001   0.016   0.009   0.035  -0.020  -0.038   0.015   0.014  -0.042
   0.027   0.020  -0.041  -0.018   0.037  -0.038   0.032   0.008   0.022  -0.020
  -0.009  -0.030  -0.030   0.024   0.007  -0.021  -0.029   0.013  -0.010  -0.043
   0.029   0.022  -0.034  -0.030   0.041  -0.024  -0.018   0.043   0.006  -0.018
   0.003   0.012  -0.023   0.016   0.035  -0.030   0.001   0.047  -0.008  -0.064
   0.037   0.027  -0.021  -0.009   0.034  -0.039   0.020  -0.003   0.010  -0.005
   0.024  -0.002   0.010  -0.036   0.021  -0.041  -0.015   0.006  -0.013   0.018
  -0.005   0.006  -0.044   0.011   0.025  -0.015  -0.030   0.053  -0.009  -0.036
   0.032   0.009  -0.016  -0.001   0.048  -0.013  -0.001  -0.011  -0.008  -0.008
   0.013   0.032  -0.009  -0.010   0.032   0.000   0.011  -0.041  -0.009  -0.014
   0.006   0.033  -0.038  -0.026   0.009  -0.021  -0.020  -0.002   0.037  -0.019
   0.006   0.057  -0.027   0.001   0.007   0.056  -0.019  -0.001   0.022  -0.027
   0.012  -0.033   0.020   0.006   0.008   0.006  -0.058   0.035   0.011   0.001
   0.007   0.018  -0.034  -0.013   0.022   0.012  -0.046   0.020   0.003  -0.014
  -0.006  -0.025   0.061  -0.035  -0.012   0.006   0.042  -0.019  -0.029  -0.006
   0.016  -0.007  -0.008   0.013  -0.014   0.002   0.020   0.046  -0.009   0.009
  -0.019   0.023   0.021   0.002   0.013   0.017  -0.029  -0.023  -0.014   0.037
  -0.027  -0.016   0.010   0.004   0.010  -0.056   0.022   0.002   0.022  -0.021
   0.012  -0.022  -0.028  -0.036   0.006   0.046   0.015  -0.013  -0.001  -0.003
  -0.007   0.030  -0.011   0.017  -0.013  -0.009   0.027  -0.018   0.009   0.008
   0.032   0.012   0.033  -0.029   0.020  -0.016  -0.040   0.030   0.015  -0.029
  -0.002  -0.001   0.007  -0.013  -0.005   0.050   0.016  -0.030   0.005  -0.048
   0.031  -0.011  -0.008   0.028  -0.013   0.006  -0.052   0.030  -0.017   0.007
   0.013  -0.019   0.013  -0.041   0.041  -0.005  -0.025   0.039   0.009  -0.014
  -0.029  -0.005  -0.028   0.023  -0.002   0.011   0.032   0.009  -0.024   0.038
  -0.023   0.003   0.000  -0.014   0.038  -0.044   0.017   0.009  -0.013  -0.018
  -0.030   0.074  -0.011  -0.010   0.015  -0.022   0.006  -0.040  -0.011  -0.021
  -0.054   0.030  -0.051   0.031  -0.007   0.005   0.039  -0.019   0.026  -0.027
   0.020   0.001  -0.031  -0.009  -0.022   0.034  -0.017   0.010   0.037  -0.022
  -0.002   0.019   0.015  -0.006   0.017   0.003  -0.024   0.001   0.023  -0.022
   0.023  -0.015  -0.004  -0.020   0.004   0.033  -0.048   0.022   0.014  -0.007
  -0.020   0.002   0.070  -0.012   0.010   0.022  -0.034   0.059  -0.045   0.022
   0.013   0.009   0.024   0.006   0.001   0.010   0.018   0.039  -0.019  -0.019
  -0.019   0.010   0.007  -0.041   0.058  -0.028   0.011  -0.009  -0.024  -0.004
  -0.016   0.026   0.006  -0.023  -0.002   0.005  -0.031  -0.016  -0.005   0.002
  -0.015  -0.018  -0.021  -0.046   0.016  -0.038  -0.025  -0.002   0.020  -0.016
  -0.018   0.001   0.003   0.020  -0.001   0.023   0.022  -0.002   0.004  -0.033
   0.026  -0.023   0.018   0.001   0.015   0.014  -0.024   0.027  -0.004  -0.008
   0.001  -0.006   0.001   0.012  -0.049   0.042  -0.013  -0.006   0.027   0.011
  -0.021   0.004   0.009   0.007   0.002   0.012  -0.006   0.031  -0.001   0.030
  -0.017   0.024   0.005  -0.020   0.011  -0.003   0.001  -0.066   0.002   0.056
  -0.027   0.009   0.002  -0.011  -0.005  -0.005   0.047  -0.023   0.011   0.033
  -0.012  -0.025  -0.002  -0.017  -0.013  -0.015   0.009  -0.032   0.021   0.017
  -0.019  -0.005   0.043  -0.038   0.008   0.026   0.015  -0.049   0.018  -0.017
  -0.026  -0.006  -0.010   0.005  -0.036   0.016   0.005  -0.017   0.018  -0.004
   0.010   0.014   0.028   0.014   0.003  -0.003  -0.020  -0.010   0.022   0.012
  -0.001  -0.000   0.021  -0.011   0.039   0.023   0.007  -0.001  -0.002   0.009
   0.026   0.009   0.008   0.021   0.019   0.022  -0.057   0.008   0.016  -0.015
  -0.023   0.007   0.038  -0.060  -0.034   0.028   0.014  -0.024   0.003   0.018
  -0.002  -0.022  -0.011   0.014   0.028  -0.020   0.021  -0.001  -0.006  -0.015
  -0.013   0.005   0.019  -0.014  -0.019   0.015  -0.018  -0.043   0.043   0.016
   0.005  -0.012  -0.007  -0.002  -0.024  -0.007   0.047   0.003   0.005  -0.007
  -0.005  -0.001  -0.035  -0.015   0.025   0.020  -0.016  -0.029   0.014  -0.029
  -0.006  -0.038   0.022   0.004  -0.039  -0.015   0.012   0.021   0.028  -0.012
   0.017  -0.031   0.013  -0.013  -0.044   0.015  -0.001  -0.000   0.023  -0.019
  -0.007   0.036   0.007   0.014  -0.039   0.061  -0.027   0.041  -0.023   0.026
   0.004  -0.032   0.035  -0.024  -0.010   0.004  -0.010   0.001   0.016  -0.001
  -0.024  -0.003   0.028  -0.030  -0.009   0.011   0.017  -0.013   0.007   0.017
   0.000   0.007   0.024  -0.049  -0.024  -0.004   0.010  -0.021  -0.002   0.048
  -0.033   0.036  -0.047   0.030  -0.005  -0.026  -0.005   0.016   0.006   0.011
  -0.035   0.020   0.008   0.008  -0.002   0.023   0.005  -0.034   0.002  -0.033
   0.037  -0.024  -0.010   0.014   0.015  -0.050   0.058  -0.018  -0.007  -0.021
   0.007  -0.008  -0.024   0.058  -0.031   0.018  -0.038   0.035  -0.028   0.009
   0.013  -0.017   0.020   0.013   0.017  -0.007   0.030   0.004  -0.031   0.013
   0.046  -0.039   0.008  -0.043   0.021  -0.004   0.020  -0.002  -0.003  -0.003
  -0.012  -0.007  -0.015   0.029  -0.009   0.020  -0.016   0.037  -0.025   0.004
   0.021  -0.012   0.022   0.012  -0.040  -0.026   0.044  -0.013  -0.014   0.005
   0.017  -0.037  -0.002   0.017  -0.029   0.001   0.029  -0.001  -0.026   0.019
  -0.004   0.005   0.027   0.048  -0.010   0.022  -0.001   0.003  -0.018  -0.002
  -0.004  -0.026   0.017   0.001  -0.036   0.016   0.018  -0.002   0.007   0.008
  -0.007  -0.035   0.039  -0.016  -0.023   0.008   0.009  -0.001  -0.021   0.015
   0.021   0.024   0.009  -0.005   0.011  -0.013  -0.015  -0.005  -0.036   0.008
   0.005  -0.020   0.000  -0.014  -0.023   0.013   0.043  -0.007   0.011   0.012
  -0.031  -0.010  -0.001  -0.019   0.007  -0.011   0.004  -0.017  -0.047   0.005
   0.027  -0.005  -0.021   0.009  -0.015   0.014  -0.009   0.046  -0.017   0.050
  -0.001   0.004  -0.008  -0.001   0.003   0.007   0.028   0.021  -0.014   0.017
   0.015  -0.060   0.005   0.023  -0.032  -0.015   0.026  -0.000  -0.021   0.005
  -0.001   0.034   0.003  -0.000  -0.030  -0.005   0.013   0.021  -0.016   0.040
  -0.016  -0.039   0.012  -0.002  -0.025  -0.018   0.031  -0.026  -0.027   0.015
   0.059  -0.006  -0.035   0.023   0.008  -0.032   0.002  -0.034   0.014   0.018
   0.019  -0.003   0.019   0.032  -0.021  -0.003  -0.008  -0.001   0.016   0.016
   0.021  -0.016   0.018   0.005   0.027  -0.039   0.024   0.013  -0.043  -0.030
   0.043  -0.013  -0.014   0.026  -0.022   0.017   0.010  -0.002   0.002  -0.020
   0.012  -0.020  -0.017  -0.000  -0.024  -0.002   0.026   0.010  -0.034   0.023
   0.020  -0.011  -0.014   0.003  -0.000  -0.030  -0.011   0.036   0.030   0.004
  -0.013   0.001   0.019  -0.000  -0.004  -0.026  -0.022   0.002  -0.021  -0.017
  -0.018   0.025  -0.024   0.025  -0.024   0.009   0.002  -0.016  -0.021  -0.015
   0.001   0.008   0.016  -0.038   0.027  -0.053   0.034   0.012  -0.033   0.009
   0.032  -0.029  -0.049  -0.003  -0.030   0.027  -0.036   0.033   0.035  -0.049
   0.019  -0.029   0.010  -0.019   0.010  -0.013  -0.003   0.005   0.009   0.012
   0.015  -0.011  -0.001   0.061  -0.040   0.032   0.009   0.042  -0.043  -0.027
   0.072  -0.052   0.032  -0.051   0.069  -0.002   0.004   0.009  -0.016   0.027
  -0.009   0.005  -0.004   0.005   0.001  -0.020   0.028  -0.034   0.000   0.031
   0.037   0.040  -0.022   0.032   0.017   0.009  -0.051   0.026  -0.012   0.011
  -0.048   0.021   0.021   0.021  -0.020  -0.003   0.044  -0.063   0.017   0.013
  -0.001   0.002  -0.016   0.034  -0.020   0.003  -0.006   0.036   0.004   0.014
  -0.004   0.020  -0.021   0.022   0.002  -0.003   0.017  -0.021  -0.005   0.009
   0.012   0.001   0.010  -0.001   0.031  -0.046  -0.006   0.028   0.008  -0.014
   0.020  -0.035  -0.005   0.011   0.000   0.035   0.003  -0.003  -0.012   0.025
   0.003  -0.020  -0.019   0.003   0.014  -0.029  -0.005   0.016  -0.022  -0.010
   0.031  -0.009   0.024  -0.023   0.034  -0.070   0.042   0.017   0.013  -0.021
   0.000   0.011   0.013   0.010  -0.000   0.004  -0.004   0.013  -0.053   0.006
  -0.008   0.014  -0.060   0.063  -0.045   0.019   0.007  -0.030   0.024  -0.020
   0.029  -0.019  -0.015  -0.028  -0.002  -0.032  -0.006  -0.005   0.034  -0.033
   0.017  -0.002   0.003   0.001  -0.010   0.013   0.001  -0.021   0.001  -0.043
   0.045   0.011  -0.032  -0.006   0.012  -0.012  -0.048   0.065  -0.028   0.004
   0.002  -0.008   0.005  -0.041   0.032  -0.031  -0.011   0.041  -0.039   0.025
  -0.037  -0.001   0.005  -0.026   0.057  -0.041   0.004   0.034  -0.028  -0.022
   0.032  -0.046   0.002  -0.050   0.035  -0.072   0.025   0.004  -0.029  -0.001
   0.016   0.011  -0.063   0.075  -0.031  -0.006   0.001   0.014  -0.000  -0.015
   0.022  -0.046   0.017  -0.016  -0.018  -0.024  -0.033   0.027  -0.047   0.012
   0.004   0.009  -0.050  -0.013  -0.022  -0.020   0.037   0.014   0.023  -0.066
   0.052  -0.050  -0.009   0.036   0.009  -0.061   0.011   0.014  -0.036  -0.014
   0.041   0.006  -0.029   0.055   0.017  -0.006  -0.026   0.038  -0.035   0.015
   0.001   0.004  -0.003   0.033  -0.014  -0.052   0.043   0.012  -0.048   0.005
   0.067  -0.021  -0.036   0.069   0.040  -0.044   0.006   0.032  -0.023  -0.024
  -0.043   0.064  -0.050   0.064   0.013   0.000   0.041  -0.031  -0.023  -0.003
   0.013   0.032   0.020   0.082   0.162  -0.100  -0.046   0.053  -0.022   0.065
   0.093   0.032   0.080  -0.018  -0.012  -0.081  -0.052   0.068  -0.038   0.063
   0.029   0.015   0.070  -0.096  -0.047  -0.105  -0.019   0.024  -0.077   0.130
   0.043  -0.023  -0.056  -0.087   0.030  -0.103  -0.034   0.052   0.165  -0.141
   0.103  -0.087  -0.071  -0.048   0.194   0.034   0.073   0.136   0.248  -0.167
   0.165  -0.058  -0.072  -0.006  -0.076   0.129   0.135  -0.098   0.093  -0.055
  -0.086  -0.038  -0.028  -0.032   0.114  -0.145   0.132   0.006   0.141  -0.080
  -0.261   0.099   0.168  -0.088   0.035  -0.059   0.018  -0.001  -0.170   0.026
  -0.291   0.169  -0.137   0.103  -0.118   0.263  -0.034  -0.039   0.159   0.046
  -0.457   0.437   0.344   0.278  -0.266  -0.507  -0.311   0.008   0.220   0.315
   0.294   0.234   0.225   0.020   0.071   0.013   0.190  -0.188  -0.042   0.109
   0.637   0.212   0.316   0.394  -0.050  -0.275   0.212   0.222  -0.025   0.174
   0.059   0.132  -0.091  -0.418  -0.239   0.745   0.316   1.216  -0.042   0.073
  -0.907  -1.011  -1.387   0.322   1.069   1.040  -1.034  -0.571  -1.009  -0.379
