Corrected accelerogram 20160214_001343_INZ_20 GNS Science
Site INZ       42 43 28S  171 26 39E     Basalt file:  20160214_001408_INZ
Inchbonnie
Instrument Basalt_2033
Resolution: 24-bit   Instr Period: 0.0050 s   Damping: 0.700
Accelerogram 20160214_001343_INZ_20                  Processed 2016 February 22
11 km east of CHRISTCHURCH
2016 February 14         00:13:43 UT
Epicentre  43 29 50S 172 45 18E  Bearing S51E  Dist  137km  Depth    8km M  5.70
Number of points  7800    Duration 155.98 sec
Instrument corrected data at 0.020 sec intervals
Band-pass filter transition bands are .10-.25 Hz and 24.50-25.50 Hz
Component N00E  Transverse Accelerometer Axis
Acceleration:  peak     -7.8 mm/s/s at  59.28 sec     rms      1.2 mm/s/s
Velocity:      peak    -1.99 mm/s   at  63.82 sec     rms     0.32 mm/s
Displacement:  peak   -0.742 mm     at  64.58 sec     rms    0.171 mm
    2016       2      14       0      13     430       0       0    2016       2
      43      29      50     172      45      18       8       0      14       0
      42      43      28     171      26      39       0       0     129     137
   29200     250     250    7800    7800    7800       0       0      13   28000
   200.0    0.70    0.00   0.000  0.0000   0.000   0.000   1.000     0.0    0.00
  42.724 171.444   43.50  172.76    5.70    0.00    0.00    0.00      0.      0.
  146.00    5.00    5.00  155.98  0.0050  0.0200      0.      0.      0.  9806.6
    -8.1   59.29     1.2   0.000      0.    -7.8   59.28     1.2     9.0   0.305
   -1.99   63.82    0.32    2.00   0.305   -0.74   64.58    0.17    0.93   0.192
   0.100   0.150   0.250      0.      0.  24.500   1.000  25.500      0.      0.
   0.000  -0.000   0.000  -0.000   0.000  -0.000   0.000  -0.000   0.000  -0.000
   0.000  -0.000   0.000  -0.000   0.000  -0.000   0.000  -0.000   0.000  -0.000
   0.000  -0.000  -0.000  -0.000  -0.000  -0.000  -0.000  -0.000  -0.000  -0.000
  -0.000  -0.000  -0.000  -0.000  -0.000  -0.000  -0.000  -0.000  -0.000  -0.000
  -0.000  -0.000  -0.000  -0.000  -0.000  -0.000  -0.000  -0.000  -0.000  -0.000
  -0.000  -0.000  -0.000  -0.000  -0.000  -0.000  -0.000  -0.000  -0.000  -0.000
  -0.000  -0.000  -0.000  -0.000  -0.000  -0.000  -0.000  -0.000  -0.000  -0.000
  -0.000  -0.000  -0.000  -0.000  -0.000  -0.000  -0.000  -0.000  -0.000  -0.000
  -0.000  -0.000  -0.000  -0.000  -0.000  -0.000  -0.000  -0.001  -0.000  -0.001
  -0.000  -0.001  -0.000  -0.001  -0.000  -0.001  -0.000  -0.001  -0.000  -0.001
  -0.000  -0.001  -0.000  -0.001  -0.000  -0.001  -0.000  -0.001  -0.000  -0.001
  -0.000  -0.001  -0.000  -0.001  -0.000  -0.001  -0.000  -0.001  -0.000  -0.000
  -0.000  -0.000  -0.000  -0.000  -0.000  -0.000  -0.000  -0.000  -0.000  -0.000
  -0.000  -0.000  -0.000  -0.000  -0.000  -0.000  -0.000  -0.000  -0.000  -0.000
  -0.000  -0.000  -0.000  -0.000  -0.000  -0.000  -0.000  -0.000   0.000  -0.000
   0.000  -0.000   0.000  -0.000   0.000  -0.000   0.000  -0.000   0.000   0.000
   0.000   0.000   0.000   0.000   0.000   0.000   0.000   0.000   0.000   0.000
   0.001   0.000   0.001   0.000   0.001   0.000   0.001   0.000   0.001   0.000
   0.001   0.001   0.001   0.001   0.001   0.001   0.001   0.001   0.001   0.001
   0.001   0.001   0.001   0.001   0.001   0.001   0.001   0.001   0.001   0.001
   0.002   0.001   0.002   0.001   0.002   0.001   0.002   0.001   0.002   0.001
   0.002   0.001   0.002   0.002   0.002   0.002   0.002   0.002   0.002   0.002
   0.002   0.002   0.003   0.002   0.003   0.002   0.003   0.002   0.003   0.002
   0.003   0.002   0.003   0.002   0.003   0.002   0.003   0.002   0.004   0.002
   0.004   0.002   0.004   0.002   0.004   0.002   0.004   0.002   0.004   0.002
   0.003  -0.001   0.003  -0.002   0.003  -0.002   0.004  -0.004   0.008  -0.027
  -0.025  -0.011  -0.037  -0.000   0.002  -0.001   0.004  -0.035  -0.012   0.003
  -0.005   0.006  -0.002   0.004  -0.001   0.003   0.000   0.003   0.001   0.003
   0.001   0.002   0.001   0.002   0.001   0.002   0.002   0.002   0.001  -0.023
   0.004  -0.001  -0.022   0.002   0.003   0.000   0.006  -0.007  -0.019   0.008
  -0.001   0.005   0.001   0.004   0.001   0.004   0.000   0.007  -0.025  -0.042
  -0.003   0.003   0.004   0.001   0.005  -0.000   0.008  -0.015  -0.011   0.008
   0.000   0.005   0.002   0.004   0.003   0.003   0.004   0.002   0.006  -0.020
  -0.003   0.006   0.001   0.005   0.002   0.004   0.002   0.004   0.003   0.003
  -0.022   0.005   0.002   0.005   0.003   0.004   0.003   0.004   0.003   0.004
   0.003   0.004   0.004   0.003  -0.022   0.005   0.002   0.005   0.003   0.004
   0.003   0.004   0.003   0.004   0.003   0.004   0.003   0.004   0.004   0.004
   0.004   0.003   0.005   0.002   0.008  -0.012  -0.012   0.011  -0.001   0.008
   0.000   0.007   0.000   0.008  -0.000   0.009  -0.002   0.012  -0.016  -0.007
   0.005   0.006  -0.005  -0.018   0.009   0.002   0.005   0.004   0.003   0.007
  -0.004  -0.018   0.010  -0.000  -0.022  -0.035  -0.004   0.006   0.004   0.004
   0.004   0.004   0.004   0.004   0.004   0.004   0.004   0.005   0.004   0.005
   0.003   0.005   0.003   0.006   0.002   0.009  -0.012  -0.012   0.012  -0.007
  -0.016   0.009  -0.001  -0.017  -0.018  -0.003   0.009  -0.005  -0.018   0.011
  -0.001   0.011  -0.014  -0.027  -0.015  -0.010   0.009   0.001   0.007   0.002
   0.006   0.003   0.005   0.003   0.006   0.002  -0.020   0.005   0.004   0.004
   0.004   0.004   0.004   0.004   0.004   0.004   0.004   0.004   0.004   0.005
   0.003   0.005   0.003   0.006   0.001   0.009  -0.013  -0.011   0.009   0.001
   0.006  -0.024   0.007  -0.026   0.011  -0.041  -0.007   0.006   0.003   0.004
   0.005   0.003   0.006   0.001   0.009  -0.014  -0.010   0.009   0.001   0.006
   0.002   0.006   0.002   0.005   0.002   0.005   0.002   0.007  -0.011  -0.019
  -0.013   0.006   0.003   0.004   0.004   0.004   0.004   0.004   0.004   0.003
   0.004   0.003   0.005  -0.030  -0.017   0.009   0.001   0.006   0.002   0.006
   0.002   0.006   0.001   0.006   0.000   0.009  -0.014  -0.010   0.009   0.001
   0.006   0.002   0.005   0.003   0.004  -0.023   0.007   0.001   0.007  -0.001
   0.010  -0.016  -0.008   0.001  -0.023   0.015  -0.025  -0.024   0.005   0.003
   0.004   0.003  -0.022   0.006   0.002   0.005   0.003   0.005   0.003   0.005
   0.003   0.005   0.003   0.005   0.002  -0.020   0.004   0.004   0.004   0.003
  -0.023   0.007  -0.001   0.014   0.025  -0.001   0.006   0.002   0.005   0.003
   0.005   0.003   0.004   0.003   0.004   0.003   0.005  -0.015  -0.018  -0.009
   0.009   0.000   0.007   0.000   0.009  -0.022  -0.026   0.007   0.002   0.005
   0.003   0.004   0.003   0.004   0.003   0.004   0.003   0.004   0.003   0.004
   0.003   0.005   0.003   0.005   0.001   0.008  -0.013  -0.011   0.010  -0.001
   0.008  -0.001  -0.018   0.001   0.008  -0.021  -0.001   0.005   0.004   0.003
  -0.021   0.005   0.003   0.004   0.004   0.004   0.004   0.004   0.004   0.004
   0.004   0.003   0.005  -0.034  -0.035   0.006  -0.013  -0.012   0.011  -0.002
  -0.018   0.002   0.006   0.001   0.007  -0.001   0.010  -0.016  -0.009   0.007
   0.003   0.004   0.005   0.001   0.008  -0.014  -0.011   0.009   0.000   0.006
   0.002   0.005   0.002   0.004   0.003   0.004   0.004   0.003   0.006  -0.009
  -0.035   0.004   0.002   0.006   0.001   0.008  -0.020  -0.002   0.006   0.002
   0.005   0.002   0.004   0.002   0.004   0.002   0.005   0.001   0.007  -0.021
  -0.028   0.009  -0.001   0.010  -0.015  -0.011   0.008  -0.000   0.006   0.001
   0.006   0.001   0.006  -0.000   0.009  -0.022  -0.000   0.003   0.006  -0.005
  -0.019   0.008   0.000   0.005   0.002   0.004   0.002   0.004   0.003   0.003
   0.003   0.003   0.003   0.003   0.004   0.001   0.006  -0.006  -0.019   0.009
  -0.001   0.006   0.001   0.005   0.001   0.005   0.001   0.005   0.002   0.004
   0.002   0.005   0.001   0.005   0.001   0.005   0.000   0.007  -0.006  -0.020
  -0.017   0.001   0.007  -0.013  -0.014   0.014  -0.018  -0.008   0.006   0.002
   0.003   0.004   0.001   0.007  -0.020  -0.003   0.005   0.002   0.004   0.002
   0.003   0.003   0.002  -0.022   0.005   0.002   0.004   0.003   0.003   0.003
   0.003   0.003   0.003   0.003   0.003   0.003   0.003   0.003   0.002   0.004
   0.002   0.004   0.002   0.004   0.001   0.005  -0.000   0.008  -0.023   0.002
  -0.019  -0.029   0.008  -0.000   0.006   0.001   0.005   0.001   0.005   0.002
   0.004   0.002   0.004   0.002   0.004   0.002   0.004   0.002   0.005   0.001
   0.005   0.000   0.008  -0.014  -0.011   0.009  -0.001   0.006   0.000   0.006
   0.001   0.006   0.000   0.007  -0.002   0.011  -0.017  -0.006  -0.016  -0.004
   0.003  -0.046  -0.020   0.002   0.004   0.002   0.004   0.002   0.004   0.002
   0.004   0.003   0.004   0.003   0.003   0.004   0.002   0.006  -0.019  -0.004
   0.007   0.000   0.006   0.001   0.005   0.001   0.005   0.001   0.005   0.000
   0.007   0.026   0.005  -0.000   0.009  -0.015  -0.010   0.007  -0.025   0.007
   0.001   0.005   0.002   0.005   0.002   0.004   0.002   0.005   0.001  -0.021
   0.004   0.003   0.003   0.004   0.002  -0.022   0.004   0.002   0.003   0.003
   0.003   0.003   0.003   0.003   0.003   0.003   0.003   0.003   0.003   0.003
   0.003   0.003   0.003  -0.024   0.008  -0.014  -0.013   0.012  -0.010  -0.015
  -0.006  -0.025  -0.008  -0.013  -0.012   0.009  -0.002  -0.020   0.002   0.004
   0.002   0.004   0.002   0.004   0.001   0.005   0.000   0.007  -0.021  -0.003
   0.006   0.000  -0.021   0.003   0.003   0.003   0.003   0.003   0.003   0.003
   0.003   0.003   0.003   0.003   0.003   0.003   0.003   0.003   0.003   0.003
   0.003   0.003   0.002   0.003   0.002   0.003   0.002   0.003   0.002   0.003
   0.002   0.003   0.002   0.003   0.002   0.003   0.002   0.003   0.002   0.003
   0.002   0.003   0.001   0.006  -0.020  -0.004   0.006  -0.000   0.005  -0.000
   0.005  -0.001   0.008  -0.016  -0.011   0.007  -0.000   0.004   0.001   0.003
   0.001   0.003   0.002   0.003   0.001   0.003  -0.002  -0.036  -0.007   0.005
   0.001   0.003   0.002   0.002   0.003   0.001   0.005  -0.006  -0.020   0.008
  -0.001  -0.013  -0.024  -0.007   0.004   0.002   0.002   0.003   0.001   0.003
   0.001   0.003   0.001   0.004  -0.001  -0.022   0.002   0.003   0.001   0.003
   0.000   0.004  -0.001   0.006  -0.008  -0.019   0.007  -0.000   0.004   0.001
   0.003   0.001   0.003   0.002   0.002   0.002   0.002   0.002   0.002   0.002
   0.002   0.002   0.002   0.002   0.002   0.002   0.002   0.002   0.002   0.002
   0.002   0.002   0.002   0.002   0.003   0.001   0.003   0.000   0.006  -0.014
  -0.014   0.009  -0.004   0.009  -0.009  -0.017   0.005   0.001   0.003   0.002
   0.002   0.002   0.002   0.002   0.002   0.003   0.002   0.003   0.002   0.003
   0.002   0.003   0.002   0.003   0.001   0.003   0.001   0.003   0.001   0.003
   0.001   0.003   0.001   0.003   0.001   0.003   0.001   0.004   0.001   0.004
   0.001   0.004   0.001   0.004   0.001   0.004   0.000   0.005  -0.000   0.006
  -0.002   0.008  -0.009  -0.016   0.004   0.005  -0.006  -0.019   0.007   0.002
  -0.029  -0.019   0.008  -0.001   0.005   0.001   0.004   0.001   0.004   0.002
   0.003   0.002   0.003   0.003   0.003   0.003   0.002   0.003   0.002   0.004
   0.001   0.005  -0.001  -0.018  -0.021  -0.028   0.007   0.000   0.005   0.001
   0.004   0.002   0.003   0.003   0.003   0.003   0.002   0.004   0.001   0.007
  -0.021  -0.002   0.004   0.005  -0.019  -0.003  -0.012  -0.022  -0.007   0.006
   0.001   0.006  -0.005  -0.019   0.009  -0.001   0.006   0.000   0.006   0.000
   0.006  -0.000   0.007  -0.006  -0.019   0.010  -0.007  -0.019  -0.017   0.001
   0.005   0.001   0.005  -0.003  -0.034  -0.008   0.008  -0.001   0.008  -0.007
  -0.018   0.007   0.001   0.004   0.002   0.004   0.002   0.003   0.002   0.003
   0.002   0.004   0.002   0.004   0.002   0.004   0.001   0.006  -0.002   0.020
   0.017  -0.003   0.006   0.000   0.005   0.001   0.004   0.001   0.004   0.001
   0.004   0.001   0.004   0.000  -0.022   0.003   0.002   0.002   0.003   0.002
   0.003   0.002   0.003   0.002   0.003   0.002   0.003   0.002   0.002   0.002
   0.002   0.002   0.002   0.002   0.002   0.001  -0.024   0.005  -0.002  -0.019
  -0.020  -0.004   0.005  -0.000   0.004   0.001   0.003   0.001   0.003   0.001
   0.003   0.001   0.003   0.001   0.003   0.001   0.002   0.001   0.002   0.001
   0.002   0.001   0.002   0.001   0.002   0.002   0.002   0.002   0.002   0.002
   0.002   0.002   0.001   0.002   0.000   0.004  -0.006  -0.022  -0.017  -0.002
  -0.021   0.001   0.002   0.001   0.002   0.001   0.002   0.001   0.002   0.001
   0.002   0.001   0.002   0.001   0.002   0.001   0.002   0.001   0.002   0.001
   0.002   0.001   0.002   0.001   0.002   0.001   0.002   0.001   0.002   0.001
   0.002   0.001   0.002   0.001   0.002   0.001   0.002   0.001   0.003   0.001
   0.003   0.001   0.003   0.001   0.003   0.001   0.003   0.001   0.003   0.000
   0.004  -0.001   0.008   0.002  -0.030   0.007  -0.001   0.004   0.000   0.004
   0.001   0.003   0.001   0.003   0.001   0.003   0.001   0.003   0.001   0.003
   0.001   0.003   0.001   0.004   0.001   0.004   0.000   0.006  -0.012  -0.035
   0.001   0.003   0.002   0.003   0.002   0.003   0.002   0.003   0.002   0.003
   0.001   0.004   0.001   0.004  -0.000   0.007  -0.007  -0.019   0.008  -0.018
  -0.019  -0.011   0.007  -0.000   0.005   0.001   0.004   0.001   0.004   0.002
   0.003   0.002   0.003   0.002   0.003   0.002   0.003   0.002   0.003   0.003
  -0.001  -0.036  -0.007   0.005   0.001   0.004   0.002   0.003  -0.025   0.009
  -0.015  -0.012   0.008  -0.001   0.005   0.000   0.004   0.001   0.004   0.001
   0.004   0.001   0.004   0.000   0.004   0.001  -0.013  -0.024  -0.004  -0.019
  -0.004   0.004   0.002  -0.030  -0.019   0.008  -0.001   0.005  -0.000   0.004
   0.000   0.004   0.001   0.004   0.001   0.004   0.000   0.004   0.000   0.004
  -0.001   0.006  -0.008  -0.019   0.006  -0.001   0.003   0.001   0.003   0.001
   0.002   0.001   0.002   0.001   0.002   0.001   0.002   0.001   0.002   0.001
   0.002   0.001   0.002   0.001   0.002   0.001   0.002   0.001   0.002   0.001
   0.001   0.001   0.001   0.001   0.001   0.001   0.001   0.001   0.001   0.001
   0.001   0.001   0.001   0.001   0.001   0.001   0.001   0.001   0.001   0.001
   0.001   0.001   0.001   0.001   0.001   0.001   0.001   0.001   0.001   0.001
   0.001   0.001   0.001   0.001   0.001   0.001   0.001   0.000   0.001   0.000
   0.001   0.000   0.001   0.000   0.002  -0.000   0.002  -0.001   0.004  -0.008
  -0.021   0.007  -0.003   0.004  -0.003   0.006  -0.009  -0.020   0.005  -0.002
   0.002  -0.000   0.002  -0.000   0.002   0.000   0.002   0.000   0.001   0.000
   0.001   0.000   0.002   0.000   0.002  -0.000   0.002  -0.000   0.002  -0.001
   0.003  -0.002   0.005  -0.023  -0.004   0.003  -0.000   0.002   0.000   0.001
   0.001   0.001   0.001   0.001   0.001   0.001   0.002  -0.001  -0.024   0.002
   0.001   0.001   0.001   0.001   0.002   0.000   0.002  -0.001   0.005  -0.022
  -0.005   0.004  -0.001   0.002   0.000   0.002   0.000   0.002   0.001   0.002
   0.001   0.002   0.001   0.002   0.001   0.001   0.001   0.001   0.001   0.001
   0.001   0.001   0.001   0.001   0.001   0.001   0.001   0.001   0.001   0.001
   0.001   0.001   0.001   0.001   0.001   0.001   0.001   0.001   0.001   0.001
   0.001   0.001   0.001   0.001   0.001   0.001   0.001   0.002   0.000  -0.024
   0.003  -0.000   0.002   0.000   0.002   0.000   0.002  -0.000   0.002  -0.001
   0.003  -0.002   0.006  -0.024  -0.029   0.005  -0.001   0.002   0.000   0.002
   0.001   0.001   0.001  -0.000  -0.024   0.003   0.000   0.002   0.000   0.001
   0.001   0.001   0.001   0.001   0.001   0.001   0.001   0.001   0.001   0.001
   0.001   0.001   0.001   0.001   0.001   0.001   0.001   0.001   0.001   0.000
   0.002   0.000   0.002  -0.000   0.002  -0.001   0.003  -0.033  -0.019   0.005
  -0.001   0.002  -0.000   0.002   0.000   0.002   0.000   0.001   0.001   0.001
   0.001   0.001   0.001   0.001   0.001   0.001   0.001   0.001   0.001   0.001
   0.001   0.001   0.001   0.001   0.001   0.001   0.002   0.001   0.002   0.001
   0.002   0.001   0.002   0.001   0.002   0.000   0.003  -0.000   0.003  -0.001
   0.006  -0.008  -0.020   0.006  -0.001   0.003   0.001   0.003   0.001   0.002
   0.002   0.002   0.002   0.002   0.002   0.002   0.002   0.001   0.003   0.001
   0.004  -0.000   0.006  -0.007  -0.019   0.007  -0.000   0.004   0.001   0.003
   0.003   0.002   0.005  -0.020  -0.004   0.006   0.000   0.005   0.001   0.004
   0.001   0.004   0.002   0.004   0.002   0.004   0.002   0.004   0.002   0.004
   0.002   0.004   0.003   0.004   0.003   0.004   0.003   0.004   0.003   0.004
   0.003   0.004   0.003   0.004   0.003   0.004   0.003   0.004   0.003   0.004
   0.003   0.004   0.003   0.004   0.003   0.004   0.004   0.004   0.004   0.004
   0.004   0.005   0.003  -0.021   0.006   0.002   0.008  -0.019  -0.002   0.007
   0.002   0.006   0.003   0.005   0.003   0.005   0.003   0.005   0.003   0.005
   0.003   0.005   0.003   0.005   0.002   0.006   0.002   0.006   0.000   0.009
  -0.014  -0.010   0.008   0.001   0.006   0.002   0.005   0.002   0.004   0.003
   0.004   0.003   0.004   0.003   0.003   0.003   0.003   0.005  -0.018  -0.007
  -0.015  -0.021  -0.002   0.004   0.002   0.003   0.002   0.002   0.002   0.002
   0.002   0.002   0.002   0.002   0.002   0.001   0.002   0.001   0.002   0.000
   0.003  -0.001   0.005  -0.022  -0.005   0.003  -0.001   0.002  -0.000   0.001
  -0.000   0.001  -0.000   0.000  -0.000  -0.000   0.000  -0.001   0.001  -0.034
  -0.021   0.004  -0.004   0.001  -0.003   0.001  -0.003   0.000  -0.003   0.000
  -0.004   0.000  -0.005   0.003  -0.026  -0.007  -0.001  -0.003  -0.002  -0.003
  -0.003  -0.002  -0.004  -0.002  -0.005   0.000  -0.027  -0.009  -0.001  -0.006
  -0.002  -0.005  -0.003  -0.005  -0.003  -0.005  -0.004  -0.005  -0.004  -0.005
  -0.004  -0.005  -0.004  -0.006  -0.004  -0.006  -0.004  -0.006  -0.004  -0.007
  -0.004  -0.008  -0.002  -0.014  -0.028  -0.026  -0.007  -0.005  -0.006  -0.005
  -0.006  -0.005  -0.006  -0.006  -0.006  -0.006  -0.006  -0.006  -0.006  -0.006
  -0.006  -0.006  -0.005  -0.006  -0.005  -0.007  -0.004  -0.008  -0.002  -0.015
  -0.027  -0.000  -0.008  -0.003  -0.007  -0.004  -0.006  -0.005  -0.005  -0.005
  -0.002  -0.027  -0.012  -0.000  -0.007  -0.001  -0.007  -0.001  -0.007   0.001
  -0.014  -0.024   0.001  -0.005  -0.001  -0.004  -0.002  -0.003  -0.001  -0.004
  -0.026  -0.000  -0.002  -0.001  -0.001  -0.000  -0.001   0.000  -0.001  -0.025
   0.002  -0.001   0.002   0.000   0.003   0.000   0.004  -0.001   0.008  -0.015
  -0.011   0.009   0.000   0.006   0.002   0.006   0.004   0.007   0.005   0.007
   0.005   0.008   0.006   0.008   0.007   0.009   0.008   0.009   0.009   0.010
   0.009   0.011   0.010   0.011   0.012   0.011  -0.013   0.015   0.012   0.015
   0.013   0.015   0.014   0.016   0.015   0.017   0.016   0.018   0.017   0.019
   0.018   0.019   0.018   0.020   0.019   0.021   0.020   0.022   0.021   0.023
   0.022   0.024   0.023   0.025   0.024   0.026   0.025   0.027   0.026   0.028
   0.026   0.029   0.027   0.030   0.028   0.031   0.029   0.031   0.030   0.033
   0.031   0.034   0.031   0.035   0.031   0.037   0.030   0.060   0.035  -0.003
   0.016  -0.006  -0.035   0.013   0.038   0.038   0.039   0.039   0.039   0.040
   0.041   0.037  -0.029  -0.010   0.032  -0.011   0.020   0.025   0.046   0.061
   0.094   0.053   0.041  -0.044  -0.058  -0.036  -0.014   0.030   0.051   0.041
   0.074   0.049   0.054  -0.024  -0.088  -0.011  -0.018   0.022  -0.022  -0.007
   0.129   0.091   0.062   0.089  -0.027   0.014   0.000  -0.148  -0.037   0.024
  -0.030  -0.168  -0.113  -0.046  -0.094   0.036   0.018  -0.022   0.013   0.057
  -0.133  -0.222  -0.004   0.091  -0.105  -0.258  -0.224  -0.064  -0.021   0.011
   0.110   0.055  -0.232  -0.165  -0.165  -0.336  -0.281  -0.465  -0.798  -0.458
