Corrected accelerogram 20160214_001343_OPWS_20 GNS Science
Site OPWS      43 33 22S  172 39 51E     Cusp file:  20160214_001346_OPWS
Opawa School
Instrument Cusp_42150
Resolution: 18-bit   Instr Period: 0.0050 s   Damping: 0.700
Accelerogram 20160214_001343_OPWS_20                 Processed 2016 February 22
11 km east of CHRISTCHURCH
2016 February 14         00:13:43 UT
Epicentre  43 29 50S 172 45 18E  Bearing N48E  Dist   10km  Depth    8km M  5.70
Number of points  8192    Duration 163.82 sec
Instrument corrected data at 0.020 sec intervals
Band-pass filter transition bands are .10-.25 Hz and 24.50-25.50 Hz
Component N00E  Horizontal Axis 1
Acceleration:  peak  -1540.4 mm/s/s at  43.80 sec     rms     91.1 mm/s/s
Velocity:      peak  -128.91 mm/s   at  45.84 sec     rms    10.09 mm/s
Displacement:  peak   30.353 mm     at  45.60 sec     rms    2.423 mm
    2016       2      14       0      13     430       0       0    2016       2
      43      29      50     172      45      18       8       0      14       0
      43      33      22     172      39      51       0       0      48      10
   38869     250     250    8192    8192    8192       0       0      13    6781
   200.0    0.70    0.00   0.000  0.0000   0.000   0.000   1.000     0.0    0.00
  43.556 172.664   43.50  172.76    5.70    0.00    0.00    0.00      0.      0.
  194.34    5.00    5.00  163.82  0.0050  0.0200      0.      0.      0.  9806.6
 -1531.6   43.81    94.1   0.000      0. -1540.4   43.80    91.1  1811.7   1.050
 -128.91   45.84   10.09  158.56   1.050   30.35   45.60    2.42   34.17   0.211
   0.100   0.150   0.250      0.      0.  24.500   1.000  25.500      0.      0.
    -0.1     0.1    -0.1     0.1    -0.1     0.1    -0.1     0.1    -0.1     0.1
    -0.1     0.1    -0.1     0.1    -0.1     0.1    -0.1     0.1    -0.1     0.1
    -0.1     0.1    -0.1     0.1    -0.1     0.1    -0.1     0.1    -0.1     0.1
    -0.1     0.1    -0.1     0.1    -0.1     0.0    -0.1     0.0    -0.1     0.0
    -0.1     0.0    -0.1     0.0    -0.1     0.0    -0.1     0.0    -0.1     0.0
    -0.1     0.0    -0.1     0.0    -0.1     0.0    -0.1     0.0    -0.1     0.0
    -0.1     0.0    -0.1     0.0    -0.1     0.0    -0.1     0.0    -0.1     0.0
    -0.1     0.0    -0.1     0.0    -0.1     0.0    -0.1     0.0    -0.1     0.0
    -0.1     0.0    -0.1     0.0    -0.1     0.0    -0.1     0.0    -0.1     0.0
    -0.1     0.0    -0.1     0.1    -0.1     0.1    -0.1     0.1    -0.1     0.1
    -0.1     0.1    -0.1     0.1    -0.1     0.1    -0.1     0.1    -0.1     0.1
    -0.1     0.1    -0.1     0.1    -0.1     0.1    -0.1     0.1    -0.1     0.1
    -0.1     0.1    -0.1     0.1    -0.1     0.1    -0.1     0.1    -0.1     0.1
    -0.1     0.1    -0.1     0.1    -0.1     0.1    -0.1     0.1    -0.1     0.1
    -0.1     0.1    -0.1     0.1    -0.1     0.1    -0.1     0.1    -0.1     0.1
    -0.1     0.1    -0.1     0.1    -0.1     0.1    -0.1     0.1    -0.1     0.1
    -0.1     0.1    -0.1     0.1    -0.1     0.1    -0.1     0.1    -0.1     0.1
    -0.1     0.1    -0.0     0.1    -0.0     0.1    -0.0     0.1    -0.0     0.1
    -0.0     0.1    -0.0     0.1    -0.0     0.1    -0.0     0.1    -0.0     0.1
    -0.0     0.1    -0.0     0.1    -0.0     0.1    -0.0     0.1    -0.0     0.1
    -0.0     0.1    -0.0     0.1    -0.0     0.1    -0.0     0.1    -0.0     0.1
    -0.0     0.1    -0.0     0.1    -0.0     0.1    -0.0     0.1    -0.0     0.1
    -0.0     0.1    -0.0     0.1    -0.0     0.1    -0.0     0.1    -0.0     0.1
    -0.0     0.1    -0.0     0.1    -0.0     0.1    -0.0     0.1    -0.0     0.1
    -0.0     0.1    -0.0     0.1    -0.0     0.1    -0.1     0.1    -0.1     0.1
    -0.0     0.1     0.0     0.1    -0.1     0.1    -0.1    -0.1    -0.1     0.2
    -0.1     0.2     0.0     0.0    -0.1     0.0    -0.0     0.1    -0.0    -0.0
     0.1     0.2    -0.1     0.0     0.0     0.1    -0.1    -0.0    -0.2    -0.1
    -0.1    -0.1    -0.1     0.1    -0.0     0.0    -0.2     0.0    -0.2    -0.1
     0.0     0.1    -0.1     0.0     0.1     0.2    -0.1     0.0    -0.0    -0.0
    -0.1     0.1    -0.2     0.1    -0.0     0.1    -0.1    -0.0    -0.2     0.0
    -0.1     0.2    -0.1    -0.0     0.1     0.2    -0.1    -0.0    -0.1     0.2
    -0.0     0.1    -0.2     0.1    -0.2     0.1    -0.1     0.1    -0.1    -0.1
    -0.1    -0.0    -0.1    -0.1    -0.1     0.1    -0.1    -0.1    -0.1    -0.0
    -0.0    -0.0    -0.1     0.2    -0.1    -0.0    -0.2     0.0     0.0     0.1
    -0.1     0.1    -0.1     0.2     0.1     0.2    -0.1     0.1     0.1     0.2
    -0.1     0.0    -0.2     0.2    -0.1    -0.0    -0.1     0.1    -0.2     0.1
     0.0     0.2     0.1     0.1    -0.1    -0.1    -0.2    -0.1    -0.1     0.3
     0.0     0.1     0.0     0.1    -0.1     0.0    -0.1     0.1     0.1     0.3
     0.1    -0.1    -0.2    -0.0    -0.2    -0.0    -0.1     0.2     0.1     0.2
    -0.1    -0.0    -0.1     0.1    -0.1     0.0    -0.1     0.1     0.0     0.0
     0.1     0.1     0.1     0.2     0.0     0.1    -0.1     0.1     0.1     0.0
    -0.1     0.0    -0.0     0.1     0.0     0.1     0.0    -0.0    -0.1     0.0
     0.0     0.1    -0.0    -0.0    -0.1    -0.0    -0.1     0.1    -0.0     0.1
    -0.2     0.1    -0.0     0.1    -0.2     0.1    -0.2    -0.1    -0.2     0.1
     0.0     0.1     0.0     0.1    -0.1    -0.1    -0.2    -0.1    -0.0     0.1
     0.1     0.2     0.0     0.2    -0.1    -0.0    -0.1     0.0    -0.1     0.2
    -0.0     0.2    -0.0     0.1    -0.0     0.2    -0.1    -0.0    -0.2    -0.0
    -0.1     0.0    -0.1    -0.1    -0.1    -0.0    -0.1    -0.0    -0.2     0.1
    -0.2     0.0    -0.0     0.1    -0.2     0.1    -0.1     0.2    -0.0     0.2
     0.1     0.1     0.0     0.0    -0.1    -0.1    -0.0     0.1    -0.0     0.1
     0.0     0.1    -0.0     0.1    -0.0     0.0    -0.2     0.1     0.0     0.1
    -0.1     0.1     0.0    -0.0    -0.1     0.1    -0.1     0.1     0.1     0.1
    -0.1    -0.0    -0.0     0.0    -0.1     0.1    -0.0     0.1    -0.1    -0.1
    -0.0     0.1    -0.1     0.0    -0.0     0.1    -0.1     0.1     0.1    -0.1
    -0.1     0.1    -0.0     0.1     0.0     0.1    -0.0     0.1    -0.1    -0.1
    -0.1     0.0    -0.1    -0.0    -0.2     0.1    -0.1     0.2    -0.0     0.0
    -0.1     0.0    -0.1     0.1    -0.1    -0.0     0.1     0.1    -0.1    -0.0
    -0.2    -0.0    -0.1     0.1    -0.1    -0.0    -0.1    -0.0    -0.1    -0.1
    -0.2     0.1    -0.0     0.2    -0.1     0.0    -0.1    -0.0    -0.0     0.1
    -0.0     0.1    -0.1     0.1    -0.1     0.2     0.1     0.1    -0.1     0.0
    -0.0     0.1    -0.1     0.0    -0.1     0.1    -0.1     0.0    -0.1     0.0
    -0.1     0.1    -0.2     0.1    -0.0     0.0    -0.1     0.1    -0.1     0.1
    -0.1    -0.0    -0.1     0.1    -0.0     0.2     0.1     0.1     0.1     0.1
    -0.2    -0.1    -0.1     0.1    -0.0     0.1    -0.0     0.1     0.1     0.2
    -0.1     0.1     0.0    -0.1    -0.2     0.2    -0.1     0.1    -0.2     0.1
    -0.0     0.1     0.1     0.3    -0.0     0.1    -0.2    -0.1    -0.1    -0.0
    -0.1     0.0    -0.0     0.1     0.0     0.1    -0.0     0.0    -0.1     0.0
    -0.1     0.1     0.1     0.1    -0.2     0.1    -0.0     0.2    -0.1     0.0
    -0.1    -0.1    -0.2     0.1    -0.0     0.1     0.0     0.1    -0.2    -0.1
    -0.2     0.0    -0.2     0.0    -0.0     0.1    -0.0     0.1     0.0     0.1
    -0.1     0.2    -0.1    -0.2    -0.2    -0.1    -0.3     0.1     0.0     0.0
    -0.1     0.0    -0.1     0.1    -0.2     0.1     0.0     0.1    -0.1     0.1
     0.0     0.2    -0.0     0.1    -0.0     0.0    -0.1     0.1    -0.2     0.2
    -0.1     0.1    -0.0     0.1    -0.0     0.1    -0.1     0.1    -0.1     0.0
    -0.1     0.0    -0.2     0.2    -0.1     0.0    -0.1    -0.0    -0.2     0.0
    -0.0    -0.1     0.0     0.2    -0.1     0.1     0.1     0.2    -0.0     0.0
     0.0     0.1    -0.1     0.1     0.0     0.0    -0.0     0.1    -0.2     0.1
     0.1     0.3    -0.1     0.1    -0.0     0.1    -0.1     0.0    -0.0     0.1
    -0.2     0.0    -0.0     0.2     0.1     0.2    -0.1    -0.0    -0.1     0.2
    -0.0     0.1    -0.0     0.1    -0.0     0.1    -0.2     0.0     0.0     0.1
    -0.1     0.2     0.0     0.1    -0.1     0.1    -0.0     0.0    -0.1     0.0
    -0.1     0.2     0.0     0.1     0.0     0.1     0.0     0.1    -0.3     0.1
    -0.2     0.0    -0.1     0.1    -0.2     0.0    -0.2     0.1    -0.2    -0.0
    -0.2    -0.0    -0.1     0.0    -0.1     0.0    -0.2    -0.1    -0.1     0.1
     0.0     0.3     0.1    -0.1    -0.2    -0.1    -0.2     0.1     0.2     0.2
    -0.1     0.1    -0.2    -0.1    -0.1     0.1    -0.1     0.1    -0.1     0.1
    -0.1     0.1    -0.2     0.1    -0.2     0.1    -0.0     0.1    -0.1     0.1
    -0.1     0.1    -0.1     0.1    -0.0     0.1     0.0     0.2    -0.0     0.0
    -0.0     0.0    -0.1    -0.1    -0.1     0.1    -0.1     0.1    -0.0    -0.1
    -0.1     0.0    -0.1     0.1    -0.1     0.2    -0.1     0.1    -0.1     0.1
    -0.1     0.1    -0.1     0.2    -0.2     0.0    -0.2    -0.0    -0.1     0.1
    -0.1     0.1    -0.0     0.2    -0.1    -0.0    -0.0     0.3     0.0     0.0
    -0.2    -0.1    -0.1     0.1     0.0     0.2    -0.0    -0.1    -0.2     0.1
    -0.1    -0.0    -0.0     0.1    -0.1     0.1    -0.0     0.1    -0.2    -0.0
    -0.2     0.0    -0.2     0.1    -0.1    -0.0    -0.2     0.1     0.0     0.2
    -0.1     0.2    -0.1     0.2    -0.2     0.0    -0.2     0.0    -0.2    -0.0
    -0.1     0.1     0.0     0.2    -0.0    -0.0    -0.1     0.1    -0.1     0.0
    -0.1     0.1    -0.1     0.2    -0.0     0.2     0.0     0.1    -0.1     0.1
     0.1     0.2    -0.0     0.1    -0.1     0.1    -0.0     0.1    -0.0     0.2
     0.0     0.2    -0.1    -0.0    -0.1     0.1    -0.2     0.1    -0.1     0.1
    -0.0     0.1    -0.0     0.3    -0.1     0.1    -0.1     0.0    -0.1     0.1
    -0.1     0.0    -0.0     0.2    -0.0     0.1    -0.0     0.2     0.1     0.2
    -0.1     0.1    -0.1     0.0    -0.1    -0.0    -0.1     0.1    -0.1     0.0
    -0.2     0.1    -0.1     0.1    -0.1     0.1    -0.2     0.2    -0.2     0.1
    -0.0     0.1    -0.2     0.2     0.0     0.1    -0.1    -0.0    -0.3     0.0
    -0.0     0.1    -0.1     0.1    -0.1     0.1    -0.1     0.1    -0.1     0.0
    -0.1     0.1    -0.3     0.0    -0.1     0.1    -0.0     0.2    -0.0    -0.0
    -0.1     0.1    -0.2     0.1    -0.3    -0.0    -0.2    -0.0    -0.2     0.1
    -0.1     0.1    -0.1     0.1    -0.1     0.1    -0.2     0.2     0.0     0.1
    -0.1     0.2    -0.0     0.0    -0.1     0.0     0.0     0.1    -0.1     0.0
    -0.2     0.1    -0.2     0.2    -0.1     0.2    -0.2    -0.0    -0.1     0.1
    -0.1     0.1    -0.0     0.3     0.0     0.1    -0.2     0.1    -0.1     0.1
    -0.1     0.1    -0.2     0.1     0.0     0.2    -0.1     0.0    -0.3     0.0
    -0.1     0.1    -0.1     0.1    -0.1     0.1    -0.2     0.2    -0.0    -0.1
    -0.3     0.0    -0.0     0.1    -0.1     0.1    -0.0     0.2    -0.1     0.0
    -0.1     0.2    -0.1     0.0    -0.0     0.2    -0.1     0.1    -0.1     0.1
    -0.2     0.1    -0.1     0.1    -0.1     0.1    -0.1    -0.0    -0.2    -0.0
    -0.2     0.1    -0.2     0.0    -0.0     0.2    -0.2     0.0     0.0     0.1
    -0.1     0.1    -0.2     0.1    -0.1     0.0    -0.1     0.2    -0.0     0.1
    -0.1     0.1    -0.1     0.2    -0.0     0.2    -0.0     0.2    -0.1     0.1
    -0.1     0.1    -0.0     0.1    -0.1     0.2    -0.1     0.1    -0.1     0.2
    -0.0     0.2     0.0     0.2    -0.1     0.1    -0.1     0.1    -0.1     0.0
    -0.2     0.2    -0.1     0.1    -0.0     0.2    -0.0     0.1    -0.1     0.1
    -0.1     0.0    -0.2    -0.2    -0.3     0.1    -0.0     0.3     0.1     0.2
    -0.2     0.2    -0.2     0.1    -0.2     0.2    -0.2     0.1    -0.2     0.1
    -0.1     0.2    -0.1     0.2     0.1     0.1    -0.1     0.1    -0.1    -0.0
    -0.2     0.1    -0.1     0.0    -0.1     0.2     0.1     0.2    -0.1     0.1
    -0.2     0.2    -0.1    -0.0    -0.2     0.0    -0.0     0.2    -0.1     0.1
    -0.1     0.2    -0.1     0.2    -0.1     0.0    -0.1     0.2    -0.1     0.2
    -0.2     0.2    -0.1     0.1    -0.0     0.1    -0.2    -0.0    -0.1     0.2
    -0.0     0.2    -0.1    -0.0    -0.2     0.1    -0.1     0.1    -0.0    -0.0
    -0.1     0.3     0.0     0.2    -0.0     0.2    -0.1     0.1    -0.1     0.1
     0.1     0.2    -0.2    -0.0    -0.1     0.1    -0.1     0.1    -0.3     0.0
    -0.0     0.2    -0.1     0.1    -0.0     0.3    -0.0     0.1    -0.3     0.0
    -0.1     0.3    -0.1    -0.1    -0.1     0.2     0.0    -0.0    -0.2     0.2
     0.0     0.2    -0.1     0.1    -0.0     0.2     0.0     0.0    -0.2     0.1
    -0.1     0.2    -0.0     0.2     0.1     0.3    -0.2     0.0    -0.0     0.1
    -0.3     0.1    -0.3     0.1    -0.3     0.0    -0.1     0.2    -0.1     0.0
    -0.2     0.1    -0.2     0.3    -0.2     0.1    -0.3     0.2    -0.0     0.1
    -0.2     0.0    -0.1     0.1    -0.2    -0.1    -0.3     0.1    -0.0     0.1
    -0.2     0.1    -0.1     0.2    -0.2    -0.0    -0.3     0.2    -0.1     0.3
    -0.1     0.2    -0.0     0.2    -0.0     0.0    -0.3     0.0     0.0     0.4
    -0.1     0.1    -0.2     0.1    -0.1     0.1    -0.3     0.0    -0.1     0.2
    -0.1     0.2    -0.1    -0.0    -0.1     0.1    -0.1     0.1    -0.3    -0.2
    -0.1     0.3    -0.0     0.1    -0.0     0.1    -0.1     0.1    -0.2     0.1
    -0.1     0.1    -0.0     0.2    -0.2     0.1    -0.2    -0.0    -0.3     0.1
    -0.1     0.2    -0.1     0.2    -0.1     0.2    -0.2    -0.0    -0.2     0.1
    -0.0     0.3    -0.0     0.1    -0.2     0.3     0.0     0.2    -0.2     0.0
    -0.0     0.3     0.0     0.0    -0.2     0.2    -0.2     0.1     0.1     0.2
    -0.3     0.0    -0.1     0.1    -0.3     0.0    -0.2     0.2    -0.0     0.1
    -0.2     0.2    -0.0     0.3    -0.0     0.1    -0.2     0.1    -0.2     0.2
    -0.1     0.2    -0.1     0.2    -0.0     0.2    -0.2     0.0    -0.1     0.2
    -0.2     0.0    -0.3     0.2    -0.1     0.3    -0.1     0.0    -0.3     0.0
    -0.1     0.0    -0.2     0.0    -0.0     0.2    -0.1     0.1    -0.2     0.2
    -0.1     0.2    -0.0     0.2    -0.2     0.2     0.1     0.2    -0.2     0.2
    -0.2     0.1    -0.2     0.1    -0.2     0.1    -0.4     0.3    -0.2     0.0
    -0.3     0.2    -0.2     0.3    -0.1     0.1    -0.0     0.1    -0.1     0.3
    -0.1     0.1    -0.3     0.1    -0.1     0.4    -0.2     0.3    -0.0     0.2
    -0.1     0.2    -0.1     0.2    -0.2     0.2    -0.2     0.1    -0.2     0.2
    -0.0     0.2    -0.1     0.1    -0.2     0.2    -0.1     0.1    -0.2     0.0
    -0.3     0.1    -0.3     0.1    -0.3    -0.0    -0.3     0.1    -0.1     0.2
    -0.1     0.1    -0.3     0.1    -0.3     0.1    -0.2     0.0    -0.2     0.2
    -0.2     0.2    -0.2     0.1    -0.3     0.0    -0.1     0.2    -0.2     0.1
    -0.1     0.1    -0.3     0.1    -0.3     0.1    -0.3     0.1    -0.1     0.2
    -0.1     0.1    -0.2     0.1    -0.1     0.1    -0.0     0.1    -0.2     0.1
    -0.2     0.2    -0.1     0.0    -0.3     0.1    -0.2     0.3    -0.2     0.0
    -0.4     0.2    -0.1     0.1    -0.3    -0.0    -0.3     0.2     0.0     0.3
    -0.2     0.0    -0.2     0.3    -0.2     0.1    -0.3     0.1    -0.1     0.4
    -0.3     0.1    -0.3     0.2    -0.2     0.1    -0.3     0.1    -0.2     0.1
    -0.2     0.2    -0.2     0.2    -0.1     0.3    -0.1     0.1    -0.2     0.2
    -0.2     0.0    -0.3     0.2    -0.1     0.1    -0.3     0.2    -0.2     0.2
    -0.2     0.3    -0.2     0.2    -0.2     0.2    -0.2     0.4    -0.1     0.3
    -0.1     0.4    -0.0     0.2    -0.4     0.2    -0.2     0.3    -0.1     0.2
    -0.1     0.2     0.1     0.3    -0.1     0.3    -0.1     0.1    -0.2     0.4
    -0.0     0.2    -0.1     0.3    -0.2     0.1    -0.2     0.2     0.0     0.4
    -0.1     0.3    -0.1     0.4    -0.1     0.4    -0.0     0.3    -0.2     0.3
    -0.2     0.4    -0.2     0.3    -0.1     0.3    -0.1     0.3    -0.1     0.3
    -0.1     0.2    -0.2     0.4    -0.1     0.4    -0.0     0.4    -0.2     0.2
    -0.2     0.3    -0.2     0.3    -0.1     0.3    -0.1     0.3    -0.3     0.2
    -0.2     0.3    -0.2     0.4    -0.1     0.3    -0.2     0.2    -0.2     0.2
    -0.2     0.2    -0.1     0.2    -0.2     0.2    -0.2     0.3    -0.2     0.2
    -0.2     0.2    -0.2     0.2    -0.1     0.2    -0.1     0.2    -0.2     0.3
    -0.1     0.2    -0.2     0.0    -0.3     0.1    -0.2     0.1    -0.3     0.2
    -0.2     0.3    -0.3     0.1    -0.3     0.1    -0.3     0.1    -0.4     0.3
    -0.2     0.2    -0.2     0.1    -0.5     0.1    -0.3     0.1    -0.4     0.1
    -0.4     0.1    -0.3     0.2    -0.2     0.2    -0.4     0.1    -0.3     0.0
    -0.3     0.4    -0.3     0.1    -0.2     0.3    -0.3     0.2    -0.4     0.0
    -0.4     0.2    -0.3     0.2    -0.4     0.1    -0.3     0.2    -0.3     0.2
    -0.3     0.3    -0.3     0.2    -0.3     0.2    -0.3     0.4    -0.1     0.3
    -0.4     0.2    -0.2     0.2    -0.3     0.2    -0.4     0.1    -0.3     0.3
    -0.3     0.4     0.0     0.4    -0.1     0.3    -0.1     0.3    -0.1     0.4
    -0.2     0.2    -0.1     0.4    -0.1     0.3    -0.2     0.5    -0.1     0.3
    -0.1     0.5    -0.1     0.4    -0.1     0.6    -0.1     0.5    -0.1     0.5
     0.0     0.6    -0.1     0.4    -0.2     0.7    -0.1     0.6     0.1     0.7
     0.0     0.5    -0.0     0.6    -0.1     0.5    -0.1     0.6     0.1     0.6
    -0.0     0.8     0.2     0.6     0.2     0.7     0.1     0.6     0.1     0.4
    -0.1     0.7     0.2     0.8     0.2     0.7     0.2     0.6     0.1     0.7
    -0.0     0.8     0.1     0.6    -0.1     0.6    -0.0     0.7    -0.1     0.6
     0.1     0.7    -0.1     0.7    -0.0     0.5    -0.2     0.6    -0.1     0.4
    -0.1     0.6    -0.1     0.5    -0.1     0.5    -0.1     0.5    -0.3     0.3
    -0.3     0.4    -0.4     0.2    -0.4     0.4    -0.6     0.1    -0.4     0.3
    -0.5     0.1    -0.6     0.1    -0.6     0.2    -0.6     0.0    -0.8     0.1
    -0.7    -0.0    -0.8    -0.1    -0.8    -0.1    -1.0    -0.3    -1.0    -0.3
    -1.1    -0.4    -1.0    -0.4    -1.0    -0.3    -1.0    -0.5    -1.4    -0.5
    -1.4    -0.5    -1.5    -0.5    -1.3    -0.7    -1.6    -0.8    -1.5    -0.7
    -1.6    -0.7    -1.6    -0.8    -1.6    -0.9    -1.5    -0.9    -1.7    -0.9
    -1.9    -1.1    -1.9    -1.1    -1.8    -1.1    -2.0    -1.2    -1.9    -1.1
    -2.0    -1.2    -2.1    -1.0    -2.0    -1.2    -2.1    -1.3    -2.2    -1.3
    -2.2    -1.2    -2.2    -1.3    -2.0    -1.2    -2.1    -1.2    -2.0    -1.3
    -2.2    -1.3    -2.1    -1.3    -2.2    -1.2    -2.1    -1.2    -2.1    -1.2
    -2.0    -1.0    -2.0    -1.1    -2.1    -0.9    -2.0    -0.8    -1.9    -0.9
    -1.9    -0.8    -1.8    -0.7    -1.7    -0.8    -1.8    -0.6    -1.5    -0.5
    -1.6    -0.5    -1.5    -0.3    -1.3    -0.2    -1.2    -0.1    -1.2    -0.1
    -1.0     0.2    -0.8     0.4    -0.7     0.4    -0.7     0.6    -0.5     0.7
    -0.2     0.9    -0.1     1.1    -0.1     1.2    -0.1     1.3     0.2     1.5
     0.4     1.7     0.5     1.9     0.7     2.1     0.8     2.2     1.0     2.6
     1.2     2.6     1.3     2.8     1.6     3.1     1.6     3.1     1.9     3.4
     2.0     3.6     2.3     3.7     2.5     4.1     2.6     4.3     2.9     4.5
     3.0     4.6     3.1     4.7     3.3     5.2     3.5     5.1     3.8     5.4
     3.9     5.6     4.1     5.9     4.2     5.9     4.4     6.2     4.5     6.3
     4.6     6.4     4.8     6.8     5.1     6.8     5.1     7.1     5.2     7.1
     5.2     7.4     5.6     7.5     5.6     7.7     5.7     7.8     5.8     7.9
     5.9     8.0     5.9     8.2     5.9     8.4     6.0     8.5     6.1     8.3
     5.9     8.6     6.1     8.7     6.1     9.3     5.7     9.4     5.3     9.5
     6.0     7.3     8.3     3.8     3.0    -0.6     5.7     1.0    -0.6   -10.5
