Corrected accelerogram 20160214_001343_OAMS_20 GNS Science
Site OAMS      45 05 59S  170 58 09E     Basalt file:  20160214_001426_OAMS
Oamaru North Otago Museum
Instrument Basalt_2415
Resolution: 24-bit   Instr Period: 0.0050 s   Damping: 0.700
Accelerogram 20160214_001343_OAMS_20                 Processed 2016 February 22
11 km east of CHRISTCHURCH
2016 February 14         00:13:43 UT
Epicentre  43 29 50S 172 45 18E  Bearing N39E  Dist  228km  Depth    8km M  5.70
Number of points  8050    Duration 160.98 sec
Instrument corrected data at 0.020 sec intervals
Band-pass filter transition bands are .10-.25 Hz and 24.50-25.50 Hz
Component N00E  Horizontal Axis 1
Acceleration:  peak     16.5 mm/s/s at  75.98 sec     rms      2.0 mm/s/s
Velocity:      peak     2.04 mm/s   at  73.46 sec     rms     0.30 mm/s
Displacement:  peak   -0.487 mm     at  77.64 sec     rms    0.117 mm
    2016       2      14       0      13     430       0       0    2016       2
      43      29      50     172      45      18       8       0      14       0
      45       5      59     170      58       9       0       0      39     228
   30200     250     250    8050    8050    8050       0       0      13   46000
   200.0    0.70    0.00   0.000  0.0000   0.000   0.000   1.000     0.0    0.00
  45.100 170.969   43.50  172.76    5.70    0.00    0.00    0.00      0.      0.
  151.00    5.00    5.00  160.98  0.0050  0.0200      0.      0.      0.  9806.6
    16.7   75.99     2.0   0.000      0.    16.5   75.98     2.0    20.9   0.745
    2.04   73.46    0.30    2.14   0.745   -0.49   77.64    0.12    0.52   0.223
   0.100   0.150   0.250      0.      0.  24.500   1.000  25.500      0.      0.
  -0.001   0.001  -0.001   0.001  -0.001   0.001  -0.001   0.001  -0.001   0.001
  -0.001   0.001  -0.001   0.001  -0.001   0.001  -0.001   0.001  -0.001   0.001
  -0.001   0.001  -0.001   0.001  -0.001   0.001  -0.001   0.001  -0.001   0.001
  -0.001   0.001  -0.001   0.001  -0.001   0.001  -0.001   0.001  -0.001   0.001
  -0.001   0.001  -0.001   0.001  -0.001   0.001  -0.001   0.001  -0.001   0.001
  -0.001   0.001  -0.001   0.001  -0.001   0.001  -0.001   0.001  -0.001   0.001
  -0.001   0.001  -0.001   0.001  -0.001   0.001  -0.001   0.001  -0.001   0.001
  -0.001   0.001  -0.001   0.001  -0.001   0.001  -0.001   0.001  -0.001   0.001
  -0.001   0.001  -0.001   0.001  -0.001   0.001  -0.001   0.001  -0.001   0.001
  -0.001   0.001  -0.001   0.001  -0.001   0.001  -0.001   0.001  -0.001   0.001
  -0.001   0.001  -0.001   0.001  -0.001   0.001  -0.001   0.001  -0.001   0.001
  -0.001   0.001  -0.001   0.001  -0.001   0.001  -0.001   0.001  -0.001   0.001
  -0.001   0.001  -0.001   0.001  -0.001   0.001  -0.001   0.001  -0.001   0.001
  -0.001   0.001  -0.002   0.001  -0.002   0.001  -0.002   0.001  -0.002   0.001
  -0.002   0.001  -0.002   0.001  -0.002   0.001  -0.002   0.001  -0.002   0.001
  -0.002   0.001  -0.002   0.001  -0.002   0.001  -0.002   0.001  -0.002   0.001
  -0.002   0.001  -0.002   0.001  -0.002   0.001  -0.002   0.001  -0.002   0.001
  -0.002   0.001  -0.002   0.001  -0.002   0.001  -0.002   0.001  -0.002   0.001
  -0.002   0.001  -0.002   0.001  -0.002   0.001  -0.002   0.001  -0.002   0.001
  -0.002   0.001  -0.002   0.001  -0.002   0.001  -0.002   0.001  -0.002   0.001
  -0.002   0.002  -0.002   0.002  -0.002   0.002  -0.002   0.002  -0.002   0.002
  -0.003   0.002  -0.003   0.002  -0.003   0.002  -0.003   0.002  -0.003   0.002
  -0.003   0.003  -0.003   0.003  -0.003   0.003  -0.003   0.003  -0.004   0.003
  -0.004   0.003  -0.004   0.004  -0.004   0.004  -0.005   0.004  -0.005   0.005
  -0.005   0.005  -0.006   0.006  -0.007   0.007  -0.008   0.008  -0.009   0.011
  -0.024   0.001  -0.005   0.069  -0.017   0.026  -0.055   0.036   0.014  -0.000
   0.022  -0.035   0.034   0.025   0.036  -0.045  -0.041   0.015   0.064  -0.008
   0.001  -0.029   0.011  -0.014   0.025   0.027  -0.005  -0.018   0.009  -0.014
  -0.020   0.042   0.026  -0.048   0.025  -0.026  -0.029  -0.019   0.016   0.013
  -0.036   0.005   0.028   0.019  -0.031  -0.031   0.012   0.043   0.007  -0.033
  -0.033   0.064   0.016  -0.013  -0.032   0.026   0.016  -0.001  -0.008   0.037
  -0.011  -0.019   0.040  -0.019  -0.049  -0.001  -0.023   0.012   0.020  -0.089
  -0.003   0.026   0.040  -0.017  -0.031  -0.058   0.068  -0.011   0.037   0.003
  -0.003  -0.071   0.018   0.022   0.043   0.000  -0.019  -0.043  -0.029   0.035
   0.013   0.035   0.013   0.002  -0.117   0.033   0.033   0.081  -0.036  -0.045
  -0.029   0.005   0.005   0.049  -0.013  -0.011  -0.029   0.055  -0.037  -0.011
  -0.012   0.047  -0.035   0.013   0.011  -0.051   0.032  -0.017  -0.045  -0.002
  -0.045   0.030   0.024  -0.028   0.036  -0.040   0.061   0.009  -0.007   0.052
  -0.116   0.078   0.034  -0.036   0.115  -0.084  -0.058   0.005   0.066  -0.014
  -0.022  -0.029  -0.027  -0.012   0.055   0.016  -0.033  -0.042  -0.009   0.028
   0.024   0.066  -0.108   0.068  -0.073  -0.058   0.051   0.059  -0.041  -0.030
   0.043  -0.028   0.084  -0.038  -0.036   0.028  -0.017   0.065  -0.019   0.009
   0.030   0.021  -0.011  -0.013  -0.012   0.024   0.042  -0.016  -0.008  -0.134
   0.144  -0.021  -0.049   0.027  -0.026  -0.043   0.027   0.064  -0.029  -0.040
   0.067  -0.086   0.017   0.001  -0.029   0.072  -0.029  -0.003  -0.065   0.005
   0.066  -0.059   0.019  -0.010  -0.035   0.067  -0.039  -0.049   0.134  -0.008
  -0.086  -0.001   0.052  -0.033   0.017  -0.004  -0.056   0.014  -0.012  -0.004
   0.025   0.023  -0.021  -0.025   0.039   0.000   0.047   0.025   0.035  -0.084
   0.120  -0.058   0.053  -0.032  -0.019   0.070  -0.044   0.032  -0.016  -0.056
   0.093  -0.027  -0.016   0.031  -0.026   0.011  -0.005  -0.030   0.092   0.068
  -0.007  -0.035  -0.040   0.042   0.041  -0.050  -0.045   0.049   0.014  -0.001
   0.031  -0.050  -0.044   0.079  -0.043  -0.018   0.035  -0.024  -0.078   0.004
   0.076  -0.063  -0.020   0.006  -0.069  -0.026   0.063   0.012   0.037   0.056
  -0.070  -0.043   0.043   0.057  -0.036   0.019  -0.033  -0.086   0.110  -0.019
   0.015  -0.018  -0.046   0.059   0.024   0.000  -0.059  -0.018   0.067   0.038
  -0.030  -0.117   0.073   0.127  -0.099  -0.025  -0.081   0.098  -0.012   0.002
  -0.047   0.028  -0.023   0.046   0.045  -0.080  -0.005   0.038  -0.074   0.124
  -0.099   0.060  -0.060   0.024  -0.044  -0.003   0.021  -0.019   0.016  -0.096
   0.066  -0.045   0.060  -0.077   0.038  -0.037   0.027   0.030   0.034  -0.051
  -0.010  -0.057   0.027   0.062   0.069  -0.048  -0.071   0.052   0.017   0.015
  -0.057  -0.043   0.089  -0.051   0.074   0.045  -0.068  -0.053   0.066  -0.044
   0.007   0.041  -0.104   0.072  -0.001   0.000  -0.067   0.031   0.050  -0.059
   0.027  -0.008  -0.050   0.035  -0.062   0.056   0.012  -0.015  -0.048  -0.013
   0.013   0.109  -0.015  -0.076  -0.042   0.035   0.066  -0.082  -0.025   0.121
  -0.055  -0.002  -0.016  -0.038   0.135  -0.074  -0.001  -0.022  -0.023   0.076
   0.009  -0.094   0.117  -0.083   0.062  -0.050  -0.043   0.056   0.042   0.001
  -0.099   0.086  -0.046   0.031   0.022  -0.002   0.019  -0.027   0.007  -0.023
   0.049   0.016   0.050   0.028  -0.097   0.064  -0.033   0.060  -0.019   0.043
  -0.046  -0.040   0.041   0.118  -0.044  -0.047   0.000  -0.001   0.071   0.049
  -0.011  -0.069   0.063   0.038  -0.070   0.030   0.089  -0.073  -0.027   0.032
  -0.034   0.041  -0.008  -0.065   0.120   0.027  -0.165  -0.006   0.040   0.038
  -0.076  -0.016   0.031  -0.075   0.069  -0.010   0.009   0.022  -0.082  -0.020
   0.074   0.023  -0.054   0.049  -0.073   0.010   0.030  -0.014  -0.038   0.036
  -0.054  -0.076  -0.002   0.071   0.013  -0.045  -0.101  -0.001   0.123  -0.024
  -0.102   0.015   0.087  -0.026  -0.033  -0.110   0.150  -0.088   0.077   0.004
  -0.020  -0.057   0.056   0.039  -0.126   0.060  -0.034  -0.044   0.036  -0.010
  -0.067   0.064   0.103  -0.112  -0.007   0.046   0.008   0.004  -0.055   0.020
   0.081  -0.109   0.008   0.099  -0.066   0.027   0.053  -0.022   0.077  -0.003
  -0.166   0.067   0.050   0.007  -0.106   0.054   0.033   0.029  -0.067  -0.021
   0.029   0.008  -0.032   0.119  -0.115  -0.026   0.025   0.027  -0.036   0.002
  -0.029  -0.009   0.055   0.010   0.085  -0.134   0.135  -0.074  -0.116   0.134
  -0.060   0.052  -0.019  -0.089   0.098   0.103  -0.121   0.045   0.161  -0.261
   0.083   0.082  -0.076   0.062   0.044  -0.066   0.004  -0.053  -0.012   0.058
   0.014   0.020  -0.004  -0.037   0.112  -0.091  -0.048   0.146  -0.071  -0.053
   0.032   0.094  -0.061  -0.020  -0.029  -0.010   0.098   0.018  -0.011  -0.055
  -0.043   0.058   0.032  -0.008   0.071  -0.053   0.025  -0.010   0.045  -0.134
   0.006   0.130  -0.118  -0.017   0.084  -0.103   0.057   0.061   0.012  -0.032
  -0.027  -0.026   0.010   0.016   0.137  -0.143  -0.083   0.179  -0.076  -0.020
   0.080  -0.031  -0.040   0.046  -0.048   0.036  -0.016   0.016  -0.060   0.095
   0.004  -0.035  -0.038   0.032   0.001   0.059  -0.056  -0.006  -0.011  -0.086
   0.057  -0.022  -0.067   0.078  -0.002  -0.060   0.052  -0.049   0.030  -0.025
  -0.014  -0.004  -0.046   0.076  -0.023   0.077   0.002  -0.068   0.059  -0.004
  -0.033   0.097  -0.048  -0.053   0.032   0.064   0.028  -0.085  -0.032   0.025
   0.007   0.028  -0.112   0.025   0.100  -0.087   0.005  -0.101  -0.000   0.134
   0.011  -0.144   0.018   0.005   0.132  -0.114   0.057  -0.011  -0.033  -0.043
  -0.017   0.060  -0.031  -0.026   0.042   0.002   0.135  -0.226   0.096   0.042
  -0.056   0.018  -0.061   0.060  -0.018   0.038   0.028  -0.068   0.027   0.014
  -0.039   0.048  -0.018   0.005  -0.090   0.040   0.086  -0.096   0.062  -0.023
   0.089  -0.093   0.010  -0.016   0.057   0.045  -0.103   0.097  -0.061   0.092
  -0.077  -0.044  -0.003   0.074   0.074  -0.052  -0.021  -0.111   0.145  -0.057
   0.044  -0.005   0.027  -0.040  -0.039   0.073  -0.109   0.108   0.044  -0.057
  -0.100   0.098  -0.056   0.066  -0.032  -0.026  -0.005   0.047  -0.030  -0.006
   0.084  -0.099   0.051   0.024  -0.030   0.081  -0.008  -0.060   0.046   0.026
  -0.019   0.034  -0.014  -0.058   0.081  -0.082   0.070   0.039  -0.063  -0.073
   0.009   0.053   0.085  -0.044   0.033  -0.044  -0.034   0.080  -0.081  -0.012
   0.048   0.004  -0.170  -0.023   0.059   0.146  -0.036  -0.090  -0.007   0.003
   0.008  -0.002   0.002  -0.015  -0.005   0.015   0.026  -0.014  -0.042  -0.046
   0.061   0.059  -0.041   0.013  -0.051   0.016   0.073  -0.088  -0.034   0.049
   0.001  -0.020  -0.014   0.075  -0.007  -0.048  -0.032  -0.002   0.024  -0.037
   0.039  -0.043   0.022   0.024  -0.097   0.045   0.033  -0.021  -0.012  -0.005
   0.068  -0.042  -0.063  -0.035   0.124  -0.071   0.026  -0.078   0.003  -0.023
   0.067  -0.070   0.020   0.012  -0.105  -0.043  -0.009   0.087   0.175  -0.117
  -0.152   0.091   0.000   0.036   0.050   0.046  -0.018  -0.183   0.076   0.042
   0.036   0.079  -0.147   0.087  -0.003   0.067  -0.143   0.101   0.076  -0.088
   0.053   0.074  -0.103  -0.043   0.082  -0.019   0.007   0.025  -0.111   0.070
   0.067  -0.049  -0.049   0.053  -0.055   0.117  -0.148   0.077   0.038   0.053
  -0.050  -0.145   0.221  -0.124  -0.004   0.074   0.024  -0.059  -0.041   0.221
  -0.233   0.121   0.067  -0.098  -0.132   0.175  -0.056   0.030  -0.044  -0.036
  -0.016   0.150  -0.025  -0.075  -0.047  -0.057   0.121  -0.005  -0.032   0.001
   0.149  -0.325   0.283  -0.023  -0.157   0.245  -0.129  -0.079   0.168  -0.073
  -0.040   0.113  -0.055  -0.033   0.065  -0.022   0.067  -0.057   0.055   0.022
   0.024   0.029  -0.021   0.001   0.024   0.009  -0.015  -0.067   0.144  -0.025
   0.042  -0.076   0.071   0.013  -0.056   0.033  -0.033   0.032   0.021  -0.065
  -0.031  -0.018   0.023   0.095  -0.065  -0.044   0.040   0.015   0.052  -0.047
  -0.022   0.041  -0.096   0.004  -0.015   0.027   0.014   0.033  -0.111  -0.018
  -0.061   0.015   0.147  -0.097  -0.086  -0.023   0.050   0.018   0.063   0.011
  -0.116   0.012   0.081   0.047  -0.083  -0.040  -0.033  -0.032   0.066   0.067
  -0.054  -0.014  -0.039   0.004   0.109  -0.100   0.029  -0.017  -0.024   0.059
  -0.030  -0.024   0.019  -0.074   0.115  -0.025  -0.023  -0.062   0.046   0.017
   0.024  -0.049  -0.134   0.066   0.056  -0.006  -0.033  -0.021   0.004   0.047
   0.001  -0.030   0.039  -0.057  -0.026   0.025  -0.020  -0.028   0.038   0.001
   0.011  -0.024   0.013  -0.018   0.062  -0.019  -0.055   0.036   0.034  -0.041
  -0.053   0.108   0.021  -0.014  -0.060  -0.064  -0.028   0.052  -0.019   0.029
   0.009  -0.052   0.007   0.035  -0.036   0.060  -0.041  -0.021  -0.005  -0.018
   0.010   0.022   0.011  -0.016  -0.059   0.000   0.100  -0.018  -0.012  -0.002
   0.038   0.040  -0.069   0.002   0.029   0.065  -0.044  -0.039   0.008  -0.015
   0.026  -0.049   0.052  -0.050   0.019  -0.030  -0.020   0.046  -0.051   0.016
   0.050   0.014  -0.083   0.093   0.011   0.033  -0.021  -0.024   0.002   0.095
   0.069  -0.080   0.033  -0.063   0.085  -0.001  -0.052  -0.002  -0.017  -0.015
   0.010   0.041  -0.028  -0.007   0.023  -0.000   0.028   0.047  -0.093  -0.022
   0.061   0.061  -0.021  -0.047   0.027  -0.042  -0.047  -0.021   0.031   0.005
  -0.064   0.090  -0.061  -0.008  -0.007   0.062  -0.006   0.012   0.014  -0.061
   0.015   0.100   0.042  -0.058   0.003  -0.018  -0.023   0.076   0.010  -0.073
  -0.014   0.056  -0.008  -0.005   0.064  -0.082   0.015   0.078  -0.016  -0.111
   0.054   0.032   0.077  -0.095   0.003  -0.096   0.116  -0.032   0.027  -0.037
   0.063  -0.074   0.060   0.040  -0.025  -0.036   0.053   0.006  -0.046   0.204
  -0.141  -0.084   0.206  -0.076  -0.128   0.160  -0.045  -0.114   0.039   0.050
   0.004  -0.049   0.035   0.027   0.105  -0.120  -0.037   0.107   0.021  -0.095
  -0.038   0.050   0.083  -0.044  -0.069   0.071  -0.044  -0.039  -0.039   0.009
   0.066  -0.046  -0.050  -0.018   0.061  -0.000  -0.033  -0.078   0.040   0.056
   0.007  -0.156  -0.000   0.073  -0.064  -0.032  -0.026   0.079  -0.013  -0.101
   0.015   0.060   0.014  -0.025   0.042  -0.006  -0.067   0.013   0.032   0.060
  -0.008  -0.052  -0.049   0.009  -0.061   0.134  -0.004  -0.043  -0.112   0.042
   0.063   0.035  -0.077   0.125  -0.043  -0.057   0.070  -0.108   0.223   0.047
  -0.336   0.058   0.175  -0.019  -0.114  -0.042   0.172   0.077  -0.124   0.046
  -0.175   0.170   0.095  -0.147   0.013   0.072   0.073  -0.088   0.008   0.042
  -0.082   0.056   0.035  -0.081   0.023  -0.019  -0.055   0.044   0.008  -0.034
   0.018   0.026  -0.067   0.026   0.038  -0.061   0.000  -0.005  -0.029   0.036
   0.027   0.045  -0.041  -0.047   0.013   0.014   0.008  -0.068   0.012   0.048
   0.100  -0.187   0.106  -0.065   0.068  -0.034   0.018  -0.210   0.268   0.029
  -0.156   0.031  -0.192   0.186   0.028  -0.020  -0.033   0.011   0.026  -0.151
   0.039   0.210  -0.228   0.054  -0.017   0.099  -0.100  -0.021   0.050   0.065
  -0.086   0.002  -0.080   0.099  -0.038   0.005  -0.025  -0.032   0.030   0.075
  -0.059  -0.014  -0.041   0.151  -0.032  -0.013  -0.055   0.011   0.070  -0.021
   0.072  -0.124   0.055   0.066   0.001  -0.050   0.029  -0.039   0.110  -0.114
   0.043   0.070  -0.011   0.011  -0.076   0.027  -0.017   0.048  -0.022  -0.004
   0.062  -0.137   0.146  -0.017  -0.002  -0.073   0.118   0.003   0.029  -0.005
  -0.043   0.013   0.037  -0.020   0.023   0.101  -0.092  -0.004   0.003   0.049
   0.001   0.007   0.050  -0.125   0.095  -0.026   0.063  -0.103   0.117  -0.094
   0.021   0.045  -0.044   0.089  -0.090   0.091  -0.058   0.076  -0.096   0.124
  -0.048  -0.044   0.055  -0.021  -0.000   0.058   0.007  -0.047   0.075  -0.034
  -0.012  -0.063   0.051  -0.043   0.043  -0.068   0.044  -0.018  -0.037   0.029
   0.001  -0.029  -0.044  -0.015  -0.055   0.052  -0.001  -0.064  -0.011  -0.021
  -0.008   0.005   0.026   0.108  -0.085   0.063  -0.077  -0.010  -0.032  -0.043
   0.024   0.019   0.014  -0.052  -0.039   0.009   0.038  -0.032  -0.001  -0.055
   0.111  -0.170   0.051   0.091   0.020  -0.074   0.030  -0.062   0.095  -0.166
   0.035  -0.030   0.008   0.095  -0.100   0.041  -0.050   0.027   0.052  -0.058
   0.046  -0.004  -0.079   0.049   0.004   0.078  -0.094   0.029  -0.019  -0.013
  -0.062   0.097   0.077  -0.041   0.075  -0.112  -0.029   0.028  -0.021   0.038
  -0.066   0.007   0.074   0.027   0.057  -0.072  -0.024  -0.030  -0.074   0.255
  -0.168  -0.020   0.023  -0.036   0.071  -0.090   0.042   0.055  -0.012   0.038
  -0.018  -0.151   0.159  -0.054  -0.016  -0.027  -0.050   0.037   0.005  -0.025
  -0.044   0.091  -0.044  -0.004   0.067  -0.056  -0.037   0.090  -0.092   0.019
   0.038  -0.107   0.123  -0.040  -0.031   0.095  -0.092   0.096  -0.081   0.008
  -0.033  -0.025   0.071  -0.014   0.033   0.058  -0.108   0.041   0.001   0.024
   0.060  -0.109   0.029   0.042   0.062  -0.057   0.076  -0.122   0.117  -0.016
  -0.092   0.088  -0.054   0.053   0.059  -0.136   0.186  -0.035  -0.070   0.054
  -0.097   0.132  -0.173   0.102   0.057  -0.033  -0.037  -0.042  -0.064   0.132
  -0.163   0.148  -0.099   0.119  -0.174   0.062   0.143   0.097  -0.072  -0.298
   0.147   0.265  -0.059   0.062  -0.111  -0.098   0.076  -0.035  -0.054  -0.022
   0.068   0.089   0.044  -0.007  -0.002  -0.209   0.113  -0.083  -0.002   0.261
  -0.155  -0.060   0.039   0.069   0.267  -0.227  -0.070   0.010  -0.041   0.038
   0.123   0.216  -0.260   0.044  -0.211   0.009   0.344   0.146  -0.178  -0.161
   0.283   0.150  -0.347  -0.231  -0.099   0.039   0.318  -0.050  -0.066  -0.053
  -0.176  -0.004   0.255  -0.044   0.328  -0.419   0.064  -0.490   0.121   0.404
   0.235  -0.057  -0.847  -0.193   0.510   0.097   0.062   0.020   0.175   0.232
  -0.120   0.330  -0.217   0.051   0.018   0.261   0.599  -0.281  -0.402  -0.077
   0.229   0.179   0.248  -0.055   0.059  -0.532  -0.095   0.120  -0.230   0.306
  -0.326  -0.089  -0.072   0.378   0.433   0.104   0.086   0.017  -0.076   0.085
   0.102   0.344  -0.018  -0.071   0.582  -0.112  -0.067  -0.156   0.156   0.123
   0.224  -0.142   0.163  -0.220  -0.352  -0.345  -0.422   0.634  -0.188  -0.064
  -0.759  -0.225   0.419   0.282  -0.176  -0.630  -0.302  -0.114  -0.307   0.049
  -0.139  -0.212   0.124   0.209   0.103  -0.783  -0.403  -0.024   0.841   0.227
  -0.211  -0.369   0.001  -0.365   0.438   0.222   0.455  -0.203  -0.628  -0.171
   0.089   0.082  -0.628  -0.124  -0.599  -0.245  -0.596  -0.114   0.065  -0.019
  -0.021  -0.677  -0.591  -0.186  -0.098   0.275  -0.348  -0.756   0.098   0.628
   0.673   0.294  -0.088  -0.357   0.108   0.956   0.792   0.833  -0.117  -0.487
  -0.004   0.842   0.523   0.399   0.294   0.305   0.145  -0.209   0.218  -0.254
  -0.301   0.252   0.756   0.204  -1.034  -0.019   0.450   0.250   0.099  -0.413
  -0.052   0.564   0.187  -0.540  -0.622   0.289   0.159   0.261   0.515   0.112
   0.107  -0.027  -0.166   0.017  -0.068   0.162   0.401   0.140  -0.010   0.164
   0.279  -0.033  -0.119   0.269   0.130  -0.315  -0.289  -0.012   0.740  -0.245
  -0.658  -0.457   0.061   0.339  -0.250  -0.269  -0.099   0.205  -0.186  -0.061
  -0.193  -0.149  -0.291   0.151   0.750   0.369   0.301   0.132   0.690  -0.457
   0.031   0.375   0.498   0.232  -0.008   0.275   0.315  -0.318  -0.434   0.103
   0.569   0.969  -0.218  -0.595  -0.479   0.478  -0.240   0.192  -0.129   0.076
  -0.005  -0.062  -0.281  -0.697  -0.154  -0.006   0.410   0.304  -0.133  -1.016
  -0.845  -0.575  -0.153  -0.184   0.089   0.045  -0.263  -0.164  -0.034  -0.506
  -0.242  -0.012  -0.361  -0.163  -0.942  -1.052  -0.795   0.240   0.545  -0.073
  -0.110   0.005   0.419   0.170  -0.453  -0.176   0.605   0.160  -0.737  -0.890
  -0.342  -0.025  -0.188   0.312   0.193  -0.014  -0.295  -0.714  -1.317  -0.100
   0.392   0.559  -0.243  -0.446  -0.323  -0.039   0.933   0.767   0.721   0.293
   0.378   1.015   0.469  -0.713  -0.477   0.475   1.191   0.105  -0.131   0.027
   0.712   0.482  -0.791  -0.321   0.440   0.500   0.111  -0.033  -0.191   0.440
   0.069   0.252   0.598   0.061   0.291   0.500   0.470   1.146   0.774   0.136
   0.214   0.534  -0.206  -0.706  -0.531  -0.457   0.030   0.423  -0.774  -1.396
