Corrected accelerogram 20160214_001343_MOTS_20 GNS Science
Site MOTS      41 07 29S  173 00 34E     Basalt file:  20160214_001425_MOTS
Motueka DOC workshop
Instrument Basalt_2421
Resolution: 24-bit   Instr Period: 0.0050 s   Damping: 0.700
Accelerogram 20160214_001343_MOTS_20                 Processed 2016 February 22
11 km east of CHRISTCHURCH
2016 February 14         00:13:43 UT
Epicentre  43 29 50S 172 45 18E  Bearing S04W  Dist  264km  Depth    8km M  5.70
Number of points  8192    Duration 163.82 sec
Instrument corrected data at 0.020 sec intervals
Band-pass filter transition bands are .10-.25 Hz and 24.50-25.50 Hz
Component N00E  Horizontal Axis 1
Acceleration:  peak      6.3 mm/s/s at  76.10 sec     rms      1.0 mm/s/s
Velocity:      peak    -1.00 mm/s   at 108.82 sec     rms     0.24 mm/s
Displacement:  peak    0.493 mm     at 128.04 sec     rms    0.121 mm
    2016       2      14       0      13     430       0       0    2016       2
      43      29      50     172      45      18       8       0      14       0
      41       7      29     173       0      34       0       0     184     264
   34200     250     250    8192    8192    8192       0       0      13   45000
   200.0    0.70    0.00   0.000  0.0000   0.000   0.000   1.000     0.0    0.00
  41.125 173.010   43.50  172.76    5.70    0.00    0.00    0.00      0.      0.
  171.00    5.00    5.00  163.82  0.0050  0.0200      0.      0.      0.  9806.6
    -6.8   75.43     1.0   0.000      0.     6.3   76.10     1.0     6.9   0.458
   -1.00  108.82    0.24    1.38   0.360    0.49  128.04    0.12    0.59   0.208
   0.100   0.150   0.250      0.      0.  24.500   1.000  25.500      0.      0.
  -0.000   0.001  -0.000   0.001  -0.000   0.001  -0.000   0.001  -0.000   0.001
  -0.000   0.001  -0.000   0.001  -0.000   0.000  -0.000   0.000  -0.000   0.000
  -0.000   0.000  -0.000   0.000  -0.001   0.000  -0.001   0.000  -0.001   0.000
  -0.001   0.000  -0.001   0.000  -0.001   0.000  -0.001   0.000  -0.001   0.000
  -0.001   0.000  -0.001   0.000  -0.001   0.000  -0.001   0.000  -0.001   0.000
  -0.001   0.000  -0.001   0.000  -0.001   0.000  -0.001   0.000  -0.001  -0.000
  -0.001  -0.000  -0.001  -0.000  -0.001  -0.000  -0.001  -0.000  -0.001  -0.000
  -0.001  -0.000  -0.001  -0.000  -0.001  -0.000  -0.001  -0.000  -0.001  -0.000
  -0.001  -0.000  -0.001  -0.000  -0.001  -0.000  -0.001  -0.000  -0.001  -0.000
  -0.001  -0.000  -0.001  -0.000  -0.001  -0.000  -0.001  -0.000  -0.001  -0.000
  -0.001  -0.000  -0.001  -0.000  -0.001  -0.000  -0.001  -0.000  -0.001  -0.000
  -0.001  -0.000  -0.001  -0.000  -0.001  -0.000  -0.001  -0.000  -0.001  -0.000
  -0.001  -0.000  -0.001  -0.000  -0.001  -0.000  -0.001  -0.000  -0.001  -0.000
  -0.001  -0.000  -0.001  -0.000  -0.001  -0.000  -0.001  -0.000  -0.001  -0.000
  -0.001  -0.000  -0.001  -0.000  -0.001  -0.000  -0.001   0.000  -0.001   0.000
  -0.001   0.000  -0.001   0.000  -0.001   0.000  -0.001   0.000  -0.001   0.000
  -0.001   0.001  -0.001   0.001  -0.000   0.001  -0.000   0.001  -0.000   0.001
  -0.000   0.001  -0.000   0.001  -0.000   0.001  -0.000   0.001   0.000   0.001
   0.000   0.002   0.000   0.002   0.000   0.002   0.000   0.002   0.001   0.002
   0.001   0.002   0.001   0.002   0.001   0.002   0.001   0.003   0.001   0.003
   0.001   0.003   0.001   0.003   0.002   0.003   0.002   0.003   0.002   0.003
   0.002   0.004   0.002   0.004   0.002   0.004   0.002   0.004   0.003   0.004
   0.003   0.004   0.003   0.005   0.003   0.005   0.003   0.005   0.003   0.005
   0.004   0.005   0.004   0.005   0.004   0.005   0.004   0.006   0.004   0.006
   0.005   0.006   0.005   0.006   0.005   0.006   0.005   0.007   0.004   0.010
   0.020  -0.031  -0.004  -0.001   0.027  -0.027  -0.002   0.028   0.015  -0.020
  -0.019  -0.023   0.010   0.013   0.000   0.012  -0.077   0.022   0.022  -0.056
  -0.012   0.010   0.045  -0.030   0.035   0.022   0.028  -0.054   0.027   0.001
   0.036  -0.058  -0.017   0.044  -0.045   0.004  -0.014  -0.005  -0.016  -0.021
  -0.001  -0.020  -0.016   0.028  -0.024   0.039  -0.038  -0.019  -0.012  -0.002
   0.018  -0.090   0.066  -0.017  -0.045   0.002  -0.006  -0.031  -0.003  -0.020
   0.020   0.008  -0.045   0.040  -0.081   0.037   0.048  -0.011  -0.023   0.028
  -0.038   0.072  -0.091   0.129  -0.061  -0.018   0.064  -0.059   0.002  -0.034
   0.007   0.033  -0.077   0.059  -0.049  -0.020   0.042   0.011  -0.036  -0.036
   0.082  -0.111   0.015   0.068  -0.059  -0.023   0.087  -0.018   0.013  -0.037
   0.087  -0.083   0.047   0.099  -0.084   0.020   0.060  -0.012   0.004   0.022
   0.021  -0.031   0.024   0.041  -0.029  -0.026  -0.016   0.036  -0.013  -0.019
   0.060  -0.028  -0.047   0.062  -0.023  -0.017   0.052  -0.003  -0.053   0.071
  -0.021   0.007   0.024   0.008   0.026  -0.035   0.036  -0.031  -0.028   0.029
  -0.018  -0.030   0.026   0.051  -0.031  -0.048   0.054  -0.028   0.007   0.027
  -0.010  -0.056   0.029   0.019   0.009  -0.037   0.013   0.013  -0.001   0.030
  -0.044   0.104   0.016  -0.066   0.006   0.032  -0.051   0.032  -0.051   0.032
   0.049  -0.042   0.023   0.021  -0.003   0.010  -0.050  -0.004  -0.002   0.027
  -0.039  -0.006  -0.023  -0.016   0.031   0.016  -0.039   0.059  -0.098   0.024
  -0.042   0.026   0.012  -0.060  -0.000   0.050  -0.000  -0.002   0.010   0.021
  -0.063   0.030   0.018  -0.016   0.012   0.004   0.009  -0.015   0.021   0.027
   0.007  -0.008  -0.010   0.027  -0.001  -0.072   0.009   0.033   0.038  -0.035
   0.031   0.000  -0.064  -0.001  -0.050   0.024  -0.050   0.019   0.021  -0.031
  -0.012  -0.003   0.000  -0.006  -0.000   0.025  -0.047   0.034  -0.022  -0.019
   0.002  -0.033  -0.016   0.013  -0.013   0.004  -0.005   0.047   0.012  -0.027
   0.056  -0.050   0.011   0.004  -0.041   0.028  -0.038   0.036   0.024  -0.029
   0.031   0.031  -0.063   0.050   0.021   0.007  -0.051   0.073  -0.045  -0.038
   0.113  -0.090  -0.012   0.046   0.000  -0.034   0.026  -0.010   0.028  -0.001
   0.018   0.012   0.019   0.062  -0.071   0.034  -0.011  -0.038   0.009   0.024
   0.023  -0.075   0.093  -0.001   0.003  -0.024   0.142  -0.106   0.040   0.035
  -0.036  -0.037   0.040  -0.010   0.009  -0.057   0.021   0.010  -0.050   0.062
  -0.043   0.008  -0.012   0.013  -0.003   0.010  -0.020   0.038  -0.007   0.016
   0.015  -0.035  -0.004  -0.012   0.024  -0.047   0.006  -0.011  -0.034   0.008
   0.002  -0.025   0.077  -0.030  -0.030   0.060   0.005  -0.012   0.024  -0.005
   0.010  -0.007  -0.013   0.028  -0.016  -0.014   0.009   0.009   0.024   0.003
  -0.042   0.001  -0.066   0.060  -0.016  -0.014   0.019   0.005  -0.033   0.009
   0.016  -0.043   0.081  -0.098   0.089  -0.039   0.002   0.062  -0.097   0.083
   0.019  -0.044  -0.000  -0.010  -0.001   0.034  -0.039   0.040   0.045  -0.114
   0.033   0.011  -0.072   0.024   0.010   0.004  -0.052   0.019  -0.012  -0.036
   0.037  -0.011   0.049  -0.022  -0.045   0.035  -0.023  -0.059   0.027  -0.066
   0.045  -0.011   0.034  -0.061   0.031  -0.013   0.017  -0.025   0.026   0.005
  -0.003  -0.056   0.014  -0.010   0.036  -0.049   0.042  -0.025   0.010   0.019
   0.008  -0.066   0.013  -0.007   0.017  -0.009   0.000   0.005  -0.051   0.020
   0.015  -0.032   0.010   0.038   0.021  -0.020   0.020   0.015  -0.017   0.079
  -0.029  -0.026  -0.006   0.043  -0.008  -0.056   0.027   0.020  -0.025  -0.001
  -0.023   0.012  -0.027   0.060  -0.001  -0.021   0.052  -0.019   0.006   0.023
  -0.006   0.017  -0.012  -0.015   0.063  -0.072   0.036   0.051  -0.044   0.013
  -0.020   0.065   0.010  -0.071   0.102  -0.045  -0.017   0.043  -0.060   0.067
  -0.024   0.027   0.038  -0.015  -0.010   0.040  -0.051   0.043  -0.029  -0.024
   0.011  -0.018   0.094  -0.065   0.079   0.025  -0.084   0.095  -0.012  -0.047
   0.036   0.025  -0.072   0.074  -0.020   0.082  -0.137   0.092  -0.071   0.042
  -0.034   0.011  -0.067   0.041   0.002   0.015   0.016  -0.031   0.005  -0.051
   0.098  -0.070   0.026  -0.012  -0.019  -0.017   0.028  -0.056   0.010  -0.014
   0.011   0.032  -0.032   0.035  -0.003  -0.033   0.050  -0.012   0.023  -0.046
  -0.025  -0.030  -0.017   0.010  -0.022   0.002  -0.025   0.004   0.038  -0.052
   0.035   0.047  -0.082   0.051  -0.046   0.045  -0.053   0.033   0.056  -0.062
  -0.013   0.107  -0.128   0.048   0.028  -0.050   0.055  -0.048   0.070  -0.105
   0.091  -0.053  -0.027   0.017  -0.026  -0.016   0.052  -0.040   0.017  -0.013
   0.041  -0.061   0.038  -0.004   0.010  -0.041  -0.003   0.032  -0.057   0.066
  -0.015   0.039  -0.063   0.041  -0.041   0.023  -0.055  -0.019  -0.012   0.090
  -0.060   0.062  -0.040   0.067  -0.060  -0.000   0.044  -0.068   0.035  -0.037
  -0.010  -0.011  -0.049   0.023  -0.034   0.023  -0.019  -0.022   0.023   0.004
   0.009  -0.024   0.051  -0.014   0.038   0.019  -0.002  -0.017   0.064  -0.071
  -0.010   0.029  -0.030   0.013  -0.012   0.089  -0.077   0.049   0.040  -0.125
   0.111  -0.028  -0.087   0.081  -0.041   0.079  -0.054   0.069  -0.056  -0.038
   0.076   0.008  -0.033   0.002   0.001  -0.003  -0.010   0.000  -0.028   0.013
   0.003   0.012  -0.017   0.039  -0.010   0.040  -0.021   0.027  -0.006   0.060
  -0.072   0.046  -0.009  -0.015  -0.030   0.014  -0.003   0.066  -0.070   0.045
   0.034  -0.044   0.019  -0.017   0.032  -0.029   0.025   0.041  -0.070   0.022
   0.009   0.002  -0.006  -0.020   0.026   0.036  -0.095   0.052  -0.061   0.078
  -0.119   0.096  -0.056  -0.003   0.052  -0.064   0.005   0.082  -0.120   0.041
   0.027  -0.023   0.059  -0.067   0.065   0.011  -0.006   0.008  -0.036   0.063
  -0.022  -0.008   0.039   0.010   0.060  -0.061   0.039  -0.011   0.017   0.064
  -0.054   0.043  -0.064   0.051   0.019  -0.053   0.035  -0.034  -0.033  -0.013
   0.020   0.005  -0.047   0.041   0.006  -0.041   0.046   0.007  -0.045   0.001
   0.011   0.010   0.022  -0.052   0.025   0.015  -0.003   0.014  -0.022   0.027
  -0.067   0.032   0.013  -0.052   0.017  -0.053   0.011  -0.013  -0.024   0.079
  -0.073   0.041  -0.040  -0.050   0.077  -0.057  -0.026   0.074  -0.011  -0.008
   0.043  -0.087   0.076  -0.034   0.062  -0.037   0.028   0.039  -0.088   0.030
   0.000   0.015   0.006  -0.042   0.016  -0.021  -0.008  -0.000  -0.052   0.035
   0.019  -0.030  -0.002  -0.011   0.060  -0.026   0.013  -0.013   0.006  -0.023
  -0.038   0.055  -0.001  -0.038   0.034  -0.043   0.051  -0.057   0.023   0.003
   0.066  -0.065   0.041   0.050  -0.050   0.002   0.018  -0.092   0.029   0.035
  -0.072  -0.010   0.010   0.028  -0.035   0.003   0.004  -0.000   0.005  -0.001
   0.030  -0.001   0.030  -0.044   0.006  -0.005   0.001  -0.020  -0.027   0.054
  -0.057   0.030  -0.020   0.013   0.027  -0.034  -0.060   0.132  -0.194   0.107
   0.048  -0.046   0.010   0.051  -0.041   0.032   0.063  -0.046  -0.070   0.121
  -0.093   0.054   0.060  -0.082   0.067  -0.012  -0.033   0.046   0.064  -0.114
   0.048  -0.053   0.055  -0.031   0.041  -0.062   0.035   0.004  -0.021   0.022
   0.045  -0.047   0.007   0.076  -0.078   0.007  -0.023   0.067  -0.033   0.024
   0.023  -0.044   0.023  -0.061   0.037  -0.002  -0.003   0.005   0.003  -0.042
   0.063  -0.103   0.082  -0.052  -0.037   0.025  -0.028  -0.026   0.057  -0.029
   0.024  -0.036  -0.030   0.037  -0.007  -0.022  -0.026   0.053  -0.115   0.150
  -0.017  -0.048  -0.015   0.078  -0.061   0.005   0.035  -0.040  -0.006   0.043
  -0.089   0.136  -0.071   0.002  -0.013   0.062  -0.077   0.021   0.044  -0.016
   0.019  -0.017  -0.044   0.037   0.006  -0.020  -0.005   0.058  -0.050  -0.021
  -0.004   0.061  -0.041   0.072  -0.058   0.022  -0.053   0.028   0.014  -0.038
  -0.002   0.030   0.036  -0.062   0.021   0.044  -0.036   0.082  -0.018   0.022
   0.026  -0.040   0.067  -0.072   0.068  -0.017   0.018   0.013   0.010   0.008
  -0.015  -0.033   0.058  -0.054   0.079  -0.083   0.084  -0.060   0.028   0.041
  -0.056   0.034  -0.026   0.020   0.023  -0.029   0.032  -0.027  -0.026   0.009
  -0.008  -0.001  -0.060   0.075  -0.074   0.015  -0.029  -0.006  -0.004   0.016
  -0.057   0.018  -0.016  -0.012   0.012   0.005   0.015  -0.011  -0.017   0.039
  -0.067  -0.001   0.010   0.034  -0.054   0.048  -0.029   0.027  -0.013  -0.007
   0.041  -0.034   0.004   0.034  -0.035  -0.037   0.061  -0.060   0.059  -0.101
   0.040  -0.022   0.039   0.027   0.036  -0.018   0.018   0.037  -0.048   0.102
  -0.076   0.007   0.031   0.055  -0.077   0.038  -0.012  -0.042   0.110  -0.108
   0.034  -0.042   0.087  -0.054   0.024  -0.036   0.063  -0.090   0.070  -0.060
   0.033   0.042  -0.085   0.029  -0.032   0.054  -0.048   0.011   0.019   0.070
  -0.105   0.045  -0.013  -0.005  -0.039   0.010  -0.019  -0.058   0.066  -0.111
   0.116  -0.061   0.038  -0.046  -0.015   0.013   0.001   0.012  -0.043  -0.008
   0.083  -0.068   0.023  -0.004   0.043  -0.095   0.093  -0.039   0.013   0.016
  -0.017   0.069  -0.070   0.095  -0.070   0.029  -0.070   0.027  -0.008  -0.017
   0.051  -0.010  -0.029   0.053  -0.007  -0.033  -0.016   0.012  -0.020  -0.028
   0.037   0.034  -0.058   0.038  -0.037  -0.011   0.016  -0.076   0.058  -0.013
  -0.031   0.029   0.081  -0.018  -0.016  -0.004  -0.034   0.018  -0.029   0.023
   0.026   0.054  -0.087  -0.003   0.018   0.030  -0.073   0.080  -0.070   0.068
  -0.045   0.018   0.010   0.054  -0.004  -0.052   0.096  -0.059   0.051  -0.049
   0.079  -0.043   0.002   0.023   0.063   0.017  -0.102   0.124  -0.117   0.082
  -0.053   0.025   0.023  -0.032   0.036   0.005   0.002  -0.061   0.070  -0.091
   0.075  -0.022  -0.041   0.021   0.042  -0.061   0.058  -0.043   0.067  -0.022
   0.003  -0.024  -0.001  -0.022   0.006   0.012  -0.035  -0.044   0.043   0.060
  -0.112  -0.001   0.009  -0.003   0.016   0.013  -0.029  -0.010   0.040   0.025
   0.010  -0.054   0.052  -0.052  -0.003   0.055  -0.041  -0.017   0.066  -0.059
   0.014   0.054  -0.063   0.033  -0.004   0.046  -0.112   0.063  -0.059  -0.034
   0.065  -0.066   0.139  -0.173   0.185  -0.071  -0.069   0.114  -0.084  -0.024
   0.067  -0.025   0.034  -0.083   0.074  -0.015  -0.009   0.012  -0.066   0.087
  -0.014  -0.033  -0.035   0.076  -0.133   0.059  -0.003   0.015  -0.037   0.041
  -0.027   0.019  -0.014  -0.022  -0.042   0.053  -0.020   0.022  -0.058   0.090
  -0.042   0.038   0.004  -0.039   0.022   0.011   0.016  -0.156   0.147   0.016
  -0.087   0.079  -0.037   0.058  -0.022   0.028  -0.055  -0.027   0.121  -0.063
   0.028   0.028   0.017  -0.074   0.097  -0.093   0.035   0.022  -0.008  -0.012
   0.013  -0.020   0.033  -0.018   0.015   0.012  -0.022   0.000  -0.023  -0.049
   0.041   0.014   0.000   0.015  -0.050   0.022  -0.053   0.098  -0.074   0.054
   0.028  -0.056   0.038   0.004  -0.078   0.008   0.034  -0.001  -0.068   0.112
  -0.021  -0.076   0.050  -0.030   0.002  -0.033   0.018  -0.009  -0.029   0.020
  -0.000   0.002  -0.055   0.010   0.006   0.006  -0.028   0.066  -0.085   0.012
   0.036  -0.055   0.041   0.003   0.039   0.009   0.031  -0.045   0.039   0.030
  -0.066   0.080  -0.028   0.024  -0.032   0.005   0.023   0.022  -0.079   0.070
   0.003  -0.053  -0.006   0.115  -0.115  -0.001   0.086  -0.109   0.021   0.085
  -0.154   0.070   0.024  -0.037   0.080  -0.071   0.002   0.029  -0.043  -0.065
   0.069  -0.032   0.026  -0.049   0.061   0.002   0.025  -0.008  -0.005   0.023
   0.054  -0.015   0.002   0.018  -0.028   0.016   0.004   0.000  -0.000  -0.006
  -0.018   0.057  -0.057   0.013   0.025  -0.005   0.000  -0.009   0.018  -0.015
   0.018  -0.032   0.010  -0.018   0.004  -0.024   0.059  -0.023  -0.027   0.023
   0.012  -0.024   0.053  -0.073   0.091  -0.051  -0.029   0.023   0.028  -0.004
  -0.019  -0.024   0.036  -0.001  -0.052   0.086  -0.068   0.063  -0.074  -0.013
   0.037  -0.051   0.024   0.027  -0.030   0.024  -0.007   0.035  -0.107   0.116
  -0.043  -0.050   0.022  -0.016   0.022  -0.054  -0.015   0.111  -0.137   0.077
  -0.053   0.105  -0.053   0.033  -0.048   0.037  -0.065   0.008  -0.022   0.023
  -0.031  -0.017  -0.021   0.040  -0.063   0.035   0.027  -0.024   0.041  -0.004
  -0.018   0.029   0.035  -0.012   0.001   0.010   0.001  -0.011  -0.010  -0.023
   0.012   0.023  -0.033   0.031   0.018  -0.073   0.038   0.011  -0.043   0.012
   0.039  -0.005  -0.020   0.022   0.030  -0.042  -0.017   0.042   0.021  -0.050
   0.006   0.011  -0.011  -0.042   0.096  -0.052   0.004   0.001   0.044   0.008
   0.034  -0.036   0.091  -0.081   0.028  -0.018  -0.009  -0.053   0.026  -0.032
   0.048  -0.048  -0.011   0.023  -0.033   0.013   0.052  -0.074   0.079  -0.021
  -0.074   0.080   0.028  -0.035  -0.053   0.044  -0.031  -0.009  -0.030   0.079
  -0.018   0.018  -0.039   0.022  -0.007   0.021   0.020  -0.056   0.011   0.016
   0.022  -0.036   0.015   0.038  -0.028   0.017   0.012   0.023  -0.066   0.032
   0.031  -0.050   0.001   0.030  -0.001  -0.031   0.032  -0.082   0.050   0.028
  -0.081   0.090   0.021  -0.098   0.135  -0.052  -0.072   0.024   0.049  -0.074
   0.042  -0.015  -0.003  -0.019   0.019  -0.084   0.050   0.050  -0.065   0.013
   0.029  -0.030  -0.002   0.035  -0.032  -0.019   0.044  -0.057   0.014  -0.004
   0.010  -0.008  -0.048   0.152  -0.157   0.103  -0.031   0.069  -0.068   0.045
   0.006  -0.008   0.032   0.002   0.015  -0.022  -0.004  -0.037   0.068  -0.041
   0.032   0.006  -0.045   0.024   0.064   0.031  -0.036   0.007  -0.003   0.007
  -0.067  -0.011   0.031   0.011  -0.010  -0.024   0.037  -0.021  -0.014   0.022
   0.028   0.000   0.013  -0.001  -0.040   0.046   0.028  -0.003   0.012   0.044
  -0.001  -0.025   0.030   0.022  -0.015  -0.003   0.025  -0.036  -0.001   0.029
  -0.003  -0.011   0.020  -0.015   0.017  -0.007  -0.005  -0.026   0.014  -0.009
  -0.013  -0.030   0.063  -0.039  -0.005   0.003   0.000   0.062  -0.134   0.072
   0.019  -0.044   0.003  -0.021  -0.019  -0.023   0.040  -0.023  -0.006   0.029
  -0.010   0.021   0.001   0.002  -0.013  -0.018   0.031  -0.028   0.016   0.049
  -0.038   0.048   0.003  -0.030   0.018   0.006  -0.041  -0.016   0.017  -0.054
   0.016  -0.047   0.048  -0.061  -0.016   0.084   0.026  -0.027   0.002   0.006
   0.072  -0.091   0.003   0.048  -0.035  -0.002  -0.019   0.018   0.017  -0.063
   0.085  -0.021  -0.021   0.040  -0.012  -0.012  -0.011  -0.006  -0.077   0.058
  -0.033   0.013  -0.021   0.005   0.035  -0.040  -0.011  -0.038   0.002  -0.053
   0.022  -0.011  -0.031   0.035  -0.052   0.018  -0.011   0.001   0.000   0.011
  -0.061   0.011  -0.000  -0.034   0.015   0.008  -0.033  -0.013  -0.023   0.019
  -0.017  -0.022   0.019   0.008  -0.034   0.016  -0.016  -0.001  -0.018  -0.004
   0.055  -0.086   0.065  -0.001  -0.001  -0.073   0.035  -0.033  -0.025  -0.004
  -0.016  -0.009  -0.035  -0.004  -0.041  -0.003  -0.016   0.015  -0.059   0.089
  -0.059  -0.021   0.008   0.011   0.024  -0.087   0.004   0.005  -0.036   0.023
  -0.037  -0.000  -0.009  -0.034   0.013  -0.037  -0.075   0.055  -0.052   0.015
   0.028  -0.066  -0.002   0.003  -0.006  -0.009   0.005  -0.014  -0.015  -0.076
   0.028   0.001  -0.061   0.028  -0.018   0.039  -0.041  -0.053   0.072  -0.067
   0.031   0.013  -0.020  -0.060   0.072  -0.039  -0.035   0.076  -0.054   0.058
  -0.040   0.079  -0.015  -0.010   0.047   0.037   0.034   0.072   0.037   0.032
   0.069   0.052   0.034   0.016   0.089   0.135  -0.027   0.130   0.061   0.018
   0.105   0.023   0.035   0.064  -0.006  -0.023  -0.047  -0.028   0.082   0.019
   0.103   0.169   0.218   0.155   0.191   0.072  -0.063   0.022  -0.112  -0.143
  -0.049   0.039   0.019   0.231   0.211   0.169   0.358   0.147   0.167   0.107
   0.107  -0.082   0.034  -0.026   0.007  -0.036  -0.059  -0.058   0.038   0.098
   0.004   0.164   0.226   0.150   0.040  -0.064   0.030  -0.214  -0.122  -0.176
  -0.163  -0.034   0.032   0.189   0.328   0.371   0.255   0.154   0.094  -0.242
  -0.360  -0.230  -0.222  -0.211   0.112   0.127   0.149   0.215   0.291   0.392
   0.141  -0.044  -0.196  -0.426  -0.326  -0.291  -0.340  -0.117  -0.007   0.049
  -0.037  -0.174  -0.339  -0.271  -0.306  -0.482  -0.630  -0.458  -0.424  -0.558
  -0.431  -0.146   0.111   0.173   0.416   0.423   0.201  -0.009  -0.593  -0.680
