Corrected accelerogram 20160214_001343_HAVS_20 GNS Science
Site HAVS      41 16 20S  173 47 05E     Basalt file:  20160214_001423_HAVS
Havelock
Instrument Basalt_1678
Resolution: 24-bit   Instr Period: 0.0050 s   Damping: 0.700
Accelerogram 20160214_001343_HAVS_20                 Processed 2016 February 22
11 km east of CHRISTCHURCH
2016 February 14         00:13:43 UT
Epicentre  43 29 50S 172 45 18E  Bearing S19W  Dist  261km  Depth    8km M  5.70
Number of points  8192    Duration 163.82 sec
Instrument corrected data at 0.020 sec intervals
Band-pass filter transition bands are .10-.25 Hz and 24.50-25.50 Hz
Component N00E  Horizontal Axis 1
Acceleration:  peak      4.4 mm/s/s at  71.12 sec     rms      0.6 mm/s/s
Velocity:      peak    -0.53 mm/s   at  52.40 sec     rms     0.11 mm/s
Displacement:  peak    0.211 mm     at  51.74 sec     rms    0.051 mm
    2016       2      14       0      13     430       0       0    2016       2
      43      29      50     172      45      18       8       0      14       0
      41      16      20     173      47       5       0       0     199     261
   31800     250     250    8192    8192    8192       0       0      13   43000
   200.0    0.70    0.00   0.000  0.0000   0.000   0.000   1.000     0.0    0.00
  41.272 173.785   43.50  172.76    5.70    0.00    0.00    0.00      0.      0.
  159.00    5.00    5.00  163.82  0.0050  0.0200      0.      0.      0.  9806.6
     5.4   71.11     0.7   0.000      0.     4.4   71.12     0.6     6.4   0.339
   -0.53   52.40    0.11    0.53   0.281    0.21   51.74    0.05    0.21   0.281
   0.100   0.150   0.250      0.      0.  24.500   1.000  25.500      0.      0.
  -0.002  -0.001  -0.001  -0.001  -0.001  -0.001  -0.001  -0.001  -0.001  -0.001
  -0.001  -0.000  -0.001  -0.000  -0.000  -0.000  -0.000   0.000  -0.000   0.000
   0.000   0.001   0.000   0.001   0.001   0.001   0.001   0.001   0.001   0.001
   0.001   0.002   0.001   0.002   0.002   0.002   0.002   0.002   0.002   0.003
   0.002   0.003   0.003   0.003   0.003   0.003   0.003   0.004   0.003   0.004
   0.004   0.004   0.004   0.004   0.004   0.005   0.005   0.005   0.005   0.005
   0.005   0.005   0.005   0.006   0.006   0.006   0.006   0.006   0.006   0.006
   0.006   0.007   0.007   0.007   0.007   0.007   0.007   0.007   0.007   0.008
   0.007   0.008   0.008   0.008   0.008   0.008   0.008   0.008   0.008   0.008
   0.008   0.009   0.008   0.009   0.009   0.009   0.009   0.009   0.009   0.009
   0.009   0.009   0.009   0.009   0.009   0.009   0.009   0.009   0.009   0.009
   0.009   0.009   0.009   0.009   0.009   0.009   0.009   0.009   0.009   0.009
   0.008   0.009   0.008   0.008   0.008   0.008   0.008   0.008   0.008   0.008
   0.007   0.007   0.007   0.007   0.007   0.007   0.006   0.006   0.006   0.006
   0.005   0.005   0.005   0.005   0.004   0.004   0.004   0.004   0.003   0.003
   0.003   0.003   0.002   0.002   0.002   0.001   0.001   0.001   0.000  -0.000
  -0.001  -0.001  -0.001  -0.002  -0.002  -0.002  -0.003  -0.003  -0.004  -0.004
  -0.005  -0.005  -0.006  -0.006  -0.007  -0.007  -0.008  -0.008  -0.009  -0.009
  -0.010  -0.010  -0.011  -0.012  -0.012  -0.013  -0.013  -0.014  -0.014  -0.015
  -0.016  -0.016  -0.017  -0.018  -0.018  -0.019  -0.019  -0.020  -0.021  -0.022
  -0.022  -0.023  -0.023  -0.025  -0.025  -0.026  -0.026  -0.027  -0.028  -0.029
  -0.029  -0.031  -0.031  -0.032  -0.032  -0.034  -0.034  -0.035  -0.035  -0.037
  -0.037  -0.038  -0.038  -0.040  -0.040  -0.042  -0.042  -0.043  -0.043  -0.045
  -0.045  -0.047  -0.046  -0.049  -0.048  -0.050  -0.050  -0.052  -0.051  -0.054
  -0.053  -0.056  -0.054  -0.058  -0.056  -0.060  -0.057  -0.062  -0.058  -0.062
  -0.023   0.076   0.065   0.084   0.042   0.036   0.075   0.049   0.055   0.084
   0.066   0.048   0.075   0.067   0.064   0.057   0.046   0.074   0.058   0.055
   0.043   0.040   0.036   0.048   0.036   0.047   0.044   0.062   0.052   0.022
   0.036   0.023   0.027   0.026   0.038   0.047   0.013   0.013   0.044   0.017
   0.047  -0.003   0.024  -0.011   0.018   0.010   0.014   0.033   0.016   0.040
   0.032   0.039   0.032   0.014   0.005   0.006   0.027   0.011   0.006   0.017
   0.050  -0.013  -0.001  -0.005   0.019   0.022  -0.004   0.002   0.026   0.017
   0.010   0.000  -0.005  -0.022  -0.001  -0.018  -0.010   0.004  -0.005  -0.006
  -0.004  -0.011  -0.026  -0.033   0.014   0.035   0.007   0.047  -0.017  -0.003
  -0.005   0.021   0.011   0.020   0.013   0.022  -0.014  -0.011  -0.005  -0.020
  -0.004   0.029   0.004   0.005  -0.003   0.014   0.006  -0.019  -0.014  -0.021
  -0.018   0.001   0.010  -0.002  -0.031   0.004  -0.010   0.012   0.013   0.006
   0.007   0.013   0.006   0.018   0.004  -0.012  -0.017  -0.016  -0.009   0.018
   0.000   0.009  -0.022  -0.008  -0.022   0.003  -0.002  -0.008  -0.032   0.015
   0.005   0.016  -0.001  -0.003   0.034  -0.009  -0.014  -0.001  -0.019  -0.013
  -0.011  -0.015  -0.020  -0.011  -0.033  -0.006  -0.043  -0.015   0.012  -0.012
  -0.012  -0.019  -0.000  -0.016  -0.038  -0.024   0.050   0.007  -0.039   0.040
   0.011  -0.032  -0.030   0.004   0.026  -0.049  -0.048   0.002  -0.012  -0.042
  -0.000   0.014  -0.008  -0.005   0.003   0.018  -0.061  -0.010  -0.014  -0.031
   0.008  -0.028   0.005   0.017  -0.040   0.015  -0.020  -0.019  -0.003   0.016
  -0.029  -0.025  -0.002  -0.027  -0.017   0.005  -0.018  -0.014   0.014  -0.014
   0.001  -0.019  -0.011   0.008  -0.029  -0.010   0.012   0.012  -0.021   0.006
  -0.007   0.028  -0.018   0.006   0.013   0.017   0.009   0.001   0.005   0.021
  -0.028   0.015  -0.016  -0.026  -0.029   0.011   0.029  -0.009   0.001   0.017
  -0.006   0.006   0.001  -0.017   0.005   0.018  -0.006  -0.000   0.007   0.013
   0.008  -0.007  -0.015  -0.004   0.002  -0.015   0.033   0.026   0.023   0.019
  -0.002  -0.021   0.015  -0.018   0.026   0.014  -0.023   0.018   0.039   0.004
   0.040   0.007  -0.019   0.040   0.012  -0.000  -0.008  -0.017   0.013  -0.010
   0.017  -0.025  -0.001  -0.019  -0.029  -0.018  -0.004  -0.005  -0.006  -0.008
   0.024   0.026   0.010  -0.001   0.016   0.034   0.014   0.007   0.029  -0.034
  -0.003  -0.007  -0.030   0.005   0.001  -0.010  -0.019   0.010   0.012   0.024
   0.009   0.007   0.008  -0.016   0.037   0.003   0.016   0.015  -0.011   0.008
  -0.018  -0.009   0.041  -0.013  -0.002   0.015   0.016  -0.007   0.002   0.001
   0.011   0.019  -0.005  -0.003  -0.023   0.029  -0.024  -0.004  -0.007  -0.024
   0.010   0.011  -0.000   0.001  -0.004  -0.001  -0.013   0.017   0.026   0.030
  -0.014  -0.015   0.001  -0.005   0.026   0.027   0.004  -0.011  -0.025   0.001
  -0.031  -0.019   0.003   0.013   0.009  -0.001  -0.024  -0.011   0.006  -0.023
  -0.023  -0.022   0.014   0.020  -0.025   0.002  -0.004   0.018  -0.024   0.003
  -0.006   0.002  -0.026   0.037  -0.018   0.009   0.005  -0.003  -0.012  -0.016
  -0.007  -0.003   0.006   0.022   0.037   0.007   0.028   0.005   0.006  -0.006
  -0.006  -0.012  -0.021  -0.012   0.018  -0.030   0.016  -0.009  -0.013   0.009
   0.017   0.019  -0.016   0.027  -0.007  -0.009   0.002  -0.001  -0.014   0.029
   0.005  -0.011  -0.002   0.030   0.003   0.017  -0.003  -0.016   0.024   0.010
  -0.019  -0.013  -0.011   0.042  -0.031   0.012   0.016  -0.002  -0.006   0.014
  -0.015   0.017   0.017   0.003   0.018  -0.009   0.042  -0.048  -0.017  -0.001
  -0.017  -0.008   0.002   0.003  -0.009   0.015   0.021  -0.020   0.023  -0.002
   0.028  -0.014  -0.014   0.020  -0.025   0.005  -0.004   0.033  -0.005  -0.051
  -0.003   0.010   0.001  -0.027  -0.009   0.024  -0.009  -0.027   0.001   0.005
  -0.040   0.007   0.001  -0.021   0.022   0.003   0.032   0.023  -0.004  -0.001
   0.003  -0.022   0.016   0.019   0.004   0.026  -0.003   0.024  -0.020  -0.011
   0.021   0.014  -0.010  -0.008  -0.013   0.003  -0.018  -0.015   0.003   0.012
   0.002   0.003   0.010  -0.019  -0.012  -0.014  -0.023   0.012  -0.012  -0.017
   0.008  -0.001   0.012   0.001   0.008   0.004  -0.013   0.000   0.013   0.004
  -0.016  -0.021   0.023  -0.017  -0.008  -0.011  -0.021   0.001  -0.006   0.031
  -0.010   0.011   0.002  -0.008   0.006   0.024  -0.010  -0.001   0.009   0.008
  -0.019  -0.023   0.006  -0.004   0.011  -0.016   0.005  -0.002  -0.021  -0.017
  -0.023  -0.013  -0.053   0.008   0.002  -0.034   0.022   0.000   0.012  -0.011
  -0.037   0.001   0.016  -0.010  -0.014   0.019  -0.001   0.001   0.013   0.002
   0.015  -0.004   0.018   0.025   0.021  -0.013  -0.013   0.014   0.000  -0.009
  -0.000   0.013  -0.039  -0.010  -0.015  -0.023   0.009   0.006   0.020  -0.002
   0.001   0.006   0.053  -0.026   0.003   0.005   0.016  -0.000   0.013  -0.022
   0.015   0.015   0.039   0.001  -0.014   0.023   0.028   0.022   0.009   0.040
   0.010  -0.025  -0.014   0.008   0.008   0.007  -0.014  -0.021  -0.002  -0.029
  -0.009   0.038  -0.021   0.008  -0.012   0.008  -0.009  -0.020  -0.006   0.030
  -0.010   0.004   0.034   0.008   0.003  -0.001  -0.011   0.008   0.003  -0.020
  -0.014   0.007   0.014  -0.015   0.007   0.001   0.000  -0.001   0.008   0.007
  -0.003   0.045   0.001   0.037   0.015  -0.005   0.012   0.017  -0.007   0.021
  -0.028  -0.007  -0.021  -0.030   0.009  -0.013  -0.035   0.008   0.006  -0.007
  -0.001   0.010  -0.016   0.002  -0.018   0.013   0.023  -0.007   0.005  -0.009
   0.002  -0.021  -0.001  -0.009   0.005  -0.037   0.018  -0.025  -0.001  -0.025
  -0.021  -0.017  -0.006   0.010  -0.007   0.012  -0.019  -0.005  -0.009   0.000
  -0.012  -0.005   0.007   0.020   0.028   0.012   0.000  -0.035  -0.004  -0.023
   0.002   0.016   0.004  -0.009   0.016  -0.023   0.016   0.002   0.012   0.014
   0.011   0.025   0.031  -0.013   0.000   0.010  -0.030   0.041  -0.012  -0.010
  -0.005  -0.010  -0.010   0.009  -0.018   0.041  -0.021   0.004   0.020   0.000
  -0.002  -0.021  -0.007  -0.027  -0.014   0.018   0.009  -0.029  -0.029   0.028
  -0.003  -0.028  -0.021   0.018  -0.019   0.025  -0.014   0.025  -0.012  -0.002
   0.046   0.001  -0.037   0.012  -0.032  -0.029   0.021   0.006   0.043  -0.042
   0.003  -0.002  -0.029   0.015   0.021  -0.007  -0.006   0.047  -0.022   0.020
   0.007  -0.001  -0.028   0.025   0.033   0.032  -0.002  -0.028   0.015  -0.023
   0.041  -0.022   0.015  -0.029  -0.019   0.008  -0.022   0.026  -0.033   0.014
   0.038  -0.012   0.005   0.027   0.010   0.013   0.038   0.015   0.022  -0.011
   0.001   0.013  -0.025   0.031   0.029  -0.016  -0.016   0.058  -0.019  -0.017
  -0.015  -0.020  -0.019   0.002  -0.025  -0.013  -0.023  -0.017   0.024  -0.042
   0.018   0.002   0.001   0.009  -0.009  -0.042  -0.010   0.046  -0.018  -0.017
   0.013   0.004  -0.004  -0.016   0.018  -0.009   0.000  -0.010  -0.001   0.010
  -0.043   0.011  -0.023   0.052  -0.018   0.011  -0.018  -0.009   0.000   0.001
  -0.014   0.026   0.012  -0.010   0.016   0.002   0.013  -0.008   0.003   0.020
  -0.018   0.016   0.026  -0.047   0.030   0.004   0.024  -0.015  -0.006  -0.024
   0.023  -0.006   0.022  -0.008  -0.020   0.003   0.022  -0.033   0.009  -0.010
   0.015   0.016  -0.011  -0.010  -0.024   0.015  -0.022  -0.018  -0.014   0.049
  -0.026   0.013  -0.028   0.018  -0.002  -0.011  -0.023   0.006   0.026   0.018
   0.011   0.018  -0.039  -0.004  -0.017  -0.021   0.010   0.059  -0.078   0.026
   0.068  -0.038   0.023  -0.017  -0.001   0.077  -0.037  -0.008   0.027  -0.011
   0.002  -0.000  -0.012   0.033  -0.023  -0.005   0.027  -0.029   0.053  -0.004
  -0.010   0.041  -0.006  -0.019  -0.036   0.044  -0.047   0.010  -0.006  -0.017
   0.047  -0.035   0.006  -0.024   0.001   0.005   0.004   0.011   0.003   0.012
  -0.019   0.006  -0.003   0.019   0.013   0.011  -0.045   0.011   0.025  -0.028
   0.035  -0.008  -0.033   0.019  -0.011  -0.032   0.007   0.005  -0.004   0.018
  -0.003  -0.034   0.021   0.048  -0.034   0.006  -0.007   0.027  -0.041   0.002
  -0.021   0.006   0.020  -0.015  -0.010  -0.022   0.009   0.040  -0.051   0.041
  -0.028  -0.024   0.016  -0.012   0.050  -0.067   0.023   0.024  -0.027   0.030
   0.014  -0.034  -0.001   0.024  -0.017  -0.034   0.041  -0.002  -0.016   0.017
   0.032  -0.038   0.013   0.081  -0.017  -0.015   0.000  -0.027   0.038  -0.015
   0.022  -0.005  -0.025   0.008  -0.023  -0.004  -0.008   0.047   0.003  -0.002
  -0.019   0.003  -0.006   0.013  -0.018   0.021  -0.026   0.024  -0.057   0.022
  -0.011  -0.046   0.045  -0.020   0.002   0.010  -0.046   0.029  -0.006   0.006
  -0.034  -0.013   0.050  -0.099   0.048   0.012  -0.014   0.027  -0.013   0.051
  -0.051  -0.010  -0.003   0.000   0.007  -0.002   0.000  -0.014  -0.006  -0.004
   0.048  -0.036  -0.004   0.040  -0.040  -0.023  -0.027  -0.003   0.003   0.001
   0.000   0.040  -0.011   0.006   0.034  -0.058   0.015   0.011  -0.005   0.020
  -0.026   0.006  -0.032   0.012   0.044   0.002  -0.034   0.036   0.009  -0.008
   0.021   0.015  -0.006  -0.020   0.055   0.036  -0.032   0.003   0.021  -0.040
  -0.018   0.060   0.001   0.001   0.023   0.009  -0.041  -0.017   0.010  -0.004
   0.000   0.022  -0.010   0.008   0.002   0.001  -0.001  -0.016  -0.003   0.011
   0.003   0.003  -0.040   0.011  -0.016  -0.026   0.038  -0.007  -0.009  -0.004
   0.035  -0.014   0.016  -0.015  -0.040  -0.018  -0.004   0.001  -0.022  -0.007
   0.003  -0.008  -0.013  -0.014   0.024   0.010   0.005   0.037  -0.019   0.025
  -0.015  -0.002   0.026  -0.024  -0.006  -0.029  -0.016  -0.013   0.027  -0.039
   0.022   0.026   0.012  -0.010   0.003   0.043  -0.017   0.021  -0.004  -0.004
   0.001  -0.003   0.029   0.016   0.019   0.009   0.018   0.009   0.022  -0.001
  -0.031   0.012   0.003  -0.015   0.011   0.008   0.020  -0.008   0.015   0.033
   0.016  -0.003  -0.016  -0.015   0.031  -0.002  -0.017   0.023  -0.013  -0.005
  -0.016  -0.005  -0.022   0.000   0.004  -0.003  -0.010  -0.013  -0.000  -0.004
  -0.007  -0.022  -0.009   0.015  -0.003  -0.003   0.030   0.017  -0.014   0.008
   0.009  -0.001  -0.021  -0.010  -0.024   0.021   0.015  -0.006  -0.021   0.020
  -0.001   0.012   0.002  -0.019  -0.010  -0.035  -0.003  -0.003  -0.018   0.011
   0.005  -0.029   0.033  -0.032   0.002  -0.009   0.014  -0.005   0.024  -0.017
  -0.020   0.010   0.005   0.008   0.007  -0.029   0.017   0.012   0.004  -0.024
   0.009   0.002   0.028   0.002  -0.063   0.012  -0.013  -0.016  -0.001   0.006
  -0.031  -0.008   0.012  -0.012   0.013   0.033   0.011   0.031   0.014  -0.017
   0.002  -0.012  -0.009  -0.007   0.008   0.014   0.012  -0.011  -0.008  -0.000
  -0.002   0.029  -0.022   0.021   0.012   0.016   0.022   0.012   0.012  -0.005
   0.023  -0.005  -0.010  -0.001  -0.026   0.011  -0.017  -0.017   0.063  -0.029
   0.010   0.046  -0.029  -0.018   0.002  -0.005  -0.014   0.013   0.029  -0.023
  -0.002   0.011   0.042  -0.006   0.002   0.021   0.017  -0.008   0.008   0.010
  -0.027  -0.001  -0.011   0.005  -0.007  -0.007  -0.003  -0.009  -0.017   0.011
   0.009   0.013  -0.012   0.001  -0.014  -0.004  -0.038   0.015  -0.032  -0.017
   0.005  -0.039  -0.009  -0.014  -0.011   0.009  -0.016   0.007   0.013  -0.027
   0.003  -0.017  -0.003   0.020  -0.002  -0.008  -0.000  -0.005  -0.021   0.008
  -0.003  -0.001  -0.002   0.001   0.003   0.007  -0.004  -0.014  -0.001   0.005
  -0.005  -0.006  -0.000   0.017   0.011  -0.013  -0.007   0.019   0.007  -0.008
   0.003  -0.008   0.003  -0.008  -0.003   0.017  -0.006   0.000  -0.024   0.004
  -0.021   0.022   0.012  -0.003  -0.027   0.001   0.008  -0.004  -0.005  -0.016
   0.015   0.005  -0.021   0.028   0.021   0.019   0.031  -0.003  -0.001   0.020
   0.007  -0.008   0.018   0.012  -0.003   0.026   0.013  -0.003   0.029   0.011
   0.020  -0.009   0.014   0.010  -0.003  -0.007  -0.017   0.005  -0.004   0.008
  -0.028   0.003  -0.022  -0.005  -0.016   0.025  -0.016   0.005   0.003  -0.009
   0.001  -0.006  -0.002   0.022   0.023   0.009   0.006  -0.016   0.033  -0.014
   0.011   0.006  -0.001  -0.000  -0.005   0.008  -0.010   0.009   0.014  -0.003
  -0.014  -0.022   0.008  -0.024  -0.005   0.024  -0.015  -0.015  -0.006   0.001
  -0.001   0.031  -0.004  -0.024   0.001  -0.026   0.018   0.002  -0.014  -0.001
   0.017   0.001   0.002  -0.035   0.005   0.007  -0.006  -0.028  -0.010  -0.010
  -0.008  -0.026  -0.021  -0.020   0.001   0.003  -0.006   0.001   0.005  -0.005
   0.022   0.023  -0.013  -0.007  -0.026   0.034   0.005  -0.000  -0.001   0.006
   0.011  -0.007   0.011   0.008  -0.002  -0.021   0.018  -0.013  -0.001   0.018
   0.002   0.033   0.011   0.005  -0.009   0.024  -0.026   0.032  -0.019  -0.016
   0.020  -0.039  -0.031   0.027  -0.023  -0.008   0.027   0.007  -0.015   0.012
   0.009  -0.004  -0.034   0.018  -0.001  -0.004  -0.004   0.001   0.005  -0.002
   0.007   0.011   0.018  -0.000  -0.002   0.006  -0.017  -0.010   0.002   0.010
  -0.040  -0.014   0.041   0.005  -0.001   0.028  -0.001   0.000   0.011  -0.027
   0.010  -0.004   0.002  -0.010  -0.015   0.009  -0.001  -0.004   0.005   0.005
  -0.021   0.007  -0.006   0.015  -0.011   0.013   0.002  -0.004   0.008   0.008
   0.021  -0.004  -0.030  -0.027   0.006   0.002   0.004   0.011   0.003   0.017
   0.013  -0.007   0.010   0.008   0.000  -0.017   0.036   0.004  -0.014   0.012
  -0.023  -0.003  -0.009  -0.005  -0.017  -0.017  -0.012  -0.011  -0.007  -0.006
  -0.004   0.004   0.022  -0.022   0.003   0.005   0.011   0.023  -0.020   0.002
  -0.010   0.022   0.006  -0.015   0.006   0.028  -0.007   0.016  -0.039   0.018
   0.013  -0.002  -0.009   0.024   0.000   0.017   0.005  -0.002  -0.006   0.004
  -0.009  -0.010   0.014  -0.001   0.005   0.003   0.044   0.001   0.038  -0.014
   0.025  -0.009  -0.005   0.001   0.004   0.001   0.015   0.007  -0.013  -0.025
  -0.013  -0.016   0.013   0.004   0.016   0.010  -0.009   0.027  -0.004   0.016
   0.005  -0.022   0.006   0.017  -0.017   0.003   0.017   0.001  -0.016   0.013
  -0.029  -0.036   0.002  -0.011   0.008   0.032   0.005   0.020  -0.016  -0.004
   0.031  -0.032   0.016  -0.053  -0.019  -0.007  -0.021   0.028  -0.017   0.016
  -0.037   0.021  -0.011  -0.003  -0.004   0.002   0.008   0.005   0.005  -0.033
  -0.004   0.033  -0.006  -0.028   0.018  -0.009  -0.007   0.009   0.014   0.007
  -0.007  -0.010  -0.007  -0.031   0.009   0.009  -0.015  -0.000  -0.002  -0.009
   0.031  -0.013  -0.021   0.003  -0.023   0.009  -0.000   0.016   0.024  -0.000
   0.003   0.009  -0.018  -0.021   0.000   0.015  -0.007   0.028   0.012   0.008
   0.007  -0.018   0.006  -0.004   0.006   0.002   0.006   0.002   0.007   0.000
   0.011  -0.024   0.011   0.009  -0.032   0.030  -0.023   0.013  -0.001   0.013
  -0.002  -0.001  -0.008   0.011  -0.006   0.010  -0.026  -0.022  -0.036   0.013
  -0.012   0.001   0.037   0.010  -0.016  -0.014   0.001   0.005  -0.020  -0.000
  -0.002  -0.010  -0.019   0.005  -0.025  -0.027  -0.011  -0.029   0.001   0.003
  -0.000  -0.016  -0.013  -0.028   0.017  -0.004  -0.010  -0.014  -0.023   0.017
   0.001  -0.004   0.003   0.009  -0.017  -0.036   0.004  -0.000  -0.010  -0.010
  -0.009   0.014  -0.008   0.015  -0.018   0.031  -0.016  -0.004  -0.020  -0.004
   0.001   0.003   0.006   0.018   0.003   0.002  -0.019   0.009  -0.006  -0.002
  -0.018  -0.000  -0.027   0.004   0.002  -0.013  -0.000   0.004   0.011  -0.022
   0.008  -0.006  -0.028  -0.019  -0.008  -0.002  -0.041  -0.015   0.004  -0.008
   0.006   0.004   0.006  -0.006   0.009  -0.003  -0.008   0.004   0.005  -0.004
   0.014  -0.040  -0.015   0.012  -0.013  -0.012  -0.006   0.014   0.015   0.014
   0.021   0.036   0.037   0.019   0.025   0.038   0.073   0.047   0.043   0.065
   0.084   0.048   0.069   0.075   0.074   0.092   0.107   0.062   0.023  -0.031
  -0.034  -0.054  -0.028   0.000   0.002  -0.055  -0.088  -0.061  -0.024   0.013
   0.066   0.062   0.014  -0.034  -0.087  -0.165   0.014   0.167   0.229   0.125
  -0.018  -0.184  -0.092   0.089   0.112   0.295   0.417   0.179  -0.315  -0.391
  -0.279   0.038   0.557   0.747   0.481   0.149  -0.433  -1.017  -0.564   0.478
   0.934   0.545  -0.256  -0.763  -0.667  -0.206   0.163   0.445   0.465  -0.004
  -0.521  -0.821  -0.405   0.560   0.988   0.880   0.124  -0.682  -1.021  -0.434
