Corrected accelerogram 20160214_001343_DALS_20 GNS Science
Site DALS      43 30 43S  172 40 24E     Cusp file:  20160214_001346_DALS
Dallington
Instrument Cusp_10457
Resolution: 18-bit   Instr Period: 0.0050 s   Damping: 0.700
Accelerogram 20160214_001343_DALS_20                 Processed 2016 February 22
11 km east of CHRISTCHURCH
2016 February 14         00:13:43 UT
Epicentre  43 29 50S 172 45 18E  Bearing N76E  Dist    7km  Depth    8km M  5.70
Number of points  8192    Duration 163.82 sec
Instrument corrected data at 0.020 sec intervals
Band-pass filter transition bands are .10-.25 Hz and 24.50-25.50 Hz
Component N00E  Horizontal Axis 1
Acceleration:  peak   1884.0 mm/s/s at  42.52 sec     rms    130.9 mm/s/s
Velocity:      peak   246.41 mm/s   at  44.08 sec     rms    18.04 mm/s
Displacement:  peak  -98.013 mm     at  43.86 sec     rms    7.773 mm
    2016       2      14       0      13     430       0       0    2016       2
      43      29      50     172      45      18       8       0      14       0
      43      30      43     172      40      24       0       0      76       7
   71649     250     250    8192    8192    8192       0       0      13    6169
   200.0    0.70    0.00   0.000  0.0000   0.000   0.000   1.000     0.0    0.00
  43.512 172.673   43.50  172.76    5.70    0.00    0.00    0.00      0.      0.
  358.24    5.00    5.00  163.82  0.0050  0.0200      0.      0.      0.  9806.6
  1914.8   42.51   135.2   0.000      0.  1884.0   42.52   130.9  1926.1   1.566
  246.41   44.08   18.04  260.64   0.394  -98.01   43.86    7.77  107.33   0.262
   0.100   0.150   0.250      0.      0.  24.500   1.000  25.500      0.      0.
    -0.0     0.0    -0.0     0.0    -0.0     0.0    -0.0     0.0    -0.0     0.0
    -0.0     0.0    -0.0     0.0    -0.0     0.0    -0.0     0.0    -0.0     0.0
    -0.0     0.0    -0.0     0.0    -0.0     0.0    -0.0     0.0    -0.0     0.0
    -0.0     0.0    -0.0     0.0    -0.0     0.0    -0.0     0.0    -0.0     0.0
    -0.0     0.0    -0.0     0.0    -0.0     0.0    -0.0     0.0    -0.0     0.0
    -0.0     0.0    -0.0     0.0    -0.0     0.0    -0.0     0.0    -0.0     0.0
    -0.0     0.0    -0.0     0.0    -0.0     0.0    -0.0     0.0    -0.0     0.0
    -0.0     0.0    -0.0     0.0    -0.0     0.0    -0.0     0.0    -0.0     0.0
    -0.0     0.0    -0.0     0.0    -0.0     0.0    -0.0     0.0    -0.0     0.0
    -0.0     0.0    -0.0     0.0    -0.0     0.0    -0.0     0.0    -0.0     0.0
    -0.0     0.0    -0.0     0.0    -0.0     0.0    -0.0     0.0    -0.0     0.0
    -0.0     0.0    -0.0     0.0    -0.0     0.0    -0.0     0.0    -0.0     0.0
    -0.0     0.0    -0.0     0.0    -0.0     0.0    -0.0     0.0    -0.0     0.0
    -0.0     0.0    -0.0     0.0    -0.0     0.0    -0.0     0.0    -0.0     0.0
    -0.0     0.0    -0.0     0.0    -0.0     0.0    -0.0     0.0    -0.0     0.0
    -0.0     0.0    -0.0     0.0    -0.0     0.0    -0.0     0.0    -0.0     0.0
    -0.0     0.0    -0.0     0.0    -0.0     0.0    -0.0     0.0    -0.0     0.0
    -0.0     0.0    -0.0     0.0    -0.0     0.0    -0.0     0.0    -0.0     0.0
    -0.0     0.0    -0.0     0.0    -0.0     0.0    -0.0     0.0    -0.0     0.0
    -0.0     0.0    -0.0     0.0    -0.0     0.0    -0.0     0.0    -0.0     0.0
    -0.0     0.0    -0.0     0.0    -0.0     0.0    -0.0     0.0    -0.0     0.0
    -0.0     0.0    -0.0     0.0    -0.0     0.0    -0.0     0.0    -0.0     0.0
    -0.0     0.0    -0.0     0.0    -0.0     0.0    -0.0     0.0    -0.0     0.1
    -0.0     0.1    -0.0     0.1    -0.0     0.1    -0.0     0.1    -0.0     0.1
    -0.0     0.1    -0.0     0.1    -0.1     0.1    -0.1     0.1    -0.1     0.2
    -0.1    -0.2    -0.1    -0.2    -0.5    -0.0    -0.1     0.0     0.2    -0.0
    -0.2    -0.3     0.1     0.0    -0.1     0.0     0.3     0.0     0.0    -0.2
    -0.2     0.2     0.2    -0.3    -0.5    -0.0    -0.1     0.1    -0.0    -0.3
     0.1     0.5    -0.3     0.3     0.2     0.1     0.2     0.1    -0.4     0.2
    -0.4    -0.3     0.3     0.2    -0.1    -0.3    -0.0    -0.6    -0.1    -0.2
     0.2     0.0     0.3     0.4    -0.2     0.2     0.3     0.1     0.0    -0.3
    -0.1    -0.1     0.1     0.4     0.2     0.1     0.1     0.4    -0.1    -0.1
    -0.3     0.2    -0.3     0.4     0.3     0.2     0.0     0.6     0.2    -0.5
     0.1     0.0    -0.1    -0.2     0.6     0.2    -0.1     0.3    -0.4    -0.1
    -0.3    -0.0    -0.5    -0.3     0.0     0.1     0.1     0.1     0.2     0.0
    -0.1     0.4     0.3    -0.1     0.2     0.1    -0.6    -0.0     0.4     0.2
    -0.7     0.4     0.3    -0.1     0.0     0.5     0.6    -0.7    -0.1     0.7
    -0.5    -0.2     0.4     0.3    -0.6    -0.4     0.7     0.5    -1.0    -0.4
     0.4     0.0    -0.4    -0.0    -0.2    -0.0    -0.3    -0.3    -0.4     0.6
    -0.2    -0.2    -0.5     0.4     0.4    -0.3    -0.1     0.3     0.2    -0.4
    -0.4     0.4     0.2     0.0    -0.1     0.2     0.0    -0.2    -0.2     0.0
     0.3     0.1    -0.5    -0.2     0.6    -0.1    -0.6     0.1    -0.2    -0.4
     0.2     0.2    -0.3    -0.3    -0.3     0.4    -0.4     0.3     0.2    -0.3
     0.3    -0.2     0.2     0.0    -0.1     0.1     0.5     0.3    -0.4    -0.3
    -0.1     0.1     0.0     0.3    -0.4    -0.3     0.1     0.0     0.1    -0.0
    -0.1    -0.0     0.5    -0.0    -0.1     0.1    -0.1     0.3    -0.0     0.0
    -0.1     0.1     0.4    -0.1     0.8     0.3    -0.9     0.2     0.4    -0.2
    -0.3     0.1    -0.1    -0.4     0.5     0.7    -0.5    -0.6     0.1     0.4
    -0.1    -0.3     0.8    -0.3    -0.6     0.0     0.2    -0.0    -0.6     0.2
     0.0     0.2    -0.2     0.6     0.0    -0.3     0.2     0.4    -0.5    -0.6
    -0.0     0.3    -0.4    -0.1     0.0    -0.7    -0.3     0.3    -0.3    -0.3
    -0.1    -0.3    -0.3     0.1     0.3    -0.1    -0.1    -0.0     0.3    -0.1
     0.4    -0.2    -0.5     0.3     0.6     0.3    -0.2    -0.6    -0.2     0.6
     0.4     0.1     0.3     0.3     0.4    -0.5    -0.4     0.4     0.5    -0.2
    -0.1     0.0     0.8     0.1     0.0     0.2     0.0    -0.1    -0.1    -0.2
     0.2     0.0    -0.1     0.6     0.3    -0.3    -0.4     0.1     0.3     0.3
    -0.5    -0.1    -0.0     0.3     0.4     0.4    -1.0    -0.1     0.6     0.1
    -0.3     0.3    -0.0    -0.3    -0.3     0.5    -0.4    -0.1    -0.4     0.2
     0.2     0.1    -0.3     0.3    -0.3    -0.3     0.3    -0.5    -0.2     0.3
    -0.5    -0.2     0.2     0.4     0.5    -0.2    -0.5    -0.0     0.4    -0.2
    -0.1     0.0    -0.4     0.4    -0.2     0.0     0.3     0.2     0.3    -0.1
     0.1     0.5    -0.3    -0.4     0.4    -0.4    -0.5    -0.1     0.5     0.0
    -0.2    -0.3     0.3    -0.3    -0.2     0.1     0.2     0.1     0.1    -0.1
    -0.5    -0.0     0.4     0.2     0.2    -0.3     0.1    -0.2     0.5     0.4
     0.2     0.4    -0.1    -0.1    -0.2     0.1     0.2     0.3    -0.8     0.1
     0.1    -0.6    -0.4     0.4    -0.2     0.2    -0.4     0.2     0.5    -0.2
    -0.3     0.3    -0.5     0.1     0.6     0.0    -0.3     0.2     0.4    -0.1
    -0.4     0.9     0.3    -0.5    -0.2    -0.1     0.6    -0.0    -0.7     0.2
     0.2    -0.6    -0.1     0.7    -0.2    -0.2    -0.0     0.3     0.0    -0.8
     0.2     0.2    -0.1    -0.0     0.2     0.2    -0.2     0.3     0.1    -0.1
    -0.4     0.1    -0.0    -0.3    -0.4    -0.3    -0.3    -0.1     0.2    -0.1
     0.6     0.1    -0.0     0.6    -0.1    -0.2    -0.7     0.2    -0.1     0.1
    -0.4     0.2    -0.1     0.2    -0.2     0.0    -0.4    -0.1    -0.0     0.0
     0.0     0.1    -0.2    -0.0     0.1    -0.2    -0.1     0.3    -0.2     0.3
     0.4    -0.1    -0.2     0.3     0.1    -0.0    -0.2     0.2     0.0    -0.2
     0.0    -0.1     0.1     0.3     0.6    -0.0    -0.7     0.1     0.5    -0.1
    -0.0     0.3    -0.1     0.4    -0.1    -0.2    -0.0    -0.4    -0.7     0.6
     0.3     0.3     0.3    -0.9     0.1     1.0    -0.1    -0.2    -0.0     0.2
    -0.2    -0.3    -0.0     0.3    -0.3    -0.2    -0.0    -0.1    -0.4     0.3
    -0.1    -0.2     1.0     0.3    -0.7    -0.2    -0.3     0.2     0.3    -0.2
     0.1    -0.1    -0.0     0.4     0.0     0.1    -0.3    -0.0     0.5     0.2
    -0.6    -0.1     0.2    -0.4     0.4     0.1    -0.3    -0.4     0.2     0.0
     0.4    -0.4    -0.6     0.1     0.2    -0.3    -0.3    -0.3    -0.4     0.7
     0.1    -0.4     0.1     0.2    -0.2    -0.4     0.0     0.5    -0.6    -1.0
     0.4     0.2     0.1     0.4    -0.2     0.9     0.4    -0.7    -0.3     0.2
     0.0     0.5    -0.3     0.2     0.1     0.2    -0.4     0.2     0.2    -0.2
    -0.5     0.8    -0.2     0.2     0.1    -0.3     0.6     0.6    -0.1     0.3
    -0.5     0.6     0.1    -0.6     0.6     0.4    -0.4    -0.2     0.4     0.1
     0.1    -0.3     0.2     0.5    -0.1     0.3     0.6    -0.3    -0.1     0.0
    -0.0     0.4    -0.3    -0.3     0.5    -0.2    -0.2    -0.2     0.1     0.6
    -0.6    -0.3     0.7     0.2    -0.8    -0.4     1.0     0.2    -1.3    -0.2
     0.6     0.4    -0.3    -1.1     0.0     0.3    -0.3    -0.4    -0.2     0.0
     0.2    -0.1    -0.4     0.3    -0.3    -0.5     0.6     0.9    -0.0    -0.5
    -0.1    -0.3    -0.3     0.6    -0.3    -0.1    -0.1     0.6     0.1    -0.5
     0.2     0.4    -0.4    -0.5    -0.1     0.2    -0.0     0.2     0.0    -0.0
    -0.1    -0.3    -0.1    -0.3     0.0     0.0     0.0    -0.1    -0.7     0.7
     0.4    -0.4    -0.9     0.7     0.1    -0.4    -0.3     0.1     0.3    -0.4
    -0.4     0.5     0.3     0.7    -0.3    -0.1    -0.4     0.5     0.5     0.2
     0.2     0.7    -0.0    -0.5    -0.2     0.2    -0.1    -0.2    -0.2     0.3
     0.2     0.2     0.2     0.5    -0.2    -0.4    -0.0     0.3    -0.0     0.4
     0.3     0.4     0.0     0.1     0.2     0.3     0.2     0.1    -0.4     0.8
     0.4    -0.5    -0.2    -0.1     0.3    -0.4     0.3     0.4    -0.3     0.1
    -0.4     0.2     0.2    -0.3     0.1    -0.1    -0.1    -0.3    -0.1     0.1
    -0.1    -0.7     0.1     0.1    -0.4    -0.6     0.1     0.5    -0.7    -0.3
    -0.0    -0.0    -0.2    -0.2    -0.1    -0.1     0.3    -0.0    -0.2    -0.1
    -0.1     0.4    -0.4    -0.5     0.9    -0.5    -0.8    -0.0     0.2     0.1
    -0.2    -0.3    -0.1    -0.3    -0.2     0.6    -0.4    -0.2    -0.4     0.1
     0.0    -0.3    -0.3    -0.6     0.1     0.4    -0.0    -0.3     0.1     0.6
     0.1     0.1     0.1     0.8    -0.2    -0.0    -0.3     0.2    -0.2    -0.4
    -0.1     0.0     0.3    -0.0    -0.1     0.1     0.3    -0.1     0.2     0.0
    -0.2     0.5    -0.4    -0.1    -0.2     0.1     0.4    -0.1    -0.2     0.2
     0.0     0.2    -0.3     0.0     0.0     0.1    -0.1     0.0     0.3     0.8
     0.2    -0.3     0.6     0.1    -0.9     0.2     0.0     0.5     0.1    -0.4
    -0.1     0.5     0.0    -0.2    -0.2     0.2     0.1    -0.1    -0.7     0.4
     0.3    -0.3     0.4    -0.2     0.2     0.3    -0.5    -0.6     0.4     0.1
    -0.5    -0.2     0.2     0.3    -0.3     0.1     0.5     0.2    -0.4     0.1
     0.1     0.3     0.4     0.1     0.3    -0.4    -0.4     0.1    -0.0     0.6
     0.1     0.0    -0.2    -0.1     0.1     0.5     0.4     0.2    -0.4     0.1
    -0.2    -0.1     0.2     0.2     0.4    -0.3    -0.2     0.5     0.1     0.6
    -0.3     0.1    -0.5     0.2     0.0    -0.1    -0.2    -0.0    -0.4     0.7
     0.3    -0.3    -0.3     0.5    -0.7    -0.1     0.3     0.7    -0.2    -0.4
    -0.3     0.2     0.0    -0.1    -0.7    -0.1     0.4    -0.7    -0.3     0.2
     0.2    -0.3    -0.6     0.3    -0.0    -0.4    -0.5     0.5     0.7     0.0
     0.2    -0.3    -0.1     0.0    -0.0    -0.4    -0.1     0.3     0.2    -0.3
     0.0     0.2    -0.4    -0.1     0.1    -0.1     0.2    -0.0    -0.4     0.5
     0.4     0.2    -0.2     0.2     0.4    -0.0     0.1    -0.1    -0.6     0.1
     0.3     0.2    -0.5     0.2     0.0     0.1     0.1     0.3    -0.5    -0.2
    -0.3     0.4     0.6    -0.3    -0.7     0.2     0.1    -0.4     0.1    -0.1
    -1.1     0.4    -0.6    -0.2     0.6     0.3    -0.3    -0.3    -0.5     0.2
     0.2    -0.1    -0.2    -0.1     0.4    -0.5     0.0     0.1    -0.1     0.2
    -0.6     0.2    -0.0    -0.5     0.1     0.3    -0.3    -1.0     1.0     0.2
    -0.9    -0.9     0.2     1.0    -0.3    -0.9    -0.2     0.7    -0.1     0.1
    -1.0    -0.1     1.1    -0.7    -0.9     0.4     0.6     0.2    -0.5    -0.3
     0.5     0.5    -0.8     0.1     0.5     0.7    -0.6    -0.1    -0.1    -0.2
    -0.2     0.6     0.6    -0.1     0.1    -0.3     0.4     0.4    -0.2    -0.2
    -0.1     0.8    -0.3    -0.4     0.1     0.5     0.4    -0.3    -0.1     0.2
     0.4     0.3     0.1    -0.0     0.4     0.0    -0.0     0.5    -0.1     0.7
    -0.1     0.6     0.2    -0.1     0.2     0.2    -0.1    -0.0    -0.2    -0.1
     0.1     0.1    -0.0     0.3    -0.1    -0.1     0.0     0.4     0.2    -0.0
    -0.4    -0.1     0.0     0.0    -0.3     0.1     0.5    -0.2    -0.3    -0.0
     0.2     0.3    -0.0     0.3    -0.1     0.3    -0.1     0.5     0.2     1.0
     0.2    -0.1     0.1     0.5     0.3    -0.1     0.1     0.9     0.2    -0.3
    -0.4    -0.4     0.2     0.4    -0.4    -0.2     0.3     0.2    -0.3    -0.3
     0.6     0.2    -0.4     0.0     0.1    -0.1    -0.5     0.2    -0.0     0.1
     0.3    -0.2    -0.1    -0.0    -0.1     0.1     0.2    -0.3    -0.3     0.2
    -0.5    -0.1     0.5     0.5    -0.4    -0.1    -0.3    -0.3     0.2    -0.0
    -0.2     0.3     0.1     0.2    -0.2     0.0    -0.4     0.2     0.3     0.1
    -0.3    -0.3    -0.0     0.1    -0.1    -0.4    -0.2     0.4    -0.9    -0.4
    -0.0     0.5    -0.4    -0.2    -0.1     0.2    -0.2    -0.4     0.4    -0.4
    -0.1     0.2    -0.3     0.3     0.1     0.1    -0.2     0.2    -0.5     0.1
    -0.2    -0.3     0.5     0.0    -0.9    -0.1    -0.2     0.1    -0.2    -0.6
    -0.4     0.1     0.1    -0.1    -0.3     0.5    -0.2     0.2    -0.1    -0.4
    -0.0     0.3    -0.5    -0.6    -0.3    -0.1    -0.5    -0.4    -0.1    -0.1
     0.3     0.1     0.2    -0.3    -0.4    -0.0     0.6    -0.3    -0.1     0.1
    -0.6    -0.6    -0.3     0.4     0.4     0.4    -1.0    -0.4     0.3     0.2
    -0.3    -0.2    -0.5     0.8    -0.3    -0.5     0.2     0.3     0.4    -0.0
    -0.6     0.2     0.4     0.8    -0.5    -0.4    -0.2     0.4    -0.2    -0.2
     0.3     0.3     0.1     0.1    -0.2     0.6     0.2     0.2     0.7    -0.2
    -0.2     0.3    -0.1    -0.2     0.2     0.2     0.2     0.8     0.1    -0.5
     0.8     0.3     0.1     0.2    -0.2     0.5     0.1    -0.3    -0.1     0.2
     0.1    -0.2     0.0     0.2    -0.1     0.3    -0.3     0.0     0.5    -0.2
    -0.2     0.1     0.1     0.6     0.2     0.2    -0.3     0.3     0.2     0.5
     0.2     0.2    -0.4     0.5    -0.0     0.9     0.5    -0.3    -0.3     0.3
     0.2     0.3    -0.2     0.2    -0.3     0.1     0.5     0.6    -0.5     0.0
     0.3     0.2    -0.4     0.2     0.3     0.2    -0.1     0.1     0.7     0.2
    -0.3    -0.1     0.3     0.2    -0.1     0.2     0.3     0.4    -0.2     0.2
    -0.0    -0.1    -0.3     0.3     0.3    -0.2    -0.3     0.3     0.5     0.2
    -0.4    -0.2    -0.6    -0.2    -0.4    -0.3     0.1    -0.2    -0.5    -0.1
    -0.6    -0.4    -0.1    -0.7    -0.3    -0.3    -0.2     0.2    -0.7     0.0
    -0.2     0.4    -0.2    -0.3    -0.6     0.1    -0.1    -0.5    -0.3     0.1
    -0.3    -0.4    -0.5    -0.3    -0.0    -0.2    -0.8    -0.4    -0.1    -0.1
    -0.5    -0.3    -0.4     0.1    -0.2    -0.5    -0.6     0.0    -0.2    -0.6
    -0.5    -0.1    -0.3    -0.4    -0.5    -0.3    -0.4     0.0    -0.3    -0.6
    -0.2    -0.1     0.1    -0.6    -0.2    -0.2     0.4    -0.8    -0.2    -0.2
    -0.2     0.1    -0.6    -0.2    -0.2     0.0    -0.3    -0.3    -0.2     0.2
    -0.1     0.3    -0.1     0.2     0.1     0.3     0.2    -0.1    -0.4    -0.0
    -0.0     0.3    -0.2     0.0    -0.1     0.5     0.5    -0.2     0.3     0.3
     0.2     0.3     0.2     0.4    -0.0     0.5    -0.1     0.5     0.6     0.3
     0.3     0.5     0.5     0.8     0.4     0.8     0.4    -0.2    -0.2     0.6
     0.0     0.4     0.1     0.9     0.5     0.3     0.2     0.6     0.4     0.3
     0.1     0.8     0.4     0.1     0.1     0.4     0.4     0.6    -0.3     0.4
     0.3     0.7     0.1     0.9     0.5     0.5     0.0     0.6     0.6     0.2
     0.1     0.6     0.3     0.7     0.5     0.1     0.3     1.0     0.5     0.5
     0.0     0.8     0.4     0.4    -0.2     0.4     0.2     0.5     0.1     0.2
    -0.1     0.5     0.4     0.7    -0.4    -0.0    -0.3     0.4    -0.0    -0.1
    -0.1     0.4     0.2     0.5     0.1     0.4    -0.2    -0.0     0.2     0.9
    -0.3    -0.0    -0.4     0.0     0.1    -0.1    -1.0     0.2     0.1     0.3
    -0.7     0.1    -0.1     0.0    -0.5    -0.3     0.2    -0.2    -0.4    -0.1
    -0.4    -0.6    -0.6    -0.5    -1.0     0.1     0.1    -1.0    -1.0    -0.2
    -0.4    -0.1    -1.2    -0.8    -0.5     0.4    -0.5    -0.7    -0.6    -0.2
    -0.6    -0.8    -0.4    -0.2    -1.2    -0.3    -0.7    -1.0    -0.7    -0.8
    -0.9    -0.3    -0.7    -0.2    -0.4     0.0    -1.3    -0.9    -0.3    -0.5
    -1.1    -0.5    -0.4    -0.1    -0.6    -0.5    -0.9     0.2    -0.6    -0.6
    -0.6    -0.0    -0.8    -0.5    -0.1     0.3    -0.7    -0.6    -0.1    -0.4
    -0.3     0.0    -0.5    -0.3    -0.4    -0.5    -0.4    -0.0    -0.2    -0.1
    -0.1    -0.1    -0.1     0.6     0.6     0.5     0.1     0.4    -0.5     0.2
    -0.1     0.9     0.2     0.9     0.5     0.3     0.3     1.1     1.0     0.4
     0.3     0.6     0.4     1.2     0.8     0.9     1.1     0.7     0.3     0.9
     0.8     1.0     0.6     1.1     1.3     1.2     0.8     0.8     0.7     1.1
     1.5     1.1     1.1     1.1     1.5     1.3     1.0     1.5     1.2     1.8
     1.5     1.3     0.7     1.9     1.5     1.8     0.8     1.5     1.3     1.8
     0.7     1.2     1.5     1.7     1.1     1.2     1.4     1.8     1.5     1.7
     1.3     1.6     0.8     1.7     2.0     1.8     1.2     1.4     1.5     1.9
     0.8     1.5     0.9     2.0     1.0     1.0     0.5     1.2     1.2     1.6
     1.0     1.6     1.1     1.2     0.4     0.9     1.2     1.2     0.5     0.9
     0.3     0.8     0.5     0.4    -0.2     0.9     0.2     0.4     0.2     0.1
     0.1    -0.1    -0.4     0.5     0.1    -0.2    -1.0    -0.2    -0.5    -0.5
    -0.7    -0.8    -0.9    -0.8    -1.1    -1.0    -1.0    -1.1    -1.8    -1.2
    -1.7    -1.4    -2.1    -1.2    -1.7    -1.2    -2.5    -2.0    -2.5    -1.9
    -2.5    -2.2    -3.4    -2.3    -2.7    -2.7    -3.5    -2.9    -3.3    -3.2
    -3.8    -3.7    -3.4    -3.3    -3.9    -3.5    -4.4    -3.4    -4.4    -3.6
    -4.6    -4.0    -4.6    -4.1    -4.1    -4.2    -4.7    -4.2    -5.0    -4.4
    -5.1    -4.4    -4.5    -4.5    -5.2    -4.6    -5.3    -4.8    -6.0    -4.9
    -5.7    -4.8    -5.5    -4.6    -5.5    -5.1    -5.4    -5.2    -5.6    -4.9
    -5.7    -5.0    -5.3    -4.8    -5.6    -4.5    -5.7    -4.8    -5.9    -4.8
    -4.9    -4.9    -5.3    -4.4    -5.0    -4.6    -4.7    -4.4    -5.1    -4.4
    -5.3    -4.8    -4.6    -4.0    -3.9    -3.4    -4.6    -3.4    -3.7    -3.5
    -4.0    -3.0    -3.3    -2.9    -3.4    -2.2    -2.6    -2.3    -2.6    -2.1
    -2.2    -1.4    -2.2    -1.4    -1.9    -1.1    -1.3    -0.6    -1.2    -0.2
    -0.6     0.3    -0.1     0.9     0.6     0.9     0.7     1.1     1.1     1.7
     1.6     2.0     1.5     2.6     2.3     3.4     2.6     3.8     3.3     4.2
     4.1     4.6     4.1     5.3     4.5     5.6     5.4     6.2     5.9     6.4
     6.5     6.9     6.3     7.9     6.9     7.8     7.7     8.5     8.1     9.2
     8.6     9.5     9.1    10.0     9.5    10.3    10.4    11.1    10.4    11.4
    10.9    11.8    11.2    12.4    11.7    13.1    13.1    14.3    12.8    13.8
    12.1    13.4    15.2    13.6    16.9    16.3    15.3    17.0    12.4    20.7
