Corrected accelerogram 20160214_001343_MAYC_20 GNS Science
Site MAYC      43 49 23S  171 25 18E     Basalt file:  20160214_001404_MAYC
Mayfield School
Instrument Basalt_1768
Resolution: 24-bit   Instr Period: 0.0050 s   Damping: 0.700
Accelerogram 20160214_001343_MAYC_20                 Processed 2016 February 22
11 km east of CHRISTCHURCH
2016 February 14         00:13:43 UT
Epicentre  43 29 50S 172 45 18E  Bearing N72E  Dist  114km  Depth    8km M  5.70
Number of points  7850    Duration 156.98 sec
Instrument corrected data at 0.020 sec intervals
Band-pass filter transition bands are .10-.25 Hz and 24.50-25.50 Hz
Component N00E  Horizontal Axis 1
Acceleration:  peak    -36.7 mm/s/s at  57.72 sec     rms      3.2 mm/s/s
Velocity:      peak     4.21 mm/s   at  60.92 sec     rms     0.78 mm/s
Displacement:  peak    1.884 mm     at  61.78 sec     rms    0.436 mm
    2016       2      14       0      13     430       0       0    2016       2
      43      29      50     172      45      18       8       0      14       0
      43      49      23     171      25      18       0       0      72     114
   29400     250     250    7850    7850    7850       0       0      13   24000
   200.0    0.70    0.00   0.000  0.0000   0.000   0.000   1.000     0.0    0.00
  43.823 171.422   43.50  172.76    5.70    0.00    0.00    0.00      0.      0.
  147.00    5.00    5.00  156.98  0.0050  0.0200      0.      0.      0.  9806.6
   -37.1   57.73     3.4   0.000      0.   -36.7   57.72     3.2    38.4   0.262
    4.21   60.92    0.78    4.36   0.262    1.88   61.78    0.44    1.89   0.262
   0.100   0.150   0.250      0.      0.  24.500   1.000  25.500      0.      0.
   0.000  -0.001   0.000  -0.001   0.000  -0.001   0.000  -0.001   0.000  -0.001
   0.000  -0.001   0.000  -0.001   0.000  -0.000   0.001  -0.000   0.001  -0.000
   0.001  -0.000   0.001  -0.000   0.001  -0.000   0.001  -0.000   0.001   0.000
   0.001   0.000   0.001   0.000   0.001   0.000   0.001   0.000   0.002   0.001
   0.002   0.001   0.002   0.001   0.002   0.001   0.002   0.001   0.002   0.001
   0.002   0.001   0.002   0.001   0.002   0.001   0.002   0.001   0.003   0.002
   0.003   0.002   0.003   0.002   0.003   0.002   0.003   0.002   0.003   0.002
   0.003   0.002   0.003   0.002   0.003   0.002   0.003   0.002   0.004   0.003
   0.004   0.003   0.004   0.003   0.004   0.003   0.004   0.003   0.004   0.003
   0.004   0.003   0.004   0.003   0.004   0.003   0.004   0.003   0.004   0.003
   0.004   0.003   0.004   0.003   0.004   0.003   0.004   0.003   0.004   0.003
   0.004   0.003   0.004   0.003   0.004   0.003   0.004   0.003   0.004   0.003
   0.004   0.003   0.004   0.003   0.004   0.003   0.004   0.003   0.004   0.003
   0.004   0.003   0.004   0.003   0.003   0.002   0.003   0.002   0.003   0.002
   0.003   0.002   0.003   0.002   0.003   0.002   0.002   0.001   0.002   0.001
   0.002   0.001   0.002   0.001   0.001   0.000   0.001   0.000   0.001  -0.000
   0.001  -0.001   0.000  -0.001  -0.000  -0.001  -0.000  -0.002  -0.001  -0.002
  -0.001  -0.002  -0.002  -0.003  -0.002  -0.003  -0.002  -0.003  -0.003  -0.004
  -0.003  -0.004  -0.004  -0.005  -0.004  -0.005  -0.005  -0.006  -0.005  -0.006
  -0.006  -0.007  -0.006  -0.007  -0.007  -0.008  -0.008  -0.008  -0.008  -0.009
  -0.009  -0.009  -0.009  -0.010  -0.010  -0.011  -0.011  -0.011  -0.011  -0.012
  -0.012  -0.012  -0.013  -0.013  -0.013  -0.014  -0.014  -0.014  -0.015  -0.015
  -0.015  -0.016  -0.016  -0.016  -0.017  -0.017  -0.018  -0.018  -0.018  -0.018
  -0.019  -0.019  -0.020  -0.020  -0.021  -0.020  -0.022  -0.021  -0.022  -0.022
  -0.023  -0.022  -0.024  -0.023  -0.025  -0.024  -0.026  -0.025  -0.026  -0.028
   0.010   0.030   0.010   0.015   0.016  -0.000   0.056  -0.037   0.062   0.037
   0.041  -0.016   0.052  -0.004   0.045   0.014   0.003  -0.008   0.031  -0.026
   0.024   0.013  -0.013   0.066   0.022  -0.002   0.044   0.002   0.031   0.046
  -0.030   0.057   0.007   0.029   0.020  -0.002   0.041   0.001  -0.002   0.010
  -0.026   0.043  -0.012   0.052   0.016   0.019   0.030  -0.013   0.023   0.045
   0.001  -0.020   0.043  -0.001   0.021   0.041  -0.006   0.043   0.002   0.018
   0.001  -0.009   0.020  -0.026   0.034  -0.008   0.001  -0.031   0.007  -0.001
  -0.022   0.017  -0.039   0.017   0.013  -0.036   0.038  -0.026  -0.030   0.031
  -0.011   0.060  -0.031  -0.016   0.041  -0.067   0.059  -0.004  -0.016   0.065
  -0.082   0.045  -0.023   0.016   0.011  -0.040   0.012   0.040  -0.030   0.031
  -0.023   0.010  -0.015  -0.031   0.018  -0.021   0.041  -0.025  -0.013  -0.002
  -0.016   0.040  -0.017   0.013   0.008   0.002  -0.002  -0.010  -0.009  -0.011
   0.011  -0.028   0.021  -0.029   0.002   0.036  -0.008  -0.019   0.027  -0.053
  -0.014  -0.008  -0.028   0.003  -0.023  -0.028   0.027  -0.028   0.025  -0.023
  -0.023  -0.008  -0.006  -0.020   0.013  -0.015   0.020  -0.000   0.014  -0.004
   0.001   0.040  -0.026  -0.005  -0.018   0.023  -0.026   0.012  -0.018  -0.000
  -0.000   0.036   0.004  -0.047  -0.001   0.014   0.031   0.008   0.031   0.002
   0.010  -0.030   0.029  -0.007   0.014  -0.011  -0.012  -0.011  -0.014  -0.002
  -0.020  -0.008   0.033  -0.016  -0.030  -0.005  -0.024   0.007  -0.006  -0.008
  -0.030   0.018  -0.008  -0.001   0.000   0.008   0.009   0.008   0.000  -0.001
   0.012  -0.018   0.012   0.038  -0.032  -0.036  -0.020  -0.007  -0.017   0.011
   0.036   0.015  -0.006   0.018  -0.006   0.006  -0.034  -0.006  -0.022   0.005
  -0.001  -0.013  -0.032  -0.015   0.031  -0.007  -0.012   0.011  -0.008  -0.015
   0.009   0.011   0.018  -0.009   0.044  -0.008   0.009   0.019   0.033   0.006
  -0.011  -0.035   0.007   0.009   0.029  -0.016   0.021   0.003  -0.021  -0.006
   0.009  -0.038   0.012  -0.010   0.022  -0.018  -0.005  -0.024   0.016   0.001
   0.003   0.008  -0.027   0.002  -0.037   0.029  -0.021   0.001  -0.038   0.003
   0.008  -0.000  -0.038   0.029  -0.040   0.003   0.006  -0.024   0.013  -0.009
   0.028  -0.013   0.002   0.050   0.009   0.040  -0.067   0.065  -0.031   0.008
   0.011   0.005   0.018  -0.008  -0.012   0.027   0.014  -0.003  -0.011   0.000
  -0.009  -0.023  -0.001  -0.006  -0.028   0.028  -0.006   0.027  -0.017   0.024
  -0.017   0.014   0.023  -0.018   0.004  -0.010   0.004  -0.028   0.004  -0.011
   0.034  -0.011  -0.010   0.012   0.014   0.011  -0.011  -0.003   0.033   0.008
   0.012  -0.022  -0.002   0.001  -0.001  -0.031   0.002   0.008  -0.014   0.017
   0.049  -0.028  -0.001  -0.004   0.019   0.004  -0.038  -0.008  -0.007   0.025
  -0.027   0.012   0.055  -0.015   0.033   0.004   0.036   0.008   0.028   0.019
  -0.028   0.007  -0.028  -0.016  -0.005  -0.001  -0.018  -0.008   0.010   0.004
   0.022  -0.015   0.017  -0.008  -0.037   0.009  -0.018   0.023   0.021   0.011
   0.010  -0.014   0.010  -0.002   0.023   0.002  -0.009   0.028  -0.021   0.003
   0.004   0.008   0.011   0.001  -0.025  -0.007  -0.030  -0.002  -0.006   0.002
  -0.015   0.030   0.021   0.027   0.044   0.041  -0.010   0.029   0.016  -0.016
  -0.021   0.008  -0.007  -0.009  -0.025  -0.022   0.028  -0.020  -0.007   0.012
   0.009  -0.034  -0.001  -0.014   0.006  -0.025  -0.012  -0.018  -0.013   0.011
  -0.012   0.009   0.010   0.032  -0.026  -0.031  -0.006   0.007  -0.021  -0.007
   0.008   0.023   0.006  -0.010  -0.006  -0.011  -0.024   0.041   0.006  -0.033
   0.024  -0.045   0.010   0.005   0.006   0.024   0.002  -0.011  -0.001  -0.020
   0.030   0.014   0.017  -0.022   0.035   0.005   0.016  -0.010   0.029  -0.013
  -0.005   0.000  -0.009  -0.012  -0.008  -0.011   0.024  -0.007   0.023   0.013
   0.015  -0.004   0.021  -0.005  -0.020   0.015  -0.015  -0.007  -0.030  -0.018
   0.005  -0.018  -0.014  -0.012  -0.006  -0.024  -0.027  -0.031  -0.004  -0.023
   0.007  -0.018  -0.022   0.001   0.024  -0.006   0.001  -0.001  -0.020   0.016
  -0.020  -0.027  -0.015   0.002   0.013   0.006  -0.030   0.021  -0.025  -0.013
   0.020  -0.005   0.027  -0.007   0.027  -0.009  -0.007   0.030  -0.015   0.044
   0.014  -0.034  -0.003   0.025   0.004   0.014  -0.010  -0.017   0.005  -0.024
   0.005   0.010   0.007  -0.001  -0.017  -0.011  -0.005  -0.003   0.016  -0.012
   0.004   0.014  -0.004   0.002  -0.008  -0.014   0.001  -0.011   0.003   0.016
  -0.013  -0.003   0.021   0.022  -0.009   0.006   0.015   0.006  -0.019   0.005
  -0.005   0.003  -0.005  -0.018   0.035   0.026   0.038   0.008   0.015  -0.021
  -0.024   0.003   0.030  -0.002  -0.017  -0.013   0.023   0.026  -0.014   0.016
  -0.020  -0.016   0.020   0.000  -0.000   0.043  -0.012   0.026  -0.018   0.002
   0.016   0.006   0.021   0.038  -0.009   0.022  -0.016   0.004   0.013  -0.006
  -0.020  -0.007   0.016   0.013  -0.003  -0.006   0.011   0.014  -0.011  -0.012
   0.030  -0.034   0.006  -0.011  -0.014  -0.001   0.024  -0.014  -0.023   0.004
   0.008  -0.043   0.015  -0.005  -0.007  -0.009   0.015   0.018  -0.021   0.021
   0.042  -0.034   0.009  -0.015   0.013   0.001  -0.013  -0.017   0.012   0.004
  -0.035   0.013   0.009   0.016   0.002  -0.001   0.000  -0.030   0.010   0.015
  -0.004  -0.017   0.007  -0.011  -0.011  -0.002  -0.008   0.008   0.005   0.002
  -0.011  -0.005   0.011   0.008  -0.007   0.016  -0.009  -0.004  -0.017  -0.004
   0.021   0.027   0.022   0.018  -0.016   0.003  -0.014  -0.028   0.005   0.022
  -0.013   0.013  -0.007   0.004  -0.012  -0.007  -0.022  -0.021  -0.012  -0.028
   0.028  -0.003   0.029  -0.029   0.012   0.008   0.005  -0.012  -0.031   0.026
  -0.039   0.002  -0.016  -0.001  -0.032   0.009   0.005   0.021  -0.020   0.008
  -0.004   0.006  -0.008   0.001  -0.028  -0.020   0.007   0.001   0.001  -0.005
   0.014  -0.028   0.013  -0.003   0.016   0.016  -0.021   0.041   0.006  -0.024
   0.003  -0.014  -0.003   0.022   0.001  -0.012   0.025  -0.010   0.035   0.001
  -0.011   0.011   0.024  -0.017  -0.005  -0.010  -0.012  -0.006   0.018  -0.027
   0.030   0.006  -0.033  -0.013   0.019   0.017   0.001  -0.036  -0.005   0.020
   0.013   0.017  -0.003  -0.007  -0.009   0.010  -0.005  -0.004  -0.026   0.014
  -0.008  -0.011  -0.023  -0.005   0.016  -0.026  -0.029  -0.033  -0.012  -0.000
   0.012  -0.031   0.018  -0.016   0.029  -0.021  -0.018   0.005   0.003  -0.005
  -0.011  -0.016   0.006   0.008   0.029  -0.014   0.026   0.029   0.022   0.041
  -0.004   0.034   0.039  -0.007  -0.017  -0.014   0.024   0.001  -0.031   0.020
  -0.034   0.034  -0.006  -0.022   0.006   0.018   0.006   0.033   0.005   0.014
  -0.002  -0.010  -0.006   0.009   0.011  -0.009  -0.026   0.021  -0.000   0.028
   0.008  -0.010   0.009  -0.019   0.005   0.004  -0.009  -0.023  -0.030   0.002
   0.005   0.009   0.003  -0.011   0.031   0.013  -0.019  -0.006   0.012  -0.005
   0.040   0.009  -0.009   0.020   0.024   0.008  -0.004  -0.026   0.008   0.013
   0.041  -0.003   0.007   0.034   0.012   0.006   0.001  -0.022  -0.011  -0.004
   0.009   0.022  -0.007   0.032   0.006   0.025   0.036  -0.008   0.008   0.015
   0.032  -0.025  -0.008  -0.006  -0.009  -0.001  -0.012  -0.006  -0.022   0.004
   0.010  -0.004  -0.025  -0.020  -0.001   0.019  -0.033   0.026  -0.025   0.014
  -0.046   0.022  -0.030   0.013  -0.004   0.002  -0.001  -0.020  -0.025   0.006
  -0.019   0.008  -0.030   0.011  -0.004   0.001  -0.025   0.005  -0.010   0.022
  -0.008  -0.010  -0.000   0.026   0.005   0.007   0.002   0.008  -0.018  -0.008
   0.008  -0.003  -0.002   0.005  -0.019   0.021  -0.007   0.012  -0.019   0.018
  -0.001  -0.019   0.013  -0.010  -0.015   0.012   0.009  -0.005  -0.001  -0.028
  -0.011   0.014  -0.001  -0.022  -0.007  -0.010   0.001   0.004  -0.023  -0.026
  -0.019  -0.000   0.004  -0.003  -0.001   0.005  -0.009  -0.008  -0.012   0.000
  -0.029   0.024  -0.001   0.012  -0.023  -0.023  -0.006   0.004   0.023  -0.009
  -0.011  -0.004   0.001   0.040   0.024  -0.016  -0.002  -0.005   0.046  -0.018
   0.028  -0.001   0.019  -0.040   0.003  -0.011   0.016  -0.014   0.033   0.014
   0.021  -0.026   0.006  -0.018   0.010  -0.042   0.005  -0.011  -0.007  -0.012
   0.012   0.009   0.010   0.004   0.019  -0.015   0.000   0.030  -0.019   0.022
   0.023   0.011  -0.003  -0.001  -0.030   0.005  -0.006  -0.002  -0.038   0.002
  -0.022  -0.020  -0.009  -0.021  -0.033   0.040  -0.020   0.020  -0.013  -0.010
   0.029  -0.019  -0.006  -0.018   0.019  -0.032   0.010  -0.001  -0.014   0.016
   0.010  -0.002  -0.002   0.029   0.009   0.000   0.005  -0.036  -0.000  -0.014
   0.000   0.010   0.035   0.026   0.007  -0.016  -0.015   0.031  -0.011   0.016
   0.016   0.005  -0.029   0.003   0.009  -0.005   0.006   0.002   0.003  -0.012
   0.007  -0.000  -0.010   0.004   0.005   0.021   0.000  -0.012   0.043  -0.009
   0.017  -0.010  -0.003  -0.010   0.006   0.001  -0.013   0.029  -0.023   0.017
   0.003  -0.005  -0.022  -0.007  -0.003  -0.004   0.013   0.013  -0.021   0.013
   0.022   0.010   0.017   0.006   0.006   0.022  -0.002   0.002  -0.022   0.024
   0.047  -0.013   0.009  -0.010  -0.032   0.037  -0.031   0.036   0.005   0.012
   0.042  -0.031   0.019  -0.008   0.014  -0.004  -0.013   0.006  -0.008   0.015
   0.013   0.017  -0.004   0.007   0.000  -0.002   0.009  -0.013  -0.003   0.011
  -0.014  -0.005  -0.003   0.008  -0.021  -0.011  -0.003   0.002   0.011  -0.037
   0.008   0.004  -0.002  -0.034   0.003  -0.015   0.004  -0.000  -0.042   0.033
   0.017   0.004   0.000  -0.016   0.017  -0.007  -0.024   0.012  -0.013  -0.033
  -0.007  -0.000   0.010   0.006  -0.014   0.022  -0.002   0.003  -0.009  -0.014
   0.013  -0.027  -0.017   0.007  -0.005  -0.002   0.008   0.041  -0.011  -0.014
   0.014   0.010  -0.021   0.020   0.020  -0.005   0.015  -0.019  -0.001  -0.005
  -0.015   0.017  -0.032  -0.002   0.012  -0.049   0.022  -0.042   0.012   0.009
  -0.001   0.001  -0.012   0.006   0.012   0.000  -0.016   0.013  -0.022   0.036
  -0.020   0.006   0.032   0.029  -0.008  -0.012  -0.004  -0.003   0.024   0.016
  -0.017   0.016  -0.023   0.001  -0.022  -0.004  -0.010  -0.008   0.013  -0.025
   0.019  -0.031  -0.015  -0.016  -0.016  -0.030  -0.007  -0.015   0.030  -0.009
  -0.000   0.023  -0.007   0.017  -0.009  -0.009  -0.008  -0.037   0.005  -0.011
  -0.009  -0.003   0.015  -0.026   0.032  -0.035   0.016   0.007   0.016   0.004
   0.004  -0.027   0.017  -0.010   0.008   0.013  -0.032   0.009  -0.024   0.002
   0.016  -0.024   0.004  -0.026   0.027   0.017  -0.012   0.011  -0.007   0.018
  -0.015   0.041   0.012  -0.038   0.028  -0.020   0.022  -0.022   0.046  -0.005
   0.017  -0.009  -0.014   0.005  -0.037   0.066  -0.044   0.039  -0.059   0.073
  -0.014  -0.016   0.005  -0.013   0.062  -0.015  -0.004   0.055  -0.039   0.010
   0.010   0.009  -0.041   0.039   0.005  -0.001  -0.010   0.007   0.014  -0.031
   0.039  -0.011   0.031   0.025  -0.007   0.022   0.037   0.009   0.054  -0.016
   0.016  -0.031   0.017   0.003   0.011   0.015  -0.008  -0.002   0.022  -0.007
  -0.048   0.017   0.020   0.051  -0.018  -0.022   0.014  -0.006   0.003   0.030
  -0.050   0.037   0.018  -0.006   0.016   0.007   0.036  -0.061  -0.006   0.033
  -0.045   0.018  -0.048   0.073  -0.049  -0.008   0.036  -0.019   0.023   0.019
  -0.020   0.015  -0.001   0.009   0.006   0.006  -0.037  -0.003  -0.018   0.035
  -0.077   0.037   0.001   0.009  -0.040  -0.006   0.081  -0.056   0.004   0.022
  -0.023   0.008  -0.036   0.001   0.025  -0.090   0.099  -0.080   0.052  -0.049
   0.028  -0.085   0.080  -0.090   0.042  -0.033  -0.002  -0.024   0.033  -0.023
  -0.000  -0.028   0.055  -0.031   0.049  -0.013   0.022  -0.045   0.009   0.010
   0.029  -0.043   0.079  -0.050  -0.029  -0.004  -0.009  -0.009  -0.015  -0.006
   0.021  -0.014   0.014   0.000  -0.031   0.033  -0.019   0.026  -0.025  -0.030
   0.016  -0.010  -0.001  -0.021   0.031  -0.020   0.013  -0.018  -0.008   0.005
   0.003  -0.005  -0.028   0.005   0.016  -0.000  -0.004   0.026  -0.018   0.002
  -0.052  -0.001   0.013  -0.039   0.037   0.014   0.005  -0.040   0.029  -0.044
   0.046  -0.010   0.037  -0.054   0.053  -0.030   0.056  -0.024  -0.040   0.005
  -0.039   0.013  -0.009   0.007   0.032  -0.043   0.075  -0.080   0.064  -0.063
   0.024  -0.016  -0.018  -0.002   0.034  -0.018  -0.002   0.056  -0.057   0.044
  -0.062   0.069  -0.001   0.042  -0.017   0.032  -0.002   0.040  -0.012   0.010
  -0.004  -0.013   0.040  -0.045   0.044  -0.052   0.062  -0.036   0.029   0.004
  -0.019   0.011   0.014  -0.006  -0.020   0.018  -0.046  -0.003  -0.055   0.060
  -0.051   0.053  -0.011   0.039  -0.040   0.028   0.024   0.006  -0.038   0.037
  -0.031   0.026  -0.022   0.034  -0.000   0.003   0.006  -0.029  -0.001   0.005
   0.010  -0.035   0.012  -0.008  -0.024   0.008  -0.014  -0.025   0.032  -0.002
   0.015  -0.019  -0.002  -0.000  -0.003  -0.000  -0.016  -0.027   0.024  -0.048
   0.022  -0.038   0.040  -0.039   0.060   0.004   0.002   0.031   0.023  -0.027
  -0.009   0.016  -0.006   0.019  -0.034   0.039  -0.042   0.007  -0.027   0.051
  -0.003   0.001  -0.001   0.006  -0.040   0.027  -0.012   0.004  -0.012  -0.042
  -0.014  -0.005  -0.015  -0.001   0.034  -0.010  -0.012  -0.008  -0.009  -0.059
   0.013  -0.046   0.003   0.028   0.003   0.031  -0.007  -0.014   0.010  -0.011
   0.004  -0.006  -0.005   0.024  -0.020   0.012  -0.020   0.000   0.007  -0.008
  -0.006   0.037   0.006  -0.040   0.035  -0.047   0.024  -0.008   0.017  -0.006
   0.006  -0.040  -0.025  -0.005   0.031  -0.036   0.054  -0.023   0.004  -0.012
   0.028  -0.035  -0.010  -0.007   0.026   0.008   0.015   0.037  -0.018   0.012
  -0.006  -0.028   0.014   0.031  -0.008   0.003  -0.001  -0.005   0.015   0.011
  -0.012  -0.003  -0.006   0.000   0.031  -0.033  -0.018   0.014  -0.033  -0.004
   0.006  -0.023   0.026  -0.033  -0.030   0.038  -0.026   0.002   0.029  -0.013
  -0.010   0.014  -0.011  -0.001  -0.024   0.005  -0.006   0.041  -0.010   0.054
  -0.036  -0.008   0.015   0.024   0.015   0.019  -0.006  -0.023   0.026  -0.012
   0.001   0.039   0.010  -0.004  -0.017  -0.015   0.015   0.003  -0.005   0.003
   0.000  -0.004   0.001  -0.020  -0.016   0.023  -0.033   0.013   0.002   0.003
  -0.018   0.032  -0.013   0.015   0.014   0.038   0.012  -0.002   0.002   0.028
   0.028   0.017   0.014   0.036  -0.016   0.016  -0.024  -0.021   0.032  -0.038
   0.003   0.011   0.014   0.021  -0.027   0.027   0.009   0.039   0.003   0.006
  -0.022   0.014   0.020  -0.009   0.015  -0.008   0.039  -0.035   0.015  -0.034
  -0.005   0.009  -0.008  -0.004   0.031  -0.028   0.028  -0.011  -0.004   0.013
  -0.005   0.022  -0.006   0.005   0.029  -0.031  -0.002   0.000   0.013  -0.034
   0.052  -0.031   0.082   0.007   0.044  -0.003   0.008  -0.033   0.050  -0.028
   0.042  -0.034   0.023  -0.019   0.030  -0.001   0.035  -0.016   0.033  -0.023
   0.006   0.008   0.027  -0.016  -0.010   0.019   0.009  -0.032   0.016  -0.016
   0.026  -0.040   0.008  -0.022   0.025   0.004  -0.014   0.028  -0.028   0.058
  -0.051   0.013  -0.020   0.028  -0.016   0.003  -0.011  -0.009  -0.012  -0.009
  -0.014  -0.001  -0.008   0.015  -0.018  -0.015   0.010   0.022   0.012  -0.033
   0.012   0.012   0.012  -0.017   0.033  -0.006   0.011   0.015   0.003   0.009
  -0.018   0.032  -0.029   0.049  -0.030   0.033   0.011   0.023  -0.065   0.013
  -0.058   0.046  -0.045   0.026  -0.011  -0.038   0.014  -0.050   0.022  -0.055
   0.026  -0.059   0.041  -0.055   0.041  -0.018  -0.008  -0.038  -0.024  -0.013
  -0.019   0.018  -0.032   0.008  -0.084   0.066  -0.070   0.030  -0.026   0.019
  -0.054  -0.019   0.027  -0.089   0.038  -0.116   0.074  -0.133   0.133  -0.146
   0.126  -0.149   0.118  -0.162   0.085  -0.090   0.002  -0.050   0.023  -0.024
  -0.025   0.011  -0.058   0.038  -0.046   0.063  -0.125   0.090  -0.048  -0.003
  -0.053   0.016  -0.099   0.035  -0.056   0.061  -0.049   0.001   0.031  -0.123
  -0.029  -0.088  -0.100   0.037  -0.040   0.101   0.094  -0.010   0.029  -0.075
   0.002  -0.252   0.046  -0.161   0.073   0.070   0.121   0.111  -0.068   0.127
  -0.010  -0.026  -0.144   0.035   0.067   0.147  -0.017   0.047   0.044   0.125
  -0.037   0.031   0.120   0.217  -0.047  -0.121  -0.250  -0.094  -0.017  -0.040
