Corrected accelerogram 20160214_001343_LBZ_20 GNS Science
Site LBZ       44 23 08S  170 11 04E     Basalt file:  20160214_001430_LBZ
Lake Benmore
Instrument Basalt_2153
Resolution: 24-bit   Instr Period: 0.0050 s   Damping: 0.700
Accelerogram 20160214_001343_LBZ_20                  Processed 2016 February 22
11 km east of CHRISTCHURCH
2016 February 14         00:13:43 UT
Epicentre  43 29 50S 172 45 18E  Bearing N65E  Dist  229km  Depth    8km M  5.70
Number of points  8000    Duration 159.98 sec
Instrument corrected data at 0.020 sec intervals
Band-pass filter transition bands are .10-.25 Hz and 24.50-25.50 Hz
Component N00E  Transverse Accelerometer Axis
Acceleration:  peak      4.3 mm/s/s at  70.06 sec     rms      0.6 mm/s/s
Velocity:      peak     1.16 mm/s   at  71.48 sec     rms     0.20 mm/s
Displacement:  peak    0.607 mm     at  72.18 sec     rms    0.111 mm
    2016       2      14       0      13     430       0       0    2016       2
      43      29      50     172      45      18       8       0      14       0
      44      23       8     170      11       4       0       0      65     229
   30000     250     250    8000    8000    8000       0       0      13   50000
   200.0    0.70    0.00   0.000  0.0000   0.000   0.000   1.000     0.0    0.00
  44.386 170.184   43.50  172.76    5.70    0.00    0.00    0.00      0.      0.
  150.00    5.00    5.00  159.98  0.0050  0.0200      0.      0.      0.  9806.6
     4.4   66.71     0.7   0.000      0.     4.3   70.06     0.6     5.3   0.266
    1.16   71.48    0.20    1.44   0.232    0.61   72.18    0.11    0.65   0.229
   0.100   0.150   0.250      0.      0.  24.500   1.000  25.500      0.      0.
   0.000   0.000   0.000   0.000   0.000   0.000   0.000   0.000   0.000   0.000
  -0.000   0.000  -0.000   0.000  -0.000   0.000  -0.000   0.000  -0.000   0.000
  -0.000  -0.000  -0.000  -0.000  -0.000  -0.000  -0.000  -0.000  -0.000  -0.000
  -0.000  -0.000  -0.000  -0.000  -0.000  -0.000  -0.000  -0.000  -0.000  -0.000
  -0.000  -0.000  -0.000  -0.000  -0.000  -0.000  -0.000  -0.000  -0.000  -0.000
  -0.000  -0.000  -0.000  -0.000  -0.000  -0.000  -0.000  -0.000  -0.000  -0.000
  -0.000  -0.000  -0.001  -0.000  -0.001  -0.000  -0.001  -0.001  -0.001  -0.001
  -0.001  -0.001  -0.001  -0.001  -0.001  -0.001  -0.001  -0.001  -0.001  -0.001
  -0.001  -0.001  -0.001  -0.001  -0.001  -0.001  -0.001  -0.001  -0.001  -0.001
  -0.001  -0.001  -0.001  -0.001  -0.001  -0.001  -0.001  -0.001  -0.001  -0.001
  -0.001  -0.001  -0.001  -0.001  -0.001  -0.001  -0.001  -0.001  -0.001  -0.001
  -0.001  -0.001  -0.001  -0.001  -0.001  -0.001  -0.001  -0.001  -0.001  -0.001
  -0.001  -0.001  -0.001  -0.001  -0.001  -0.001  -0.001  -0.001  -0.001  -0.001
  -0.001  -0.001  -0.001  -0.001  -0.001  -0.001  -0.000  -0.001  -0.000  -0.000
  -0.000  -0.000  -0.000  -0.000  -0.000  -0.000  -0.000  -0.000  -0.000  -0.000
  -0.000  -0.000  -0.000  -0.000  -0.000  -0.000  -0.000  -0.000   0.000   0.000
   0.000   0.000   0.000   0.000   0.000   0.000   0.000   0.000   0.000   0.000
   0.000   0.000   0.001   0.001   0.001   0.001   0.001   0.001   0.001   0.001
   0.001   0.001   0.001   0.001   0.001   0.001   0.001   0.001   0.001   0.001
   0.001   0.001   0.002   0.001   0.002   0.002   0.002   0.002   0.002   0.002
   0.002   0.002   0.002   0.002   0.002   0.002   0.002   0.002   0.003   0.002
   0.003   0.003   0.003   0.003   0.003   0.003   0.003   0.003   0.003   0.003
   0.003   0.003   0.004   0.003   0.004   0.003   0.004   0.004   0.004   0.004
   0.004   0.004   0.004   0.004   0.005   0.004   0.005   0.004   0.005   0.004
   0.005   0.004   0.005   0.004   0.006   0.005   0.006   0.005   0.005   0.007
  -0.018  -0.017   0.002   0.000  -0.002  -0.008   0.009   0.010   0.005  -0.022
  -0.012  -0.039   0.004  -0.007  -0.015  -0.008  -0.013   0.009   0.008   0.001
   0.003   0.003  -0.016  -0.041  -0.010  -0.007   0.007  -0.015   0.001   0.015
   0.001  -0.002   0.005  -0.013  -0.018  -0.033  -0.005   0.000   0.022  -0.005
  -0.022   0.006  -0.004   0.011  -0.001   0.018   0.001   0.027   0.006  -0.006
  -0.016  -0.003  -0.000  -0.011  -0.013  -0.006  -0.004   0.006  -0.001   0.009
  -0.021   0.002  -0.012   0.004  -0.014  -0.011   0.006   0.013  -0.004  -0.005
   0.019  -0.010   0.011  -0.008  -0.014   0.018   0.016  -0.019   0.020   0.004
   0.024   0.012  -0.000   0.024   0.029  -0.033  -0.002   0.010  -0.006  -0.001
   0.004   0.008  -0.017   0.005  -0.002  -0.015   0.016   0.005  -0.014  -0.020
  -0.005   0.002  -0.005  -0.002  -0.023   0.009   0.022   0.018   0.002  -0.019
  -0.012  -0.026   0.004   0.016   0.005   0.011   0.001  -0.004  -0.002   0.021
   0.011   0.002   0.009  -0.023  -0.001  -0.008  -0.021  -0.001  -0.014   0.000
   0.034   0.022   0.009   0.021   0.000   0.006   0.018   0.009  -0.001  -0.003
  -0.020  -0.005   0.022  -0.010  -0.000   0.013  -0.002  -0.000   0.002   0.014
   0.005  -0.022  -0.003   0.019  -0.001   0.021  -0.005  -0.006   0.021  -0.015
   0.012  -0.005   0.011  -0.001  -0.013   0.024  -0.018  -0.025  -0.007  -0.019
  -0.016  -0.005  -0.017  -0.006  -0.019   0.008   0.004  -0.009   0.000   0.005
   0.010  -0.003  -0.007  -0.015  -0.003  -0.013   0.001   0.029   0.018  -0.005
   0.033  -0.008  -0.014  -0.017   0.002  -0.033   0.016   0.009   0.017  -0.016
   0.009  -0.011  -0.020  -0.014  -0.013   0.005   0.010  -0.002   0.006   0.010
  -0.002   0.017  -0.009   0.007  -0.031  -0.012   0.036   0.007  -0.023   0.033
  -0.002   0.037   0.006  -0.012  -0.010   0.009   0.011   0.011   0.013  -0.030
  -0.013   0.023  -0.004  -0.007  -0.004   0.005  -0.012  -0.000  -0.002   0.028
   0.007   0.002   0.012   0.021  -0.002   0.013   0.029  -0.013   0.006  -0.005
  -0.026  -0.001  -0.023   0.011  -0.038   0.001   0.004  -0.025  -0.005   0.000
   0.008  -0.018  -0.006  -0.018   0.002   0.011   0.028   0.001  -0.030  -0.010
  -0.013   0.023  -0.019  -0.012  -0.010  -0.025  -0.014  -0.018  -0.000  -0.001
   0.010   0.010  -0.001   0.013  -0.012  -0.001  -0.015  -0.000   0.020   0.003
  -0.032  -0.017   0.005   0.021   0.002   0.017  -0.000   0.009   0.005   0.016
   0.003   0.019   0.038   0.014   0.007  -0.002  -0.006  -0.008   0.001  -0.009
   0.009   0.005   0.004   0.014  -0.004   0.029  -0.019  -0.007  -0.009  -0.000
   0.016  -0.015   0.012   0.002  -0.001  -0.040   0.017  -0.030   0.001   0.003
   0.019   0.006  -0.014   0.002   0.034  -0.005  -0.015   0.009  -0.015   0.011
  -0.022  -0.002  -0.008  -0.010  -0.008   0.004   0.011   0.020   0.013  -0.018
   0.015   0.004  -0.017  -0.021  -0.011  -0.016  -0.002   0.010   0.009  -0.009
   0.026   0.008   0.018   0.007   0.019   0.011  -0.023   0.017   0.031   0.020
  -0.006   0.000   0.005   0.012  -0.002   0.024  -0.016   0.017  -0.030   0.005
  -0.017  -0.003  -0.009  -0.026   0.005   0.020  -0.009   0.028   0.006  -0.012
   0.023  -0.007   0.014   0.011   0.026   0.018  -0.010   0.008  -0.020  -0.002
  -0.041  -0.013   0.017  -0.017  -0.017   0.002  -0.007   0.022   0.004   0.013
   0.016  -0.041  -0.007   0.010   0.000   0.018   0.003   0.019  -0.031  -0.000
   0.008  -0.009   0.006   0.009   0.023  -0.030   0.012  -0.012   0.019  -0.040
   0.001  -0.017  -0.009  -0.014  -0.006  -0.001   0.001  -0.006  -0.011   0.019
  -0.013  -0.013   0.007  -0.008  -0.013   0.015  -0.021  -0.008   0.012  -0.015
   0.009  -0.004   0.001   0.009  -0.038  -0.014  -0.011  -0.014   0.019  -0.020
   0.035  -0.019  -0.028   0.020   0.011  -0.003  -0.011  -0.020  -0.007  -0.003
   0.008   0.026   0.008  -0.007  -0.003   0.003   0.002  -0.011  -0.001  -0.017
   0.002   0.020   0.005  -0.002  -0.028   0.015   0.027  -0.022  -0.003  -0.004
  -0.005  -0.005  -0.016  -0.008   0.003   0.030   0.009   0.022  -0.006  -0.003
  -0.003   0.004  -0.013  -0.011  -0.004  -0.010   0.003  -0.012   0.014   0.003
  -0.005   0.021  -0.010  -0.015   0.001  -0.007  -0.028  -0.011   0.015   0.010
   0.003   0.042   0.015  -0.015   0.016  -0.047   0.017  -0.023   0.024   0.003
  -0.008   0.033   0.008   0.034   0.005   0.020   0.007   0.022   0.009  -0.010
   0.009  -0.001   0.007   0.011   0.014   0.020  -0.009  -0.000  -0.014  -0.018
   0.021   0.020   0.006  -0.016   0.003  -0.016  -0.003   0.004   0.013   0.014
  -0.002  -0.001   0.029  -0.006  -0.004   0.005  -0.009  -0.017   0.027  -0.017
   0.006   0.018   0.005   0.024  -0.016  -0.001   0.003  -0.024  -0.005   0.005
  -0.017   0.011   0.022  -0.013  -0.048   0.020   0.016  -0.005  -0.013  -0.003
   0.005  -0.007  -0.017  -0.002  -0.022  -0.008   0.029  -0.001  -0.028  -0.015
   0.009  -0.012   0.022  -0.006  -0.019  -0.002   0.007   0.010  -0.009   0.015
  -0.013   0.000  -0.033   0.004   0.012   0.004   0.005   0.016   0.005  -0.007
   0.009   0.008  -0.032   0.004  -0.004  -0.044   0.004   0.006   0.004  -0.014
  -0.009  -0.000   0.002  -0.014  -0.015   0.024  -0.001   0.039   0.005  -0.010
  -0.005  -0.001   0.028  -0.011   0.016  -0.020  -0.014   0.001  -0.003   0.000
   0.012   0.000   0.021  -0.007   0.004  -0.013  -0.018   0.003   0.016  -0.027
   0.011  -0.010  -0.020   0.007   0.019   0.002   0.011   0.016  -0.002   0.013
   0.017   0.028  -0.012  -0.010  -0.012   0.019   0.025   0.017   0.009   0.015
   0.011   0.014  -0.020  -0.011   0.024  -0.014  -0.012   0.009  -0.000   0.006
   0.001   0.011  -0.022  -0.018   0.013   0.004  -0.017   0.003  -0.009   0.002
  -0.016  -0.028  -0.019   0.018  -0.005  -0.001  -0.010  -0.001  -0.017   0.007
  -0.022  -0.004   0.013   0.015  -0.003   0.025  -0.042  -0.006  -0.024  -0.010
  -0.005   0.014  -0.004  -0.003  -0.004  -0.003  -0.002   0.005  -0.006   0.014
  -0.014   0.011  -0.010   0.006   0.013  -0.001  -0.000   0.005   0.019   0.011
  -0.013  -0.006  -0.001   0.002  -0.005   0.010   0.009   0.009   0.002  -0.003
   0.006  -0.013  -0.047  -0.000   0.008   0.027  -0.016   0.034   0.008  -0.003
   0.013  -0.019  -0.019   0.017  -0.036  -0.010  -0.007   0.012   0.013   0.021
   0.003  -0.035   0.020  -0.000  -0.016   0.016   0.035   0.001   0.023  -0.011
  -0.017   0.029  -0.008  -0.003   0.016  -0.014  -0.023   0.025  -0.022   0.011
   0.012  -0.013  -0.021  -0.014   0.002  -0.010   0.017  -0.012  -0.017   0.018
   0.023  -0.022  -0.004   0.011  -0.012   0.002   0.002   0.022  -0.012  -0.003
  -0.014  -0.021   0.014  -0.003   0.018  -0.013   0.009  -0.003   0.037  -0.021
   0.028  -0.021   0.001   0.013  -0.018  -0.000  -0.016  -0.012  -0.018   0.014
  -0.004  -0.011   0.018   0.030  -0.026   0.011   0.038  -0.030  -0.019  -0.018
  -0.015   0.003   0.018   0.031  -0.018   0.023  -0.001  -0.006  -0.006  -0.002
   0.011  -0.014   0.021   0.021  -0.028  -0.010   0.020  -0.012  -0.004  -0.013
   0.015  -0.000  -0.003  -0.014  -0.019   0.003   0.034   0.005  -0.001  -0.026
   0.019   0.020  -0.010  -0.005   0.014  -0.001   0.020  -0.006   0.014   0.012
  -0.030   0.002   0.002  -0.006  -0.010   0.043   0.007  -0.018   0.000   0.008
   0.018   0.021  -0.015   0.018   0.017   0.043  -0.028  -0.000  -0.011  -0.013
  -0.005  -0.011   0.016   0.014  -0.002   0.009   0.014  -0.010  -0.019  -0.004
   0.026  -0.006   0.004  -0.008  -0.023  -0.004   0.001   0.004   0.023  -0.009
   0.021  -0.012  -0.000  -0.004  -0.008  -0.009  -0.016   0.002  -0.001  -0.026
   0.004   0.000   0.003   0.000  -0.003   0.001   0.003  -0.044  -0.002  -0.029
  -0.007  -0.000   0.005   0.017  -0.002   0.004   0.009  -0.020   0.014  -0.002
   0.006  -0.015  -0.003   0.002  -0.006  -0.001   0.006   0.014   0.005  -0.027
  -0.007  -0.002  -0.021   0.008   0.002   0.012  -0.031   0.029   0.007   0.019
   0.044   0.002  -0.009   0.001  -0.002   0.015  -0.013  -0.015   0.006  -0.008
  -0.017   0.025   0.022   0.008   0.012   0.003  -0.013  -0.015  -0.003  -0.001
  -0.020  -0.015  -0.011   0.001   0.007   0.009   0.004  -0.012  -0.012   0.007
   0.012  -0.007   0.001   0.011   0.023  -0.002   0.013  -0.017   0.010  -0.000
  -0.024   0.000   0.012  -0.004  -0.008   0.007  -0.014   0.013  -0.007   0.010
  -0.030   0.007  -0.000   0.001   0.001  -0.019  -0.001   0.016   0.008   0.018
  -0.006  -0.001   0.028  -0.017  -0.026   0.004   0.023   0.007   0.007   0.008
   0.005   0.003  -0.002   0.008  -0.000   0.002  -0.005  -0.017  -0.014   0.009
  -0.004  -0.013  -0.034  -0.005  -0.014   0.008   0.011  -0.026  -0.034  -0.006
  -0.025   0.007  -0.014   0.009   0.040  -0.008  -0.001  -0.002  -0.007  -0.002
  -0.010  -0.004  -0.001  -0.022   0.000   0.009  -0.002   0.000  -0.028   0.005
   0.006   0.007   0.019  -0.006   0.004   0.025  -0.008   0.031   0.009  -0.014
   0.001   0.001  -0.016   0.014  -0.004  -0.028   0.013   0.025   0.021  -0.011
   0.003   0.017  -0.027  -0.004   0.014  -0.015  -0.011   0.004   0.014  -0.005
  -0.004  -0.018   0.011   0.022   0.002   0.020   0.012   0.005  -0.006   0.007
   0.005  -0.009   0.012  -0.006   0.007   0.010   0.012  -0.003   0.027  -0.008
   0.008  -0.005  -0.023  -0.021   0.023   0.009  -0.017  -0.011   0.006   0.007
  -0.007   0.004   0.002  -0.010   0.005  -0.007   0.028   0.024  -0.019   0.029
   0.007  -0.007  -0.025  -0.006   0.006  -0.003   0.006  -0.036   0.007  -0.010
  -0.046   0.011  -0.002   0.005   0.011  -0.009  -0.003   0.001   0.011   0.019
   0.002   0.015   0.008  -0.011   0.017  -0.002   0.013   0.016  -0.010  -0.025
  -0.005  -0.018   0.001   0.013   0.007   0.021   0.003  -0.003   0.007  -0.031
   0.009   0.011  -0.016  -0.005   0.009  -0.002  -0.009   0.004  -0.003   0.024
   0.008  -0.007  -0.030   0.014  -0.009   0.026  -0.002   0.012   0.015  -0.013
   0.027   0.001   0.011  -0.005   0.007  -0.011   0.006  -0.025  -0.013   0.008
   0.032  -0.028  -0.007   0.001   0.012   0.021   0.013   0.000   0.001   0.009
  -0.018  -0.019  -0.003   0.025   0.009   0.023  -0.004   0.007  -0.002  -0.006
  -0.024   0.033  -0.003  -0.002  -0.004  -0.020  -0.007  -0.022  -0.022  -0.022
   0.007  -0.017  -0.026  -0.005  -0.012   0.021  -0.009  -0.016   0.031  -0.027
  -0.007   0.010  -0.015   0.014   0.011   0.016   0.003   0.012  -0.001   0.031
  -0.030  -0.003  -0.020   0.024   0.010   0.006   0.019  -0.029  -0.007  -0.013
   0.025  -0.012   0.011   0.006   0.030  -0.003   0.006  -0.025   0.008  -0.005
  -0.004  -0.027  -0.005  -0.011  -0.023  -0.010   0.027   0.019  -0.012   0.024
  -0.024  -0.014  -0.031  -0.025  -0.003  -0.007  -0.017  -0.029   0.000   0.004
   0.033   0.024  -0.020  -0.011  -0.008  -0.021   0.012   0.006  -0.015   0.005
   0.031   0.006  -0.002  -0.022  -0.004   0.002  -0.010   0.006   0.003  -0.026
  -0.003   0.007   0.021   0.014   0.026  -0.006   0.016   0.016   0.004   0.010
  -0.030   0.012   0.002   0.015  -0.032   0.009  -0.021   0.006   0.028  -0.018
   0.001  -0.023  -0.002   0.010  -0.016   0.006   0.027  -0.018  -0.026   0.026
   0.001   0.009  -0.017   0.006  -0.002   0.009  -0.038  -0.004   0.017  -0.019
   0.030  -0.022   0.007   0.018  -0.005   0.011  -0.006  -0.006   0.003   0.005
   0.011   0.007   0.005   0.015   0.007   0.008  -0.012   0.004   0.022  -0.000
  -0.013   0.010   0.008  -0.006   0.023  -0.009  -0.006  -0.022  -0.001  -0.035
   0.004   0.008  -0.026   0.012  -0.002  -0.022  -0.004   0.000   0.008   0.009
   0.012   0.003  -0.018  -0.018   0.025   0.006   0.008   0.005  -0.000   0.004
  -0.011  -0.007   0.020   0.018   0.007  -0.027   0.015  -0.042   0.024  -0.013
  -0.010  -0.005   0.021   0.016  -0.013   0.011  -0.009  -0.003   0.004  -0.016
   0.017   0.022   0.015   0.009   0.030   0.009   0.009   0.019  -0.010  -0.013
  -0.029   0.043   0.024  -0.005  -0.031   0.008  -0.019  -0.020  -0.017   0.027
  -0.032  -0.008   0.033  -0.019  -0.024  -0.028  -0.011   0.014  -0.002  -0.007
   0.008  -0.022   0.001   0.015   0.010  -0.036  -0.021   0.042   0.044   0.007
  -0.019   0.005   0.019  -0.001  -0.025  -0.006   0.035  -0.012   0.021   0.018
  -0.010  -0.021   0.007  -0.020  -0.014   0.037  -0.047   0.013   0.046  -0.029
   0.023   0.077   0.006  -0.046  -0.020   0.038  -0.035  -0.015   0.063   0.030
  -0.002   0.009  -0.025  -0.046  -0.053  -0.018   0.047   0.023   0.023  -0.036
  -0.052   0.043  -0.059   0.003   0.091   0.076  -0.086  -0.078   0.028  -0.064
   0.025   0.066   0.018  -0.055   0.069   0.114  -0.023  -0.008  -0.064  -0.021
  -0.071   0.075   0.135   0.010   0.033  -0.051  -0.137  -0.011   0.141  -0.008
   0.075   0.085  -0.035  -0.096  -0.012   0.138   0.092   0.133  -0.017  -0.003
   0.033  -0.003   0.049   0.057   0.122   0.120  -0.070  -0.103   0.047  -0.005
  -0.061  -0.019   0.119   0.012  -0.099  -0.033  -0.048  -0.019  -0.028  -0.078
  -0.042  -0.082  -0.034   0.035   0.007  -0.042  -0.084  -0.087   0.010  -0.098
   0.013  -0.079  -0.103  -0.053   0.017  -0.007   0.009  -0.116  -0.064  -0.077
  -0.040  -0.016  -0.057  -0.026  -0.075  -0.133  -0.187  -0.068   0.021   0.051
  -0.033  -0.053  -0.041   0.068   0.069   0.011   0.010  -0.019  -0.032   0.068
   0.025   0.100   0.034   0.045  -0.050  -0.078  -0.106   0.075   0.028  -0.101
   0.075   0.087  -0.092  -0.006   0.097  -0.013  -0.060  -0.042  -0.090   0.005
   0.096   0.088   0.039   0.013  -0.013   0.089   0.004   0.059   0.017  -0.001
  -0.125  -0.031   0.147   0.086   0.145   0.117  -0.004   0.011   0.013  -0.041
  -0.033   0.015   0.086   0.049   0.098   0.018   0.022   0.056   0.023  -0.000
  -0.146  -0.122  -0.077   0.012   0.066   0.117  -0.014   0.092   0.224   0.179
   0.074  -0.004   0.126   0.213   0.113   0.038  -0.008  -0.038  -0.010   0.008
   0.037   0.045   0.053   0.069  -0.048   0.021   0.041   0.009  -0.006  -0.116
  -0.128  -0.078  -0.101  -0.122  -0.064  -0.036  -0.175  -0.067  -0.073  -0.145
  -0.074  -0.069  -0.071  -0.038   0.005   0.126   0.036  -0.015  -0.009  -0.030
   0.033   0.239   0.136  -0.005  -0.061  -0.061  -0.020  -0.032   0.016  -0.090
  -0.126  -0.219  -0.194  -0.158  -0.061   0.143   0.039  -0.151  -0.136  -0.089
  -0.022   0.180   0.274   0.212   0.115  -0.034   0.048   0.204   0.255   0.157
   0.153  -0.031   0.018  -0.061  -0.096  -0.089  -0.070   0.050   0.166   0.144
   0.025  -0.102  -0.118  -0.149  -0.118  -0.083   0.072  -0.066   0.017   0.101
  -0.033  -0.162  -0.022  -0.019  -0.299  -0.500  -0.356  -0.192  -0.246  -0.215
  -0.052   0.143   0.223   0.288   0.089   0.097   0.102   0.080  -0.082  -0.088
  -0.051  -0.010  -0.013   0.096  -0.051  -0.132   0.059   0.167  -0.064  -0.169
  -0.267  -0.319  -0.270  -0.129   0.001   0.105   0.401   0.630   0.694   0.687
   0.634   0.361   0.110   0.131   0.134   0.170   0.080   0.014  -0.020   0.017
  -0.075  -0.118  -0.129  -0.260  -0.325  -0.216  -0.271  -0.279  -0.197  -0.036
   0.135   0.030  -0.131  -0.212  -0.190  -0.418  -0.472  -0.565  -0.316  -0.004
   0.034  -0.040  -0.227  -0.058   0.020   0.182   0.290   0.398   0.478   0.489
   0.352   0.221   0.330   0.084   0.073   0.003  -0.108   0.177   0.209   0.237
   0.133   0.216   0.133   0.072   0.046  -0.041  -0.041   0.111   0.278   0.257
   0.232   0.178  -0.137  -0.069   0.004   0.061   0.193   0.069   0.144   0.010
  -0.340  -0.402  -0.300  -0.425  -0.405  -0.172  -0.000   0.027  -0.272  -0.479
  -0.425  -0.304   0.004   0.130   0.144   0.023  -0.091  -0.369  -0.611  -0.495
  -0.321   0.065   0.201   0.235   0.111  -0.150  -0.101   0.169   0.217   0.058
   0.076   0.421   0.529   0.306  -0.036  -0.254  -0.361  -0.343  -0.066   0.246
   0.213   0.108   0.145   0.167   0.341   0.549   0.763   0.562   0.324   0.176
   0.039  -0.028   0.068   0.082  -0.072  -0.431  -0.603  -0.482  -0.406  -0.383
  -0.396  -0.242  -0.279  -0.192  -0.224  -0.471  -0.461   0.001   0.533   0.589
   0.351   0.147   0.164   0.171   0.085   0.213   0.211  -0.117  -0.356  -0.655
  -0.672  -0.684  -0.540  -0.416  -0.276  -0.172  -0.077  -0.277  -0.312  -0.203
  -0.219  -0.027  -0.105  -0.110   0.164   0.162  -0.016  -0.160  -0.129  -0.052
   0.081   0.348   0.404   0.265   0.242   0.302   0.354   0.363   0.158   0.104
   0.231   0.371   0.502   0.411   0.289  -0.094  -0.555  -0.602  -0.412  -0.284
  -0.349  -0.313  -0.061   0.008  -0.150  -0.338  -0.343  -0.208  -0.176  -0.048
