Corrected accelerogram 20160214_001343_KPOC_20 GNS Science
Site KPOC      43 22 35S  172 39 50E     Cusp file:  20160214_001347_KPOC
Kaiapoi North School
Instrument Cusp_42060
Resolution: 18-bit   Instr Period: 0.0050 s   Damping: 0.700
Accelerogram 20160214_001343_KPOC_20                 Processed 2016 February 22
11 km east of CHRISTCHURCH
2016 February 14         00:13:43 UT
Epicentre  43 29 50S 172 45 18E  Bearing S29E  Dist   15km  Depth    8km M  5.70
Number of points  8192    Duration 163.82 sec
Instrument corrected data at 0.020 sec intervals
Band-pass filter transition bands are .10-.25 Hz and 24.50-25.50 Hz
Component N00E  Horizontal Axis 1
Acceleration:  peak   2221.1 mm/s/s at  43.82 sec     rms    122.1 mm/s/s
Velocity:      peak   149.72 mm/s   at  43.52 sec     rms    11.07 mm/s
Displacement:  peak  -34.238 mm     at  43.12 sec     rms    4.485 mm
    2016       2      14       0      13     430       0       0    2016       2
      43      29      50     172      45      18       8       0      14       0
      43      22      35     172      39      50       0       0     151      15
   38700     250     250    8192    8192    8192       0       0      13    7804
   200.0    0.70    0.00   0.000  0.0000   0.000   0.000   1.000     0.0    0.00
  43.376 172.664   43.50  172.76    5.70    0.00    0.00    0.00      0.      0.
  193.50    5.00    5.00  163.82  0.0050  0.0200      0.      0.      0.  9806.6
  2207.1   43.82   126.1   0.000      0.  2221.1   43.82   122.1  2655.8   2.701
  149.72   43.52   11.07  164.29   0.266  -34.24   43.12    4.48   37.90   0.266
   0.100   0.150   0.250      0.      0.  24.500   1.000  25.500      0.      0.
     0.0    -0.0     0.0    -0.0     0.0    -0.0     0.0    -0.0     0.0    -0.0
     0.0    -0.0     0.0    -0.0     0.0    -0.0    -0.0    -0.0    -0.0    -0.0
    -0.0    -0.0    -0.0    -0.0    -0.0    -0.0    -0.0    -0.0    -0.0    -0.0
    -0.0    -0.0    -0.0    -0.0    -0.0    -0.0    -0.0    -0.0    -0.0    -0.0
    -0.0    -0.0    -0.0    -0.0    -0.0    -0.0    -0.0    -0.0    -0.0    -0.0
    -0.0    -0.0    -0.0    -0.0    -0.0    -0.0    -0.0    -0.0    -0.0    -0.0
    -0.0    -0.0    -0.0    -0.0    -0.0    -0.0    -0.0    -0.0    -0.0    -0.0
    -0.0    -0.0    -0.0    -0.0    -0.0    -0.0    -0.0    -0.0    -0.0    -0.0
    -0.0    -0.0    -0.0    -0.0    -0.0    -0.0    -0.0    -0.0    -0.0    -0.0
    -0.0    -0.0    -0.0    -0.0    -0.0    -0.0    -0.0    -0.0    -0.0    -0.0
    -0.0    -0.0    -0.0    -0.0     0.0    -0.0     0.0    -0.0     0.0    -0.0
     0.0    -0.0     0.0    -0.0     0.0    -0.0     0.0    -0.0     0.0    -0.0
     0.0    -0.0     0.0    -0.0     0.0    -0.0     0.0    -0.0     0.0     0.0
     0.0     0.0     0.0     0.0     0.0     0.0     0.0     0.0     0.0     0.0
     0.0     0.0     0.0     0.0     0.0     0.0     0.0     0.0     0.0     0.0
     0.0     0.0     0.0     0.0     0.0     0.0     0.0     0.0     0.0     0.0
     0.0     0.0     0.0     0.0     0.0     0.0     0.0     0.0     0.0     0.0
     0.0     0.0     0.0     0.0     0.0     0.0     0.0     0.0     0.0     0.0
     0.0     0.0     0.0     0.0     0.0     0.0     0.0     0.0     0.0     0.0
     0.0     0.0     0.0     0.0     0.0     0.0     0.0     0.0     0.0     0.0
     0.0     0.0     0.0     0.0     0.0     0.0     0.0     0.0     0.0     0.0
     0.0     0.0     0.0     0.0     0.0     0.0     0.0     0.0     0.0     0.0
     0.0     0.0     0.0     0.0     0.0     0.0     0.0     0.0     0.0     0.0
     0.0     0.0     0.0     0.0     0.0     0.0     0.0     0.0     0.0     0.0
     0.0     0.0     0.0     0.0     0.0     0.0     0.0     0.0     0.0     0.0
    -0.1    -0.1     0.1     0.1     0.0    -0.0     0.1     0.0     0.0    -0.0
    -0.1    -0.1     0.0     0.1    -0.1    -0.1    -0.1    -0.0    -0.0    -0.1
    -0.0    -0.3     0.0    -0.0    -0.1    -0.0    -0.1     0.1    -0.1    -0.2
    -0.0    -0.2    -0.0    -0.1    -0.2     0.1    -0.1    -0.1     0.2    -0.2
    -0.0     0.1    -0.2     0.1     0.0    -0.1    -0.0     0.0     0.0     0.2
    -0.1    -0.1     0.0     0.0     0.0    -0.0    -0.1     0.0     0.1    -0.0
    -0.1     0.1     0.0     0.1    -0.1    -0.2     0.1     0.1    -0.1     0.1
     0.0    -0.1     0.2     0.0     0.1    -0.1    -0.2    -0.0     0.1     0.1
     0.1    -0.1    -0.1     0.0    -0.0    -0.1     0.1    -0.1    -0.1     0.0
     0.0     0.0    -0.0     0.1    -0.2    -0.1     0.0     0.1     0.0    -0.0
     0.1    -0.0     0.0    -0.0    -0.1    -0.0    -0.0     0.0     0.2    -0.1
    -0.1     0.0     0.2    -0.0     0.2    -0.0     0.0    -0.0    -0.1     0.2
    -0.0    -0.0    -0.0     0.2    -0.1    -0.0     0.0     0.0     0.1     0.0
     0.2     0.3     0.0    -0.1     0.1     0.1    -0.1     0.2     0.1    -0.2
    -0.1     0.2     0.0    -0.1    -0.0     0.2    -0.2    -0.1     0.1    -0.1
    -0.1    -0.1     0.0    -0.0    -0.0     0.2     0.0    -0.0     0.0    -0.1
    -0.0     0.1    -0.0     0.1    -0.1     0.0     0.0    -0.0     0.0     0.0
     0.1     0.1    -0.1    -0.0    -0.0    -0.1    -0.1     0.0     0.1    -0.0
     0.0    -0.1     0.1    -0.0    -0.1    -0.2     0.1     0.1    -0.2    -0.0
     0.1    -0.1    -0.1     0.0     0.0    -0.0     0.0    -0.0    -0.1    -0.1
    -0.0     0.0    -0.0     0.0     0.1    -0.0     0.1     0.0    -0.0    -0.0
    -0.0    -0.1     0.1    -0.0    -0.0     0.1     0.0     0.1     0.1     0.0
    -0.0     0.0    -0.0    -0.0     0.0     0.1    -0.1    -0.0     0.1    -0.0
    -0.0     0.0     0.0    -0.0     0.0     0.1    -0.1    -0.1     0.0    -0.2
     0.1     0.2    -0.0    -0.2     0.1    -0.1    -0.1     0.0    -0.0    -0.2
     0.0     0.0    -0.1    -0.0    -0.0    -0.2     0.1     0.2    -0.0     0.1
     0.2     0.0     0.0     0.2    -0.2    -0.0     0.3    -0.1    -0.0     0.3
    -0.0    -0.1     0.1    -0.0     0.0     0.2     0.1     0.1     0.1     0.1
    -0.1    -0.1    -0.0     0.0     0.1     0.0    -0.0     0.1    -0.0    -0.0
     0.0     0.0    -0.0     0.0     0.0    -0.1     0.0    -0.0    -0.0    -0.1
    -0.0    -0.0     0.0    -0.0     0.1    -0.0    -0.1     0.1     0.1     0.0
    -0.0    -0.0    -0.0    -0.1    -0.1    -0.0    -0.0    -0.1    -0.1    -0.1
    -0.0     0.1     0.0     0.0    -0.1    -0.1     0.1     0.1    -0.1    -0.1
     0.1     0.0    -0.0    -0.0     0.1    -0.1    -0.1    -0.0     0.1    -0.2
    -0.0     0.1    -0.1     0.1     0.1    -0.1    -0.1     0.0     0.0     0.0
    -0.1    -0.1     0.0    -0.1    -0.1    -0.0    -0.0    -0.1     0.0     0.1
    -0.1     0.0     0.0     0.0    -0.1    -0.1     0.0     0.0    -0.0     0.0
     0.0    -0.1     0.0     0.1    -0.2    -0.0     0.0     0.0     0.0     0.1
    -0.1    -0.1     0.0    -0.1     0.1    -0.1     0.1     0.0    -0.2    -0.1
     0.2    -0.1    -0.2     0.1     0.1    -0.0    -0.1     0.0     0.1    -0.2
     0.1    -0.0     0.0    -0.1    -0.0     0.0    -0.1    -0.1    -0.0     0.1
     0.1    -0.0    -0.0     0.0    -0.1    -0.0     0.2     0.0    -0.2     0.1
     0.2    -0.1    -0.0    -0.0     0.1    -0.1    -0.1     0.0     0.1    -0.0
    -0.0    -0.0    -0.2    -0.0     0.0     0.2     0.1    -0.1     0.1     0.1
    -0.1    -0.1     0.1    -0.1     0.2     0.1    -0.0     0.2    -0.1    -0.0
     0.0    -0.0    -0.0     0.1    -0.0     0.0     0.1    -0.1     0.1     0.1
    -0.0    -0.1     0.1     0.3     0.1    -0.2     0.2     0.1     0.0    -0.0
    -0.1     0.1     0.1     0.1     0.2     0.0    -0.1     0.1     0.0     0.1
    -0.1     0.2    -0.1    -0.1     0.0     0.1     0.1     0.1     0.2    -0.1
     0.3    -0.0     0.0     0.2     0.1     0.0    -0.1    -0.0    -0.0    -0.0
     0.0     0.1    -0.1    -0.0     0.0     0.0     0.1    -0.1    -0.1     0.2
    -0.0    -0.1     0.0     0.0     0.2    -0.0    -0.1     0.2     0.1     0.0
     0.1     0.0    -0.0    -0.1    -0.0    -0.0    -0.2     0.0     0.0    -0.1
    -0.1    -0.0    -0.1     0.0    -0.2     0.0     0.0    -0.1     0.0    -0.0
    -0.0     0.2     0.1    -0.3    -0.0     0.2    -0.2    -0.1     0.2    -0.2
    -0.1     0.1     0.1     0.1    -0.1    -0.2     0.2     0.2    -0.3    -0.2
     0.2    -0.0    -0.0    -0.1    -0.2     0.1     0.0    -0.2     0.0     0.1
    -0.1    -0.1     0.1     0.0    -0.1    -0.0    -0.1    -0.1    -0.1    -0.0
    -0.0     0.0     0.0    -0.1     0.0     0.0    -0.1    -0.0     0.0     0.0
    -0.1     0.1    -0.0    -0.1    -0.0     0.0    -0.1     0.0     0.1    -0.0
     0.0    -0.0     0.1     0.1     0.0     0.1     0.2     0.0    -0.1    -0.1
     0.2     0.0     0.1    -0.0     0.0    -0.0     0.1    -0.1     0.1     0.0
    -0.2    -0.2     0.1     0.1     0.0    -0.0     0.1     0.1    -0.0     0.1
    -0.1     0.1     0.1    -0.1     0.0     0.1     0.1    -0.1     0.1     0.0
     0.1     0.0    -0.0    -0.1     0.0     0.0    -0.1     0.0     0.1     0.0
    -0.1     0.1     0.2     0.0    -0.0     0.0    -0.0     0.0     0.1    -0.1
    -0.1    -0.0     0.1     0.0    -0.0    -0.0     0.0     0.1    -0.0    -0.1
    -0.0    -0.0    -0.0    -0.1     0.0     0.1     0.1     0.1    -0.1     0.0
     0.0     0.0    -0.0    -0.1    -0.1     0.1    -0.0     0.0     0.0     0.0
     0.1    -0.0     0.1     0.1    -0.1    -0.0     0.1    -0.1     0.1    -0.1
    -0.1     0.2     0.0     0.1     0.1    -0.1    -0.1     0.1    -0.1     0.0
    -0.1    -0.2     0.2    -0.2    -0.1    -0.0    -0.2     0.1    -0.1    -0.3
     0.0     0.1    -0.1     0.0    -0.1    -0.1     0.0     0.0     0.0     0.1
    -0.2    -0.0    -0.1    -0.2    -0.0     0.1     0.1     0.1    -0.2    -0.1
     0.1     0.0     0.1     0.0     0.0    -0.2    -0.0     0.1     0.1     0.0
    -0.2     0.0     0.1    -0.2    -0.0     0.1    -0.1     0.1     0.1    -0.1
     0.0     0.0    -0.0    -0.1    -0.1     0.0     0.0    -0.1     0.0     0.1
     0.1    -0.3    -0.2     0.2     0.0    -0.1     0.1    -0.0    -0.2     0.2
     0.1    -0.1     0.2     0.1     0.0    -0.0     0.2    -0.0    -0.1     0.0
     0.3    -0.1    -0.0     0.1    -0.3     0.2     0.1    -0.2     0.0     0.2
    -0.1     0.0    -0.0    -0.1    -0.1     0.1     0.1    -0.2     0.1     0.1
     0.1     0.1     0.1    -0.1     0.2     0.1    -0.0     0.1    -0.2    -0.1
     0.5     0.0    -0.4     0.4     0.3    -0.3    -0.0     0.1    -0.0    -0.0
    -0.0     0.0     0.3     0.1    -0.4     0.1     0.2    -0.2    -0.0     0.2
     0.2    -0.0    -0.2     0.2     0.2    -0.0    -0.0     0.1    -0.1    -0.1
    -0.0     0.0     0.0    -0.1     0.1    -0.1    -0.2     0.3     0.0    -0.1
     0.1     0.0    -0.2    -0.1     0.2     0.1     0.1     0.0    -0.1     0.1
     0.1    -0.0     0.0     0.1     0.0     0.0     0.1     0.0     0.0    -0.1
     0.1    -0.0    -0.2    -0.0    -0.0    -0.0     0.1     0.1     0.0     0.1
    -0.0    -0.0     0.1     0.1     0.1    -0.1     0.0    -0.1     0.0     0.0
     0.0     0.1     0.2    -0.2     0.0     0.0    -0.1     0.2     0.0     0.0
    -0.0    -0.1    -0.0    -0.1    -0.1     0.1     0.1    -0.2    -0.0     0.1
    -0.1    -0.1    -0.1    -0.1     0.0     0.1    -0.1    -0.2     0.1     0.1
    -0.2    -0.2     0.1    -0.1    -0.1     0.1     0.2    -0.1    -0.1     0.0
    -0.0    -0.0    -0.1    -0.1     0.1    -0.0    -0.0    -0.2    -0.1    -0.0
     0.1    -0.2    -0.1     0.1    -0.0    -0.0    -0.0     0.0     0.1    -0.0
    -0.0    -0.0    -0.1     0.1     0.2     0.1    -0.0     0.0    -0.1    -0.0
    -0.0     0.1    -0.0    -0.1    -0.0     0.1    -0.0    -0.1     0.1    -0.0
    -0.2     0.0     0.1    -0.2    -0.1    -0.1     0.0     0.0     0.0    -0.0
     0.1     0.1     0.1     0.2    -0.0    -0.1    -0.0     0.1    -0.0    -0.1
     0.1    -0.1    -0.2     0.0    -0.1    -0.2     0.2     0.0    -0.0    -0.0
    -0.1    -0.1     0.1    -0.0     0.1     0.1    -0.0    -0.2     0.1     0.2
    -0.3    -0.1     0.1     0.0     0.1     0.2     0.0     0.1    -0.0    -0.2
    -0.0     0.1    -0.1    -0.3     0.1     0.0     0.1    -0.0     0.1     0.1
     0.0     0.1    -0.1    -0.0     0.1     0.0     0.1     0.0    -0.0     0.2
     0.0    -0.1     0.1    -0.1     0.0     0.0    -0.0    -0.0     0.2     0.1
    -0.1     0.1    -0.1    -0.1     0.0     0.1    -0.0     0.0    -0.0    -0.2
    -0.0    -0.0    -0.1     0.0     0.0    -0.1    -0.1     0.0     0.2    -0.2
    -0.1     0.0     0.0     0.1     0.1     0.1    -0.1    -0.1     0.1     0.0
    -0.1     0.0     0.1     0.0     0.0    -0.1    -0.0     0.0    -0.0    -0.0
    -0.2    -0.0     0.0     0.1     0.2    -0.1    -0.0     0.1     0.0    -0.1
     0.0    -0.1    -0.0    -0.1    -0.0    -0.1    -0.1    -0.1    -0.0    -0.1
    -0.1    -0.1     0.1    -0.1    -0.0    -0.1     0.1     0.0     0.1     0.2
    -0.1    -0.1     0.2     0.2     0.2     0.1     0.2     0.1     0.1     0.0
     0.1     0.1     0.1     0.1    -0.0     0.1     0.2    -0.0     0.1     0.1
     0.1     0.1     0.0    -0.0     0.1    -0.1    -0.0     0.2     0.1     0.0
     0.1    -0.1    -0.2    -0.0    -0.0     0.0     0.1    -0.0     0.1     0.1
     0.1    -0.1     0.0    -0.1     0.1     0.1    -0.0    -0.0     0.1     0.1
    -0.1    -0.1    -0.1    -0.1     0.0     0.1    -0.1    -0.1     0.1     0.1
    -0.1    -0.2    -0.1     0.0    -0.1    -0.2     0.0    -0.1    -0.2    -0.1
    -0.2    -0.1    -0.2    -0.1    -0.1    -0.1    -0.1     0.0    -0.1    -0.0
    -0.0    -0.1    -0.1    -0.1    -0.1    -0.2    -0.1     0.0    -0.0    -0.1
    -0.1    -0.2    -0.1    -0.1    -0.1    -0.1    -0.2    -0.1    -0.1    -0.1
    -0.2    -0.2     0.0     0.0    -0.0    -0.1    -0.1    -0.1    -0.0    -0.1
     0.1    -0.1    -0.1    -0.2    -0.1    -0.0    -0.0     0.0     0.2    -0.2
    -0.0    -0.0     0.1    -0.0    -0.1     0.0     0.2     0.1     0.1     0.1
     0.1    -0.1     0.0     0.1     0.1     0.0    -0.0    -0.0     0.1    -0.0
    -0.0     0.0    -0.0     0.0    -0.0    -0.0     0.1    -0.1     0.1     0.1
     0.1     0.0    -0.0     0.1     0.2    -0.0     0.1    -0.0    -0.0     0.1
     0.2     0.1    -0.2     0.1     0.2    -0.1     0.1     0.1     0.3     0.0
    -0.0    -0.0     0.1     0.0     0.1     0.0     0.2     0.2     0.1     0.0
     0.2     0.0     0.1    -0.1     0.1     0.2    -0.0     0.0     0.2     0.0
    -0.0     0.1     0.1     0.0     0.0     0.2     0.2    -0.0     0.2     0.0
     0.1     0.2     0.1     0.1     0.1     0.2    -0.0    -0.0     0.3    -0.0
     0.0    -0.0    -0.0     0.0    -0.1     0.0    -0.0    -0.1    -0.0     0.0
     0.1     0.0    -0.0    -0.1    -0.0    -0.0     0.2     0.1     0.0     0.0
    -0.1    -0.2     0.1    -0.1    -0.1    -0.0    -0.0    -0.1    -0.1    -0.1
     0.0    -0.0     0.1    -0.1    -0.1    -0.1    -0.0    -0.1    -0.1    -0.0
    -0.0    -0.1    -0.0    -0.1     0.0     0.0    -0.1    -0.1    -0.0    -0.2
    -0.1    -0.1    -0.0    -0.2    -0.2    -0.2    -0.0    -0.1    -0.1    -0.0
    -0.1    -0.3    -0.2    -0.2    -0.2    -0.2    -0.1    -0.1    -0.2    -0.1
    -0.1    -0.3    -0.1    -0.2    -0.2     0.0     0.1    -0.1    -0.0    -0.1
     0.0     0.0     0.0    -0.1    -0.1    -0.2    -0.1    -0.0     0.1    -0.0
     0.1    -0.2    -0.0     0.2    -0.3    -0.2    -0.0     0.0    -0.2     0.1
     0.0    -0.1    -0.0     0.0    -0.0    -0.2    -0.1    -0.1    -0.0    -0.2
    -0.2    -0.0     0.0     0.1    -0.2    -0.2     0.1    -0.2    -0.1    -0.2
    -0.0     0.1     0.0    -0.1     0.1    -0.0     0.2     0.2     0.1     0.1
     0.1     0.1     0.1     0.0     0.2     0.1     0.2     0.1     0.1     0.1
     0.3     0.1     0.0     0.1     0.2     0.2     0.2     0.0     0.3     0.1
     0.2     0.2     0.2     0.2     0.3     0.1     0.2     0.1     0.2     0.2
     0.1     0.3     0.3     0.0     0.3     0.3     0.2     0.2     0.2     0.1
     0.2     0.1     0.2     0.1     0.1     0.2     0.2     0.1     0.3     0.1
     0.3     0.1     0.1     0.1     0.2     0.1     0.0     0.3     0.3     0.1
     0.2     0.3     0.3    -0.0     0.1     0.2     0.2     0.0     0.2     0.1
    -0.1     0.1     0.2    -0.0     0.0     0.1     0.2     0.2     0.1     0.0
     0.1    -0.0     0.3     0.1     0.2     0.1     0.1     0.1     0.0     0.0
     0.1     0.0     0.1     0.1     0.0    -0.2    -0.2    -0.1    -0.0    -0.2
    -0.1    -0.1    -0.1    -0.0     0.0    -0.2    -0.1    -0.3    -0.3    -0.0
    -0.1    -0.2    -0.2     0.0    -0.0    -0.2    -0.1    -0.1    -0.0    -0.2
    -0.2    -0.1    -0.1    -0.1    -0.2    -0.2    -0.2    -0.2    -0.2    -0.3
    -0.3    -0.1    -0.3    -0.2    -0.2    -0.3    -0.2    -0.1    -0.2    -0.2
    -0.2    -0.3    -0.3    -0.3    -0.3    -0.3    -0.3    -0.1    -0.1    -0.2
    -0.3    -0.2    -0.2    -0.3    -0.1    -0.1    -0.2    -0.2    -0.0    -0.3
    -0.2    -0.3    -0.3    -0.2    -0.1    -0.2    -0.2    -0.2    -0.0    -0.2
    -0.1    -0.2    -0.0    -0.1    -0.1    -0.2     0.0    -0.1    -0.1    -0.0
    -0.1    -0.2     0.0    -0.3    -0.1    -0.0     0.0    -0.0     0.0    -0.0
     0.0     0.1     0.1    -0.0     0.2     0.2     0.2     0.1     0.1     0.1
     0.2     0.1     0.1     0.3     0.4     0.0     0.2     0.3     0.3     0.2
     0.3     0.5     0.4     0.1     0.2     0.3     0.4     0.4     0.4     0.2
     0.5     0.5     0.4     0.3     0.3     0.3     0.6     0.4     0.5     0.5
     0.3     0.4     0.8     0.3     0.4     0.4     0.5     0.4     0.6     0.3
     0.3     0.6     0.4     0.5     0.6     0.3     0.5     0.3     0.6     0.4
     0.4     0.3     0.5     0.5     0.4     0.2     0.7     0.5     0.3     0.4
     0.6     0.4     0.5     0.4     0.4     0.4     0.4     0.4     0.2     0.3
     0.3     0.1     0.3     0.3     0.1     0.0     0.1     0.0     0.1    -0.0
     0.1     0.1     0.2    -0.0     0.0    -0.2     0.0    -0.1    -0.2    -0.2
     0.0    -0.2    -0.2    -0.3    -0.2    -0.5    -0.3    -0.4    -0.3    -0.6
    -0.3    -0.5    -0.4    -0.6    -0.6    -0.6    -0.6    -0.7    -0.5    -0.7
    -0.7    -0.8    -0.9    -0.8    -0.9    -0.9    -0.8    -0.8    -0.9    -1.1
    -1.0    -1.1    -1.0    -1.3    -1.0    -1.1    -1.1    -1.4    -1.2    -1.5
    -1.1    -1.4    -1.3    -1.8    -1.3    -1.5    -1.4    -1.6    -1.6    -1.7
    -1.5    -1.7    -1.6    -1.8    -1.6    -1.8    -1.6    -1.8    -1.6    -1.8
    -1.7    -1.7    -1.7    -1.9    -1.8    -1.7    -1.6    -1.9    -1.7    -2.0
    -1.6    -1.7    -1.6    -1.9    -1.6    -1.4    -1.5    -2.0    -1.6    -1.5
    -1.5    -1.8    -1.5    -1.7    -1.5    -1.5    -1.7    -1.6    -1.1    -1.3
    -1.5    -1.6    -1.2    -1.3    -1.2    -1.6    -1.2    -1.2    -0.9    -1.5
    -1.1    -1.1    -0.8    -1.0    -0.8    -0.8    -0.6    -0.6    -0.8    -0.6
    -0.4    -0.6    -0.5    -0.5    -0.1    -0.4    -0.0    -0.3     0.1     0.0
     0.2    -0.0     0.5     0.3     0.2     0.4     0.7     0.4     0.8     0.6
     1.1     0.9     1.1     0.8     1.4     1.3     1.3     1.3     1.7     1.6
     1.9     1.7     2.2     1.9     2.1     2.1     2.5     2.3     2.6     2.5
     2.9     2.6     3.0     3.0     3.3     3.2     3.3     3.2     3.7     3.5
     3.8     3.4     4.0     3.8     4.2     4.0     4.4     4.1     4.6     4.4
     4.5     4.5     5.0     4.6     4.8     5.0     5.1     4.7     5.4     5.1
     5.5     5.3     5.5     5.2     5.7     5.6     5.8     5.5     6.1     5.5
     6.1     6.0     6.2     5.9     6.4     5.8     6.3     6.2     6.5     5.9
     6.7     6.3     6.6     6.2     6.6     6.3     6.9     6.2     6.7     6.2
     6.9     6.3     6.9     6.0     6.8     6.1     6.9     6.2     6.8     5.7
     7.1     5.8     6.8     5.9     6.8     5.7     6.6     5.5     6.6     5.1
     7.1     5.2     6.8     4.9     6.4     3.0     5.9     3.8     5.6     1.5
     6.5    -2.0    -3.0    -6.9     3.4    -2.2    -4.2     9.9     6.0   -12.6
