Corrected accelerogram 20160214_001343_LTZ_20 GNS Science
Site LTZ       42 46 54S  172 16 16E     Basalt file:  20160214_001359_LTZ
Lake Taylor Station
Instrument Basalt_561
Resolution: 24-bit   Instr Period: 0.0050 s   Damping: 0.700
Accelerogram 20160214_001343_LTZ_20                  Processed 2016 February 22
11 km east of CHRISTCHURCH
2016 February 14         00:13:43 UT
Epicentre  43 29 50S 172 45 18E  Bearing S26E  Dist   89km  Depth    8km M  5.70
Number of points  7050    Duration 140.98 sec
Instrument corrected data at 0.020 sec intervals
Band-pass filter transition bands are .10-.25 Hz and 24.50-25.50 Hz
Component N00E  Transverse Accelerometer Axis
Acceleration:  peak     49.0 mm/s/s at  54.96 sec     rms      3.3 mm/s/s
Velocity:      peak    -4.56 mm/s   at  54.88 sec     rms     0.54 mm/s
Displacement:  peak    1.152 mm     at  54.42 sec     rms    0.242 mm
    2016       2      14       0      13     430       0       0    2016       2
      43      29      50     172      45      18       8       0      14       0
      42      46      54     172      16      16       0       0     154      89
   26200     250     250    7050    7050    7050       0       0      13   19000
   200.0    0.70    0.00   0.000  0.0000   0.000   0.000   1.000     0.0    0.00
  42.782 172.271   43.50  172.76    5.70    0.00    0.00    0.00      0.      0.
  131.00    5.00    5.00  140.98  0.0050  0.0200      0.      0.      0.  9806.6
    49.4   54.95     3.4   0.000      0.    49.0   54.96     3.3    49.8   1.468
   -4.56   54.88    0.54    5.92   0.223    1.15   54.42    0.24    1.33   0.223
   0.100   0.150   0.250      0.      0.  24.500   1.000  25.500      0.      0.
  -0.000   0.003  -0.000   0.003  -0.000   0.003  -0.001   0.003  -0.001   0.002
  -0.001   0.002  -0.001   0.002  -0.001   0.002  -0.001   0.002  -0.001   0.002
  -0.002   0.002  -0.002   0.001  -0.002   0.001  -0.002   0.001  -0.002   0.001
  -0.003   0.001  -0.003   0.000  -0.003   0.000  -0.003  -0.000  -0.003  -0.000
  -0.004  -0.000  -0.004  -0.001  -0.004  -0.001  -0.004  -0.001  -0.005  -0.001
  -0.005  -0.002  -0.005  -0.002  -0.005  -0.002  -0.006  -0.002  -0.006  -0.003
  -0.006  -0.003  -0.006  -0.003  -0.007  -0.003  -0.007  -0.003  -0.007  -0.004
  -0.007  -0.004  -0.007  -0.004  -0.008  -0.004  -0.008  -0.004  -0.008  -0.005
  -0.008  -0.005  -0.008  -0.005  -0.009  -0.005  -0.009  -0.005  -0.009  -0.005
  -0.009  -0.006  -0.009  -0.006  -0.009  -0.006  -0.010  -0.006  -0.010  -0.006
  -0.010  -0.006  -0.010  -0.006  -0.010  -0.006  -0.010  -0.006  -0.010  -0.006
  -0.010  -0.006  -0.010  -0.006  -0.010  -0.006  -0.010  -0.006  -0.010  -0.006
  -0.010  -0.006  -0.010  -0.006  -0.009  -0.006  -0.009  -0.005  -0.009  -0.005
  -0.009  -0.005  -0.009  -0.005  -0.008  -0.004  -0.008  -0.004  -0.008  -0.004
  -0.007  -0.003  -0.007  -0.003  -0.007  -0.003  -0.006  -0.002  -0.006  -0.002
  -0.005  -0.001  -0.005  -0.001  -0.004   0.000  -0.004   0.001  -0.003   0.001
  -0.002   0.002  -0.002   0.003  -0.001   0.003  -0.000   0.004   0.001   0.005
   0.001   0.006   0.002   0.007   0.003   0.008   0.004   0.009   0.005   0.010
   0.006   0.011   0.006   0.012   0.007   0.013   0.008   0.014   0.009   0.015
   0.010   0.016   0.011   0.017   0.012   0.018   0.014   0.020   0.015   0.021
   0.016   0.022   0.017   0.024   0.018   0.025   0.019   0.026   0.020   0.028
   0.022   0.029   0.023   0.031   0.024   0.032   0.025   0.034   0.026   0.036
   0.028   0.037   0.029   0.039   0.030   0.040   0.031   0.042   0.033   0.044
   0.034   0.046   0.035   0.048   0.036   0.050   0.037   0.052   0.038   0.054
   0.039   0.057   0.039   0.060   0.039   0.063   0.037   0.069   0.032   0.083
  -0.083  -0.026  -0.119   0.058  -0.079  -0.037  -0.041  -0.055  -0.044  -0.004
  -0.006  -0.087   0.020  -0.139   0.041  -0.055   0.018  -0.140   0.088  -0.179
   0.048  -0.117   0.028  -0.136   0.086  -0.152   0.074  -0.090   0.004  -0.077
   0.014  -0.119  -0.015  -0.008  -0.031  -0.007  -0.044  -0.045  -0.042   0.037
  -0.098   0.084  -0.083   0.027  -0.083   0.062  -0.114   0.058  -0.082   0.019
  -0.014   0.045  -0.089   0.028  -0.034  -0.023  -0.010  -0.037  -0.033  -0.046
   0.025  -0.082   0.029  -0.037   0.017  -0.014   0.037  -0.059   0.040  -0.085
   0.029  -0.045   0.080  -0.054   0.038  -0.027   0.026  -0.022  -0.018  -0.010
   0.002   0.016  -0.049   0.079  -0.061   0.006  -0.037   0.015  -0.066   0.043
  -0.078   0.033  -0.026   0.019  -0.070   0.058  -0.026   0.036   0.012   0.034
  -0.014   0.010  -0.030   0.031   0.001  -0.000   0.028  -0.025   0.030  -0.018
   0.037  -0.022   0.040  -0.041   0.049  -0.018   0.070  -0.039   0.036  -0.023
   0.020  -0.012   0.033  -0.013   0.025  -0.026  -0.001   0.033  -0.018   0.037
  -0.007   0.020  -0.015   0.046  -0.027   0.019  -0.034   0.024  -0.032   0.059
   0.001   0.051  -0.025   0.032  -0.011   0.015  -0.024   0.020   0.006   0.017
  -0.004   0.015   0.021   0.010   0.019  -0.008  -0.006  -0.006   0.010   0.023
   0.008  -0.007  -0.012   0.005  -0.010  -0.006   0.014  -0.009   0.024  -0.008
  -0.000  -0.020   0.016  -0.014   0.020  -0.024   0.033   0.012   0.003  -0.005
   0.014  -0.001   0.004  -0.001   0.020  -0.028   0.017  -0.013  -0.003   0.012
   0.008   0.003   0.008   0.039  -0.011   0.022  -0.005  -0.025  -0.003   0.028
  -0.007   0.020  -0.006   0.015   0.030   0.014   0.014   0.002  -0.020   0.020
   0.021   0.011   0.000   0.021  -0.001   0.001   0.020  -0.009   0.010   0.012
  -0.014   0.013   0.008   0.029   0.011   0.018   0.001  -0.014  -0.005   0.009
  -0.023  -0.014  -0.037  -0.016   0.010  -0.020   0.020   0.003  -0.001  -0.031
   0.014   0.017   0.008   0.002  -0.030   0.046  -0.052   0.072  -0.064   0.065
  -0.094   0.054  -0.056   0.072  -0.066   0.041  -0.042   0.016  -0.005   0.002
   0.019  -0.040   0.022  -0.035   0.047  -0.044   0.061  -0.080   0.111  -0.081
   0.074  -0.092   0.120  -0.111   0.102  -0.064   0.048  -0.021   0.004   0.017
  -0.060   0.076  -0.164   0.144  -0.156   0.151  -0.192   0.269  -0.255   0.254
  -0.248   0.250  -0.266   0.278  -0.288   0.217  -0.182   0.073  -0.092   0.126
  -0.086   0.021   0.080  -0.139   0.163  -0.168   0.163  -0.203   0.247  -0.261
   0.255  -0.259   0.210  -0.211   0.224  -0.239   0.235  -0.198   0.158  -0.135
   0.115  -0.141   0.118  -0.048   0.030   0.011  -0.024   0.002  -0.031   0.078
  -0.122   0.126  -0.162   0.123  -0.126   0.140  -0.187   0.184  -0.159   0.161
  -0.111   0.143  -0.099   0.117  -0.094   0.050  -0.024  -0.014  -0.023  -0.012
  -0.004  -0.044   0.103  -0.096   0.114  -0.072   0.110  -0.119   0.125  -0.153
   0.129  -0.131   0.111  -0.136   0.146  -0.148   0.126  -0.088   0.039  -0.056
   0.048  -0.034   0.016   0.009  -0.037   0.034  -0.059   0.058  -0.064   0.064
  -0.086   0.083  -0.099   0.063  -0.075   0.100  -0.086   0.097  -0.072   0.087
  -0.054   0.028  -0.051   0.057  -0.010  -0.011   0.018  -0.039   0.001  -0.013
   0.032  -0.030   0.031  -0.047   0.064  -0.054   0.026  -0.064   0.067  -0.062
   0.034  -0.038   0.044  -0.047   0.069  -0.055   0.015  -0.015  -0.005   0.023
   0.032  -0.021  -0.001  -0.015   0.001   0.040   0.010   0.028  -0.020  -0.005
  -0.021   0.073  -0.068   0.074  -0.097   0.100  -0.118   0.091  -0.080   0.105
  -0.048   0.024  -0.044   0.014  -0.004  -0.009   0.010  -0.029   0.056  -0.019
   0.082  -0.048   0.074  -0.087   0.064  -0.087   0.091  -0.094   0.080  -0.062
   0.061  -0.067   0.069  -0.045   0.043  -0.016  -0.006   0.005  -0.015  -0.018
  -0.004  -0.012  -0.039   0.036  -0.046   0.036  -0.046   0.054  -0.040   0.071
  -0.077   0.039  -0.035   0.036  -0.030   0.027  -0.028   0.046  -0.062   0.034
  -0.023   0.052  -0.055   0.041  -0.016  -0.004   0.015  -0.006  -0.009   0.029
  -0.003  -0.022   0.020  -0.009   0.022  -0.038   0.021  -0.033   0.039  -0.048
   0.044  -0.046   0.031  -0.055   0.050  -0.040   0.037  -0.041  -0.015   0.009
  -0.013   0.011  -0.002   0.036  -0.018   0.046  -0.026   0.017  -0.047   0.054
  -0.032   0.044   0.004   0.047  -0.029   0.010  -0.048  -0.002   0.013   0.002
  -0.021  -0.012   0.014  -0.020   0.057  -0.041   0.045   0.001   0.032  -0.046
   0.059  -0.036   0.059  -0.083   0.041  -0.023   0.044  -0.041   0.071  -0.041
   0.033  -0.026   0.030  -0.034   0.041   0.003   0.004   0.019  -0.013  -0.010
   0.010   0.010  -0.023   0.016   0.011  -0.038   0.054   0.012   0.012   0.003
  -0.013   0.001  -0.031   0.025  -0.045   0.108  -0.089   0.067  -0.067   0.070
  -0.106   0.078  -0.067   0.036  -0.080   0.053  -0.069   0.100  -0.092   0.095
  -0.098   0.076  -0.073   0.065  -0.074   0.029  -0.053   0.013  -0.036   0.007
  -0.027   0.017   0.018  -0.001   0.009  -0.012   0.012  -0.015  -0.009   0.001
   0.023  -0.019   0.014  -0.034   0.022  -0.042   0.069  -0.013   0.038  -0.021
  -0.004  -0.013  -0.016   0.023  -0.003   0.012  -0.013   0.002  -0.023   0.018
  -0.032   0.052  -0.027   0.064  -0.016   0.035  -0.034   0.032  -0.045   0.014
  -0.012   0.006  -0.014   0.024  -0.038   0.034  -0.003  -0.053   0.019  -0.028
   0.031  -0.027   0.018  -0.037   0.045  -0.034   0.015  -0.074   0.063  -0.047
   0.063  -0.041   0.044  -0.040   0.038  -0.035   0.038  -0.011   0.029  -0.043
   0.006   0.001  -0.014   0.008  -0.022   0.000   0.018   0.003  -0.009   0.014
  -0.016   0.056  -0.002   0.024  -0.034   0.049  -0.021   0.042  -0.025   0.011
  -0.036   0.038  -0.024   0.017  -0.030  -0.006  -0.000  -0.008  -0.016  -0.011
  -0.018   0.003  -0.027   0.010  -0.045   0.021  -0.004   0.054  -0.012  -0.015
  -0.033   0.033  -0.029   0.022  -0.017   0.057  -0.039   0.034  -0.045   0.022
   0.013  -0.018   0.017   0.018   0.029   0.019  -0.020   0.002  -0.065   0.040
  -0.073   0.052  -0.050   0.035  -0.059   0.065  -0.024  -0.024   0.054  -0.057
   0.059  -0.079   0.080  -0.101   0.152  -0.136   0.167  -0.172   0.186  -0.133
   0.169  -0.180   0.131  -0.055   0.063  -0.046   0.036   0.004  -0.010   0.044
  -0.112   0.109  -0.092   0.067  -0.099   0.140  -0.123   0.165  -0.177   0.148
  -0.142   0.169  -0.249   0.242  -0.178   0.143  -0.135   0.171  -0.161   0.147
  -0.086   0.054  -0.045   0.048   0.008   0.011   0.026  -0.030   0.053  -0.047
   0.039  -0.014  -0.017  -0.012   0.035   0.010  -0.058   0.060  -0.024   0.023
  -0.025   0.026  -0.035   0.092  -0.108   0.106  -0.094   0.066  -0.048   0.035
  -0.077   0.062  -0.048  -0.003   0.019  -0.007   0.017  -0.019   0.041  -0.064
   0.103  -0.084   0.084  -0.113   0.172  -0.179   0.187  -0.205   0.177  -0.184
   0.170  -0.230   0.236  -0.239   0.191  -0.222   0.219  -0.203   0.190  -0.175
   0.135  -0.133   0.115  -0.093   0.036  -0.033   0.021   0.017  -0.042   0.052
  -0.063   0.079  -0.114   0.165  -0.141   0.105  -0.112   0.130  -0.156   0.153
  -0.158   0.140  -0.118   0.090  -0.117   0.115  -0.158   0.112  -0.082   0.023
  -0.055   0.059  -0.062   0.023  -0.011  -0.022   0.002  -0.011   0.028  -0.041
   0.051  -0.073   0.076  -0.082   0.067  -0.030   0.094  -0.113   0.062  -0.089
   0.059  -0.085   0.102  -0.126   0.110  -0.104   0.068  -0.044   0.065  -0.045
   0.079  -0.021  -0.005   0.026   0.014   0.051  -0.016   0.051  -0.054   0.088
  -0.100   0.052  -0.029   0.084  -0.084   0.095  -0.078   0.042  -0.042   0.048
  -0.049   0.066  -0.058   0.001  -0.036  -0.018   0.001  -0.024  -0.005  -0.052
   0.099  -0.119   0.161  -0.133   0.099  -0.113   0.093  -0.055   0.064  -0.044
   0.023   0.045  -0.008   0.038  -0.016   0.066  -0.084   0.111  -0.079   0.098
  -0.056   0.059  -0.070   0.080  -0.093   0.052  -0.048   0.034  -0.013   0.021
  -0.045   0.003   0.058  -0.081   0.016  -0.018   0.036  -0.065   0.109  -0.128
   0.088  -0.067   0.055  -0.069   0.105  -0.078   0.088  -0.046   0.052  -0.034
   0.022  -0.045   0.027  -0.013  -0.016   0.048   0.015   0.034  -0.050   0.020
  -0.057   0.099  -0.066   0.056  -0.114   0.082  -0.081   0.107  -0.114   0.112
  -0.066   0.098  -0.072   0.083  -0.045   0.014  -0.029   0.006  -0.017   0.015
   0.052  -0.034   0.041  -0.077   0.063  -0.079   0.101  -0.101   0.140  -0.096
   0.074  -0.107   0.089  -0.110   0.058  -0.052   0.019  -0.012   0.016  -0.017
  -0.062   0.041  -0.105   0.113  -0.092   0.114  -0.116   0.078  -0.099   0.129
  -0.066   0.015  -0.018   0.012  -0.064   0.042  -0.024   0.026  -0.037  -0.015
   0.057  -0.046   0.025  -0.047   0.082  -0.065   0.055  -0.039   0.054  -0.049
   0.062  -0.039   0.033  -0.038   0.010  -0.035   0.027  -0.020   0.006   0.004
  -0.021   0.021  -0.017   0.040  -0.015   0.040  -0.095   0.099  -0.077   0.066
  -0.046   0.099  -0.090   0.042  -0.044   0.019  -0.043   0.040  -0.044   0.018
   0.014  -0.012   0.005  -0.040   0.020  -0.049   0.058  -0.027   0.049  -0.049
   0.036  -0.024   0.008  -0.058   0.073  -0.020   0.016  -0.029   0.048  -0.028
   0.050  -0.037   0.051  -0.023   0.027   0.012   0.042  -0.036  -0.007   0.019
   0.007  -0.007  -0.022   0.005  -0.028   0.002  -0.001   0.041  -0.012  -0.005
  -0.009   0.026  -0.005  -0.015  -0.027   0.053  -0.000   0.022  -0.025   0.001
   0.011  -0.001   0.008   0.012   0.028  -0.010   0.015  -0.028   0.030  -0.042
   0.064  -0.027   0.031  -0.035   0.051  -0.032   0.001  -0.005  -0.010   0.013
  -0.002  -0.002  -0.039   0.016  -0.078   0.035  -0.076   0.040  -0.035   0.061
  -0.091   0.055  -0.081   0.052  -0.057   0.053  -0.076   0.063  -0.042   0.026
  -0.030   0.022  -0.013   0.027  -0.001  -0.014   0.029   0.004   0.007   0.012
   0.021   0.005   0.007  -0.034   0.049  -0.008  -0.002  -0.049   0.061  -0.024
   0.050  -0.017   0.023   0.004   0.021   0.010  -0.014   0.033  -0.045   0.023
  -0.008   0.013  -0.049   0.052  -0.041   0.038  -0.050   0.035  -0.037   0.044
  -0.065   0.077  -0.016   0.047  -0.101   0.036  -0.064   0.028  -0.049   0.010
  -0.040  -0.002   0.002  -0.006   0.011  -0.011  -0.004   0.008   0.033  -0.024
   0.041  -0.083   0.013  -0.055   0.019  -0.023   0.013   0.005  -0.036   0.048
  -0.053   0.041  -0.067   0.054  -0.079   0.087  -0.065   0.092  -0.049   0.070
  -0.067   0.060  -0.079   0.057  -0.026   0.002   0.004  -0.050   0.065  -0.080
   0.120  -0.122   0.165  -0.201   0.205  -0.175   0.219  -0.174   0.185  -0.195
   0.157  -0.164   0.130  -0.058   0.056  -0.100   0.095  -0.090   0.094  -0.078
  -0.008   0.029  -0.006   0.042  -0.038   0.114  -0.104   0.082  -0.114   0.106
  -0.096   0.115  -0.150   0.189  -0.183   0.143  -0.133   0.145  -0.143   0.120
  -0.091   0.071  -0.036   0.000   0.007  -0.042   0.085  -0.087   0.129  -0.099
   0.103  -0.100   0.112  -0.145   0.141  -0.108   0.129  -0.083   0.091  -0.091
   0.113  -0.029   0.057  -0.042   0.051  -0.031   0.003   0.025  -0.023   0.035
  -0.048   0.028  -0.045   0.012  -0.005   0.007  -0.025   0.042  -0.049   0.111
  -0.079   0.120  -0.146   0.165  -0.142   0.155  -0.157   0.146  -0.152   0.134
  -0.101   0.090  -0.071   0.098  -0.066   0.044  -0.024   0.007   0.025  -0.058
   0.040  -0.079   0.085  -0.123   0.168  -0.164   0.094  -0.133   0.100  -0.079
   0.130  -0.093   0.074  -0.077   0.034   0.018  -0.021   0.032  -0.040   0.066
  -0.095   0.103  -0.137   0.111  -0.131   0.119  -0.130   0.130  -0.117   0.088
  -0.028   0.026  -0.030  -0.006   0.024  -0.062   0.058  -0.113   0.063  -0.103
   0.059  -0.106   0.102  -0.075   0.097  -0.110   0.080  -0.098   0.102  -0.101
   0.076  -0.070   0.056  -0.063   0.040  -0.003   0.000  -0.003  -0.051   0.066
  -0.042   0.034  -0.053   0.093  -0.099   0.100  -0.120   0.115  -0.138   0.090
  -0.129   0.100  -0.098   0.107  -0.109   0.095  -0.103   0.064  -0.054   0.033
  -0.047  -0.006   0.002  -0.018   0.032  -0.045   0.078  -0.090   0.110  -0.067
   0.103  -0.108   0.151  -0.133   0.103  -0.077   0.091  -0.092   0.149  -0.090
   0.053  -0.059   0.028  -0.021   0.013   0.017  -0.018   0.035  -0.046   0.042
  -0.091   0.089  -0.144   0.153  -0.126   0.086  -0.135   0.099  -0.097   0.150
  -0.132   0.100  -0.100   0.052  -0.062   0.056  -0.023  -0.014  -0.004  -0.027
   0.036  -0.030   0.064  -0.085   0.105  -0.084   0.147  -0.117   0.133  -0.136
   0.143  -0.120   0.111  -0.080   0.090  -0.041   0.046   0.003   0.025  -0.013
   0.031  -0.012   0.027   0.016   0.006  -0.004  -0.048   0.034  -0.058   0.042
  -0.077   0.039  -0.085   0.089  -0.061   0.075  -0.049   0.056  -0.042   0.066
  -0.069   0.067   0.003   0.009  -0.057   0.021   0.011   0.007   0.025  -0.037
   0.037  -0.038   0.028  -0.070   0.073  -0.065   0.097  -0.054   0.060  -0.099
   0.082  -0.081   0.052  -0.049   0.038   0.018   0.033  -0.018   0.001   0.041
  -0.059   0.040  -0.052   0.057  -0.057   0.067  -0.093   0.108  -0.062   0.080
  -0.098   0.115  -0.089   0.084  -0.085   0.036  -0.040   0.015  -0.018  -0.005
   0.016   0.006   0.018  -0.039   0.046  -0.046   0.069  -0.080   0.058  -0.061
   0.080  -0.031   0.027  -0.066   0.093  -0.091   0.088  -0.057   0.055  -0.093
   0.055  -0.018   0.049  -0.003  -0.009   0.015  -0.031   0.068  -0.098   0.108
  -0.105   0.086  -0.109   0.140  -0.130   0.128  -0.140   0.109  -0.079   0.072
  -0.079   0.064  -0.075   0.036   0.001   0.011   0.013  -0.011   0.058  -0.055
   0.081  -0.054   0.074  -0.069   0.102  -0.144   0.114  -0.150   0.173  -0.161
   0.137  -0.140   0.103  -0.103   0.077  -0.078   0.031  -0.025  -0.026   0.066
  -0.062   0.095  -0.094   0.109  -0.118   0.110  -0.135   0.160  -0.120   0.101
  -0.144   0.129  -0.122   0.121  -0.140   0.087  -0.105   0.116  -0.065   0.047
  -0.081   0.015  -0.044   0.008  -0.003  -0.039   0.058  -0.072   0.065  -0.088
   0.085  -0.092   0.098  -0.166   0.121  -0.116   0.121  -0.123   0.093  -0.123
   0.085  -0.059   0.042  -0.044  -0.007  -0.019   0.021   0.026  -0.010   0.050
  -0.066   0.054  -0.069   0.090  -0.070   0.125  -0.123   0.096  -0.121   0.089
  -0.111   0.073  -0.061   0.050  -0.040   0.069   0.006   0.037  -0.038   0.042
  -0.020   0.054  -0.006   0.027   0.004  -0.021   0.037  -0.049   0.085  -0.024
   0.065  -0.045   0.063  -0.031   0.067  -0.056   0.089  -0.065   0.120  -0.092
   0.118  -0.125   0.118  -0.086   0.115  -0.093   0.091  -0.074   0.016  -0.060
   0.054   0.007   0.037  -0.004   0.001   0.011   0.018   0.024  -0.056   0.057
  -0.021   0.067  -0.017   0.101  -0.087   0.113  -0.077   0.077  -0.041   0.107
  -0.096   0.086  -0.084   0.039  -0.036   0.088  -0.035   0.051   0.000   0.021
   0.013   0.004  -0.008   0.018   0.028  -0.029   0.083  -0.017   0.013  -0.012
   0.042  -0.051   0.075  -0.046   0.068  -0.045   0.011  -0.027   0.077  -0.039
  -0.006  -0.027  -0.017  -0.007   0.021  -0.001  -0.002  -0.017  -0.040   0.016
  -0.026   0.016   0.002   0.024  -0.054   0.035  -0.046   0.031  -0.063   0.031
  -0.064   0.019  -0.041   0.043  -0.044   0.038  -0.055   0.010  -0.038  -0.012
  -0.022  -0.035  -0.036  -0.000  -0.003  -0.053   0.018  -0.062  -0.022  -0.003
   0.016  -0.030  -0.014  -0.054  -0.040  -0.030  -0.019  -0.029  -0.010  -0.009
  -0.043  -0.029  -0.044  -0.006  -0.003  -0.034  -0.034  -0.002  -0.014  -0.031
  -0.018  -0.084   0.008  -0.058   0.014  -0.028  -0.036  -0.030  -0.026  -0.016
  -0.051   0.008  -0.051  -0.038  -0.030  -0.003  -0.067   0.016  -0.097  -0.038
  -0.037   0.013  -0.079  -0.001  -0.074  -0.013  -0.072  -0.011  -0.053  -0.004
  -0.051  -0.011  -0.024  -0.039  -0.017  -0.052  -0.037  -0.054   0.008  -0.063
  -0.008  -0.045  -0.024  -0.070   0.012  -0.072   0.024  -0.036  -0.028  -0.047
  -0.039  -0.027   0.012  -0.011  -0.032  -0.025  -0.017   0.009  -0.011  -0.019
  -0.023   0.010  -0.044  -0.001  -0.014  -0.010  -0.051   0.030  -0.012   0.021
  -0.008   0.007  -0.014  -0.022  -0.009   0.003  -0.011  -0.016  -0.004  -0.018
  -0.007   0.009   0.035  -0.021   0.033  -0.015   0.019   0.004   0.010  -0.024
  -0.021   0.013   0.022   0.002   0.022   0.038   0.009   0.026  -0.019   0.045
   0.004   0.065  -0.016   0.088  -0.026   0.061   0.012   0.070  -0.030   0.083
   0.031   0.081   0.044   0.054   0.044   0.023   0.056   0.068   0.097   0.024
