Corrected accelerogram 20160214_001343_DHSS_20 GNS Science
Site DHSS      43 37 49S  172 43 38E     Basalt file:  20160214_001347_DHSS
Diamond Harbour School
Instrument Basalt_612
Resolution: 24-bit   Instr Period: 0.0050 s   Damping: 0.700
Accelerogram 20160214_001343_DHSS_20                 Processed 2016 February 22
11 km east of CHRISTCHURCH
2016 February 14         00:13:43 UT
Epicentre  43 29 50S 172 45 18E  Bearing N09E  Dist   15km  Depth    8km M  5.70
Number of points  8192    Duration 163.82 sec
Instrument corrected data at 0.020 sec intervals
Band-pass filter transition bands are .10-.25 Hz and 24.50-25.50 Hz
Component N00E  Transverse Accelerometer Axis
Acceleration:  peak   1318.5 mm/s/s at  43.94 sec     rms     57.4 mm/s/s
Velocity:      peak    66.00 mm/s   at  44.00 sec     rms     3.27 mm/s
Displacement:  peak  -10.939 mm     at  43.92 sec     rms    0.975 mm
    2016       2      14       0      13     430       0       0    2016       2
      43      29      50     172      45      18       8       0      14       0
      43      37      49     172      43      38       0       0       9      15
   35000     250     250    8192    8192    8192       0       0      13    7000
   200.0    0.70    0.00   0.000  0.0000   0.000   0.000   1.000     0.0    0.00
  43.630 172.727   43.50  172.76    5.70    0.00    0.00    0.00      0.      0.
  175.00    5.00    5.00  163.82  0.0050  0.0200      0.      0.      0.  9806.6
  1350.5   43.95    59.2   0.000      0.  1318.5   43.94    57.4  1318.5   7.297
   66.00   44.00    3.27   67.62   0.586  -10.94   43.92    0.98   10.97   0.235
   0.100   0.150   0.250      0.      0.  24.500   1.000  25.500      0.      0.
    -0.0     0.0    -0.0     0.0    -0.0     0.0    -0.0     0.0    -0.0     0.0
    -0.0     0.0    -0.0     0.0    -0.0     0.0    -0.0     0.0    -0.0     0.0
    -0.0     0.0    -0.0     0.0    -0.0     0.0    -0.0     0.0    -0.0     0.0
    -0.0     0.0    -0.0     0.0    -0.0     0.0    -0.0     0.0    -0.0     0.0
    -0.0     0.0    -0.0     0.0    -0.0     0.0    -0.0     0.0    -0.0     0.0
    -0.0     0.0    -0.0     0.0    -0.0     0.0    -0.0     0.0    -0.0     0.0
    -0.0     0.0    -0.0     0.0    -0.0     0.0    -0.0     0.0    -0.0     0.0
    -0.0     0.0    -0.0     0.0    -0.0     0.0    -0.0     0.0    -0.0     0.0
    -0.0     0.0    -0.0     0.0    -0.0     0.0    -0.0     0.0    -0.0     0.0
    -0.0     0.0    -0.0     0.0    -0.0     0.0    -0.0     0.0    -0.0     0.0
    -0.0     0.0    -0.0     0.0    -0.0     0.0    -0.0     0.0    -0.0     0.0
    -0.0     0.0    -0.0     0.0    -0.0     0.0    -0.0     0.0    -0.0     0.0
    -0.0     0.0    -0.0     0.0    -0.0     0.0    -0.0     0.0    -0.0     0.0
    -0.0     0.0    -0.0     0.0    -0.0     0.0    -0.0     0.0    -0.0     0.0
    -0.0     0.0    -0.0     0.0    -0.0     0.0    -0.0     0.0    -0.0     0.0
    -0.0     0.0    -0.0     0.0    -0.0     0.0    -0.0     0.0    -0.0     0.0
    -0.0     0.0    -0.0     0.0    -0.0     0.0    -0.0     0.0    -0.0     0.0
    -0.0     0.0    -0.0     0.0    -0.0     0.0    -0.0     0.0    -0.0     0.0
    -0.0     0.0    -0.0     0.0    -0.0     0.0    -0.0     0.0    -0.0     0.0
    -0.0     0.0    -0.0     0.0    -0.0     0.0    -0.0     0.0    -0.0     0.0
    -0.0     0.0    -0.0     0.0    -0.0     0.0    -0.0     0.0    -0.0     0.0
    -0.0     0.0    -0.0     0.0    -0.0     0.0    -0.0     0.0    -0.0     0.0
    -0.0     0.0    -0.0     0.0    -0.0     0.0    -0.0     0.0    -0.0     0.0
    -0.0     0.0    -0.0     0.0    -0.0     0.0    -0.0     0.0    -0.0     0.0
    -0.0     0.0    -0.0     0.0    -0.0     0.0    -0.0     0.0    -0.0     0.0
    -0.0    -0.0     0.0    -0.0     0.1    -0.0    -0.0     0.0    -0.1     0.1
    -0.0     0.0    -0.0    -0.0    -0.0     0.0    -0.0     0.0    -0.0     0.0
    -0.0     0.0    -0.0     0.0    -0.0     0.0    -0.0     0.0    -0.0    -0.0
    -0.0     0.1    -0.0     0.0    -0.1     0.0    -0.0     0.0    -0.1     0.1
    -0.1    -0.0     0.0     0.0    -0.0     0.0    -0.0     0.0    -0.0     0.1
     0.0    -0.0    -0.0     0.0     0.0     0.0    -0.0     0.0    -0.0    -0.0
    -0.0     0.0    -0.0     0.0    -0.1     0.0     0.0     0.0    -0.1     0.0
    -0.1     0.1    -0.0    -0.0    -0.0     0.0     0.0     0.0    -0.0     0.0
    -0.0     0.1    -0.0    -0.0     0.0     0.1    -0.0    -0.0    -0.0     0.1
    -0.0    -0.0     0.0     0.1    -0.1    -0.0    -0.0     0.0    -0.1     0.0
     0.1    -0.1    -0.0     0.1    -0.0    -0.1    -0.0     0.0     0.1    -0.0
    -0.1     0.1    -0.0     0.0    -0.0     0.0    -0.0     0.1    -0.1     0.0
     0.0     0.0    -0.0     0.0     0.0     0.0     0.0    -0.1     0.0    -0.0
    -0.0    -0.0    -0.0     0.1    -0.1    -0.1     0.1     0.0    -0.1     0.1
    -0.0    -0.0    -0.0    -0.0     0.1    -0.0    -0.0     0.0    -0.0     0.0
    -0.1     0.1    -0.0     0.0    -0.0     0.1    -0.1    -0.0     0.1     0.0
    -0.0     0.0    -0.0     0.1    -0.1     0.1    -0.1    -0.0     0.0     0.0
     0.0     0.0    -0.0     0.0    -0.0     0.0    -0.0     0.1    -0.0     0.0
    -0.0    -0.0     0.0    -0.1     0.0     0.1    -0.1     0.0    -0.1     0.1
    -0.0    -0.0     0.1    -0.0    -0.0     0.0    -0.0     0.1    -0.1     0.0
    -0.0     0.0     0.0    -0.1    -0.0    -0.0    -0.0     0.1    -0.1    -0.1
     0.0     0.1    -0.1     0.0     0.1     0.1    -0.1    -0.0     0.1    -0.0
     0.0    -0.1    -0.1     0.2    -0.1     0.0    -0.0    -0.0     0.0     0.0
    -0.0    -0.0     0.0     0.1    -0.1     0.0     0.1    -0.0    -0.1     0.1
     0.0    -0.1     0.0     0.1    -0.1     0.0    -0.0     0.0    -0.1     0.1
     0.0    -0.1     0.1     0.0    -0.0    -0.0    -0.0     0.1    -0.1    -0.0
    -0.0     0.0    -0.1    -0.0     0.1    -0.0    -0.0     0.1    -0.2     0.0
     0.1    -0.0    -0.1     0.1    -0.1    -0.0    -0.0     0.0    -0.0     0.0
     0.1     0.0    -0.1     0.1     0.0     0.0    -0.0     0.0    -0.0     0.0
     0.0    -0.1    -0.0     0.1    -0.0    -0.0    -0.0     0.0     0.0    -0.0
    -0.0     0.0     0.0    -0.1    -0.1     0.0    -0.0     0.1    -0.1     0.0
     0.1     0.1    -0.1     0.0     0.1    -0.0    -0.0     0.1    -0.2     0.0
     0.2    -0.1    -0.1     0.1     0.1    -0.1    -0.1     0.1    -0.1     0.0
     0.0     0.1    -0.1     0.1     0.0    -0.1    -0.1     0.1     0.0    -0.0
    -0.1     0.1     0.0     0.0    -0.1     0.1     0.0     0.0     0.0    -0.1
     0.1     0.1    -0.0    -0.0    -0.0     0.1    -0.0    -0.0     0.0     0.1
    -0.2     0.1    -0.0    -0.1     0.1    -0.0     0.0    -0.0    -0.0     0.1
    -0.1     0.1    -0.0     0.0    -0.1     0.0    -0.0    -0.0     0.0     0.0
    -0.1     0.1    -0.1     0.0    -0.0     0.1    -0.1     0.0     0.1    -0.0
    -0.1     0.0    -0.0    -0.0     0.1    -0.0    -0.1     0.1    -0.0     0.0
    -0.0     0.0    -0.1     0.1     0.0    -0.1    -0.0     0.1    -0.0    -0.1
     0.0     0.1    -0.1     0.1    -0.0    -0.1     0.1    -0.0    -0.1     0.1
    -0.1    -0.0     0.1    -0.1     0.1     0.0    -0.1     0.0    -0.1     0.1
    -0.0    -0.1    -0.0     0.0     0.0    -0.0     0.0     0.1    -0.1    -0.0
     0.0     0.1    -0.1     0.0    -0.0     0.1    -0.0     0.0    -0.0     0.0
    -0.0     0.0    -0.0    -0.0    -0.0     0.0    -0.0    -0.1     0.1    -0.0
    -0.0     0.1    -0.1     0.0     0.0     0.0    -0.1     0.0     0.1    -0.1
     0.1     0.0    -0.1     0.1    -0.0     0.1    -0.1     0.0     0.0    -0.0
     0.1    -0.0    -0.0     0.1    -0.1     0.0    -0.1     0.1    -0.1     0.1
    -0.0    -0.0     0.0     0.0    -0.0    -0.0     0.0     0.1    -0.1     0.1
    -0.0     0.0    -0.2     0.2     0.0    -0.1     0.0     0.0     0.0     0.1
    -0.0    -0.0    -0.0     0.1     0.1    -0.1    -0.0     0.1    -0.1    -0.0
     0.0     0.0    -0.0     0.1    -0.1     0.0     0.0     0.0     0.0     0.0
    -0.1     0.1     0.0    -0.0     0.0    -0.0    -0.0     0.0    -0.0     0.1
    -0.0    -0.0    -0.0     0.0    -0.0    -0.0    -0.0     0.0    -0.0    -0.0
    -0.0     0.1    -0.1     0.0    -0.0    -0.0     0.1    -0.0    -0.0     0.0
     0.0     0.0    -0.0     0.1    -0.1     0.1    -0.1     0.1     0.0    -0.0
     0.0     0.0    -0.0    -0.1     0.1    -0.0    -0.0     0.0     0.0     0.1
    -0.1     0.0     0.1    -0.1    -0.0     0.1    -0.1     0.1    -0.1     0.0
    -0.0     0.0     0.0    -0.1     0.1    -0.1     0.1     0.1    -0.2     0.1
    -0.1    -0.0     0.0     0.0    -0.0    -0.0     0.0     0.0    -0.1     0.1
    -0.1     0.1    -0.1    -0.0     0.1     0.0    -0.1    -0.0     0.0     0.1
    -0.1     0.1    -0.0     0.0     0.0     0.0     0.0     0.0    -0.0     0.0
    -0.0     0.1    -0.0     0.0    -0.1     0.1    -0.0    -0.0    -0.0     0.1
     0.1    -0.1    -0.1     0.0    -0.0     0.1    -0.0     0.0    -0.1     0.1
     0.0    -0.0    -0.1     0.0    -0.0    -0.0    -0.0     0.1    -0.0     0.0
    -0.0     0.1    -0.1     0.0    -0.1     0.0    -0.0    -0.0     0.0     0.1
    -0.1     0.1     0.1     0.0    -0.0    -0.0    -0.1     0.1    -0.0    -0.0
     0.1    -0.0    -0.0     0.1    -0.1     0.0    -0.0     0.0    -0.1     0.1
    -0.0     0.0    -0.0     0.1     0.0    -0.1     0.0     0.1    -0.0     0.0
     0.0    -0.0    -0.0     0.0    -0.1     0.1    -0.0    -0.0    -0.0    -0.0
     0.1     0.0    -0.1    -0.0     0.1     0.0    -0.1     0.0    -0.1     0.1
    -0.0    -0.1     0.0     0.1     0.0    -0.1    -0.1     0.1    -0.1     0.1
    -0.0    -0.1     0.2    -0.1     0.0     0.0     0.0     0.0    -0.2     0.2
    -0.1     0.1    -0.0    -0.1     0.1    -0.0    -0.1     0.1    -0.1     0.2
    -0.0    -0.1    -0.0     0.0     0.0     0.0    -0.1     0.0    -0.1     0.1
    -0.1    -0.1     0.1     0.0    -0.1     0.0    -0.0     0.1    -0.1    -0.0
     0.1     0.0     0.0    -0.0    -0.1     0.1    -0.0     0.0    -0.0     0.0
    -0.1     0.1    -0.0    -0.0    -0.0     0.1     0.0    -0.0    -0.1     0.1
    -0.0     0.1    -0.1    -0.0    -0.0     0.0    -0.0     0.0     0.0     0.0
    -0.1     0.0     0.1    -0.0    -0.1     0.1    -0.1     0.1    -0.1     0.0
    -0.0    -0.1     0.0     0.1    -0.0     0.0    -0.1     0.0     0.1    -0.0
    -0.0    -0.1     0.0     0.1    -0.1     0.0    -0.0    -0.0    -0.0     0.0
    -0.0     0.0     0.0    -0.1    -0.0     0.2    -0.2     0.1     0.0     0.0
    -0.0    -0.0     0.0    -0.0    -0.0     0.0    -0.1     0.0     0.0    -0.0
    -0.0     0.1    -0.1     0.1    -0.1     0.1    -0.0     0.0    -0.0     0.0
    -0.0     0.0    -0.0     0.0    -0.0    -0.0    -0.0     0.1    -0.0    -0.0
    -0.0     0.0     0.0     0.0    -0.1     0.1    -0.0    -0.0    -0.1     0.1
    -0.1     0.1    -0.0     0.0    -0.0     0.1    -0.0     0.0    -0.0    -0.0
    -0.0    -0.0    -0.0    -0.0    -0.0     0.1     0.0     0.0    -0.0     0.0
    -0.0     0.0    -0.0     0.0    -0.1     0.0    -0.0     0.0    -0.1     0.1
    -0.0     0.0     0.1    -0.1    -0.0     0.1    -0.0     0.0    -0.1     0.1
    -0.0     0.0    -0.1    -0.0     0.0     0.1    -0.0     0.0    -0.1     0.1
    -0.0     0.0    -0.0    -0.1     0.0    -0.0     0.0     0.0    -0.1     0.1
    -0.1     0.1     0.0    -0.1     0.1    -0.0    -0.1     0.0    -0.0     0.1
    -0.1     0.0     0.0    -0.0    -0.0    -0.0     0.0     0.1    -0.1     0.2
    -0.1    -0.0     0.0     0.1    -0.0    -0.0     0.0     0.1    -0.1     0.1
    -0.0     0.1    -0.0    -0.1     0.1     0.0     0.0     0.1    -0.1     0.1
     0.0     0.0    -0.0     0.1    -0.0     0.1    -0.0     0.0    -0.0     0.1
    -0.0     0.0    -0.1     0.1    -0.0    -0.0    -0.1     0.1    -0.0     0.0
    -0.0     0.1     0.0    -0.0    -0.0     0.0    -0.0     0.0    -0.1     0.1
     0.0    -0.0    -0.0    -0.0     0.0     0.1    -0.1     0.0    -0.0     0.1
    -0.0     0.0    -0.1     0.1    -0.1    -0.0    -0.0     0.0    -0.0     0.0
    -0.1    -0.0    -0.0    -0.0     0.0     0.0    -0.0     0.0    -0.0     0.0
     0.0    -0.0    -0.0     0.0    -0.0     0.0    -0.0     0.0    -0.0    -0.0
    -0.1     0.0    -0.0     0.0    -0.0     0.0    -0.1    -0.0    -0.0     0.0
     0.0     0.0    -0.1     0.0    -0.0     0.0    -0.0     0.1    -0.0     0.0
    -0.0     0.0    -0.0     0.0    -0.1     0.1    -0.0     0.0    -0.0     0.0
    -0.0    -0.0    -0.0     0.1    -0.1     0.1    -0.0     0.1    -0.0     0.1
    -0.1     0.0     0.0    -0.0    -0.0     0.0    -0.0     0.0     0.0     0.0
    -0.1     0.1    -0.0     0.1    -0.0     0.0    -0.0     0.1    -0.0    -0.0
     0.0     0.0    -0.1     0.1    -0.1     0.0    -0.0    -0.0     0.0     0.1
    -0.0    -0.0     0.0     0.1    -0.1     0.0    -0.0     0.0    -0.0     0.1
    -0.1     0.1    -0.1     0.0    -0.0     0.1    -0.0     0.0     0.0     0.1
    -0.0     0.0    -0.0    -0.0    -0.0     0.1    -0.0     0.0    -0.1     0.1
    -0.0     0.0    -0.1     0.0     0.0     0.0    -0.1     0.1    -0.0     0.1
    -0.0     0.0    -0.0     0.1    -0.0     0.1    -0.0     0.1    -0.0     0.1
    -0.1     0.0    -0.0     0.1    -0.0     0.0    -0.0     0.1    -0.0     0.0
    -0.0     0.1    -0.0     0.0    -0.0     0.1    -0.1     0.1     0.1    -0.0
    -0.1     0.1    -0.1     0.1    -0.0    -0.0     0.0     0.1    -0.1    -0.0
     0.0     0.1    -0.1     0.0    -0.0     0.0    -0.0     0.0    -0.1     0.1
    -0.0     0.1    -0.1    -0.0    -0.0     0.1    -0.1     0.0    -0.0     0.0
    -0.0    -0.1     0.0     0.0    -0.1     0.0    -0.1     0.1    -0.1     0.0
    -0.0     0.0    -0.1     0.0    -0.0     0.0    -0.0    -0.0    -0.1     0.0
    -0.0     0.0    -0.1     0.0    -0.0     0.0    -0.0    -0.0    -0.0     0.0
    -0.1     0.0    -0.0     0.0    -0.1    -0.0    -0.0     0.1    -0.1     0.0
    -0.1     0.1     0.1    -0.0    -0.1     0.0    -0.0     0.1    -0.0    -0.1
    -0.1     0.0    -0.0    -0.0    -0.1     0.0    -0.0     0.0    -0.0    -0.0
    -0.1     0.1    -0.1     0.0    -0.1     0.0     0.0     0.0     0.0    -0.0
    -0.0     0.1    -0.1     0.0    -0.0     0.1    -0.1    -0.0    -0.0     0.1
    -0.0     0.1    -0.0     0.1    -0.0     0.0    -0.0     0.0    -0.1     0.0
    -0.0     0.0    -0.1     0.0     0.0     0.1    -0.1     0.1    -0.0     0.0
    -0.0     0.0    -0.0     0.0    -0.0     0.1    -0.0     0.1    -0.0     0.0
    -0.0     0.0    -0.1     0.1    -0.1     0.1    -0.0     0.1    -0.0     0.1
    -0.0     0.0    -0.0     0.1    -0.0     0.0    -0.0     0.1    -0.0     0.0
    -0.1     0.1    -0.0     0.0    -0.0     0.0    -0.0     0.1    -0.0     0.1
    -0.1     0.0    -0.0     0.1    -0.0     0.0    -0.0     0.0    -0.0     0.1
    -0.0     0.1    -0.0     0.0    -0.0    -0.0    -0.1     0.0    -0.1     0.0
    -0.0     0.1    -0.1    -0.1    -0.0     0.0    -0.1     0.1    -0.1     0.1
    -0.1     0.0    -0.0    -0.1    -0.0     0.0    -0.1     0.0    -0.1     0.1
    -0.1    -0.0    -0.0     0.1    -0.1     0.0    -0.1     0.1    -0.0    -0.1
    -0.0     0.1    -0.1    -0.0    -0.1     0.1    -0.1     0.0    -0.1     0.0
    -0.1     0.0    -0.1     0.0    -0.1    -0.0    -0.1     0.1    -0.1     0.0
    -0.1     0.0    -0.0    -0.1    -0.1     0.0    -0.1     0.1    -0.1    -0.1
     0.0     0.1    -0.1    -0.1    -0.0     0.2    -0.1    -0.0    -0.1     0.2
    -0.1     0.0    -0.1     0.1    -0.1     0.0    -0.1    -0.0     0.0     0.1
    -0.2    -0.0     0.1    -0.0    -0.1     0.0     0.0    -0.0    -0.0     0.1
    -0.2     0.0    -0.0     0.0    -0.0     0.0    -0.0     0.0    -0.1     0.1
    -0.1     0.0    -0.1    -0.0     0.0     0.0    -0.1     0.0    -0.1     0.1
    -0.0     0.1    -0.1     0.1    -0.0     0.0    -0.0     0.1    -0.1     0.1
    -0.1     0.1     0.0     0.0    -0.1     0.1    -0.1     0.1    -0.0     0.1
    -0.0     0.1     0.0     0.1    -0.0     0.2    -0.1     0.1     0.1     0.1
    -0.1     0.0     0.1     0.1    -0.1     0.1    -0.0     0.1    -0.0     0.1
     0.0     0.1    -0.0     0.1     0.0     0.1    -0.0     0.1     0.0     0.1
    -0.0     0.1    -0.0     0.1     0.0     0.1    -0.0     0.1    -0.0     0.1
    -0.0     0.1     0.0     0.1     0.0     0.1     0.0     0.1    -0.0     0.1
     0.0     0.1     0.0     0.1    -0.0     0.1    -0.0     0.0     0.0     0.1
     0.0     0.1    -0.1     0.2    -0.1     0.1    -0.0     0.1     0.1     0.0
    -0.0     0.1     0.0     0.1    -0.1     0.2    -0.0     0.0     0.0     0.1
    -0.0     0.0    -0.1     0.1    -0.0     0.0    -0.1     0.2     0.0     0.0
    -0.1     0.2    -0.1     0.1     0.0     0.0    -0.1     0.1    -0.1     0.0
    -0.1     0.1    -0.1     0.0    -0.0    -0.0    -0.1     0.1    -0.1     0.1
    -0.1     0.0    -0.1     0.1    -0.1    -0.0    -0.1     0.1    -0.1     0.0
    -0.1     0.1    -0.1     0.0    -0.1     0.0    -0.1     0.1    -0.1     0.0
    -0.1     0.1    -0.1     0.1    -0.1    -0.0    -0.1     0.0    -0.1     0.0
    -0.1     0.0    -0.1     0.0    -0.1     0.0    -0.0    -0.0    -0.0     0.1
    -0.1     0.1    -0.1     0.1    -0.0     0.0    -0.0     0.1    -0.0     0.1
    -0.0     0.1    -0.0     0.1    -0.0     0.1    -0.1     0.1    -0.1     0.1
    -0.0     0.1    -0.0     0.1    -0.0     0.1    -0.0     0.1     0.0     0.1
     0.0     0.1     0.0     0.1     0.0     0.1     0.0     0.1    -0.0     0.2
    -0.1     0.3    -0.0     0.2    -0.0     0.2     0.1     0.1     0.1     0.0
     0.2     0.1     0.1     0.2     0.0     0.3    -0.0     0.3    -0.0     0.3
     0.0     0.2     0.1     0.3     0.1     0.1     0.1     0.2     0.1     0.2
     0.1     0.3     0.1     0.2     0.0     0.3     0.0     0.2     0.1     0.2
     0.1     0.2     0.1     0.2     0.1     0.2     0.1     0.2     0.0     0.2
     0.1     0.2     0.1     0.2     0.1     0.2     0.0     0.2     0.0     0.2
     0.1     0.2    -0.0     0.2     0.0     0.2    -0.0     0.1    -0.0     0.1
    -0.0     0.1    -0.0     0.1    -0.1     0.1    -0.1    -0.0    -0.1     0.1
    -0.2     0.1    -0.1    -0.0    -0.2     0.0    -0.2    -0.0    -0.2    -0.1
    -0.2    -0.1    -0.3    -0.1    -0.2    -0.2    -0.3    -0.1    -0.3    -0.2
    -0.4    -0.2    -0.4    -0.2    -0.4    -0.2    -0.4    -0.2    -0.5    -0.3
    -0.5    -0.3    -0.5    -0.3    -0.5    -0.3    -0.5    -0.4    -0.6    -0.4
    -0.6    -0.5    -0.6    -0.4    -0.6    -0.5    -0.7    -0.4    -0.7    -0.5
    -0.8    -0.5    -0.8    -0.6    -0.8    -0.6    -0.8    -0.6    -0.8    -0.6
    -0.9    -0.6    -0.8    -0.6    -0.9    -0.7    -0.8    -0.7    -1.0    -0.6
    -0.9    -0.7    -1.0    -0.7    -0.9    -0.7    -1.0    -0.8    -0.9    -0.7
    -0.9    -0.7    -0.9    -0.7    -0.9    -0.7    -1.0    -0.7    -0.9    -0.7
    -1.0    -0.7    -0.9    -0.7    -0.9    -0.7    -0.8    -0.6    -0.9    -0.6
    -0.8    -0.6    -0.8    -0.6    -0.8    -0.5    -0.8    -0.5    -0.7    -0.5
    -0.7    -0.5    -0.6    -0.4    -0.7    -0.4    -0.6    -0.2    -0.6    -0.4
    -0.5    -0.1    -0.4    -0.2    -0.5    -0.0    -0.2    -0.1    -0.4     0.1
    -0.1     0.1    -0.2     0.2     0.0     0.2    -0.1     0.3     0.1     0.4
     0.1     0.4     0.3     0.6     0.3     0.5     0.4     0.8     0.5     0.7
     0.5     1.0     0.7     0.9     0.7     1.1     0.8     1.2     0.9     1.3
     1.0     1.3     1.1     1.5     1.2     1.5     1.3     1.7     1.4     1.7
     1.5     1.9     1.6     2.0     1.6     2.1     1.8     2.1     1.9     2.3
     2.0     2.3     2.0     2.5     2.2     2.6     2.3     2.7     2.4     2.8
     2.4     2.9     2.6     3.0     2.5     3.0     2.8     3.1     2.7     3.3
     2.9     3.3     3.0     3.4     3.1     3.5     3.0     3.6     3.2     3.7
     3.2     3.8     3.3     3.8     3.4     3.9     3.4     4.0     3.5     4.0
