Corrected accelerogram 20160214_001343_SBRC_20 GNS Science
Site SBRC      43 48 31S  172 15 09E     Cusp file:  20160214_001402_SBRC
Southbridge School
Instrument Cusp_215
Resolution: 18-bit   Instr Period: 0.0050 s   Damping: 0.700
Accelerogram 20160214_001343_SBRC_20                 Processed 2016 February 22
11 km east of CHRISTCHURCH
2016 February 14         00:13:43 UT
Epicentre  43 29 50S 172 45 18E  Bearing N50E  Dist   53km  Depth    8km M  5.70
Number of points  3197    Duration  63.92 sec
Instrument corrected data at 0.020 sec intervals
Band-pass filter transition bands are .10-.25 Hz and 24.50-25.50 Hz
Component N00E  Horizontal Axis 1
Acceleration:  peak    129.6 mm/s/s at   9.98 sec     rms     17.2 mm/s/s
Velocity:      peak    -9.36 mm/s   at  11.36 sec     rms     2.73 mm/s
Displacement:  peak    5.416 mm     at  25.66 sec     rms    1.620 mm
    2016       2      14       0      13     430       0       0    2016       2
      43      29      50     172      45      18       8       0      14       0
      43      48      31     172      15       9       0       0      50      53
   10786     250     250    3197    3197    3197       0       0      13   53633
   200.0    0.70    0.00   0.000  0.0000   0.000   0.000   1.000     0.0    0.00
  43.809 172.252   43.50  172.76    5.70    0.00    0.00    0.00      0.      0.
   53.93    5.00    5.00   63.92  0.0050  0.0200      0.      0.      0.  9806.6
   130.0    9.97    21.6   0.000      0.   129.6    9.98    17.2   132.5   1.367
   -9.36   11.36    2.73   10.88   0.238    5.42   25.66    1.62    5.90   0.183
   0.100   0.150   0.250      0.      0.  24.500   1.000  25.500      0.      0.
    -0.0     0.1    -0.0     0.1    -0.0     0.1    -0.0     0.1    -0.0     0.1
    -0.0     0.1    -0.0     0.1    -0.0     0.1    -0.0     0.1    -0.0     0.1
    -0.1     0.0    -0.1     0.0    -0.1     0.0    -0.1     0.0    -0.1     0.0
    -0.1     0.0    -0.1     0.0    -0.1     0.0    -0.1     0.0    -0.1     0.0
    -0.1    -0.0    -0.1    -0.0    -0.1    -0.0    -0.1    -0.0    -0.1    -0.0
    -0.1    -0.0    -0.2    -0.0    -0.2    -0.1    -0.2    -0.1    -0.2    -0.1
    -0.2    -0.1    -0.2    -0.1    -0.2    -0.1    -0.2    -0.1    -0.2    -0.1
    -0.2    -0.1    -0.2    -0.1    -0.2    -0.1    -0.2    -0.1    -0.2    -0.1
    -0.3    -0.1    -0.3    -0.2    -0.3    -0.2    -0.3    -0.2    -0.3    -0.2
    -0.3    -0.2    -0.3    -0.2    -0.3    -0.2    -0.3    -0.2    -0.3    -0.2
    -0.3    -0.2    -0.3    -0.2    -0.3    -0.2    -0.3    -0.2    -0.3    -0.2
    -0.3    -0.2    -0.3    -0.2    -0.3    -0.2    -0.3    -0.2    -0.3    -0.2
    -0.3    -0.2    -0.3    -0.2    -0.3    -0.2    -0.3    -0.2    -0.3    -0.2
    -0.3    -0.2    -0.3    -0.2    -0.3    -0.2    -0.3    -0.2    -0.3    -0.2
    -0.3    -0.1    -0.3    -0.1    -0.3    -0.1    -0.3    -0.1    -0.2    -0.1
    -0.2    -0.1    -0.2    -0.1    -0.2    -0.1    -0.2    -0.0    -0.2    -0.0
    -0.2    -0.0    -0.1     0.0    -0.1     0.0    -0.1     0.1    -0.1     0.1
    -0.1     0.1    -0.0     0.1    -0.0     0.2     0.0     0.2     0.0     0.2
     0.1     0.2     0.1     0.3     0.1     0.3     0.2     0.3     0.2     0.4
     0.2     0.4     0.2     0.4     0.3     0.5     0.3     0.5     0.3     0.6
     0.4     0.6     0.4     0.7     0.4     0.7     0.5     0.7     0.5     0.8
     0.5     0.8     0.6     0.9     0.6     1.0     0.6     1.0     0.7     1.1
     0.7     1.1     0.7     1.2     0.7     1.3     0.8     1.3     0.8     1.4
     0.8     1.5     0.8     1.6     0.8     1.6     0.8     1.7     0.8     1.9
     0.8     2.0     0.8     2.1     0.7     2.3     0.6     2.7     0.2     3.6
    -2.8   -11.0     0.3     3.5   -15.8    12.6     3.6     0.3    -5.3    -6.0
     2.1    -4.2    -8.7    -1.5    -3.9    -5.6    -7.5     1.3    -0.2     6.7
     6.6    -3.6     0.7     6.8     6.2     1.7     1.6    -6.9    -4.0     5.1
    11.0    14.6     0.2     4.4     9.8     6.6     3.1     1.7     4.6   -12.8
   -11.2    -3.2    15.2    -3.0     7.5     3.9    -6.6    -0.8     2.4    -3.0
    14.1   -11.5    -5.4    -5.3     2.2    -5.9     8.3     6.8    -4.1    -4.5
     5.1    -3.4   -14.6    -4.3    -6.4    -8.5    -4.6     2.8    -4.1    -4.2
    -3.2    11.2    -7.8   -14.2     2.0    -1.2    10.7     2.3   -13.1    17.5
     1.0    -1.6    -3.9    19.6     3.3     5.2     4.5   -12.9     9.5     2.1
    -2.7    10.7    -3.5    -4.9    -9.4     7.1    -2.1     0.0    -2.2     1.6
     7.3   -11.6    -7.3     4.3   -12.3   -10.4    -1.6     5.4     9.2    -1.5
     4.2    -7.0   -12.3     0.5   -13.2   -12.0    -1.1     2.8    16.9    -4.2
    -9.5    -6.6    -6.4    -2.4     3.3    17.1     5.2    10.2    21.6    13.1
    -6.8    -9.3     1.9   -15.6    -7.5     8.8    10.0    11.1    -5.5   -15.4
   -33.8   -13.5    -4.3   -12.2   -19.9     5.4    18.1     4.0   -14.0    -3.0
    -6.2    -4.5     8.5     8.5     4.9    -0.4     1.4    -1.2     2.3    11.7
    -1.5   -17.8   -18.3   -10.1    -4.6   -10.6     3.1     6.6    10.0    -0.8
    12.5   -11.9   -13.1     6.1     9.4     7.4    -6.1    11.6    33.0   -12.6
   -10.7     2.7     0.6     3.9    22.2    17.6     0.9    -6.3    16.2    13.2
    -6.9   -20.7     0.2    14.6    10.1    14.6     8.6     8.3    -5.6   -16.5
   -11.9   -11.3   -15.1    -2.4     6.7    -9.3   -27.7    -2.7    12.7     2.6
     1.9    10.0    -9.8   -20.9   -14.5    -2.9    21.3    -4.3    24.2    15.1
    -0.4     2.0    -0.4    -8.2   -12.8     1.2    14.6    -3.5     2.0   -12.2
    -0.4    -2.6    10.6     6.0    19.0     0.1    -5.9    26.8    -2.8   -10.7
     3.1     6.6    20.2     7.5     7.1    -8.6   -19.8    -9.9     6.7    24.5
    -3.4    -6.6     0.8    -0.8   -17.9     1.9    -4.0     5.6   -11.2   -15.1
   -30.7    -6.7   -16.1    -2.1     0.5    -7.3    15.1    -6.8    27.6    10.6
    -4.7    -4.6   -31.3   -14.9    -1.0   -11.9     9.1    -6.1    -3.1   -14.4
    -1.1     4.5    -1.3    -1.2    23.0    12.4     2.5     9.8    -6.7    12.5
     0.3     0.6    20.5    -3.9    -3.1     8.4    -5.3    -3.8    -6.6    13.0
    14.4    12.7     0.2    -0.3     4.7    10.5    14.7    27.4     7.0     2.1
     7.8    -8.1    -0.7     8.7     1.0     9.1    18.2   -20.4   -19.0   -11.2
    10.0     0.1     0.8    -9.2    -0.3   -14.0    -5.5     9.1    22.5    17.5
    13.5    -5.9    -3.5     5.1   -23.4    -7.8   -16.9     3.9    21.5     7.3
     8.1    15.0     4.2   -19.9   -20.9     9.5    18.0    14.8    19.8    23.1
   -12.5    -3.0    -3.5   -15.2   -13.5     2.5    36.1    28.1    -6.2    -7.0
    -3.5   -17.2   -40.9    -4.4     8.1     2.2    10.9     3.9     4.4   -19.0
   -19.4    17.2    11.1    24.3    19.9     2.2     3.9     0.5    -3.9    -2.2
   -21.7    -0.7   -12.4   -12.3   -16.1    12.2    16.9     3.7   -14.4   -22.3
   -21.2    -6.6     1.0    11.9    -3.4    -6.0   -11.0   -17.1   -15.2   -12.6
    -9.3    24.5    27.9    46.6    17.8     5.3     2.4   -19.7   -25.1   -16.0
   -11.7    -5.2    13.6    41.2    32.8    10.3   -16.4   -34.2   -37.1   -33.3
    -5.9    35.3    36.3    23.8     1.2    -0.6    21.7    33.0    40.3    25.1
   -36.8   -69.9   -72.3   -30.8     9.5    19.7    24.0    -4.9   -17.4    -6.0
    -2.6   -12.4    -9.3   -27.7   -41.5   -51.7   -43.8   -16.6   -19.2   -50.3
   -27.6     1.5    -3.5    23.7    18.8    13.2    11.7   -12.1   -14.2    -9.1
    28.4    34.2    49.9    38.1    16.4   -11.4   -13.0   -31.5   -18.8    15.2
    50.8    57.0    70.3    43.8   -10.4   -65.4   -81.8   -79.0   -63.5   -33.6
     2.1    26.9    39.1    13.5    10.6   -13.1   -23.5     3.7     3.6    50.7
    45.6    22.2    -2.9   -46.9  -105.2  -104.3   -56.7    37.7    87.3   129.6
   111.5    72.8    14.6     5.8    20.1    12.6    25.5    20.9    -8.4   -15.2
   -18.4   -26.6   -12.2    12.7    10.0    17.7   -33.4   -49.0   -67.7   -65.2
   -42.2   -23.6   -34.8   -39.9   -14.7     5.0    36.5    42.4    18.3   -13.1
   -34.0   -40.1    -5.2    43.7    42.2    43.4    55.7    36.5    41.7    41.2
    32.8    42.7    38.1    14.1    -4.6   -15.0   -48.5   -61.5   -28.9     0.8
    35.3    41.1    13.3   -15.1   -51.1   -57.7   -71.1  -112.5   -96.5   -72.9
   -27.1    25.6    16.1     5.7   -26.6   -50.5   -44.7   -18.5     7.5    15.5
    15.8    48.2    60.5    74.6    51.2   -13.1   -33.4   -38.9    -9.3    22.4
    27.1    28.8    27.0    52.3    61.7    66.5    78.2    41.2   -15.9   -44.4
   -36.0   -19.3    -0.8    32.8    35.7    26.8    13.7    -0.4    -5.7   -20.3
   -27.0   -27.9    -7.0     8.4    27.9    28.1    16.9     8.5    29.0    60.5
    61.5    38.8   -20.3   -53.7   -91.1   -66.2     5.2    14.6    35.3    57.2
    54.1    23.2    22.0     7.9     6.0     1.2    -5.7   -18.1   -10.1     5.7
     7.2    12.9    12.2   -18.5    -5.4    10.9    26.4    37.1    35.4    30.5
    -8.7   -26.2   -19.2   -23.1   -27.3   -32.6   -10.6     8.8     0.4     4.9
    23.0    31.1    47.6    38.0    -5.1   -49.4   -95.9   -99.9  -107.7   -74.8
   -66.1   -78.8   -30.0    14.6    49.0    27.1    17.5    -7.4   -14.3    -2.2
     6.3    29.0    18.7    -5.6   -42.1   -40.1   -10.5    28.3    35.8    31.8
    15.6    28.1    23.2    14.3    24.7    34.9    59.8    38.6    43.1    50.0
     8.3   -17.3   -60.7   -86.6  -110.9   -60.1    -9.4    38.1    28.5    49.1
    35.5     6.3     4.0    -0.6    17.0     8.2   -10.1   -47.9   -21.4   -33.8
   -12.8   -19.8    10.0    21.8    36.1    45.8    40.3    34.0    20.7    16.6
    -4.7   -34.4   -62.2   -48.2   -27.2    -0.7    27.1    32.0     9.0     6.7
   -13.4   -24.6    -5.9    12.9     0.1    -6.8   -22.8   -39.6   -38.4    -2.6
    22.0    35.6    41.9    23.7   -21.2   -59.4   -76.7   -34.3    -7.5   -22.8
   -27.8   -13.9   -25.5   -12.2    -1.8    -7.4     9.9     1.4    22.5    38.8
    37.1    13.3   -12.0   -27.1   -37.2   -11.4    15.9    23.6    24.4     1.3
   -11.1   -21.7   -25.1   -39.6   -38.4   -14.9     8.7     5.2     0.1   -24.7
   -30.6   -17.3     6.9    -2.9   -29.3   -28.5   -25.0   -17.7   -19.3     1.9
     8.3    14.0    12.2     9.6    -1.7    -9.5    -2.5    -7.8    -7.6    10.3
    16.0    24.5    -3.9    -1.2    14.5    21.1    37.9    43.2    39.9    36.8
    42.6    70.0    55.9    47.4    53.0    40.3    35.6    24.1    11.4    -7.0
    -6.3   -24.3   -21.9    -8.6    -2.8    -1.1     0.8   -17.5   -23.8   -24.3
   -19.3   -30.5    -8.2    -4.7    -6.0    -4.3    11.8     4.1    14.7    29.2
    48.1    41.0    23.1     9.3   -12.1   -20.7    -4.8    20.7    27.1    29.7
    46.2    31.2    12.3     7.2    -6.7    -3.3     0.1    13.4    13.0    20.8
    22.8   -12.8   -17.5   -34.9    -8.9     5.6   -12.4    -8.0   -17.4   -20.6
   -22.6   -23.4    -7.9    10.8    19.4    -6.7   -42.8   -43.1   -35.8   -40.1
    -5.1   -18.2    -8.7   -25.3   -33.2   -30.9   -20.7   -23.1     9.8    20.3
    30.3    31.1     4.1    -7.9   -65.9   -90.6   -80.4   -28.0   -19.8    25.2
    35.9    46.3    29.1    25.0    29.2    41.0    35.9    23.6    -1.5     1.1
     5.8    -3.4    10.0    23.8    38.0    44.9    36.6    22.3     2.6   -29.2
   -32.7   -38.0   -20.6     7.6    19.6     9.9    -0.5    -6.8   -22.1   -22.3
   -33.9   -15.8     1.2    -5.8    -7.7   -10.8   -19.8     1.6    22.7     8.1
   -17.4   -27.9   -20.4    -9.2    14.7     7.4    15.4    -7.9   -20.9    -1.0
     1.0     5.0    30.0    34.1    15.8    22.2     9.6     1.1    12.4     8.2
   -13.6    -6.1   -11.0   -10.7   -11.3    -2.3   -19.2    -9.1    -4.7    -1.0
    17.5     1.3     2.7    -7.3    -8.2    -1.1    21.3    17.9    17.1    30.2
    35.2    15.7    12.3    14.0    17.6    17.1    12.9     5.3   -13.7     5.8
     3.2   -18.2   -25.5   -22.7   -16.5     1.2     0.3    18.6     9.1    14.8
     3.0    -5.2    -8.1   -20.7   -22.0     2.6     1.5     1.0     3.1   -15.4
    -9.6    -2.0    -5.5    15.8    25.8    14.1    14.0    26.6    35.3    26.5
    27.7    25.4    23.1    50.6    23.2    21.6    22.2   -10.7    -6.1   -22.2
   -21.4   -28.5   -17.8   -10.4   -17.8   -27.3   -37.9   -43.2   -42.9   -44.1
   -51.8   -36.0    -8.5    16.1   -19.6    -9.7     4.8     4.6    11.6    32.9
     2.6    -5.0    -9.7    -7.1    -0.4     4.2    -6.8     2.1     4.1     2.2
    -5.9     7.3    -2.1     7.2    -7.3   -13.4    -7.6    -2.4   -14.9    -6.4
    -0.9   -13.0   -19.0   -13.1     0.2     5.6     3.3    17.4    17.7    18.7
    20.2    10.3    12.1     0.2     0.3     1.1     6.9    21.3    10.0     2.3
   -17.9   -11.6   -16.1    -6.5    -7.7    -5.6     5.6     1.2   -11.9   -29.2
   -33.0   -36.2   -18.1   -20.5   -13.6    -9.1     0.5     0.7   -20.7   -15.8
   -18.6   -11.5   -12.3   -19.0   -12.1    19.5    10.7    22.1    33.8    17.4
    31.5    18.2    13.8    10.1    -7.4   -17.8     2.5   -11.3   -17.3   -12.6
   -10.1     0.2    -9.4   -23.2   -25.4   -29.5   -26.8   -30.2   -32.9    -1.5
     6.4     1.4     1.6    -2.4    -8.9   -16.8   -15.9    -0.8    -6.5    13.3
    21.2    20.3    24.9    16.1    21.0    25.7    22.2    27.9    21.6    23.6
    12.2    29.3    22.8     9.8     3.2    -3.6     6.0    14.2    32.9    39.9
    31.2    22.1    19.0    -0.5   -23.1   -23.1   -23.1   -27.3    -2.9    -2.8
    -1.4    -4.8    -3.3    -6.9    -5.2   -11.2     2.8   -11.4    -3.0    13.9
     5.9    31.9    28.6    20.3    22.7     9.5    16.5    20.4    17.7    26.4
    11.1    23.2    22.6     9.3    11.2    11.1    -2.4     5.4   -13.3    10.9
     5.8    29.1    12.9     5.6    -2.9    19.2    -4.4   -13.3   -12.9    -7.4
    14.2    23.7    30.4    21.7    23.2    11.8    11.9    -5.7    -5.0    -4.5
    17.5     4.9    -4.6     0.5    -5.9     0.8    -0.4    22.9     1.9    10.8
     1.1     0.2     5.2   -19.6   -17.9   -14.6   -28.5   -11.9   -15.3   -26.2
   -14.9   -11.0     9.4    -2.3    -2.0    -6.2     3.0     2.2    -0.5     4.4
     1.6    -2.3    -4.7     9.0    -3.6   -10.2    -9.5    -0.6    -6.3    -5.1
    15.6    12.5    11.0     0.2     4.6   -19.3   -18.0   -28.3   -39.4   -28.6
   -44.4   -47.2   -48.0   -18.1   -19.0   -26.2   -15.4   -24.0   -19.7   -25.5
   -34.1   -22.3    -8.8   -25.6   -15.6   -14.1    -0.1     1.7     5.7    -4.5
     0.5     2.0     0.9     0.9     3.1     5.9    17.6     2.6    -7.6    -3.1
    -0.2    -3.4    -7.2   -13.5    -9.2   -18.8   -16.7   -11.8    -1.5    15.3
    15.2    12.4     5.3    -0.8   -10.0   -14.1    -1.8    -6.7    -6.9    -6.4
    -2.0    -1.4    -7.2    -6.8   -19.9     0.9     5.7    11.2     4.9     8.8
    19.8    18.3    31.9    16.1    27.6   -11.6    14.8    -7.8     0.6     7.0
     5.1     8.5     1.6    -2.7     1.6    -6.0   -21.3   -17.9   -19.2    -6.8
    -5.4     4.8    -4.7    -7.1    -7.8    -6.6    -0.5     0.9     6.0    10.2
    13.2    15.6    10.6     7.7    12.6    12.6    13.3    34.9    14.5    19.0
    15.6    16.5    -0.9    -2.2   -10.6    -6.9   -10.2     4.7   -12.6     2.3
    -5.7     9.9     6.5    12.0     6.9    -3.0    12.8    12.9     9.4    15.3
    32.9    36.9    14.4    19.3    22.7    16.1    28.2    33.8    31.6    20.3
    17.5    16.4    19.3     7.5     7.4    13.7    -2.1     7.9     2.4   -10.5
    -8.4    -6.8    -1.6     9.5     3.6    -0.0    11.8    -2.0    -4.2     6.3
     0.3    -0.4    -4.2   -14.4     1.6   -11.0    -3.3    -1.3    -2.7    -7.1
     6.1    21.8    15.6     5.6     9.3     3.2    -2.8   -14.0    -6.5   -21.8
    -5.6    -3.4    -3.6   -15.5    -7.1    -6.6    -6.3   -15.2     9.0     9.3
     4.8    -5.1    -8.3   -12.2   -29.9   -18.8   -17.1    -6.9   -22.6   -19.6
   -20.6   -25.0   -20.4    -9.5   -20.4    -8.7    -6.4    -5.6    -1.0    -1.6
     6.6    -5.6    -9.1    -8.8    -2.9    12.7    15.2     5.8     7.5     3.3
    -5.3     5.5     4.7    14.0     6.1     5.7    -8.2     6.1    -2.0     2.7
     8.5    13.1     8.4    -3.0    -5.5   -16.4   -17.5   -31.6   -12.0    -9.5
   -10.5    -2.0   -22.3   -18.4   -10.3    -9.3   -12.9     6.2     7.3    -4.3
    -9.3    -6.9   -11.1    -6.0    -1.4   -11.0    -9.4    -1.6    -8.1     3.8
   -10.2     0.8    -6.3    -6.4     6.2     2.7    -4.1    -7.7    -6.0     0.8
   -16.2   -18.6    -2.0    -7.2   -20.5   -20.3   -15.0    -9.8     4.0    -5.5
    -2.4     6.1    -4.3    -1.2    14.5     4.8    17.6     6.9     5.3    -0.9
    -2.3    16.2    16.0    23.6    14.0     8.3    11.2    18.8    31.6     1.9
    11.3    16.9    13.4     4.3     5.7     5.9    -1.8     7.0   -10.1    -1.3
    -7.9     4.5    17.3     7.7     7.4     8.5    -3.3    -0.4     5.5     7.4
    21.6     1.9     4.7     8.8     6.9    15.4     5.9    17.8    15.6    -4.3
     7.0    10.2    10.6    -1.2     7.9     7.3     5.8     6.5     3.2   -24.6
    -5.2   -14.7     0.4    -4.0    -2.5    -6.3   -11.0   -13.5     0.5     3.3
   -15.7    -7.5   -14.1    -2.5    -0.4   -15.3     7.5    14.5    22.3    18.0
    23.7     9.8    19.3     9.8    27.2    12.9     9.9    16.4     9.4    17.4
    14.7    10.6    -3.2    32.5    -2.1    -9.8   -11.4    -2.2    -1.8     6.7
   -18.1   -15.5     0.6    -6.7    -5.9   -15.6    -1.0     6.3    -1.8    -3.6
   -20.3    -8.0   -10.8    -4.4    -9.2     4.1     0.8     0.5    18.4    10.0
    -5.9     0.1    -8.7    -7.2   -10.4    -7.3    -3.4    12.0    -4.2    -9.9
   -10.0     4.0   -12.0   -20.0   -11.2   -32.4    -3.7     0.7    -9.5    -4.6
   -20.8     5.5     1.6     4.4    -1.1    -9.1    -4.4    -1.2    -1.0    -7.1
    -8.6   -11.8   -14.9    -1.2   -14.3    -8.3   -14.1   -15.3     3.9    -7.3
     0.3     7.2   -20.8    -7.7    -4.8    -9.8    -9.6   -20.8   -20.3    -5.0
    -1.0     6.4     5.9    -5.4    13.0     5.9    -5.6   -11.7     4.0    -9.5
     5.9    -3.7    -4.4     1.4    11.6     5.3     0.2    -0.2    -2.2    13.1
    -5.7    10.1     6.6    -8.7    -4.9    -0.7     7.5     1.6    12.8    -1.0
    -4.8    10.1     1.1    13.7     5.2     0.2    13.9    -5.8    15.1     2.5
    15.4    16.6     7.2    11.5     6.3     9.5     6.5    16.8    -1.5     3.0
    11.9     7.0     4.6     6.8    -2.9    -0.7    -5.5    18.7     8.3   -11.4
    19.1    19.3    17.5     3.3    -2.7    25.0    -0.3     7.5    -5.5    -4.8
   -13.7    -5.2   -11.3     2.6     5.9    10.7     9.2    -0.4    14.9    -4.2
    -3.0    -2.8     0.1   -16.4     3.2   -14.3     5.7   -19.0    -3.9     0.8
    -8.3   -10.1     7.9     0.7    -8.7    -5.4     1.6    -6.2    12.7    -7.1
     9.2    -6.1    -8.6     2.4    -6.5   -10.6    -1.1    13.6     7.5    -5.2
    -4.7    15.3     3.9     9.5     4.1    12.7    -3.2    -6.6    -9.7   -13.0
   -24.1   -14.3   -13.0   -15.5   -11.7    -1.2     3.5     1.9     9.6     4.8
    -7.3    -3.9     1.7   -10.3    -5.4     0.6     0.0    -8.4    -4.0     0.2
     1.1   -14.7    -3.4     1.3   -13.4    -1.1    11.8    -1.3    -5.8     7.7
     4.0     7.8    18.6    10.3     0.3     3.9     0.2     2.0    13.1    11.4
     3.8     9.0    -9.7   -11.2    -7.2    -8.0    -3.4     5.2     0.0    -8.3
    11.3     3.0     3.3     4.5   -24.0    -3.0    -7.3   -10.3     9.8    -6.9
    10.8     4.5     9.4    12.2    -1.2   -12.3     4.1    11.7    -1.7     3.2
     3.4     0.7    15.0    -0.2    20.5    20.8    13.4     9.3     6.2     3.1
   -19.1     0.1    18.5   -15.6    18.4    16.5    -4.5    -2.2    -2.3   -15.2
   -26.4    -5.4   -15.6    -7.1    -5.3   -10.5   -13.6    -8.2   -16.5   -14.8
    -7.6    -9.4   -15.8    -6.5    -3.4     2.8    -7.2     2.9    -5.2     1.4
     4.9    -2.0     8.3    -2.9     8.8     5.1     1.0     0.7   -16.4     2.1
    -0.3     8.3    -4.3     4.8    14.0    15.0     7.1    -0.5    -2.8    -8.4
    -6.2     4.7    -1.1    11.3    17.1     2.2    -9.3     3.5    18.2     3.6
    -4.1    -4.7     6.7    -2.7    13.8     5.8    -4.8     5.1     5.5   -14.0
    -9.9    -1.7    -3.6    10.5    16.3     4.6    -0.2     4.1     5.6    -0.7
     4.0    21.2     0.8     7.3     5.2     1.1    11.9    17.0     1.1     2.9
