Corrected accelerogram 20160214_001343_OHSS_20 GNS Science
Site OHSS      43 26 41S  172 39 38E     Cusp file:  20160214_001346_OHSS
Ouruhia School
Instrument Cusp_42124
Resolution: 18-bit   Instr Period: 0.0050 s   Damping: 0.700
Accelerogram 20160214_001343_OHSS_20                 Processed 2016 February 22
11 km east of CHRISTCHURCH
2016 February 14         00:13:43 UT
Epicentre  43 29 50S 172 45 18E  Bearing S53E  Dist   10km  Depth    8km M  5.70
Number of points  8192    Duration 163.82 sec
Instrument corrected data at 0.020 sec intervals
Band-pass filter transition bands are .10-.25 Hz and 24.50-25.50 Hz
Component N00E  Horizontal Axis 1
Acceleration:  peak   1662.2 mm/s/s at  43.30 sec     rms     90.2 mm/s/s
Velocity:      peak  -150.67 mm/s   at  43.04 sec     rms    12.02 mm/s
Displacement:  peak   33.837 mm     at  44.70 sec     rms    4.190 mm
    2016       2      14       0      13     430       0       0    2016       2
      43      29      50     172      45      18       8       0      14       0
      43      26      41     172      39      38       0       0     127      10
   38585     250     250    8192    8192    8192       0       0      13    6546
   200.0    0.70    0.00   0.000  0.0000   0.000   0.000   1.000     0.0    0.00
  43.445 172.661   43.50  172.76    5.70    0.00    0.00    0.00      0.      0.
  192.92    5.00    5.00  163.82  0.0050  0.0200      0.      0.      0.  9806.6
  1670.4   43.30    93.2   0.000      0.  1662.2   43.30    90.2  1807.9   1.016
 -150.67   43.04   12.02  202.75   0.330   33.84   44.70    4.19   53.45   0.320
   0.100   0.150   0.250      0.      0.  24.500   1.000  25.500      0.      0.
     0.0    -0.0     0.0    -0.0     0.0    -0.0     0.0    -0.0     0.0    -0.0
     0.0    -0.0     0.0    -0.0     0.0    -0.0     0.0    -0.0     0.0    -0.0
     0.0    -0.0     0.0    -0.0     0.0    -0.0     0.0    -0.0     0.0    -0.0
     0.0    -0.0     0.0    -0.0     0.0    -0.0     0.0    -0.0     0.0    -0.0
     0.0    -0.0     0.0    -0.0     0.0    -0.0     0.0    -0.0     0.0    -0.0
     0.0    -0.0     0.0    -0.0     0.0    -0.0     0.0    -0.0     0.0    -0.0
     0.0    -0.0     0.0    -0.0     0.0     0.0     0.0     0.0     0.0     0.0
     0.0     0.0     0.0     0.0     0.0     0.0     0.0     0.0     0.0     0.0
     0.0     0.0     0.0     0.0     0.0     0.0     0.0     0.0     0.0     0.0
     0.0     0.0     0.0     0.0     0.0     0.0     0.0     0.0     0.0     0.0
     0.0     0.0     0.0     0.0     0.0     0.0     0.0     0.0     0.0     0.0
     0.0     0.0     0.0     0.0     0.0     0.0     0.0     0.0     0.0     0.0
     0.0     0.0     0.0     0.0     0.0     0.0     0.0     0.0     0.0     0.0
     0.0     0.0     0.0     0.0     0.0     0.0     0.0     0.0     0.0     0.0
     0.0     0.0     0.0     0.0     0.0     0.0     0.0     0.0     0.0     0.0
     0.0     0.0     0.0     0.0     0.0     0.0     0.0     0.0    -0.0     0.0
    -0.0     0.0    -0.0     0.0    -0.0     0.0    -0.0     0.0    -0.0    -0.0
    -0.0    -0.0    -0.0    -0.0    -0.0    -0.0    -0.0    -0.0    -0.0    -0.0
    -0.0    -0.0    -0.0    -0.0    -0.0    -0.0    -0.0    -0.0    -0.0    -0.0
    -0.0    -0.0    -0.0    -0.0    -0.0    -0.0    -0.0    -0.0    -0.0    -0.0
    -0.0    -0.0    -0.0    -0.0    -0.0    -0.0    -0.0    -0.0    -0.0    -0.0
    -0.0    -0.0    -0.0    -0.0    -0.0    -0.0    -0.1    -0.0    -0.1    -0.0
    -0.1    -0.0    -0.1    -0.0    -0.1    -0.0    -0.1    -0.0    -0.1    -0.0
    -0.1     0.0    -0.1     0.0    -0.1     0.0    -0.1     0.0    -0.1     0.0
    -0.1     0.0    -0.1     0.0    -0.2     0.1    -0.2     0.1    -0.2     0.2
    -0.1     0.4    -1.0     0.9     0.7    -2.1     2.2     0.4    -1.7     0.6
     0.6     0.6    -0.8    -0.7     1.5    -0.5    -0.2    -0.3     0.8     0.0
    -0.5     0.2     0.3     0.1    -0.2    -0.5     0.9    -0.1    -0.6     0.4
     0.1    -0.0    -0.2    -0.2     0.7    -0.0    -0.2    -0.5     0.7     0.0
     0.0    -0.1    -0.5     1.0    -0.3    -0.3     0.2     0.3    -0.4     0.3
     0.4    -0.6     0.1     0.5    -0.2     0.4    -0.6     0.3     0.1    -0.1
     0.1    -0.1     0.6     0.0    -0.8     0.9     0.2    -0.7     0.4     0.1
    -0.0     0.3    -0.3    -0.0     0.2     0.2    -0.1    -0.0     0.6    -0.2
    -0.9     0.9     0.6    -0.7    -0.2     0.1     0.5     0.0    -0.7     0.4
     0.0     0.4    -0.4     0.1     0.4    -0.4    -0.4     0.2     0.4    -0.6
    -0.3     1.2    -1.2    -0.3     0.9    -0.1    -0.3    -0.0    -0.1     0.9
    -0.5    -0.5     0.5    -0.3     0.2    -0.2    -0.5     0.6    -0.3     0.3
    -0.5    -0.1     0.2    -0.0    -0.4    -0.2     0.6    -0.5    -0.2     0.3
    -0.0    -0.2    -0.2     0.4     0.3    -0.4    -0.5     0.4    -0.1    -0.5
     0.3    -0.4     0.3     0.0    -0.8     0.7    -0.3    -0.7     0.6    -0.6
     0.4     0.6    -1.0    -0.1     0.3     0.4    -0.1    -1.2     1.2     0.4
    -0.8    -0.6     0.7     0.6    -0.1    -0.8     0.3     0.5    -0.3     0.0
     0.1    -0.0     0.1    -0.2     0.4    -0.3     0.2    -0.5     0.5     0.4
    -0.3    -0.2    -0.0     0.5    -0.1    -0.9     1.0     0.1    -0.3     0.1
     0.3    -0.0    -0.2     0.0     0.2    -0.2     0.1     0.4    -0.1    -0.1
    -0.2     0.0     0.5    -0.5    -0.1     0.1     0.3     0.1    -0.6     0.1
     0.1     0.0    -0.0    -0.1     0.2    -0.4     0.2     0.1    -0.2     0.1
     0.2    -0.0    -0.1     0.1     0.3    -0.2    -0.0     0.2     0.0     0.1
    -0.1    -0.2     0.1    -0.0     0.1    -0.2    -0.2     0.2    -0.2    -0.1
     0.2     0.1    -0.0    -0.2     0.1    -0.2    -0.0     0.3     0.4    -0.2
    -0.2     0.2     0.4    -0.4    -0.1     0.2     0.2    -0.3     0.2     0.0
    -0.1     0.2    -0.1     0.3     0.1    -0.2     0.0     0.2     0.2    -0.1
    -0.0    -0.0    -0.0     0.1     0.0    -0.1    -0.2     0.2    -0.2    -0.0
     0.1    -0.2    -0.3     0.1     0.2    -0.0    -0.3    -0.0    -0.2    -0.3
     0.6     0.0    -0.5    -0.2     0.3     0.1    -0.4     0.1     0.4    -0.5
    -0.0     0.3    -0.2    -0.3     0.2     0.1    -0.2     0.0     0.1     0.1
     0.2    -0.2    -0.1    -0.0     0.3     0.0    -0.5     0.3     0.1    -0.3
     0.1     0.4     0.0    -0.3    -0.1     0.5     0.1    -0.2     0.3     0.0
    -0.1    -0.3     0.4     0.1    -0.5     0.0     0.1    -0.1    -0.0     0.0
     0.4    -0.2    -0.1     0.0    -0.2     0.1     0.2    -0.2    -0.1    -0.0
     0.2    -0.1    -0.1    -0.2     0.2     0.2    -0.4     0.2     0.4    -0.1
    -0.3     0.1     0.7    -0.4    -0.4     0.4     0.0    -0.1    -0.2     0.2
     0.1     0.0    -0.1     0.0     0.2    -0.1     0.3     0.0    -0.3     0.3
    -0.1    -0.0    -0.0     0.1    -0.0     0.1    -0.0    -0.2     0.3     0.1
    -0.0    -0.2     0.2    -0.1    -0.2    -0.0     0.1    -0.2    -0.0     0.3
     0.2    -0.1     0.1     0.2     0.0    -0.1     0.1    -0.0    -0.0     0.1
     0.0    -0.0     0.2    -0.1    -0.3    -0.1     0.3     0.0    -0.2    -0.1
     0.1    -0.1    -0.3     0.2     0.2    -0.2    -0.1    -0.0    -0.0    -0.2
     0.1     0.0    -0.0    -0.0    -0.1     0.0    -0.0     0.0    -0.1    -0.0
     0.1     0.0    -0.1     0.2    -0.1    -0.3    -0.1     0.1    -0.1    -0.0
    -0.0    -0.1    -0.1     0.1     0.0     0.0    -0.0    -0.1    -0.0     0.1
     0.0     0.1     0.0    -0.0     0.1     0.1    -0.1    -0.1     0.1     0.0
    -0.1     0.1    -0.1     0.0    -0.1     0.0     0.1    -0.1     0.0     0.2
    -0.1    -0.0     0.3    -0.1    -0.0     0.0    -0.2     0.0     0.0     0.1
    -0.1     0.0     0.0    -0.0     0.2    -0.1    -0.1    -0.1     0.1     0.1
    -0.2    -0.2     0.3    -0.0    -0.1     0.0     0.0    -0.0    -0.0     0.1
     0.2    -0.1    -0.2    -0.1     0.1     0.1    -0.0    -0.2     0.1    -0.1
    -0.2    -0.1     0.2     0.1     0.1    -0.1     0.1     0.0    -0.2     0.1
    -0.0    -0.3     0.1     0.1    -0.1     0.0     0.1     0.1    -0.0    -0.1
    -0.0    -0.1     0.0    -0.1    -0.1    -0.0     0.2    -0.2     0.0     0.2
    -0.0    -0.1    -0.2     0.1     0.2    -0.0    -0.1    -0.3    -0.1    -0.0
     0.1     0.0     0.1    -0.1    -0.2     0.1     0.0    -0.1    -0.0    -0.2
     0.1     0.1     0.1    -0.0    -0.0     0.1    -0.1     0.2    -0.1     0.1
    -0.0    -0.2     0.0    -0.0     0.0     0.1     0.1    -0.1    -0.1     0.1
     0.1     0.1    -0.2     0.1     0.3    -0.1    -0.0     0.0     0.1     0.1
     0.1    -0.0    -0.0     0.0     0.1     0.0     0.0     0.1     0.2    -0.1
     0.0     0.1     0.0     0.1     0.2     0.0    -0.1    -0.0     0.1     0.0
    -0.1    -0.0     0.2    -0.0     0.0     0.2     0.1    -0.0    -0.2     0.1
     0.2     0.1     0.0    -0.2     0.0     0.1    -0.1    -0.0     0.2     0.0
    -0.3     0.2     0.2    -0.1    -0.2    -0.0     0.3    -0.1    -0.1     0.2
    -0.0    -0.2     0.0     0.1     0.0    -0.0     0.0     0.0     0.1    -0.1
     0.1    -0.0     0.1     0.1     0.0     0.2    -0.0    -0.1     0.0     0.0
    -0.0    -0.0    -0.2    -0.1     0.1    -0.1    -0.1     0.1    -0.1     0.0
    -0.1    -0.0     0.1    -0.0    -0.1     0.0     0.1    -0.1     0.0     0.0
     0.1     0.0     0.1    -0.1    -0.0    -0.1    -0.1    -0.0     0.0    -0.1
    -0.0    -0.2    -0.1     0.0     0.1    -0.1    -0.1     0.2    -0.1    -0.0
    -0.1    -0.0     0.2    -0.0    -0.1    -0.1    -0.0     0.0     0.1    -0.2
     0.0     0.1     0.0    -0.2    -0.1     0.1     0.1    -0.1    -0.1     0.0
     0.1     0.0     0.0     0.1    -0.0    -0.0     0.1    -0.0    -0.1    -0.1
     0.1    -0.1     0.1    -0.1    -0.0    -0.0    -0.0    -0.1    -0.1     0.2
     0.2    -0.2    -0.1    -0.2     0.0    -0.1     0.0     0.0    -0.1    -0.0
     0.1     0.1    -0.1    -0.1     0.1     0.1     0.0    -0.1    -0.2     0.1
     0.2     0.0     0.0    -0.1     0.0     0.1     0.1    -0.1    -0.0     0.2
     0.1    -0.1     0.0     0.1    -0.0     0.1    -0.0    -0.1    -0.1     0.0
     0.1    -0.1    -0.1    -0.0    -0.1     0.1     0.1    -0.1     0.0     0.0
     0.0     0.0    -0.2    -0.0     0.1     0.0    -0.2     0.1     0.1    -0.0
     0.1     0.1     0.2    -0.1    -0.1    -0.0    -0.0     0.0    -0.1     0.1
    -0.1    -0.0     0.0     0.0    -0.1    -0.1     0.0    -0.0     0.1    -0.0
     0.2    -0.0     0.0    -0.1     0.2     0.2    -0.1     0.0    -0.0    -0.0
     0.1     0.1     0.0    -0.1    -0.0     0.1     0.1    -0.1     0.0     0.0
     0.1     0.0     0.1    -0.0    -0.1     0.1    -0.0    -0.2    -0.0    -0.1
     0.0     0.0     0.0    -0.1     0.0     0.1     0.1    -0.1     0.1    -0.1
    -0.1    -0.0     0.2    -0.1     0.0     0.0     0.0    -0.0     0.1     0.0
     0.0     0.1    -0.1    -0.0     0.0    -0.1    -0.1     0.0     0.1    -0.1
    -0.0    -0.1    -0.0     0.0     0.2    -0.1    -0.2    -0.1     0.1     0.0
     0.0    -0.1     0.0     0.1    -0.1     0.0    -0.1    -0.1     0.1     0.1
     0.0     0.0    -0.1     0.2     0.1     0.0    -0.0     0.0     0.0     0.0
    -0.1     0.0     0.2     0.0    -0.1    -0.0     0.0     0.2    -0.0    -0.0
    -0.1     0.0    -0.1    -0.1    -0.0     0.1     0.0    -0.0     0.1     0.1
    -0.1    -0.0     0.2    -0.0    -0.1    -0.0     0.0     0.1    -0.1    -0.1
    -0.0     0.0    -0.0    -0.1    -0.1    -0.1    -0.0    -0.2    -0.2     0.0
     0.1    -0.1    -0.1    -0.0     0.0    -0.0    -0.0     0.1     0.0    -0.1
     0.0     0.2    -0.0     0.0     0.0    -0.2     0.0    -0.2     0.0    -0.0
    -0.1    -0.0     0.1     0.0     0.1    -0.0    -0.1     0.1    -0.1    -0.1
     0.2    -0.1    -0.1    -0.0    -0.0    -0.1    -0.0     0.0    -0.0    -0.2
    -0.0    -0.0     0.1     0.0     0.0    -0.1    -0.0    -0.0    -0.0     0.0
    -0.0    -0.1     0.2     0.0     0.1    -0.1     0.1     0.2     0.1    -0.0
    -0.1     0.1     0.1     0.1     0.0    -0.1    -0.0     0.1     0.1     0.0
    -0.0     0.1    -0.0    -0.2    -0.2     0.1     0.0    -0.2    -0.0     0.2
     0.0    -0.0     0.1     0.2     0.1    -0.1    -0.1    -0.1     0.2    -0.0
     0.0     0.1     0.1    -0.1     0.1     0.2     0.1     0.1     0.0    -0.0
     0.1     0.0     0.1    -0.0    -0.1    -0.0     0.1    -0.0     0.0    -0.0
    -0.1     0.0    -0.0    -0.1    -0.1    -0.0    -0.0    -0.1    -0.1    -0.0
    -0.0     0.2     0.0     0.1     0.0     0.2    -0.0     0.0     0.1    -0.1
     0.0     0.1     0.1    -0.1     0.0    -0.0     0.1     0.0    -0.0     0.0
     0.0     0.2     0.1    -0.0     0.0    -0.1     0.0     0.1     0.2     0.1
    -0.0     0.0     0.1    -0.2    -0.0     0.1     0.2    -0.0    -0.1    -0.0
     0.1     0.2    -0.0    -0.2     0.1     0.2     0.1    -0.0     0.0     0.1
     0.1     0.1    -0.1     0.1     0.2     0.0    -0.0     0.1     0.0     0.0
     0.1     0.1    -0.0    -0.1    -0.2     0.0     0.1    -0.0     0.1    -0.0
    -0.0     0.0     0.0     0.1     0.0    -0.0    -0.1     0.0     0.1    -0.0
     0.1    -0.0    -0.1     0.0    -0.2    -0.0     0.1    -0.1    -0.0     0.0
     0.1    -0.1    -0.2    -0.1    -0.1     0.0    -0.0    -0.1    -0.1    -0.0
    -0.2    -0.1     0.0     0.0    -0.0    -0.0    -0.1     0.0    -0.0    -0.1
    -0.1    -0.1    -0.1    -0.0     0.0    -0.1     0.0    -0.1    -0.0     0.1
     0.0    -0.1    -0.0    -0.2     0.0     0.1    -0.0    -0.0     0.1     0.0
     0.0    -0.1    -0.1    -0.0     0.1    -0.1    -0.3    -0.1    -0.0    -0.2
    -0.1     0.1    -0.1    -0.1    -0.1    -0.2    -0.2    -0.1    -0.1    -0.1
    -0.2    -0.0     0.0     0.3     0.0     0.0    -0.0     0.0     0.1     0.1
    -0.1    -0.0    -0.0     0.1    -0.0    -0.0     0.1     0.1    -0.0     0.0
    -0.0     0.1     0.1    -0.0     0.1     0.0    -0.0     0.1    -0.1    -0.0
     0.2     0.0    -0.1    -0.0     0.2    -0.0     0.0     0.1    -0.0     0.1
     0.1    -0.0     0.1    -0.1    -0.0     0.0     0.1    -0.1     0.1    -0.0
    -0.0    -0.0     0.2    -0.1     0.0     0.1     0.0     0.1    -0.0    -0.1
     0.0     0.1    -0.1    -0.0     0.1    -0.1    -0.0     0.0    -0.1    -0.0
    -0.0    -0.1    -0.0     0.0     0.2    -0.1    -0.1     0.1    -0.0     0.0
     0.0    -0.1    -0.1     0.1     0.1    -0.2     0.1     0.0    -0.0     0.0
    -0.0    -0.0    -0.0     0.1     0.1    -0.1     0.0     0.1    -0.1    -0.1
     0.0     0.0     0.1     0.1     0.0    -0.0     0.2     0.0    -0.0    -0.2
    -0.1     0.0     0.0    -0.1     0.0     0.0     0.0    -0.1    -0.1    -0.0
     0.2     0.0    -0.1    -0.1    -0.0    -0.0    -0.0    -0.1     0.1    -0.1
    -0.0    -0.1    -0.1    -0.0    -0.0    -0.0    -0.2    -0.1    -0.0    -0.0
    -0.1     0.0     0.0    -0.0    -0.1     0.1     0.0    -0.1    -0.1    -0.1
    -0.0    -0.0     0.0    -0.2     0.0    -0.2    -0.0    -0.1     0.1    -0.1
    -0.0    -0.1    -0.1     0.0     0.1     0.0    -0.0    -0.0    -0.0    -0.1
     0.0    -0.1     0.1     0.1    -0.0    -0.0     0.1     0.1    -0.2    -0.1
     0.1    -0.0    -0.0     0.0    -0.0     0.1    -0.0     0.0    -0.1    -0.1
    -0.2     0.1     0.1     0.1    -0.1     0.0    -0.1     0.0    -0.1    -0.2
     0.0    -0.2    -0.0    -0.1     0.1    -0.1    -0.2    -0.1     0.1     0.1
    -0.0    -0.0    -0.1     0.1     0.0    -0.0    -0.1     0.1     0.1     0.1
    -0.2    -0.2     0.1     0.1    -0.0    -0.1    -0.2    -0.0     0.2     0.1
    -0.1     0.1    -0.0     0.0     0.1     0.1     0.0     0.1    -0.0     0.0
    -0.0     0.1     0.0     0.1    -0.0     0.3     0.2     0.0     0.1     0.2
     0.2     0.2     0.0    -0.1    -0.0     0.1     0.0    -0.0    -0.1     0.1
     0.0     0.0    -0.2     0.1     0.1    -0.0     0.1     0.0    -0.1     0.1
     0.1     0.1     0.1     0.2     0.2     0.1    -0.0     0.2     0.2     0.1
     0.0    -0.2     0.1     0.1     0.1     0.2     0.0     0.2     0.1     0.1
     0.1     0.1     0.0     0.0     0.1     0.0    -0.0     0.3     0.3     0.1
     0.0    -0.1     0.2     0.1    -0.1    -0.1     0.2    -0.0     0.1    -0.0
     0.0    -0.0     0.1    -0.0     0.0     0.0     0.0     0.0     0.1     0.0
    -0.0     0.1    -0.1    -0.1    -0.1     0.1     0.1    -0.1     0.0     0.1
    -0.0     0.1     0.0    -0.1     0.0    -0.0    -0.1    -0.0    -0.2    -0.1
    -0.2    -0.1    -0.1    -0.1    -0.1    -0.0    -0.0    -0.0    -0.2    -0.1
     0.0     0.1    -0.2    -0.1    -0.1    -0.1     0.0     0.0    -0.0    -0.1
    -0.1     0.1    -0.0    -0.1    -0.2    -0.1    -0.0     0.1     0.0     0.0
    -0.0    -0.0    -0.0    -0.2     0.1     0.1    -0.0    -0.2    -0.1     0.0
    -0.1    -0.0    -0.1    -0.1     0.1     0.0     0.0    -0.1     0.0    -0.0
     0.0     0.1     0.1    -0.0     0.1    -0.0    -0.0     0.1    -0.1     0.1
     0.1     0.0    -0.0     0.2     0.1     0.0    -0.1     0.0     0.3     0.1
     0.1     0.0     0.1    -0.1     0.0     0.1     0.1     0.2     0.2     0.4
     0.1     0.1    -0.0     0.1     0.2     0.1     0.0     0.1     0.2     0.2
     0.2     0.2     0.2     0.2     0.1     0.0     0.1     0.2     0.2     0.3
     0.1     0.2     0.2     0.3     0.1     0.3     0.1     0.2     0.3     0.3
     0.1     0.3     0.2     0.4     0.4     0.3     0.2     0.3     0.2     0.2
     0.5     0.3     0.4     0.3     0.4     0.3     0.2     0.5     0.4     0.2
     0.3     0.3     0.2     0.4     0.2     0.2     0.2     0.2     0.2     0.3
     0.2     0.3     0.2     0.2     0.2     0.1     0.2     0.4     0.3     0.2
     0.2     0.3     0.3     0.2     0.3     0.2     0.3     0.2     0.3     0.2
     0.1     0.1     0.1     0.1     0.1     0.1     0.1     0.1    -0.0    -0.0
    -0.0     0.1     0.0    -0.2    -0.3    -0.0    -0.0    -0.1    -0.0    -0.3
    -0.2    -0.2    -0.2    -0.2    -0.3    -0.4    -0.2    -0.2    -0.3    -0.3
    -0.4    -0.4    -0.4    -0.4    -0.5    -0.4    -0.3    -0.5    -0.5    -0.5
    -0.6    -0.5    -0.6    -0.6    -0.6    -0.5    -0.7    -0.7    -0.7    -0.8
    -0.8    -0.9    -0.8    -0.7    -0.8    -0.9    -0.9    -0.9    -1.0    -0.9
    -0.9    -0.9    -1.2    -1.1    -0.9    -1.0    -1.3    -1.1    -1.1    -1.2
    -1.1    -1.2    -1.3    -1.2    -1.2    -1.1    -1.1    -1.3    -1.3    -1.2
    -1.2    -1.1    -1.2    -1.2    -1.3    -1.4    -1.2    -1.2    -1.3    -1.4
    -1.5    -1.3    -1.3    -1.2    -1.5    -1.3    -1.3    -1.3    -1.3    -1.4
    -1.5    -1.4    -1.4    -1.4    -1.4    -1.4    -1.4    -1.5    -1.2    -1.2
    -1.2    -1.2    -1.4    -1.3    -1.4    -1.4    -1.1    -1.0    -1.2    -1.2
    -1.2    -1.1    -1.0    -1.1    -1.2    -0.8    -0.9    -0.9    -0.8    -0.9
    -1.1    -0.7    -0.8    -0.7    -0.8    -0.9    -0.7    -0.6    -0.7    -0.6
    -0.6    -0.5    -0.3    -0.4    -0.2    -0.1    -0.3    -0.1    -0.1    -0.1
     0.1     0.1    -0.0     0.2     0.2     0.4     0.5     0.6     0.5     0.6
     0.6     0.7     0.7     0.7     0.9     1.0     0.9     1.1     1.1     1.3
     1.2     1.3     1.4     1.7     1.7     1.8     1.8     2.0     1.9     1.9
     2.0     2.3     2.0     2.3     2.4     2.4     2.5     2.7     2.6     2.8
     2.8     3.0     2.8     3.1     3.1     3.3     3.3     3.5     3.4     3.6
     3.7     3.8     3.8     3.9     3.8     4.1     4.0     4.3     4.3     4.5
     4.3     4.4     4.4     4.8     4.6     4.8     4.7     4.8     4.8     5.1
     5.1     5.2     5.0     5.3     5.3     5.4     5.3     5.4     5.4     5.6
     5.4     5.7     5.6     5.9     5.7     5.9     5.8     5.9     5.9     6.1
     6.1     6.2     6.0     6.2     5.9     6.2     6.0     6.4     6.2     6.3
     6.1     6.3     6.2     6.4     6.1     6.5     6.3     6.4     6.3     6.4
     6.3     6.4     6.2     6.4     6.3     6.0     5.5     4.9     4.1     5.2
     2.7     5.6    -1.4     2.2    -5.9    -2.3     1.7     0.3    -1.0   -20.5
