Corrected accelerogram 20160214_001343_SMHS_20 GNS Science
Site SMHS      43 15 44S  172 20 05E     Basalt file:  20160214_001352_SMHS
Summerhill
Instrument Basalt_1275
Resolution: 24-bit   Instr Period: 0.0050 s   Damping: 0.700
Accelerogram 20160214_001343_SMHS_20                 Processed 2016 February 22
11 km east of CHRISTCHURCH
2016 February 14         00:13:43 UT
Epicentre  43 29 50S 172 45 18E  Bearing S52E  Dist   43km  Depth    8km M  5.70
Number of points  8192    Duration 163.82 sec
Instrument corrected data at 0.020 sec intervals
Band-pass filter transition bands are .10-.25 Hz and 24.50-25.50 Hz
Component N00E  Horizontal Axis 1
Acceleration:  peak    125.3 mm/s/s at  48.40 sec     rms     11.7 mm/s/s
Velocity:      peak    11.11 mm/s   at  93.08 sec     rms     2.82 mm/s
Displacement:  peak    6.876 mm     at  89.42 sec     rms    1.511 mm
    2016       2      14       0      13     430       0       0    2016       2
      43      29      50     172      45      18       8       0      14       0
      43      15      44     172      20       5       0       0     128      43
   33000     250     250    8192    8192    8192       0       0      13   12000
   200.0    0.70    0.00   0.000  0.0000   0.000   0.000   1.000     0.0    0.00
  43.262 172.335   43.50  172.76    5.70    0.00    0.00    0.00      0.      0.
  165.00    5.00    5.00  163.82  0.0050  0.0200      0.      0.      0.  9806.6
   127.1   48.40    12.2   0.000      0.   125.3   48.40    11.7   130.0   0.421
   11.11   93.08    2.82   13.72   0.336    6.88   89.42    1.51    8.30   0.238
   0.100   0.150   0.250      0.      0.  24.500   1.000  25.500      0.      0.
     0.0    -0.0     0.0    -0.0     0.0    -0.0     0.0    -0.0     0.0    -0.0
     0.0    -0.0     0.0    -0.0     0.0    -0.0     0.0    -0.0     0.0    -0.0
     0.0    -0.0     0.0    -0.0     0.0    -0.0     0.0    -0.0     0.0    -0.0
     0.0    -0.0     0.0    -0.0     0.0    -0.0     0.0    -0.0     0.0    -0.0
     0.0    -0.0     0.0    -0.0     0.0    -0.0     0.0    -0.0     0.0    -0.0
     0.0    -0.0     0.0    -0.0     0.0    -0.0     0.0    -0.0     0.0    -0.0
     0.0    -0.0     0.0    -0.0     0.0    -0.0     0.0     0.0     0.0     0.0
     0.0     0.0     0.0     0.0     0.0     0.0     0.0     0.0     0.0     0.0
     0.0     0.0     0.0     0.0     0.0     0.0     0.0     0.0     0.0     0.0
     0.0     0.0     0.0     0.0     0.0     0.0     0.0     0.0     0.0     0.0
     0.0     0.0     0.0     0.0     0.0     0.0     0.0     0.0     0.0     0.0
     0.0     0.0     0.0     0.0     0.0     0.0     0.0     0.0     0.0     0.0
     0.0     0.0     0.0     0.0     0.0     0.0     0.0     0.0     0.0     0.0
     0.0     0.0     0.0     0.0     0.0     0.0     0.0     0.0     0.0     0.0
     0.0     0.0     0.0     0.0     0.0    -0.0     0.0    -0.0     0.0    -0.0
     0.0    -0.0     0.0    -0.0     0.0    -0.0     0.0    -0.0     0.0    -0.0
     0.0    -0.0     0.0    -0.0     0.0    -0.0     0.0    -0.0     0.0    -0.0
     0.0    -0.0    -0.0    -0.0    -0.0    -0.0    -0.0    -0.0    -0.0    -0.0
    -0.0    -0.0    -0.0    -0.0    -0.0    -0.0    -0.0    -0.0    -0.0    -0.0
    -0.0    -0.0    -0.0    -0.0    -0.0    -0.0    -0.0    -0.0    -0.0    -0.0
    -0.0    -0.0    -0.0    -0.0    -0.0    -0.0    -0.0    -0.0    -0.0    -0.0
    -0.0    -0.0    -0.0    -0.0    -0.0    -0.0    -0.0    -0.0    -0.0    -0.0
    -0.0    -0.0    -0.0    -0.0    -0.0    -0.0    -0.0    -0.0    -0.0    -0.0
    -0.0    -0.0    -0.0    -0.0    -0.0    -0.0    -0.0    -0.0    -0.0    -0.0
    -0.0    -0.0    -0.0    -0.0    -0.0    -0.0    -0.0    -0.0    -0.0    -0.0
    -0.0     0.1    -0.0     0.1     0.0    -0.0    -0.0     0.0     0.0    -0.0
     0.0     0.0    -0.0     0.0     0.0     0.0    -0.0     0.0     0.0     0.0
     0.0     0.0    -0.0    -0.0     0.0    -0.0    -0.0     0.0     0.0     0.0
    -0.0    -0.0     0.1    -0.0     0.0    -0.0     0.0     0.0    -0.0     0.0
    -0.0    -0.0     0.0    -0.0    -0.0     0.0     0.0    -0.0    -0.0     0.0
     0.0    -0.0    -0.0     0.0     0.0     0.0     0.0    -0.0     0.0     0.0
     0.0     0.0    -0.0    -0.0     0.0     0.0     0.0    -0.0    -0.0     0.0
    -0.0     0.0     0.0    -0.0     0.0    -0.0    -0.0     0.0     0.0    -0.0
     0.0    -0.0    -0.0     0.0    -0.0     0.1    -0.0    -0.0     0.0     0.0
     0.0     0.0    -0.0    -0.0     0.1    -0.0     0.0    -0.0     0.0     0.0
    -0.1     0.0     0.0    -0.0     0.0    -0.0     0.0     0.1     0.0    -0.0
     0.1    -0.1     0.0    -0.0    -0.0     0.0    -0.1     0.0     0.0    -0.0
     0.0    -0.0     0.0     0.1     0.0    -0.0     0.0    -0.0    -0.0     0.0
    -0.1    -0.0     0.0    -0.0    -0.0    -0.0    -0.0     0.0    -0.0     0.0
     0.0    -0.1     0.1     0.0    -0.0    -0.0     0.0    -0.0    -0.0     0.0
    -0.0    -0.0    -0.0     0.0    -0.0    -0.0    -0.0     0.0     0.0    -0.1
     0.0    -0.0    -0.0    -0.0     0.0    -0.0     0.0     0.0     0.0    -0.0
    -0.1     0.0    -0.0    -0.0     0.1    -0.0    -0.0     0.0     0.0     0.0
    -0.0    -0.0     0.0    -0.1    -0.0     0.0    -0.0    -0.0     0.0    -0.1
     0.0    -0.0     0.0     0.0    -0.1     0.0     0.1    -0.0    -0.0     0.0
     0.0    -0.0     0.0    -0.0    -0.0    -0.0     0.0     0.0    -0.0    -0.0
     0.0    -0.0     0.0     0.0     0.0    -0.0     0.0     0.0     0.0    -0.0
     0.0    -0.0     0.0     0.0    -0.0     0.0    -0.0     0.0    -0.0     0.0
     0.0     0.0    -0.1     0.0    -0.0    -0.0     0.0    -0.0    -0.0     0.1
     0.0    -0.0     0.0     0.0     0.0     0.0    -0.0    -0.0     0.0     0.0
     0.0    -0.0     0.0     0.0    -0.0     0.0     0.0    -0.1    -0.0     0.1
    -0.0     0.0    -0.0     0.0    -0.0     0.0     0.0    -0.0    -0.0     0.0
    -0.0    -0.0     0.0     0.1    -0.1     0.0     0.0    -0.0     0.0    -0.0
    -0.0     0.0    -0.0     0.0    -0.0    -0.0     0.0     0.0     0.0    -0.0
     0.0    -0.0     0.0    -0.0    -0.0     0.0    -0.0     0.0     0.1    -0.1
    -0.0     0.0     0.0     0.0    -0.0    -0.0    -0.0    -0.0     0.1     0.0
    -0.1     0.0     0.0    -0.0     0.0    -0.0     0.0    -0.0     0.0     0.0
    -0.0     0.0    -0.0    -0.0     0.0     0.0     0.0     0.1    -0.0    -0.1
     0.0    -0.0     0.1    -0.0    -0.0    -0.0    -0.0     0.0     0.0    -0.0
    -0.0     0.0    -0.0     0.0     0.0    -0.0    -0.0     0.0     0.0    -0.0
     0.1    -0.0    -0.0     0.0     0.0     0.0     0.0    -0.1    -0.0    -0.0
     0.0    -0.0     0.0    -0.0     0.0     0.0     0.0     0.0    -0.1     0.1
     0.0    -0.1     0.0     0.0    -0.1     0.0     0.0    -0.1    -0.0     0.0
     0.0    -0.1     0.0     0.0     0.0    -0.0    -0.0    -0.0    -0.0     0.0
     0.0    -0.0    -0.0    -0.0     0.0     0.0    -0.0     0.0     0.0    -0.0
     0.0     0.0    -0.0     0.0    -0.0    -0.0    -0.0    -0.0     0.0     0.0
    -0.0    -0.0    -0.0    -0.0     0.0     0.0    -0.0    -0.0    -0.0    -0.0
    -0.0     0.0     0.0     0.0    -0.0     0.0     0.0    -0.1     0.1    -0.0
    -0.1     0.1    -0.0    -0.0    -0.0    -0.0    -0.0     0.0     0.0     0.0
    -0.0    -0.0     0.0     0.0    -0.0    -0.0     0.0    -0.0     0.1    -0.1
    -0.0     0.1    -0.0     0.0     0.0    -0.1     0.0     0.0    -0.0     0.0
    -0.0    -0.0     0.0    -0.0     0.0     0.0    -0.0    -0.0     0.0     0.0
     0.0     0.0    -0.0     0.0    -0.0    -0.0     0.1    -0.1    -0.0    -0.0
     0.0     0.0     0.0    -0.0    -0.1     0.0    -0.0     0.0    -0.0    -0.0
     0.1    -0.1     0.0    -0.0     0.0     0.0    -0.0    -0.0    -0.0     0.0
     0.0     0.0    -0.0    -0.0    -0.0     0.0     0.1    -0.1    -0.0     0.0
     0.0     0.0    -0.0     0.0     0.0    -0.0     0.0     0.0     0.0     0.0
     0.0     0.0    -0.0     0.0    -0.0     0.1    -0.0    -0.0     0.0     0.0
     0.0     0.0    -0.0    -0.0     0.1     0.0    -0.0    -0.0     0.0    -0.0
    -0.0     0.0     0.0    -0.0     0.0    -0.0     0.0     0.0    -0.0     0.1
     0.0    -0.0    -0.0     0.0     0.0    -0.0     0.0    -0.1     0.0     0.0
     0.0    -0.0     0.0     0.0    -0.0     0.1    -0.1    -0.0     0.0    -0.0
    -0.0     0.0    -0.0     0.0    -0.0    -0.1     0.0    -0.0     0.1    -0.0
    -0.1     0.0     0.0    -0.0     0.0    -0.0    -0.0     0.1    -0.0     0.0
    -0.0    -0.1     0.0     0.0    -0.0    -0.0    -0.0    -0.1     0.1    -0.0
     0.0     0.0    -0.0    -0.0     0.0     0.0     0.0     0.0    -0.0    -0.0
    -0.0     0.0    -0.0    -0.0     0.0    -0.1     0.1    -0.0    -0.0    -0.0
    -0.0    -0.0     0.0    -0.0     0.0    -0.0    -0.0     0.1    -0.0    -0.1
     0.0     0.0     0.0    -0.0    -0.0     0.1    -0.0    -0.0     0.1    -0.1
    -0.0     0.1    -0.0    -0.0    -0.0    -0.0     0.1    -0.0    -0.1     0.0
    -0.0     0.0     0.1    -0.0     0.0    -0.0    -0.0     0.1    -0.0     0.0
     0.0    -0.1     0.1     0.0    -0.0     0.0    -0.0    -0.0     0.0     0.0
     0.0     0.1    -0.1    -0.1     0.0     0.0     0.0    -0.1    -0.0    -0.0
    -0.0     0.1    -0.0    -0.0     0.0     0.0     0.0     0.0    -0.0    -0.0
     0.0     0.0     0.0    -0.0     0.0     0.1    -0.1    -0.0     0.0     0.1
     0.0    -0.0    -0.0     0.0     0.0     0.1     0.0    -0.1     0.0     0.0
    -0.0    -0.0    -0.0    -0.0    -0.0     0.0    -0.0    -0.0    -0.0     0.0
     0.0    -0.0    -0.0     0.0     0.0    -0.0    -0.0    -0.0     0.1     0.0
    -0.0     0.0    -0.0     0.0    -0.0    -0.0     0.0    -0.0     0.0     0.0
     0.0    -0.0    -0.0     0.0     0.0    -0.0     0.0    -0.0    -0.0     0.0
    -0.0     0.1    -0.0    -0.1     0.1    -0.0    -0.0    -0.0     0.0     0.0
    -0.0    -0.1     0.0     0.0    -0.0     0.1    -0.0    -0.0     0.0    -0.0
     0.0    -0.0     0.0    -0.0     0.0    -0.0    -0.0     0.0     0.0     0.0
    -0.0    -0.0     0.0     0.0    -0.0    -0.1     0.0     0.0     0.0    -0.0
    -0.0     0.0     0.0    -0.0     0.0    -0.0    -0.0     0.1    -0.1     0.0
    -0.0    -0.1     0.1     0.0    -0.0    -0.0    -0.0    -0.0     0.1    -0.0
    -0.0    -0.0    -0.0     0.1    -0.0    -0.0    -0.0    -0.0     0.0    -0.0
     0.0     0.0    -0.0    -0.0     0.0     0.0     0.0     0.0    -0.0     0.0
    -0.0    -0.0     0.1    -0.0    -0.0     0.0     0.0    -0.0    -0.0    -0.0
    -0.0     0.0     0.0     0.0    -0.0    -0.0     0.0    -0.0    -0.0    -0.0
     0.1    -0.1     0.0     0.0    -0.0    -0.0     0.1     0.0    -0.0    -0.0
     0.0     0.0     0.0    -0.0     0.0    -0.0     0.0     0.0    -0.0    -0.0
    -0.0     0.0     0.0    -0.0    -0.0    -0.0     0.0    -0.0     0.0     0.0
    -0.1    -0.0     0.0     0.0     0.0     0.0    -0.0     0.0    -0.0    -0.0
    -0.0    -0.0    -0.0     0.0     0.0     0.0    -0.0    -0.1     0.0     0.0
    -0.0     0.0    -0.0    -0.0     0.0     0.0     0.0     0.0    -0.1    -0.0
     0.0    -0.0     0.0    -0.0     0.0    -0.0    -0.0    -0.0     0.1    -0.0
    -0.0     0.0    -0.0    -0.0     0.0    -0.0     0.0    -0.0    -0.0     0.1
    -0.0    -0.0     0.0    -0.0     0.0     0.0    -0.1     0.0    -0.0    -0.0
     0.1    -0.0    -0.0     0.0     0.0    -0.0     0.0    -0.0     0.1    -0.0
    -0.0     0.1    -0.0     0.0     0.1    -0.1     0.0     0.1     0.0    -0.0
    -0.0     0.0     0.1    -0.0     0.0     0.0    -0.0    -0.0     0.0     0.0
     0.0    -0.1     0.0     0.1    -0.0     0.0    -0.0    -0.0     0.1    -0.0
     0.0     0.0    -0.0     0.0    -0.0    -0.0     0.0     0.0     0.0    -0.0
    -0.0     0.1    -0.0    -0.0     0.0    -0.0    -0.1     0.0     0.0    -0.0
    -0.0    -0.0     0.0     0.1    -0.1     0.1     0.0    -0.0     0.0    -0.0
     0.0     0.0    -0.1     0.0    -0.0    -0.0     0.0     0.0    -0.1     0.0
     0.0    -0.0    -0.0    -0.0     0.0    -0.0     0.0     0.0    -0.1    -0.1
     0.1     0.0     0.0    -0.1    -0.0     0.0     0.0     0.1     0.0    -0.0
     0.1    -0.1     0.1    -0.0     0.0     0.0    -0.0    -0.0     0.0     0.0
     0.0    -0.0    -0.0     0.0     0.0     0.0     0.0    -0.0    -0.0     0.0
     0.0     0.0    -0.0    -0.1     0.1     0.0    -0.0     0.0    -0.0     0.1
    -0.0    -0.0     0.0    -0.1     0.0     0.1    -0.1     0.0     0.0     0.1
     0.1    -0.1    -0.1     0.1    -0.0    -0.1     0.0    -0.0    -0.0     0.0
    -0.0     0.0    -0.0    -0.0     0.0    -0.0     0.0    -0.0    -0.1     0.0
     0.0     0.0     0.0    -0.0     0.0     0.0    -0.1     0.0     0.0    -0.1
     0.0    -0.1    -0.0     0.1    -0.0     0.1    -0.0    -0.0     0.1    -0.0
    -0.0     0.0     0.0    -0.0     0.1    -0.1     0.1    -0.0    -0.0     0.0
    -0.1     0.0     0.1     0.0    -0.0    -0.0     0.0     0.1    -0.0    -0.0
     0.1    -0.1     0.0     0.1    -0.0     0.0     0.0     0.0     0.0    -0.0
    -0.0     0.0    -0.0     0.0     0.0    -0.0     0.1    -0.0    -0.0    -0.0
     0.0     0.0    -0.0    -0.0     0.0    -0.0    -0.0    -0.0     0.0    -0.0
    -0.0    -0.1     0.1    -0.1     0.0     0.0    -0.0     0.1    -0.0     0.0
    -0.1     0.0     0.0    -0.0     0.0     0.0     0.0    -0.0     0.0    -0.0
     0.0     0.0    -0.0     0.0     0.0     0.0     0.0    -0.1     0.1     0.0
    -0.0    -0.0    -0.0     0.0     0.0    -0.0     0.1     0.0    -0.0    -0.0
     0.0    -0.0     0.0    -0.1     0.1    -0.1     0.0     0.0     0.1    -0.0
     0.0    -0.0     0.0     0.0    -0.0     0.1     0.0    -0.1     0.0     0.0
    -0.0     0.0     0.0    -0.1     0.1    -0.0    -0.0     0.0    -0.0    -0.0
     0.0    -0.0     0.0     0.0    -0.1     0.1     0.0    -0.0    -0.0    -0.0
     0.0    -0.0    -0.0     0.0     0.1     0.0    -0.0     0.0     0.0    -0.0
    -0.0     0.1    -0.0    -0.1     0.0     0.0     0.0     0.0     0.0     0.0
    -0.0     0.1     0.0    -0.0     0.0     0.0    -0.0     0.0     0.0    -0.0
     0.0    -0.1     0.1    -0.0     0.0    -0.0    -0.0    -0.0     0.0     0.0
    -0.0    -0.0    -0.0     0.0    -0.0    -0.0    -0.0    -0.0     0.0     0.0
     0.0    -0.0    -0.0    -0.0    -0.0     0.0    -0.0     0.0    -0.1     0.0
    -0.0     0.0    -0.0     0.0     0.0    -0.0    -0.0     0.0    -0.0     0.0
     0.0    -0.0    -0.1     0.0     0.0    -0.0    -0.0    -0.0     0.0    -0.0
    -0.0    -0.0     0.1    -0.0    -0.0     0.0    -0.0     0.0     0.0    -0.0
     0.0    -0.1     0.1    -0.0     0.0    -0.1     0.0    -0.0     0.0    -0.0
     0.1    -0.0    -0.0     0.0    -0.0    -0.0     0.0     0.0    -0.0    -0.1
     0.0     0.1     0.0    -0.1     0.0    -0.1    -0.0     0.0     0.0    -0.0
    -0.0     0.0    -0.0    -0.0    -0.0    -0.0    -0.0    -0.0     0.0    -0.0
    -0.1     0.1    -0.0    -0.0    -0.0    -0.0     0.0    -0.0     0.0     0.0
    -0.0    -0.0     0.0    -0.0     0.0     0.0     0.0     0.0    -0.1    -0.0
     0.0    -0.1    -0.0     0.0    -0.0    -0.0     0.1    -0.1     0.0    -0.0
     0.0     0.0    -0.0    -0.1     0.0    -0.0     0.1    -0.0    -0.0     0.1
    -0.0    -0.0     0.0    -0.0     0.0     0.0    -0.0     0.0     0.0    -0.0
     0.0    -0.0     0.0     0.0    -0.0     0.1    -0.0    -0.1     0.0     0.0
    -0.1     0.0    -0.1     0.0     0.0    -0.0    -0.0    -0.0     0.0     0.0
     0.0     0.0    -0.0     0.0    -0.0     0.1    -0.0    -0.0     0.0     0.0
    -0.0    -0.1     0.1     0.0    -0.0     0.1     0.0    -0.1     0.0     0.1
    -0.0    -0.0     0.1     0.0     0.0    -0.0     0.0    -0.0     0.0    -0.0
    -0.0     0.0    -0.0     0.0    -0.0    -0.0     0.1    -0.1     0.1     0.0
    -0.1     0.0     0.1    -0.0     0.1    -0.0    -0.0    -0.0     0.0     0.0
    -0.0    -0.0     0.0    -0.0    -0.0     0.0    -0.0     0.0     0.0    -0.1
     0.0     0.0    -0.0     0.0    -0.0    -0.1     0.1     0.1    -0.0    -0.0
     0.0     0.0     0.0     0.0     0.0    -0.1     0.0     0.1    -0.0    -0.0
     0.0    -0.0     0.1    -0.0     0.0    -0.0    -0.0     0.0     0.0    -0.1
     0.1    -0.0     0.0     0.1    -0.0     0.0     0.0    -0.0     0.0     0.0
    -0.0     0.0    -0.0    -0.1     0.1    -0.0     0.0     0.0    -0.1     0.1
    -0.0    -0.0     0.1    -0.1    -0.1     0.1    -0.0    -0.0    -0.0     0.0
     0.1    -0.0    -0.0     0.1    -0.1     0.0     0.0    -0.0     0.0    -0.0
    -0.1     0.0    -0.0    -0.0     0.0    -0.0     0.0    -0.0     0.0     0.0
     0.0     0.0    -0.0    -0.0     0.1     0.0    -0.0    -0.0     0.1    -0.0
     0.0    -0.0    -0.0    -0.0     0.0     0.0    -0.0     0.1    -0.1    -0.1
     0.1    -0.1     0.0     0.1    -0.1     0.0     0.0    -0.0     0.1    -0.0
     0.0     0.0    -0.1     0.1     0.1    -0.1    -0.0    -0.0     0.0     0.1
    -0.1     0.0     0.0    -0.1     0.1     0.0    -0.1     0.1     0.1    -0.0
     0.0    -0.0     0.0     0.1    -0.1     0.1     0.0    -0.1     0.1     0.0
    -0.1     0.0    -0.0     0.0     0.0    -0.0     0.1    -0.1    -0.0     0.1
     0.0    -0.1     0.0     0.0     0.1    -0.1     0.1     0.1    -0.1     0.1
     0.0     0.0     0.1     0.0    -0.0     0.0     0.0     0.1     0.1    -0.1
     0.1     0.0     0.0     0.1     0.1    -0.1     0.0     0.0     0.1    -0.0
    -0.0     0.1     0.0    -0.0     0.1    -0.0     0.0     0.0     0.0    -0.0
     0.0     0.1     0.1    -0.1     0.0     0.0     0.0     0.0    -0.0     0.1
    -0.0     0.0     0.1     0.0    -0.0     0.1     0.1    -0.0    -0.0     0.0
     0.0    -0.0     0.0     0.1     0.0     0.0    -0.0    -0.0     0.0    -0.0
     0.1    -0.1    -0.0     0.1     0.1     0.0    -0.1    -0.0     0.0    -0.0
     0.1    -0.1    -0.0     0.0     0.1    -0.1     0.1    -0.0    -0.1     0.0
    -0.0    -0.0     0.0    -0.0    -0.0    -0.0    -0.1     0.0    -0.0    -0.1
     0.0    -0.1    -0.0    -0.0     0.0    -0.1    -0.1    -0.0    -0.0     0.0
    -0.0    -0.1    -0.0     0.0    -0.0     0.0    -0.1    -0.1    -0.0    -0.1
    -0.0     0.0    -0.1    -0.0    -0.1    -0.1    -0.0    -0.1     0.0    -0.0
    -0.1    -0.0    -0.1    -0.1     0.0    -0.1    -0.1    -0.0    -0.1     0.0
    -0.1    -0.1    -0.1    -0.0    -0.1    -0.0    -0.1    -0.1     0.0    -0.1
    -0.1    -0.1    -0.1    -0.1    -0.1    -0.1    -0.0    -0.1    -0.0    -0.1
    -0.2    -0.0    -0.0    -0.1    -0.1    -0.1    -0.0    -0.1    -0.1    -0.2
    -0.1    -0.1    -0.0    -0.0    -0.2    -0.1    -0.0    -0.1    -0.0    -0.1
    -0.1    -0.0    -0.1    -0.1     0.0    -0.3     0.0    -0.1    -0.2    -0.0
    -0.1    -0.1    -0.1    -0.1    -0.0    -0.1    -0.2    -0.0    -0.1    -0.2
     0.0    -0.1     0.0    -0.1    -0.1    -0.0    -0.0    -0.1    -0.0    -0.1
    -0.1    -0.1    -0.1    -0.0    -0.0    -0.1     0.1    -0.1    -0.1     0.0
    -0.0    -0.1    -0.0    -0.0    -0.0    -0.0    -0.1     0.0    -0.0    -0.1
     0.1    -0.0    -0.0    -0.0     0.1    -0.0    -0.0     0.0    -0.0     0.0
    -0.0     0.0     0.0    -0.1     0.1     0.1     0.0     0.0     0.0     0.0
     0.1    -0.0     0.1     0.0    -0.0     0.2    -0.0     0.0     0.1     0.1
     0.1     0.1     0.0     0.2     0.1    -0.0     0.2     0.1     0.1     0.2
     0.1     0.1     0.1     0.1     0.2     0.1     0.1     0.2     0.2     0.1
     0.3     0.2     0.1     0.2     0.2     0.1     0.3     0.2     0.2     0.2
     0.2     0.2     0.3     0.2     0.3     0.2     0.2     0.3     0.3     0.2
     0.3     0.2     0.3     0.3     0.2     0.4     0.3     0.2     0.4     0.2
     0.4     0.4     0.3     0.3     0.4     0.2     0.5     0.3     0.3     0.4
     0.3     0.3     0.4     0.3     0.4     0.4     0.4     0.5     0.4     0.3
     0.5     0.4     0.4     0.4     0.4     0.4     0.5     0.4     0.5     0.3
     0.3     0.4     0.2     0.3     0.0    -0.0    -0.1     0.2    -0.3     0.0
