Corrected accelerogram 20160214_001343_WAKC_20 GNS Science
Site WAKC      42 57 47S  172 42 19E     Basalt file:  20160214_001355_WAKC
Waikari
Instrument Basalt_614
Resolution: 24-bit   Instr Period: 0.0050 s   Damping: 0.700
Accelerogram 20160214_001343_WAKC_20                 Processed 2016 February 22
11 km east of CHRISTCHURCH
2016 February 14         00:13:43 UT
Epicentre  43 29 50S 172 45 18E  Bearing S04E  Dist   60km  Depth    8km M  5.70
Number of points  8192    Duration 163.82 sec
Instrument corrected data at 0.020 sec intervals
Band-pass filter transition bands are .10-.25 Hz and 24.50-25.50 Hz
Component N00E  Horizontal Axis 1
Acceleration:  peak   -295.3 mm/s/s at  53.62 sec     rms     26.7 mm/s/s
Velocity:      peak   -19.62 mm/s   at  51.64 sec     rms     2.43 mm/s
Displacement:  peak    3.809 mm     at  60.00 sec     rms    0.573 mm
    2016       2      14       0      13     430       0       0    2016       2
      43      29      50     172      45      18       8       0      14       0
      42      57      47     172      42      19       0       0     176      60
   33000     250     250    8192    8192    8192       0       0      13   15000
   200.0    0.70    0.00   0.000  0.0000   0.000   0.000   1.000     0.0    0.00
  42.963 172.705   43.50  172.76    5.70    0.00    0.00    0.00      0.      0.
  165.00    5.00    5.00  163.82  0.0050  0.0200      0.      0.      0.  9806.6
  -295.0   53.62    27.5   0.000      0.  -295.3   53.62    26.7   318.2   1.877
  -19.62   51.64    2.43   20.62   1.151    3.81   60.00    0.57    4.96   0.269
   0.100   0.150   0.250      0.      0.  24.500   1.000  25.500      0.      0.
    -0.0     0.0    -0.0     0.0    -0.0     0.0    -0.0     0.0    -0.0     0.0
    -0.0     0.0    -0.0     0.0    -0.0     0.0    -0.0     0.0    -0.0     0.0
    -0.0     0.0    -0.0     0.0    -0.0     0.0    -0.0     0.0    -0.0     0.0
    -0.0     0.0    -0.0     0.0    -0.0     0.0    -0.0     0.0    -0.0     0.0
    -0.0     0.0    -0.0     0.0    -0.0     0.0    -0.0     0.0    -0.0     0.0
    -0.0     0.0    -0.0     0.0    -0.0     0.0    -0.0     0.0    -0.0     0.0
    -0.0     0.0    -0.0     0.0    -0.0     0.0    -0.0     0.0    -0.0     0.0
    -0.0     0.0    -0.0     0.0    -0.0     0.0    -0.0     0.0    -0.0     0.0
    -0.0     0.0    -0.0     0.0    -0.0     0.0    -0.0     0.0    -0.0     0.0
    -0.0     0.0    -0.0     0.0    -0.0     0.0    -0.0     0.0    -0.0     0.0
    -0.0     0.0    -0.0     0.0    -0.0     0.0    -0.0     0.0    -0.0     0.0
    -0.0     0.0    -0.0     0.0    -0.0     0.0    -0.0     0.0    -0.0     0.0
    -0.0     0.0    -0.0     0.0    -0.0     0.0    -0.0     0.0    -0.0     0.0
    -0.0     0.0    -0.0     0.0    -0.0     0.0    -0.0     0.0    -0.0     0.0
    -0.0     0.0    -0.0     0.0    -0.0     0.0    -0.0     0.0    -0.0     0.0
    -0.0     0.0    -0.0     0.0    -0.0     0.0    -0.0     0.0    -0.0     0.0
    -0.0     0.0    -0.0     0.0    -0.0     0.0    -0.0     0.0    -0.0     0.0
    -0.0     0.0    -0.0     0.0    -0.0     0.0    -0.0     0.0    -0.0     0.0
    -0.0     0.0    -0.0     0.0    -0.0     0.0    -0.0     0.0    -0.0     0.0
    -0.0     0.0    -0.0     0.0    -0.0     0.0    -0.0     0.0    -0.0     0.0
    -0.0     0.0    -0.0     0.0    -0.0     0.0    -0.0     0.0    -0.0     0.0
    -0.0     0.0    -0.0     0.0    -0.0     0.0    -0.0     0.0    -0.0     0.0
    -0.0     0.0    -0.0     0.0    -0.0     0.0    -0.0     0.0    -0.0     0.0
    -0.0     0.0    -0.0     0.0    -0.0     0.0    -0.0     0.0    -0.0     0.0
    -0.0     0.0    -0.0     0.0    -0.0     0.0    -0.0     0.0    -0.0     0.0
     0.0    -0.0    -0.0    -0.0     0.0     0.0    -0.1    -0.0     0.0     0.0
     0.0     0.0     0.0     0.0     0.1     0.0    -0.0    -0.0    -0.0     0.0
    -0.0    -0.0     0.0     0.0    -0.1    -0.0    -0.0     0.0     0.0     0.0
    -0.0     0.0    -0.1     0.0     0.0     0.0    -0.0    -0.0     0.0     0.0
     0.0    -0.0    -0.0    -0.0     0.0     0.0    -0.0    -0.0    -0.0    -0.0
    -0.0     0.0     0.0    -0.0    -0.0    -0.1    -0.0     0.0     0.1    -0.0
     0.0    -0.0    -0.0    -0.0     0.0     0.0     0.0     0.0    -0.0    -0.0
     0.0    -0.0     0.0     0.0    -0.0    -0.0    -0.0    -0.0     0.0     0.0
    -0.0     0.0    -0.0     0.0    -0.0     0.0     0.1     0.0    -0.0    -0.0
     0.0     0.0    -0.0    -0.0    -0.0     0.0     0.0    -0.0    -0.0    -0.0
    -0.0    -0.0     0.0     0.0     0.0     0.0    -0.0     0.0     0.0    -0.0
    -0.0    -0.0     0.0     0.0     0.0    -0.0     0.0     0.0     0.0    -0.0
     0.0     0.0    -0.0    -0.0    -0.0     0.0     0.0     0.0    -0.0    -0.0
    -0.0     0.0     0.0    -0.0    -0.0    -0.0    -0.0     0.0     0.0     0.0
     0.0     0.0    -0.0    -0.0    -0.0     0.0     0.0     0.0     0.0    -0.0
    -0.0     0.0     0.0     0.0    -0.0     0.0     0.0     0.0    -0.0    -0.0
    -0.0    -0.0     0.0     0.0     0.0     0.0    -0.0     0.0     0.0     0.0
     0.0     0.0    -0.0    -0.0    -0.0    -0.0     0.0     0.0    -0.0     0.0
     0.0     0.0    -0.0    -0.0     0.0     0.1    -0.1    -0.0    -0.0     0.0
     0.0     0.0     0.0    -0.0    -0.0     0.0    -0.0    -0.0     0.0     0.0
    -0.0    -0.0     0.0     0.0    -0.0    -0.0     0.0     0.0     0.0     0.0
    -0.0     0.0    -0.0    -0.0     0.1     0.0    -0.0    -0.1    -0.0     0.0
    -0.0    -0.0     0.0    -0.0    -0.0     0.0     0.1    -0.0    -0.0    -0.0
    -0.0     0.0     0.0     0.0    -0.1    -0.0     0.0     0.0    -0.0    -0.0
     0.0     0.0    -0.0     0.0    -0.0    -0.0     0.0     0.0    -0.0    -0.0
     0.0    -0.0    -0.0     0.0     0.0     0.0    -0.0    -0.0    -0.0     0.0
     0.0     0.0    -0.0    -0.0    -0.0     0.0     0.0    -0.0    -0.0    -0.1
     0.0     0.1     0.0    -0.1    -0.0     0.0     0.0     0.0    -0.0    -0.0
    -0.0     0.0     0.0    -0.0    -0.0    -0.0     0.0    -0.0     0.0    -0.0
     0.0    -0.0     0.0     0.0    -0.0    -0.0     0.0     0.0    -0.0    -0.0
    -0.0     0.0    -0.0     0.0    -0.0    -0.0    -0.0     0.0    -0.0    -0.0
    -0.0    -0.0    -0.0     0.0    -0.0     0.0     0.0     0.0    -0.0     0.0
     0.0    -0.0    -0.0     0.0    -0.0     0.0    -0.0     0.0     0.0     0.0
    -0.0     0.0     0.0    -0.0     0.0     0.0     0.0    -0.0    -0.1     0.0
     0.0    -0.0    -0.0     0.0     0.0     0.0    -0.0    -0.1     0.0     0.0
    -0.0    -0.0     0.0     0.0     0.0    -0.0    -0.0     0.0    -0.0    -0.1
     0.0    -0.0     0.0     0.0    -0.0    -0.0     0.0     0.0     0.0     0.0
     0.0     0.0    -0.0    -0.0    -0.0    -0.1     0.0     0.1    -0.0    -0.0
    -0.0    -0.1    -0.0     0.0     0.0     0.1     0.0    -0.0    -0.0     0.0
    -0.0    -0.0    -0.0    -0.0     0.0     0.0    -0.0    -0.0    -0.0    -0.0
     0.0     0.0     0.0     0.0     0.0     0.0    -0.1    -0.1     0.0    -0.0
    -0.0     0.0     0.0    -0.0     0.0     0.0    -0.0    -0.0    -0.0    -0.0
    -0.0     0.0    -0.0     0.0     0.0     0.0    -0.0    -0.0    -0.0     0.0
     0.0    -0.0     0.0     0.0     0.0     0.0     0.0    -0.0    -0.0    -0.0
     0.0     0.1     0.0     0.0    -0.0    -0.0    -0.0    -0.0    -0.0     0.0
     0.0    -0.0    -0.0    -0.0     0.0     0.0     0.0     0.0     0.0    -0.0
    -0.0    -0.0     0.0     0.0    -0.0    -0.0    -0.0     0.0     0.0     0.0
    -0.0    -0.0    -0.0     0.0     0.0     0.0    -0.0     0.0     0.0    -0.0
     0.0    -0.0     0.0    -0.0    -0.0    -0.1    -0.0     0.1     0.0     0.1
     0.0    -0.0    -0.1    -0.0    -0.0     0.0     0.0     0.0     0.0     0.0
    -0.1    -0.0    -0.0     0.0     0.0     0.0    -0.0     0.0    -0.0    -0.0
     0.0     0.0     0.0     0.0    -0.0    -0.0    -0.0    -0.0    -0.0     0.1
     0.0     0.0     0.0    -0.1    -0.0    -0.0     0.0     0.0    -0.0     0.0
     0.0    -0.0     0.0    -0.0     0.0     0.0    -0.0     0.0    -0.0    -0.0
     0.0     0.0    -0.0    -0.0    -0.1     0.0     0.0     0.1     0.0    -0.0
    -0.0    -0.1     0.0     0.1     0.1     0.1    -0.1    -0.1    -0.1     0.1
     0.1     0.1     0.0    -0.1    -0.1    -0.0     0.0     0.1     0.0    -0.0
    -0.0     0.0    -0.0    -0.0     0.0    -0.1    -0.0     0.0     0.0     0.0
    -0.0     0.0    -0.0    -0.0    -0.0    -0.0     0.0     0.0     0.0     0.0
     0.0     0.0    -0.0    -0.1     0.0     0.0     0.1    -0.0    -0.1     0.0
     0.0     0.0    -0.0    -0.0    -0.0    -0.1     0.0    -0.0     0.1     0.0
     0.0     0.0    -0.1     0.0    -0.0     0.0     0.1     0.0    -0.0    -0.0
    -0.0    -0.0    -0.0     0.0     0.0     0.0    -0.0    -0.0    -0.0    -0.0
     0.0     0.0    -0.0     0.0     0.0     0.0    -0.0    -0.0    -0.0     0.0
     0.0     0.0    -0.0    -0.0     0.0     0.0    -0.0     0.0     0.0    -0.0
    -0.0     0.0     0.0     0.0    -0.0    -0.1    -0.1     0.0     0.1     0.1
     0.0    -0.0    -0.0    -0.0    -0.0    -0.0     0.0     0.0     0.0    -0.0
     0.0     0.0    -0.0     0.0    -0.0    -0.0     0.0     0.0     0.0     0.0
     0.0    -0.0    -0.0    -0.0     0.0    -0.0     0.0    -0.0    -0.0    -0.0
     0.0     0.0    -0.0    -0.0     0.1     0.0     0.0    -0.0    -0.0    -0.0
    -0.0     0.0     0.0     0.0    -0.0    -0.0    -0.0     0.0     0.0    -0.0
    -0.0    -0.0    -0.0     0.0     0.0     0.0    -0.0     0.0     0.0     0.0
     0.0    -0.1    -0.0    -0.0     0.0     0.0    -0.1    -0.0    -0.0     0.0
     0.1    -0.0    -0.1    -0.0     0.0     0.0     0.0    -0.0    -0.0     0.0
     0.0     0.0    -0.1    -0.0     0.0     0.0     0.1    -0.0    -0.0    -0.0
     0.0     0.0    -0.0     0.0     0.0     0.0    -0.0    -0.0    -0.0     0.0
     0.0     0.0    -0.0    -0.0    -0.0    -0.0     0.0     0.0     0.0    -0.0
    -0.0     0.0     0.0    -0.0    -0.0    -0.0    -0.1     0.0     0.0    -0.0
    -0.1    -0.1     0.0     0.0     0.0     0.0    -0.0     0.0    -0.0     0.0
     0.0    -0.0    -0.0     0.0     0.0     0.0    -0.0    -0.0    -0.0     0.0
    -0.0     0.0    -0.0     0.0    -0.0    -0.0     0.0     0.0    -0.0    -0.0
    -0.0     0.0     0.0    -0.0    -0.0     0.0    -0.0    -0.0     0.0     0.0
     0.0     0.0    -0.1     0.0     0.0     0.0    -0.0    -0.0    -0.0    -0.0
    -0.0    -0.0    -0.0    -0.0     0.0    -0.0     0.0    -0.0    -0.0     0.0
    -0.0     0.0    -0.0    -0.0    -0.0    -0.0     0.0     0.0     0.0    -0.0
    -0.0     0.0     0.0     0.0    -0.0     0.0     0.0     0.0    -0.0    -0.0
     0.0     0.0    -0.1     0.1    -0.1    -0.0     0.0    -0.0     0.0    -0.0
    -0.0     0.1    -0.0    -0.0    -0.0     0.0     0.0    -0.0     0.0     0.0
     0.0     0.0    -0.0     0.0     0.0     0.0    -0.0    -0.0    -0.0    -0.0
     0.0     0.0     0.0     0.0    -0.1     0.0     0.0     0.0    -0.0     0.0
    -0.0     0.0    -0.0     0.0     0.0    -0.0     0.0     0.0    -0.0    -0.0
    -0.0     0.1     0.0    -0.0    -0.0     0.0     0.0    -0.0    -0.0     0.0
     0.0    -0.0    -0.0    -0.0    -0.0     0.0     0.1     0.0    -0.0     0.0
     0.0     0.0    -0.0     0.0     0.0     0.0     0.0    -0.0     0.0    -0.0
    -0.0     0.0     0.0     0.0    -0.0     0.0     0.0    -0.0    -0.0     0.0
    -0.0     0.0    -0.0    -0.0    -0.0    -0.0    -0.0     0.0     0.0    -0.1
     0.0     0.0    -0.1    -0.0     0.0     0.0    -0.0    -0.0     0.1     0.0
    -0.0    -0.0    -0.0    -0.0    -0.0     0.0    -0.0    -0.0     0.0     0.0
    -0.0     0.0     0.0     0.0    -0.0     0.0    -0.0    -0.0     0.0     0.0
    -0.0    -0.0     0.0     0.0    -0.0    -0.0     0.0     0.0    -0.0    -0.0
    -0.0    -0.0    -0.0    -0.0    -0.0    -0.0     0.0    -0.0    -0.0     0.0
     0.0    -0.0    -0.0     0.0    -0.0     0.0     0.0    -0.0    -0.0    -0.0
     0.0     0.0     0.0    -0.0    -0.0     0.0    -0.0    -0.0    -0.0    -0.0
     0.0     0.0    -0.0    -0.0    -0.0     0.0     0.0     0.0     0.0    -0.0
    -0.0     0.0    -0.0     0.0     0.0     0.0     0.0    -0.0     0.0     0.0
     0.0     0.0     0.0     0.0    -0.0     0.0    -0.0     0.0    -0.0    -0.0
    -0.0     0.0    -0.0     0.1    -0.0     0.0    -0.0     0.0     0.0     0.0
    -0.0    -0.0    -0.0     0.0    -0.0    -0.0    -0.0     0.0     0.0     0.0
     0.0    -0.0    -0.0    -0.0    -0.0    -0.0    -0.0     0.0    -0.0     0.0
     0.0    -0.0     0.0     0.0     0.0     0.0    -0.0    -0.0    -0.0    -0.0
     0.0     0.0    -0.0     0.0    -0.0     0.0     0.0     0.0     0.0    -0.0
     0.0     0.0     0.0     0.0    -0.0    -0.0    -0.0     0.0     0.0     0.0
    -0.0    -0.0    -0.0    -0.0     0.0     0.0    -0.0     0.0    -0.0    -0.0
     0.0    -0.0    -0.0     0.0    -0.0    -0.0     0.0     0.0     0.0    -0.0
     0.0     0.0    -0.0    -0.0     0.0    -0.0    -0.0    -0.0    -0.0    -0.0
    -0.0     0.0    -0.0    -0.0     0.0    -0.0    -0.0     0.0    -0.0     0.0
     0.0    -0.0    -0.0     0.0    -0.0     0.0     0.0    -0.0    -0.0     0.0
     0.0     0.0     0.1     0.0    -0.0    -0.0     0.0     0.0    -0.0     0.0
    -0.0     0.0    -0.0     0.0     0.0    -0.0    -0.0    -0.0    -0.0    -0.0
    -0.0     0.0     0.0     0.0    -0.0    -0.0     0.0     0.0     0.0     0.0
    -0.1    -0.0    -0.0     0.0    -0.0    -0.0    -0.0     0.0     0.0     0.0
    -0.0    -0.0     0.0     0.0    -0.0     0.0    -0.0    -0.0     0.0    -0.0
    -0.0     0.0     0.0     0.0     0.0     0.0    -0.0    -0.0    -0.0     0.0
     0.0    -0.0    -0.0     0.0    -0.0     0.0    -0.0     0.0     0.0     0.0
    -0.0     0.0    -0.0    -0.0    -0.0     0.0    -0.0     0.0     0.0     0.0
     0.0    -0.0     0.0    -0.0    -0.0     0.0     0.0    -0.0     0.0     0.0
     0.0     0.0     0.0    -0.0    -0.0     0.0     0.0     0.0     0.0     0.0
    -0.0     0.0     0.0    -0.0    -0.0     0.0     0.0     0.0     0.0    -0.0
    -0.0     0.0    -0.0     0.0     0.0     0.0     0.0    -0.0    -0.0     0.0
    -0.0     0.0     0.0     0.0     0.0    -0.0    -0.0     0.0     0.0    -0.0
     0.0     0.0     0.0     0.0     0.0     0.0    -0.0     0.0    -0.0    -0.0
    -0.0     0.0    -0.0    -0.0    -0.0    -0.0     0.0     0.0    -0.0     0.0
    -0.0     0.0    -0.0     0.0    -0.0     0.0    -0.0     0.0    -0.0     0.0
     0.0     0.0    -0.0    -0.0     0.0     0.0    -0.0     0.0     0.0     0.0
     0.0     0.0     0.0     0.0     0.0     0.0    -0.1    -0.0     0.0     0.0
    -0.0     0.0    -0.0     0.0    -0.0     0.0    -0.0     0.0     0.0    -0.0
    -0.0     0.0    -0.0    -0.0     0.0     0.0    -0.0    -0.0     0.0     0.1
    -0.0    -0.1     0.1     0.0    -0.0    -0.0    -0.0    -0.0     0.0     0.0
     0.0    -0.0    -0.0     0.0     0.0     0.0    -0.0     0.0    -0.0     0.0
    -0.0    -0.0     0.0     0.0    -0.0    -0.1     0.0     0.0    -0.0     0.0
    -0.0     0.0    -0.0    -0.0    -0.0    -0.0    -0.0    -0.0     0.0     0.0
     0.0     0.0    -0.0     0.0    -0.0     0.0    -0.0    -0.1     0.0     0.0
    -0.0    -0.0    -0.0    -0.0     0.0    -0.0    -0.0    -0.0     0.0     0.0
    -0.0     0.0    -0.0     0.0    -0.0     0.0    -0.0     0.0    -0.1    -0.0
    -0.0    -0.0    -0.0     0.0    -0.0     0.0    -0.0     0.0    -0.0    -0.0
    -0.0    -0.0    -0.0     0.0    -0.0     0.0     0.0     0.0     0.0     0.0
    -0.0    -0.0    -0.0     0.0    -0.0     0.0    -0.0    -0.1     0.0    -0.0
     0.0    -0.0    -0.0     0.0     0.0     0.0    -0.0    -0.0    -0.0     0.0
     0.0     0.0    -0.0     0.0     0.0     0.0    -0.0     0.0    -0.0    -0.0
    -0.0     0.0    -0.0     0.0    -0.0     0.0    -0.0     0.0     0.0    -0.0
    -0.0     0.0    -0.0     0.0     0.0    -0.0     0.0     0.0    -0.0     0.0
    -0.0     0.0    -0.0     0.0    -0.0    -0.0    -0.0    -0.0     0.0     0.0
    -0.0     0.0    -0.0     0.0    -0.0     0.0    -0.0     0.0    -0.0     0.0
    -0.0     0.0    -0.0    -0.0    -0.0     0.0     0.0     0.0     0.0    -0.0
     0.0     0.0     0.0    -0.0     0.0     0.0     0.0     0.0     0.0    -0.0
    -0.0     0.0    -0.0    -0.0    -0.0    -0.0     0.0     0.0    -0.0     0.0
    -0.0     0.0     0.0     0.0     0.0    -0.0    -0.0     0.0    -0.0     0.0
    -0.0     0.0    -0.0     0.0    -0.0     0.0    -0.0     0.0     0.0    -0.0
    -0.0     0.0     0.0     0.0    -0.0     0.0    -0.0    -0.0     0.0     0.0
    -0.0    -0.0     0.0     0.0    -0.0    -0.0    -0.0     0.0    -0.0     0.0
    -0.0     0.0    -0.0     0.0    -0.0     0.0    -0.0     0.0    -0.0    -0.0
    -0.0     0.0     0.0    -0.0    -0.0     0.0    -0.0     0.0    -0.0    -0.0
    -0.0     0.0    -0.0     0.0    -0.0    -0.0    -0.0     0.0    -0.0     0.0
     0.0    -0.0    -0.1     0.0    -0.0     0.0    -0.0    -0.0    -0.0    -0.0
    -0.0     0.0    -0.0     0.0    -0.0     0.0    -0.1    -0.0    -0.0    -0.0
    -0.0     0.0    -0.0     0.0    -0.0     0.0    -0.0    -0.0    -0.0    -0.0
    -0.0    -0.0    -0.0    -0.0     0.0     0.0    -0.0     0.0     0.0     0.0
    -0.0    -0.0    -0.0     0.0    -0.0    -0.0    -0.0     0.0    -0.0     0.0
     0.0    -0.0    -0.0     0.0     0.0     0.0     0.0     0.0    -0.0     0.0
    -0.0    -0.0     0.0     0.0     0.0    -0.0     0.0     0.0    -0.0    -0.0
     0.0    -0.0    -0.0     0.0     0.0     0.0     0.0     0.0     0.0     0.0
     0.0     0.0    -0.0     0.0    -0.0    -0.0     0.0     0.0    -0.0     0.0
     0.0     0.0     0.0     0.0     0.0     0.1     0.0     0.0     0.0     0.0
     0.0     0.0     0.0     0.1     0.0     0.0     0.0     0.0     0.0     0.0
     0.0     0.0     0.0     0.0    -0.1     0.1     0.0    -0.0     0.0     0.0
     0.1     0.1    -0.0     0.0     0.0     0.0     0.0     0.0     0.0     0.0
     0.0     0.0     0.0     0.0    -0.0     0.0     0.0     0.0     0.0     0.0
     0.0     0.0     0.0     0.0     0.0     0.1     0.1    -0.0    -0.1     0.1
    -0.0     0.1     0.1     0.0     0.0     0.1     0.0     0.0     0.0     0.0
     0.0     0.0     0.0     0.0     0.0     0.0     0.0     0.0     0.0     0.0
    -0.0     0.1    -0.0    -0.0     0.1     0.0     0.0     0.0     0.0     0.0
    -0.0     0.0     0.0     0.0     0.0     0.0     0.0     0.0     0.0    -0.0
     0.0    -0.0    -0.0     0.0    -0.0     0.0    -0.0     0.0    -0.0     0.0
    -0.0     0.0     0.0    -0.0     0.0     0.0    -0.0     0.0    -0.0    -0.0
    -0.0    -0.0    -0.0     0.0    -0.0    -0.0    -0.0    -0.0    -0.1    -0.0
    -0.0     0.0    -0.0    -0.0    -0.1    -0.0    -0.0    -0.0    -0.1    -0.0
    -0.1    -0.0    -0.1    -0.0    -0.1    -0.0    -0.1    -0.0    -0.1    -0.0
    -0.1    -0.0    -0.1    -0.1    -0.1    -0.1    -0.1    -0.1    -0.1    -0.1
    -0.1    -0.1    -0.1    -0.1    -0.1    -0.1    -0.1    -0.1    -0.1    -0.1
    -0.1    -0.1    -0.1    -0.1    -0.1    -0.1    -0.1    -0.1    -0.1    -0.1
    -0.1    -0.1    -0.1    -0.1    -0.1    -0.1    -0.1    -0.2    -0.1    -0.1
    -0.1    -0.1    -0.1    -0.1    -0.1    -0.1    -0.1    -0.1    -0.1    -0.1
    -0.1    -0.1    -0.1    -0.1    -0.1    -0.1    -0.1    -0.1    -0.1    -0.1
    -0.1    -0.1    -0.1    -0.1    -0.1    -0.2    -0.1    -0.1    -0.1    -0.1
    -0.2    -0.1    -0.1    -0.1    -0.1    -0.1    -0.2    -0.1    -0.1    -0.1
    -0.2    -0.1    -0.1    -0.1    -0.1    -0.1    -0.1    -0.1    -0.1    -0.1
    -0.2    -0.1    -0.1    -0.1    -0.1    -0.1    -0.2    -0.1    -0.1    -0.1
    -0.1    -0.1    -0.1    -0.1    -0.1    -0.1    -0.1    -0.1    -0.1    -0.1
    -0.1    -0.1    -0.1    -0.1    -0.1    -0.2    -0.1    -0.0    -0.1    -0.0
    -0.1    -0.1    -0.1    -0.1    -0.1    -0.1    -0.0    -0.0    -0.1    -0.1
    -0.0     0.0     0.1     0.1     0.2    -0.1     0.4     0.2     0.6     0.9
