Corrected accelerogram 20160214_001343_PARS_20 GNS Science
Site PARS      43 34 04S  172 45 03E     Cusp file:  20160214_001346_PARS
Panorama Road
Instrument Cusp_42273
Resolution: 18-bit   Instr Period: 0.0050 s   Damping: 0.700
Accelerogram 20160214_001343_PARS_20                 Processed 2016 February 22
11 km east of CHRISTCHURCH
2016 February 14         00:13:43 UT
Epicentre  43 29 50S 172 45 18E  Bearing N03E  Dist    8km  Depth    8km M  5.70
Number of points  8192    Duration 163.82 sec
Instrument corrected data at 0.020 sec intervals
Band-pass filter transition bands are .10-.25 Hz and 24.50-25.50 Hz
Component N00E  Horizontal Axis 1
Acceleration:  peak  -1096.2 mm/s/s at  44.14 sec     rms     75.7 mm/s/s
Velocity:      peak   188.60 mm/s   at  42.84 sec     rms    10.76 mm/s
Displacement:  peak  -46.210 mm     at  42.52 sec     rms    3.542 mm
    2016       2      14       0      13     430       0       0    2016       2
      43      29      50     172      45      18       8       0      14       0
      43      34       4     172      45       3       0       0       3       8
   35520     250     250    8192    8192    8192       0       0      13    6696
   200.0    0.70    0.00   0.000  0.0000   0.000   0.000   1.000     0.0    0.00
  43.568 172.751   43.50  172.76    5.70    0.00    0.00    0.00      0.      0.
  177.59    5.00    5.00  163.82  0.0050  0.0200      0.      0.      0.  9806.6
 -1136.9   44.13    78.3   0.000      0. -1096.2   44.14    75.7  1653.0   0.998
  188.60   42.84   10.76  210.63   0.815  -46.21   42.52    3.54   46.36   0.217
   0.100   0.150   0.250      0.      0.  24.500   1.000  25.500      0.      0.
     0.0    -0.0     0.0    -0.0     0.0    -0.0     0.0    -0.0     0.0    -0.0
     0.0    -0.0     0.0    -0.0     0.0    -0.0     0.0    -0.0     0.0    -0.0
     0.0    -0.0     0.0    -0.0     0.0    -0.0     0.0    -0.0     0.0    -0.0
     0.0    -0.0     0.0    -0.0     0.0    -0.0     0.0    -0.0     0.0    -0.0
     0.0    -0.0     0.0    -0.0     0.0    -0.0     0.0    -0.0     0.0    -0.0
     0.0    -0.0     0.0    -0.0     0.0    -0.0     0.0    -0.0     0.0    -0.0
     0.0    -0.0     0.0    -0.0     0.0    -0.0     0.0    -0.0     0.0    -0.0
     0.0    -0.0     0.0    -0.0     0.0    -0.0     0.0    -0.0     0.0    -0.0
     0.0    -0.0     0.0    -0.0     0.0    -0.0     0.0    -0.0     0.0    -0.0
     0.0    -0.0     0.0    -0.0     0.0    -0.0     0.0    -0.0     0.0    -0.0
     0.0    -0.0     0.0    -0.0     0.0    -0.0     0.0    -0.0     0.0    -0.0
     0.0    -0.0     0.0    -0.0     0.0    -0.0     0.0    -0.0     0.0    -0.0
     0.0    -0.0     0.0    -0.0     0.0    -0.0     0.0    -0.0     0.0    -0.0
     0.0    -0.0     0.0    -0.0     0.0    -0.0     0.0    -0.0     0.0    -0.0
     0.0    -0.0     0.0    -0.0     0.0    -0.0     0.0    -0.0     0.0    -0.0
     0.0    -0.0     0.0    -0.0     0.0    -0.0     0.0    -0.0     0.0    -0.0
     0.0    -0.0     0.0    -0.0     0.0    -0.0     0.0    -0.0     0.0    -0.0
     0.0    -0.0     0.0    -0.0     0.0    -0.0     0.0    -0.0     0.0    -0.0
     0.0    -0.0     0.0     0.0     0.0     0.0     0.0     0.0     0.0     0.0
     0.0     0.0     0.0     0.0     0.0     0.0     0.0     0.0     0.0     0.0
     0.0     0.0     0.0     0.0     0.0     0.0     0.0     0.0     0.0     0.0
     0.0     0.0     0.0     0.0     0.0     0.0     0.0     0.0     0.0     0.0
     0.0     0.0     0.0     0.0     0.0     0.0     0.0     0.0     0.0     0.0
     0.0     0.0     0.0     0.0     0.0     0.0     0.0     0.0     0.0     0.0
     0.0     0.0     0.0     0.0     0.0     0.0     0.0     0.0     0.0     0.0
     0.1    -0.2    -0.0     0.1     0.0     0.1     0.0    -0.1     0.1    -0.1
    -0.1     0.0    -0.1     0.0    -0.1    -0.0    -0.1    -0.1    -0.0     0.1
     0.0     0.0     0.0    -0.0     0.0    -0.1    -0.0    -0.0    -0.1    -0.1
    -0.1     0.0    -0.1    -0.0     0.0    -0.2    -0.0    -0.1    -0.1    -0.1
    -0.1    -0.1    -0.1    -0.1    -0.1    -0.1    -0.1     0.0    -0.0    -0.1
     0.1    -0.1     0.0    -0.0     0.0    -0.1    -0.0     0.0    -0.0     0.0
    -0.0     0.1     0.1     0.1    -0.0     0.1     0.0    -0.1     0.1    -0.2
     0.1    -0.1     0.1     0.0     0.0     0.1     0.1     0.1     0.1     0.1
     0.0    -0.0    -0.0    -0.0    -0.1     0.1    -0.0    -0.1    -0.1    -0.0
    -0.1    -0.0     0.0    -0.0    -0.0     0.1    -0.0     0.0    -0.0    -0.1
    -0.0    -0.1    -0.0    -0.1    -0.0    -0.1    -0.1    -0.1     0.0    -0.0
     0.2     0.0     0.1     0.0     0.1     0.0     0.1     0.0    -0.0     0.1
     0.1     0.1     0.0    -0.1    -0.0     0.1    -0.2     0.0    -0.2    -0.0
     0.0    -0.0    -0.0    -0.0    -0.0    -0.0     0.1    -0.0    -0.0     0.1
     0.1    -0.1     0.1    -0.1    -0.0    -0.0     0.1    -0.1     0.2    -0.1
     0.0     0.0     0.1    -0.1    -0.0    -0.0     0.0    -0.1     0.0    -0.1
    -0.0     0.1     0.0    -0.0    -0.0    -0.0    -0.0    -0.0     0.0    -0.0
    -0.0     0.0    -0.1    -0.1     0.0     0.1     0.1     0.0     0.2     0.0
     0.1     0.1     0.1    -0.0     0.2     0.2     0.1     0.0     0.2     0.1
     0.1     0.0    -0.1    -0.0    -0.0     0.1    -0.1     0.0     0.1     0.1
     0.1    -0.0     0.1    -0.1     0.1     0.1     0.0     0.0    -0.0    -0.1
    -0.0    -0.1    -0.0    -0.1    -0.1     0.0    -0.0    -0.1     0.0    -0.0
    -0.1    -0.1    -0.0    -0.1    -0.2    -0.1    -0.0    -0.1     0.1     0.1
    -0.0     0.1     0.0     0.0     0.1     0.1     0.1     0.1     0.0     0.1
     0.0    -0.1     0.1    -0.0    -0.0    -0.0    -0.0     0.0    -0.1    -0.1
    -0.0     0.1    -0.0    -0.1     0.1     0.1    -0.1     0.0    -0.0    -0.1
     0.0     0.1     0.1    -0.2     0.0     0.0     0.0    -0.0    -0.0    -0.1
     0.1     0.1     0.0    -0.0    -0.0    -0.1    -0.0    -0.1    -0.1    -0.1
    -0.1    -0.1    -0.0    -0.0    -0.0    -0.0    -0.0     0.1    -0.0    -0.2
     0.1     0.1    -0.1    -0.1     0.0    -0.1    -0.0    -0.2     0.0    -0.1
    -0.1    -0.1    -0.1    -0.1    -0.1     0.0    -0.0     0.1     0.1    -0.0
     0.1     0.0     0.0     0.0     0.1     0.0    -0.1    -0.0     0.0     0.0
     0.0     0.1     0.1    -0.0     0.0     0.1     0.1     0.1     0.2     0.1
     0.2     0.1     0.0     0.0     0.1     0.1     0.1     0.0     0.1     0.0
     0.0    -0.0     0.0    -0.1     0.1    -0.0     0.0     0.0    -0.0    -0.1
     0.0    -0.0    -0.0    -0.1     0.1     0.0     0.1     0.1    -0.0     0.0
     0.1     0.1    -0.1    -0.1    -0.0    -0.1    -0.0    -0.1    -0.0    -0.0
     0.0    -0.1    -0.0    -0.0    -0.0    -0.1    -0.1    -0.1    -0.0    -0.1
    -0.1    -0.1    -0.1    -0.0    -0.0    -0.0    -0.0     0.0     0.0    -0.1
    -0.1     0.1     0.0    -0.0    -0.0    -0.0     0.0     0.0     0.0     0.0
    -0.0    -0.1     0.0    -0.0    -0.0    -0.1     0.1    -0.1    -0.0    -0.0
     0.0    -0.0    -0.1     0.1    -0.2    -0.0     0.1    -0.1     0.1    -0.0
    -0.0    -0.0    -0.1    -0.1    -0.0    -0.1    -0.1     0.0    -0.1     0.0
    -0.0    -0.0    -0.1    -0.1     0.0     0.0     0.1     0.0     0.0    -0.0
     0.1     0.0     0.1     0.0     0.0     0.1    -0.0    -0.0    -0.0    -0.1
     0.1    -0.1    -0.1     0.0     0.0     0.0    -0.0     0.1     0.1     0.1
    -0.0     0.1     0.2    -0.1     0.1    -0.1     0.1    -0.0     0.0    -0.0
     0.1    -0.0     0.0    -0.0     0.1     0.0     0.1     0.0     0.2     0.1
     0.1    -0.1     0.2     0.0    -0.1    -0.0    -0.0     0.1     0.0     0.1
     0.0    -0.0     0.0     0.1     0.0     0.1     0.1     0.1     0.1    -0.0
     0.2    -0.1     0.1    -0.1     0.1     0.0     0.0    -0.0     0.0    -0.0
     0.0    -0.1     0.0     0.1    -0.0    -0.1     0.0    -0.0    -0.1    -0.0
    -0.0     0.1     0.0     0.0     0.0     0.0     0.1     0.1    -0.1    -0.1
    -0.1    -0.1     0.0    -0.1     0.1     0.0    -0.0     0.0    -0.0     0.0
    -0.0    -0.0    -0.0    -0.1    -0.1    -0.1     0.0    -0.1    -0.0    -0.1
     0.0    -0.1     0.0    -0.0     0.1     0.1     0.1     0.1     0.1    -0.1
     0.0     0.1     0.0     0.1    -0.1    -0.1     0.0    -0.0     0.0    -0.1
    -0.0    -0.1     0.0    -0.1    -0.2    -0.1    -0.0    -0.1    -0.2    -0.1
    -0.1    -0.1     0.1    -0.1     0.1     0.0     0.0    -0.1    -0.0    -0.1
    -0.0    -0.0    -0.1     0.0    -0.1    -0.1     0.0     0.0     0.1    -0.1
    -0.0     0.1     0.0    -0.1     0.0    -0.0     0.0    -0.1     0.0     0.0
     0.0     0.0    -0.0    -0.1     0.0     0.0     0.0    -0.1     0.1    -0.2
     0.0     0.0     0.0     0.0     0.0    -0.1    -0.1    -0.0     0.1     0.1
     0.1    -0.0     0.1    -0.1     0.0    -0.0    -0.0     0.1     0.1     0.2
     0.1    -0.0     0.0     0.1     0.1     0.0     0.1    -0.1     0.0     0.1
     0.0     0.0     0.0    -0.0     0.0    -0.0     0.0    -0.1     0.1    -0.1
     0.1     0.0     0.1     0.1    -0.0     0.2     0.0    -0.1     0.1     0.0
    -0.0     0.1    -0.1     0.1     0.0     0.0    -0.0     0.0     0.0    -0.1
     0.0    -0.1    -0.1    -0.0     0.1     0.1     0.1     0.1     0.1    -0.1
     0.1    -0.0     0.0    -0.0    -0.0     0.0    -0.0    -0.0     0.0    -0.0
    -0.0    -0.1     0.1     0.1     0.0    -0.1     0.0     0.0     0.0     0.1
     0.1     0.0     0.0    -0.1     0.1    -0.1     0.1    -0.0     0.1    -0.0
     0.1    -0.2    -0.1    -0.1    -0.1    -0.0    -0.1    -0.1     0.0    -0.1
    -0.0    -0.2    -0.1     0.1    -0.0    -0.0    -0.0     0.1    -0.0    -0.1
     0.0    -0.0     0.0    -0.1     0.0     0.0     0.0    -0.0     0.0     0.0
     0.2     0.0    -0.0    -0.0    -0.0    -0.0    -0.0     0.0     0.1    -0.0
     0.0    -0.0     0.0    -0.1    -0.0    -0.1    -0.0    -0.1     0.0    -0.1
    -0.1    -0.1     0.0     0.0    -0.1    -0.0     0.0    -0.0     0.0    -0.0
     0.1    -0.0    -0.1    -0.1     0.1     0.0     0.0    -0.0    -0.0    -0.2
    -0.0    -0.0     0.0    -0.1     0.0    -0.1     0.1    -0.2    -0.0    -0.0
    -0.1    -0.1    -0.0    -0.0    -0.0     0.0     0.0    -0.1     0.0    -0.1
     0.1    -0.1    -0.0     0.0    -0.0     0.1     0.1    -0.0     0.0     0.0
    -0.0     0.0     0.0    -0.1     0.0    -0.0     0.1    -0.1    -0.0    -0.0
     0.0     0.1    -0.1     0.0     0.1     0.1    -0.1    -0.1     0.0    -0.1
    -0.1    -0.1     0.0    -0.1    -0.0     0.1    -0.1    -0.0    -0.1     0.1
    -0.0    -0.1     0.1     0.0     0.1    -0.1     0.1    -0.1     0.0    -0.0
     0.1    -0.2     0.1    -0.1    -0.0    -0.0     0.1     0.1     0.1     0.0
    -0.1     0.0    -0.0    -0.0     0.1    -0.0     0.2     0.1     0.0     0.1
     0.1    -0.0     0.0     0.0    -0.0     0.0     0.1    -0.1     0.1     0.0
     0.1     0.1     0.1    -0.1     0.0    -0.0     0.1    -0.1    -0.0    -0.1
     0.0    -0.0     0.1    -0.0     0.0     0.0    -0.0    -0.0    -0.1     0.0
    -0.1     0.0     0.0    -0.1     0.1     0.1    -0.0     0.0     0.1    -0.1
     0.1     0.0     0.1     0.1    -0.0    -0.1    -0.0    -0.0    -0.1     0.0
    -0.0     0.0     0.0    -0.1     0.1     0.0     0.1     0.0     0.1    -0.1
     0.0    -0.0     0.0     0.0     0.1    -0.1     0.0    -0.1     0.0    -0.1
     0.0    -0.1     0.1     0.0     0.0     0.0     0.2    -0.0     0.0     0.1
     0.0    -0.0     0.0    -0.0    -0.0    -0.0     0.0    -0.1     0.0     0.0
     0.1     0.0     0.1     0.1     0.1     0.0    -0.0     0.1    -0.0    -0.2
     0.1    -0.1     0.0    -0.0     0.0    -0.0    -0.0     0.1     0.0    -0.1
     0.0    -0.0     0.0     0.1    -0.1    -0.0    -0.1     0.0     0.0    -0.1
    -0.1    -0.1    -0.1    -0.1     0.0    -0.1     0.1    -0.1     0.0    -0.1
    -0.0    -0.0     0.0    -0.2    -0.1    -0.1    -0.1    -0.1     0.1    -0.1
    -0.1    -0.1    -0.1    -0.1    -0.1     0.0    -0.0    -0.1     0.1     0.0
     0.0    -0.2    -0.1     0.1     0.0     0.0    -0.0    -0.0     0.1     0.1
     0.0    -0.0     0.1    -0.0     0.1    -0.0     0.1     0.0    -0.1    -0.0
    -0.0    -0.0     0.1    -0.1     0.0    -0.1     0.0    -0.0     0.0     0.0
     0.1     0.1     0.1    -0.0     0.1     0.0     0.2     0.1     0.1     0.1
     0.2     0.1     0.2     0.1     0.2     0.2     0.2     0.1     0.2     0.0
     0.2    -0.0     0.0     0.0     0.0     0.1     0.1     0.0    -0.0     0.0
    -0.1     0.0     0.0    -0.1     0.1    -0.0     0.2    -0.2     0.1    -0.1
     0.1    -0.1     0.1     0.1     0.1     0.0     0.1    -0.0     0.1     0.0
    -0.0    -0.0     0.1     0.0    -0.0    -0.1     0.0    -0.0    -0.0     0.1
     0.0     0.0     0.1    -0.1     0.1    -0.0     0.1     0.0     0.1     0.1
     0.2     0.0     0.1    -0.1     0.0     0.0     0.0    -0.0     0.1     0.0
    -0.0    -0.1    -0.1     0.1     0.0    -0.1     0.1    -0.1     0.0    -0.0
    -0.0    -0.1     0.2    -0.0    -0.1    -0.0    -0.1     0.0    -0.1    -0.1
    -0.0    -0.1     0.0    -0.2    -0.1    -0.1     0.1    -0.0    -0.0    -0.1
    -0.0    -0.1    -0.0    -0.2    -0.1    -0.1    -0.0    -0.1     0.0    -0.2
    -0.1    -0.0    -0.0    -0.1    -0.1    -0.1    -0.0    -0.1     0.1    -0.1
     0.1    -0.2    -0.0    -0.0    -0.1    -0.1    -0.0    -0.1    -0.0    -0.1
    -0.0    -0.1     0.0    -0.1     0.0    -0.0    -0.1    -0.2    -0.1    -0.1
     0.0    -0.1     0.0    -0.0     0.1    -0.0     0.0    -0.1     0.1    -0.1
     0.0    -0.1    -0.1    -0.0     0.0    -0.0     0.0     0.0     0.0    -0.0
     0.1    -0.0     0.1    -0.1     0.2    -0.0     0.2     0.0     0.1    -0.0
     0.1    -0.0     0.1     0.0    -0.0     0.0     0.1    -0.1     0.1     0.0
     0.2     0.1     0.2     0.1     0.1     0.1     0.1     0.0     0.1     0.0
     0.2     0.1     0.1    -0.0     0.0    -0.0     0.1     0.0     0.2     0.1
     0.1     0.1     0.2    -0.0    -0.0    -0.1    -0.0    -0.1     0.0    -0.1
     0.1    -0.0     0.1    -0.2    -0.0    -0.1    -0.1     0.0     0.1     0.1
     0.0    -0.0     0.2    -0.1     0.1     0.0     0.0    -0.1     0.0    -0.0
     0.1     0.1     0.1    -0.0     0.0    -0.0     0.0    -0.1     0.0    -0.1
     0.1     0.0    -0.0    -0.1     0.1    -0.0    -0.1    -0.2    -0.0    -0.0
     0.0     0.0    -0.0    -0.1     0.0    -0.1    -0.0    -0.2    -0.1    -0.2
    -0.2    -0.2    -0.0    -0.2    -0.1    -0.2     0.1    -0.1    -0.0    -0.1
    -0.0    -0.1    -0.0    -0.1    -0.1    -0.1     0.1    -0.1    -0.0    -0.2
    -0.1    -0.1    -0.2    -0.1    -0.1    -0.0    -0.1    -0.2    -0.1    -0.3
     0.0    -0.3    -0.0    -0.2     0.0    -0.2    -0.1    -0.1    -0.0    -0.2
    -0.2    -0.1    -0.1    -0.2    -0.0    -0.1    -0.1    -0.1    -0.1    -0.2
    -0.2    -0.1    -0.2    -0.1    -0.1    -0.2    -0.0    -0.1     0.0    -0.1
    -0.1    -0.1    -0.0    -0.0    -0.1    -0.1     0.1    -0.2     0.0    -0.2
    -0.0    -0.1     0.1    -0.1    -0.0    -0.1     0.0    -0.0    -0.0    -0.1
    -0.0    -0.1     0.0    -0.1     0.1    -0.1     0.1    -0.1     0.1    -0.0
     0.1     0.0    -0.0     0.0    -0.0    -0.0     0.2    -0.0     0.1     0.1
     0.1    -0.0     0.1    -0.1     0.2     0.1     0.1     0.1     0.2     0.1
     0.0     0.1     0.2    -0.1     0.1    -0.0     0.2    -0.1     0.3     0.1
     0.2     0.2     0.2     0.0     0.2     0.3     0.3     0.0     0.3     0.1
     0.3     0.1     0.2     0.1     0.1     0.1     0.3     0.1     0.3     0.1
     0.3     0.0     0.4     0.1     0.3     0.2     0.2     0.1     0.3     0.2
     0.3     0.2     0.4     0.1     0.4     0.2     0.2     0.0     0.2     0.1
     0.3     0.3     0.2     0.1     0.2     0.2     0.1     0.0     0.2     0.1
     0.3     0.0     0.3     0.1     0.3     0.1     0.2     0.1     0.3     0.0
     0.2     0.1     0.3     0.1     0.1     0.1     0.1    -0.0     0.1    -0.0
     0.2     0.0     0.1     0.0     0.2    -0.0     0.1    -0.1     0.1    -0.1
    -0.0    -0.1    -0.0    -0.2     0.1    -0.3     0.1    -0.1     0.0    -0.1
    -0.0    -0.2    -0.1    -0.1    -0.0    -0.3    -0.1    -0.3    -0.1    -0.2
    -0.0    -0.1    -0.1    -0.1     0.0    -0.2     0.0    -0.3    -0.1    -0.2
    -0.1    -0.3    -0.1    -0.4    -0.1    -0.4    -0.1    -0.4    -0.1    -0.3
    -0.0    -0.2    -0.2    -0.2    -0.2    -0.4    -0.2    -0.3    -0.2    -0.3
    -0.1    -0.3    -0.1    -0.3    -0.1    -0.3    -0.2    -0.2    -0.1    -0.4
    -0.1    -0.4    -0.1    -0.4    -0.1    -0.3    -0.1    -0.2    -0.1    -0.2
    -0.0    -0.2    -0.2    -0.1    -0.1    -0.2     0.1    -0.2     0.0    -0.1
     0.1    -0.2     0.1    -0.0     0.2    -0.1     0.2    -0.1     0.2    -0.0
     0.3     0.0     0.2     0.1     0.2     0.1     0.3     0.1     0.3     0.2
     0.4     0.2     0.5     0.2     0.4     0.3     0.4     0.3     0.5     0.4
     0.5     0.4     0.5     0.4     0.5     0.3     0.5     0.3     0.5     0.3
     0.6     0.4     0.6     0.6     0.8     0.5     0.8     0.5     0.6     0.5
     0.7     0.6     0.7     0.6     0.8     0.6     0.7     0.6     0.8     0.7
     0.8     0.6     0.8     0.7     0.8     0.6     0.8     0.7     0.9     0.8
     0.9     0.7     0.8     0.5     0.8     0.7     0.9     0.7     0.8     0.5
     0.7     0.6     0.7     0.5     0.7     0.6     0.8     0.3     0.7     0.4
     0.7     0.5     0.7     0.4     0.6     0.3     0.6     0.2     0.5     0.2
     0.5     0.2     0.5     0.1     0.4     0.1     0.2     0.1     0.3    -0.0
     0.2    -0.0     0.3    -0.1     0.1    -0.1     0.2    -0.3    -0.1    -0.3
    -0.2    -0.5    -0.2    -0.5    -0.4    -0.7    -0.5    -0.9    -0.6    -0.8
    -0.6    -1.0    -0.6    -1.1    -0.8    -1.0    -0.9    -1.2    -1.1    -1.2
    -1.0    -1.3    -1.1    -1.4    -1.1    -1.6    -1.3    -1.5    -1.6    -1.8
    -1.5    -1.9    -1.6    -2.0    -1.8    -2.2    -1.9    -2.2    -1.9    -2.2
    -1.9    -2.3    -2.1    -2.5    -2.2    -2.6    -2.4    -2.6    -2.3    -2.7
    -2.4    -2.7    -2.5    -2.8    -2.4    -2.8    -2.6    -2.9    -2.6    -3.0
    -2.7    -2.9    -2.7    -3.0    -2.6    -3.0    -2.8    -3.0    -2.7    -3.1
    -2.7    -3.1    -2.8    -3.0    -2.7    -3.1    -2.8    -3.1    -2.8    -3.2
    -2.8    -3.1    -2.8    -3.1    -2.7    -3.1    -2.7    -3.1    -2.5    -3.0
    -2.4    -2.9    -2.5    -2.7    -2.3    -2.8    -2.2    -2.7    -2.0    -2.6
    -2.0    -2.5    -1.9    -2.3    -1.8    -2.1    -1.6    -2.0    -1.5    -1.7
    -1.4    -1.7    -1.1    -1.5    -1.1    -1.3    -0.8    -1.2    -0.6    -1.0
    -0.4    -0.8    -0.2    -0.5    -0.0    -0.3     0.3    -0.0     0.5     0.2
     0.7     0.4     1.0     0.8     1.4     1.0     1.5     1.2     1.8     1.4
     2.1     1.7     2.3     2.0     2.6     2.3     3.0     2.6     3.3     2.8
     3.7     3.2     3.9     3.4     4.2     3.7     4.5     4.1     4.9     4.4
     5.1     4.6     5.4     4.9     5.7     5.2     6.2     5.7     6.3     6.0
     6.8     6.3     7.1     6.6     7.4     6.9     7.6     7.2     8.0     7.4
     8.3     7.7     8.6     8.0     8.8     8.3     9.1     8.5     9.3     8.8
     9.7     9.0     9.8     9.2    10.2     9.5    10.3     9.7    10.6     9.9
    10.7    10.1    11.0    10.3    11.1    10.4    11.2    10.5    11.5    10.7
    11.7    10.8    11.8    10.9    11.9    11.0    12.0    11.0    12.1    11.2
    12.2    11.2    12.3    11.2    12.3    11.2    12.3    11.2    12.3    11.2
    12.4    11.1    12.5    11.0    12.4    10.8    12.3    10.7    12.3    10.5
    12.3    10.3    12.1    10.2    12.1    10.0    12.1     9.8    12.0     9.4
    11.9     9.0    11.7     8.7    11.6     8.3    11.5     7.9    11.4     7.4
    11.3     6.8    11.2     6.4    10.8     3.8     4.8   -10.1     9.8     4.4
     9.9   -41.6   -23.4   -35.9    -7.5   -20.8   -11.5   -42.5   -20.1   -64.5
