Corrected accelerogram 20160214_001343_TWAS_20 GNS Science
Site TWAS      44 15 17S  170 05 54E     Basalt file:  20160214_001430_TWAS
Twizel Area School
Instrument Basalt_491
Resolution: 24-bit   Instr Period: 0.0050 s   Damping: 0.700
Accelerogram 20160214_001343_TWAS_20                 Processed 2016 February 22
11 km east of CHRISTCHURCH
2016 February 14         00:13:43 UT
Epicentre  43 29 50S 172 45 18E  Bearing N69E  Dist  230km  Depth    8km M  5.70
Number of points  8192    Duration 163.82 sec
Instrument corrected data at 0.020 sec intervals
Band-pass filter transition bands are .10-.25 Hz and 24.50-25.50 Hz
Component N00E  Horizontal Axis 1
Acceleration:  peak      9.9 mm/s/s at  73.26 sec     rms      1.3 mm/s/s
Velocity:      peak     1.72 mm/s   at  75.42 sec     rms     0.31 mm/s
Displacement:  peak   -0.565 mm     at  78.82 sec     rms    0.129 mm
    2016       2      14       0      13     430       0       0    2016       2
      43      29      50     172      45      18       8       0      14       0
      44      15      17     170       5      54       0       0      69     230
   30800     250     250    8192    8192    8192       0       0      13   50000
   200.0    0.70    0.00   0.000  0.0000   0.000   0.000   1.000     0.0    0.00
  44.255 170.098   43.50  172.76    5.70    0.00    0.00    0.00      0.      0.
  154.00    5.00    5.00  163.82  0.0050  0.0200      0.      0.      0.  9806.6
     9.9   73.25     1.4   0.000      0.     9.9   73.26     1.3    10.1   0.549
    1.72   75.42    0.31    1.94   0.232   -0.56   78.82    0.13    0.61   0.232
   0.100   0.150   0.250      0.      0.  24.500   1.000  25.500      0.      0.
   0.000   0.000   0.000   0.000   0.000   0.000   0.000   0.000   0.000   0.000
   0.000   0.000   0.000   0.000   0.000   0.000   0.000   0.000   0.000   0.000
  -0.000   0.000  -0.000   0.000  -0.000  -0.000  -0.000  -0.000  -0.000  -0.000
  -0.000  -0.000  -0.000  -0.000  -0.000  -0.000  -0.000  -0.000  -0.000  -0.000
  -0.000  -0.000  -0.001  -0.000  -0.001  -0.000  -0.001  -0.001  -0.001  -0.001
  -0.001  -0.001  -0.001  -0.001  -0.001  -0.001  -0.001  -0.001  -0.001  -0.001
  -0.001  -0.001  -0.001  -0.001  -0.001  -0.001  -0.001  -0.001  -0.001  -0.001
  -0.001  -0.001  -0.001  -0.001  -0.001  -0.001  -0.001  -0.001  -0.001  -0.001
  -0.001  -0.001  -0.001  -0.001  -0.001  -0.001  -0.002  -0.001  -0.002  -0.001
  -0.002  -0.001  -0.002  -0.002  -0.002  -0.002  -0.002  -0.002  -0.002  -0.002
  -0.002  -0.002  -0.002  -0.002  -0.002  -0.002  -0.002  -0.002  -0.002  -0.002
  -0.002  -0.002  -0.002  -0.002  -0.002  -0.002  -0.002  -0.002  -0.002  -0.002
  -0.002  -0.002  -0.002  -0.002  -0.002  -0.001  -0.002  -0.001  -0.002  -0.001
  -0.002  -0.001  -0.002  -0.001  -0.001  -0.001  -0.001  -0.001  -0.001  -0.001
  -0.001  -0.001  -0.001  -0.001  -0.001  -0.001  -0.001  -0.001  -0.001  -0.001
  -0.001  -0.001  -0.001  -0.000  -0.001  -0.000  -0.001  -0.000  -0.000  -0.000
  -0.000   0.000  -0.000   0.000  -0.000   0.000   0.000   0.000   0.000   0.001
   0.000   0.001   0.001   0.001   0.001   0.001   0.001   0.001   0.001   0.002
   0.001   0.002   0.001   0.002   0.002   0.002   0.002   0.002   0.002   0.003
   0.002   0.003   0.003   0.003   0.003   0.003   0.003   0.004   0.003   0.004
   0.004   0.004   0.004   0.004   0.004   0.005   0.004   0.005   0.005   0.005
   0.005   0.006   0.005   0.006   0.005   0.006   0.006   0.007   0.006   0.007
   0.006   0.007   0.007   0.008   0.007   0.008   0.007   0.008   0.007   0.009
   0.008   0.009   0.008   0.009   0.008   0.010   0.009   0.010   0.009   0.010
   0.009   0.011   0.010   0.011   0.010   0.011   0.010   0.012   0.011   0.011
   0.012  -0.018  -0.018   0.012  -0.002  -0.002   0.011  -0.018  -0.023  -0.005
   0.001  -0.054  -0.004  -0.026  -0.040  -0.038  -0.034  -0.013  -0.005   0.008
  -0.021  -0.005   0.006  -0.030  -0.023   0.015  -0.014  -0.002   0.003   0.015
   0.003  -0.001  -0.009  -0.020   0.006   0.018   0.007  -0.011   0.012  -0.008
   0.007  -0.020  -0.015   0.000   0.001   0.010  -0.009  -0.002   0.002  -0.015
  -0.002   0.009   0.020   0.017   0.003  -0.032  -0.031  -0.044  -0.014   0.019
   0.011  -0.021  -0.010  -0.018   0.003  -0.015  -0.029  -0.010   0.008   0.014
   0.003  -0.022  -0.016   0.000   0.019   0.013   0.016  -0.003  -0.001   0.002
   0.008   0.003   0.011   0.023   0.008   0.006   0.007   0.007   0.004   0.021
  -0.007   0.012   0.023  -0.001   0.002   0.003  -0.027  -0.024   0.009   0.027
   0.010   0.033   0.001   0.024  -0.031   0.000   0.019  -0.007   0.026  -0.018
   0.010   0.032   0.005   0.017   0.004   0.010  -0.009  -0.015   0.001   0.010
   0.006   0.019  -0.013  -0.018  -0.013  -0.001  -0.011  -0.021   0.020  -0.007
  -0.021  -0.023   0.025   0.003  -0.003  -0.024   0.007  -0.042   0.011   0.023
  -0.047  -0.007  -0.026  -0.033   0.036  -0.008   0.004   0.008  -0.032  -0.032
  -0.017   0.011   0.023  -0.003   0.003   0.007   0.008  -0.033   0.020  -0.035
  -0.042   0.010   0.012   0.032   0.005  -0.003   0.007   0.004   0.032  -0.009
   0.024  -0.003   0.015   0.010   0.009   0.028  -0.012   0.002  -0.017  -0.003
   0.020   0.001  -0.012  -0.006  -0.009   0.030  -0.019  -0.001   0.018   0.009
  -0.015   0.011   0.006  -0.006   0.025  -0.003   0.007  -0.010  -0.031  -0.003
   0.008  -0.019  -0.006  -0.027   0.028   0.000   0.021   0.008   0.032   0.017
   0.035  -0.014   0.015  -0.021  -0.012   0.005  -0.048  -0.018   0.025  -0.002
   0.003   0.001   0.016   0.009  -0.006   0.026  -0.017  -0.010  -0.006  -0.014
   0.009   0.015   0.027   0.007   0.010   0.009  -0.026   0.017   0.008   0.020
   0.005   0.025  -0.002   0.007  -0.013  -0.011  -0.012   0.010   0.022   0.001
  -0.026  -0.023  -0.039  -0.003   0.011   0.000   0.030  -0.007  -0.022  -0.014
   0.025  -0.020  -0.014  -0.020  -0.019   0.017  -0.022   0.007  -0.005  -0.024
   0.003  -0.025  -0.004   0.005   0.011  -0.015  -0.033  -0.016   0.019   0.009
  -0.031  -0.019  -0.016  -0.003   0.016  -0.005  -0.026   0.021   0.020   0.015
   0.010   0.001  -0.021   0.019  -0.003   0.017  -0.017   0.022   0.015  -0.030
   0.013  -0.037   0.002   0.012   0.022   0.001   0.000   0.008   0.031  -0.006
   0.001   0.008  -0.032   0.002   0.022  -0.012  -0.018   0.016   0.020   0.009
   0.014   0.018  -0.013   0.018   0.003   0.023  -0.003   0.011   0.004  -0.001
   0.008  -0.028   0.008   0.006  -0.018  -0.010   0.027   0.004   0.019   0.012
   0.014  -0.014  -0.017  -0.016  -0.017   0.006  -0.003  -0.024  -0.028   0.021
   0.015   0.003  -0.000  -0.012   0.010   0.011   0.004   0.005   0.001   0.005
   0.001   0.019   0.003   0.027  -0.005  -0.003  -0.021  -0.012   0.014   0.020
   0.000  -0.028  -0.009   0.007   0.011   0.017   0.024   0.015   0.015   0.009
   0.017  -0.029  -0.034  -0.029   0.006  -0.007  -0.009   0.033  -0.004  -0.026
  -0.025   0.015  -0.037   0.012   0.009   0.020   0.016   0.007   0.012   0.021
   0.013   0.009   0.003  -0.027  -0.008   0.025   0.025   0.008  -0.009  -0.004
  -0.016  -0.004  -0.028   0.012  -0.017   0.000  -0.022  -0.013   0.012  -0.000
  -0.014   0.003   0.014  -0.019  -0.016   0.012   0.008  -0.009   0.003   0.009
  -0.047  -0.010   0.004  -0.018  -0.021  -0.004   0.020   0.026   0.014  -0.005
   0.016  -0.020  -0.005  -0.034   0.019  -0.003  -0.007   0.008  -0.043   0.013
   0.003   0.022   0.012  -0.011   0.006   0.029   0.003   0.005   0.025   0.010
  -0.018  -0.032   0.022  -0.006  -0.006   0.013   0.005  -0.025   0.022   0.010
  -0.025   0.014  -0.017  -0.010   0.009  -0.008   0.023  -0.020   0.012   0.008
   0.021  -0.006  -0.004  -0.028  -0.012  -0.022  -0.002   0.009   0.013  -0.018
  -0.010   0.019  -0.030   0.004   0.006  -0.011  -0.029  -0.014   0.027  -0.003
  -0.001   0.024  -0.000   0.011  -0.006  -0.006  -0.013  -0.037  -0.008   0.008
  -0.016   0.016  -0.019   0.015   0.013   0.022  -0.016   0.015  -0.002  -0.009
  -0.003  -0.009  -0.002  -0.001  -0.025   0.006  -0.007   0.015   0.003   0.020
  -0.015  -0.012   0.022   0.005  -0.022  -0.016  -0.015   0.003  -0.008   0.021
  -0.008  -0.007   0.013   0.011   0.009   0.028  -0.016  -0.017   0.012   0.020
  -0.007  -0.049   0.002   0.019   0.018  -0.014  -0.035   0.008   0.018   0.008
   0.021   0.017   0.019   0.020  -0.005  -0.005   0.009   0.007   0.012   0.006
   0.017  -0.027   0.025   0.012   0.019  -0.028  -0.008  -0.014  -0.007  -0.038
  -0.024   0.012   0.022  -0.007  -0.011  -0.003  -0.005   0.019   0.016  -0.007
  -0.035  -0.017   0.014   0.008   0.018   0.017   0.003  -0.035  -0.022   0.010
   0.020  -0.011  -0.011  -0.004   0.026  -0.003  -0.000   0.010   0.019  -0.016
  -0.009   0.017  -0.021   0.007   0.005  -0.015  -0.001  -0.013   0.014   0.012
   0.002   0.004   0.011   0.015   0.005   0.015   0.011  -0.002   0.003   0.006
   0.016   0.004  -0.020   0.017   0.012  -0.000   0.011  -0.017   0.014   0.006
   0.010   0.001   0.002   0.010   0.005   0.018  -0.013  -0.012  -0.020  -0.019
   0.000  -0.039   0.005   0.013   0.009  -0.012   0.002   0.011   0.006   0.006
  -0.005   0.004  -0.021  -0.002   0.004   0.006   0.011   0.016  -0.001   0.004
   0.010  -0.006  -0.009   0.008   0.009   0.013   0.006  -0.002   0.003   0.005
  -0.002   0.011   0.005   0.020  -0.003   0.006  -0.005   0.021   0.000  -0.016
  -0.033  -0.002  -0.005   0.009  -0.027  -0.014   0.022   0.010   0.000  -0.020
  -0.038   0.014  -0.012   0.007   0.006   0.015  -0.013   0.002  -0.015  -0.004
   0.004  -0.005   0.021  -0.019  -0.001   0.005  -0.003   0.015   0.015  -0.014
  -0.045  -0.018   0.015  -0.019  -0.023  -0.011   0.013  -0.030   0.017  -0.009
  -0.020   0.011  -0.019  -0.000   0.016   0.014   0.016   0.014   0.017   0.007
  -0.002  -0.014  -0.006  -0.001   0.012   0.002   0.013  -0.020  -0.007  -0.031
   0.014   0.013   0.006   0.009   0.014   0.012  -0.007  -0.007   0.014  -0.016
   0.008  -0.001   0.012   0.015  -0.020  -0.024  -0.007   0.017   0.017  -0.010
  -0.008  -0.031   0.014   0.012  -0.016  -0.025   0.006   0.006  -0.012   0.022
  -0.023  -0.003  -0.034   0.032  -0.025   0.006  -0.002  -0.016   0.004   0.017
  -0.002   0.016   0.006  -0.024  -0.013  -0.030  -0.009   0.022   0.003   0.019
  -0.029  -0.011   0.009  -0.016  -0.002   0.006   0.012   0.011   0.010   0.013
   0.016   0.005   0.010  -0.009  -0.020   0.015  -0.002  -0.006   0.021   0.013
   0.018   0.007   0.013   0.020   0.002  -0.003   0.009  -0.018   0.014   0.009
   0.011   0.011  -0.007   0.004   0.019   0.014   0.017   0.008   0.006  -0.016
  -0.003  -0.019   0.018  -0.016  -0.027  -0.005  -0.022  -0.039   0.010  -0.000
  -0.015  -0.013  -0.002   0.015   0.003   0.011   0.005   0.019  -0.005  -0.019
  -0.001   0.015  -0.001   0.014  -0.013  -0.005   0.018  -0.018  -0.007  -0.005
  -0.004  -0.014   0.016   0.002   0.017   0.003  -0.020   0.012   0.009   0.009
   0.005   0.014  -0.015   0.006   0.007  -0.004   0.004  -0.001   0.015   0.006
  -0.027  -0.014   0.009  -0.023   0.004  -0.025  -0.017   0.003  -0.003  -0.009
   0.021   0.006  -0.010   0.001  -0.013  -0.004   0.013   0.001   0.010   0.013
   0.017   0.011   0.005  -0.025   0.013   0.009   0.009  -0.011   0.000  -0.011
  -0.011  -0.008  -0.010   0.020  -0.017  -0.015  -0.013   0.004   0.018   0.006
   0.009   0.013  -0.001   0.002   0.011   0.015   0.005   0.008  -0.018  -0.002
  -0.003   0.013   0.003   0.017  -0.003   0.005   0.008  -0.001  -0.026  -0.028
  -0.017   0.009  -0.016  -0.032   0.010   0.012   0.013   0.016  -0.008  -0.030
   0.002   0.012  -0.015   0.002  -0.008   0.013  -0.001   0.007  -0.008  -0.013
  -0.018  -0.018   0.004   0.003  -0.022   0.001   0.002   0.014  -0.013  -0.005
  -0.026  -0.023   0.004   0.011   0.013   0.003   0.008   0.004   0.007   0.010
   0.016  -0.020   0.010   0.012   0.011  -0.013   0.020  -0.005  -0.029   0.005
   0.000   0.009   0.012   0.015  -0.004  -0.040   0.003   0.014   0.010   0.016
  -0.011   0.000  -0.013  -0.020   0.021   0.004   0.020  -0.003   0.010  -0.004
   0.019   0.015  -0.021   0.019  -0.001   0.008  -0.006  -0.007   0.006   0.013
   0.010   0.002   0.016  -0.001   0.010  -0.010   0.010   0.002  -0.013   0.000
   0.008   0.007  -0.002  -0.005  -0.017  -0.016   0.009  -0.006   0.008  -0.003
  -0.010   0.014   0.002  -0.014  -0.016   0.004  -0.002  -0.014  -0.032   0.007
  -0.033   0.011   0.001   0.012  -0.008   0.015  -0.001   0.019  -0.005   0.009
   0.004   0.008   0.007  -0.002  -0.022   0.027  -0.015  -0.006  -0.037   0.002
   0.011  -0.006   0.005  -0.024  -0.001   0.012   0.003   0.013   0.009   0.005
   0.014   0.013   0.002   0.006   0.006   0.000   0.010  -0.019  -0.017   0.001
   0.009  -0.002   0.013  -0.012  -0.003   0.008   0.003   0.009  -0.001   0.008
   0.004   0.009  -0.012  -0.014   0.017   0.010   0.016   0.003   0.011   0.012
  -0.025  -0.008   0.012   0.011  -0.002   0.008   0.001   0.007   0.011   0.002
  -0.010   0.009   0.012  -0.022   0.005   0.002   0.004  -0.000   0.008   0.008
  -0.001  -0.018   0.006  -0.007   0.015   0.001   0.007   0.011   0.015   0.011
  -0.011   0.017  -0.017  -0.033   0.014  -0.014   0.002   0.002  -0.043   0.011
  -0.011  -0.028  -0.014  -0.002  -0.010  -0.002   0.007  -0.007   0.019  -0.012
  -0.009   0.014   0.007   0.009  -0.013  -0.043  -0.011  -0.009   0.008  -0.025
   0.003  -0.011  -0.006  -0.026  -0.003   0.005   0.015   0.001   0.009  -0.024
   0.007   0.009   0.002   0.020  -0.023  -0.025  -0.011  -0.007   0.013   0.007
   0.005  -0.027   0.021  -0.016   0.012   0.006  -0.015  -0.007  -0.009   0.014
   0.001   0.010  -0.012  -0.014   0.007   0.008   0.004   0.010   0.014  -0.003
  -0.008  -0.022   0.025   0.009   0.006   0.002  -0.042   0.003   0.006   0.012
   0.012  -0.020  -0.010   0.020  -0.006   0.014   0.002   0.005   0.005   0.003
   0.009   0.012  -0.018  -0.006   0.002  -0.009  -0.003   0.014   0.003  -0.006
   0.012  -0.021  -0.010  -0.010   0.008   0.009   0.010   0.002  -0.012   0.006
  -0.009   0.015   0.000   0.004   0.007   0.006  -0.010   0.013  -0.006   0.001
  -0.003   0.009  -0.003   0.009   0.000   0.003   0.008   0.009   0.003   0.000
   0.008  -0.001  -0.002   0.006   0.002   0.001   0.010   0.005   0.009  -0.002
  -0.004   0.005   0.008   0.006   0.007   0.006   0.008   0.004  -0.002  -0.008
  -0.007   0.008  -0.001   0.002   0.008   0.007   0.004  -0.003   0.009  -0.008
  -0.001   0.008   0.000  -0.001   0.012  -0.010  -0.007   0.012   0.002   0.011
  -0.003   0.002   0.006   0.007   0.004  -0.002   0.004   0.008   0.000   0.000
   0.000   0.000   0.007   0.006   0.005   0.010  -0.024  -0.013   0.011   0.001
   0.010  -0.004   0.004  -0.013  -0.010   0.007   0.004   0.009  -0.006  -0.031
  -0.028  -0.026   0.013  -0.017   0.002   0.010  -0.026  -0.022  -0.026  -0.000
   0.000   0.012  -0.012  -0.006   0.009   0.004   0.005  -0.027   0.006  -0.005
   0.011  -0.000  -0.001  -0.004   0.007   0.002  -0.003   0.010  -0.012  -0.024
   0.008  -0.016  -0.021  -0.005  -0.012   0.010  -0.018  -0.008   0.002   0.005
  -0.002   0.004  -0.003   0.009  -0.006   0.012  -0.025  -0.011   0.011   0.003
   0.010   0.004   0.011  -0.005   0.008   0.004   0.013  -0.015  -0.013   0.016
  -0.001   0.003  -0.002   0.006   0.008   0.008   0.008   0.008  -0.002   0.009
   0.008   0.003  -0.001  -0.003  -0.036   0.036   0.015   0.008   0.005  -0.003
  -0.017  -0.018   0.013  -0.008  -0.003  -0.020   0.011  -0.004  -0.001   0.011
  -0.011   0.013   0.001   0.006   0.010   0.012  -0.013   0.001   0.006   0.008
   0.014  -0.004  -0.017  -0.024  -0.002   0.003   0.011  -0.005   0.004  -0.004
   0.017  -0.021   0.007  -0.006  -0.001   0.009   0.011  -0.001   0.025   0.017
  -0.009   0.021  -0.013   0.010  -0.030  -0.004   0.007  -0.027  -0.026  -0.025
  -0.018   0.025   0.021  -0.012   0.005   0.001  -0.009  -0.009  -0.016  -0.013
   0.002   0.019   0.054   0.070   0.053  -0.009   0.020  -0.019  -0.091  -0.074
   0.028   0.009   0.050   0.010  -0.042   0.040  -0.018  -0.009   0.001   0.012
  -0.001  -0.028  -0.053   0.060   0.023   0.040   0.012  -0.069  -0.077   0.016
   0.066  -0.016   0.004  -0.015  -0.005  -0.004   0.024  -0.017  -0.051   0.009
   0.015   0.018   0.035   0.068   0.021  -0.024  -0.045  -0.034   0.020   0.093
   0.117   0.025   0.003   0.054  -0.081  -0.077  -0.006  -0.090  -0.029  -0.020
  -0.044   0.074   0.052  -0.002   0.081  -0.031   0.079   0.126  -0.047   0.031
  -0.034  -0.055  -0.100  -0.104  -0.006   0.009   0.112   0.106   0.120   0.008
  -0.072  -0.071  -0.126   0.008   0.035   0.008   0.111  -0.054  -0.051   0.042
  -0.020   0.043   0.084  -0.005  -0.057  -0.043   0.012   0.101  -0.025  -0.065
  -0.031  -0.049   0.015   0.049   0.091  -0.103  -0.068   0.054   0.142   0.189
   0.159  -0.109  -0.171  -0.056   0.043   0.007   0.029  -0.020  -0.051   0.098
  -0.137  -0.014   0.043   0.124   0.222   0.050   0.011  -0.045  -0.170  -0.177
  -0.101  -0.097  -0.176  -0.030  -0.048   0.019   0.140   0.032  -0.180  -0.049
  -0.185  -0.077   0.012  -0.146  -0.132  -0.185  -0.071  -0.050   0.073   0.057
   0.030   0.009  -0.116  -0.088  -0.127  -0.200  -0.084   0.025   0.034   0.151
  -0.105  -0.154  -0.053  -0.095  -0.017  -0.052   0.157   0.263   0.119   0.136
   0.053  -0.005   0.073   0.259   0.177   0.112   0.125  -0.043  -0.106  -0.107
  -0.022   0.082   0.135   0.240   0.256   0.143   0.144   0.066   0.046   0.056
   0.038  -0.101  -0.098  -0.069  -0.105  -0.159  -0.018   0.108   0.056   0.112
   0.081  -0.027  -0.046   0.090   0.045   0.004  -0.016   0.001   0.040  -0.021
  -0.060   0.065   0.032  -0.062  -0.079  -0.078  -0.140  -0.096  -0.111   0.045
   0.022   0.092   0.014   0.117   0.310   0.305   0.276   0.225  -0.000  -0.061
  -0.126  -0.174  -0.259  -0.282  -0.304  -0.280  -0.081  -0.119   0.018   0.134
   0.224   0.302   0.128  -0.003  -0.002  -0.093  -0.248  -0.213  -0.250  -0.204
  -0.087  -0.130  -0.047  -0.037  -0.040  -0.014  -0.116   0.168   0.181   0.035
   0.003  -0.079   0.030   0.102   0.140   0.208   0.028  -0.116  -0.094  -0.152
   0.007  -0.047   0.059   0.042   0.041   0.049  -0.045  -0.033  -0.014   0.086
   0.080   0.235   0.376   0.250   0.041  -0.274  -0.285  -0.076   0.165   0.125
  -0.035   0.104   0.064  -0.023  -0.072  -0.238  -0.112   0.048   0.043   0.035
   0.316   0.150  -0.065   0.029   0.179   0.164  -0.241  -0.486  -0.423  -0.553
  -0.239   0.076   0.242   0.243   0.004  -0.127  -0.079   0.106   0.232   0.358
   0.190   0.094  -0.069  -0.324  -0.151  -0.047  -0.161   0.033   0.366   0.545
   0.451   0.128  -0.142  -0.288  -0.179   0.050   0.183   0.151  -0.002  -0.466
  -0.494  -0.375  -0.123   0.009   0.170   0.346   0.309  -0.057  -0.273  -0.346
  -0.195   0.069   0.227   0.365   0.542   0.450   0.089  -0.299  -0.708  -0.569
   0.227   0.292   0.513   0.467  -0.014  -0.281  -0.263  -0.122  -0.027  -0.106
   0.008   0.321   0.221   0.116   0.059   0.196  -0.148  -0.570  -0.527  -0.452
  -0.191  -0.046   0.001   0.161  -0.041  -0.390  -0.364  -0.167   0.323   0.164
   0.295   0.442   0.482   0.672   0.092  -0.299  -0.583  -0.462  -0.099   0.300
   0.364   0.078  -0.213  -0.421  -0.268   0.128   0.225   0.071   0.124  -0.036
  -0.095  -0.108  -0.129   0.215   0.012  -0.146  -0.139   0.174   0.019   0.041
   0.220  -0.022  -0.210  -0.255  -0.468  -0.413  -0.369  -0.157  -0.105   0.063
   0.619   0.647   0.535  -0.052  -0.250   0.062   0.112   0.435   0.355  -0.197
  -0.478  -0.216   0.359   0.688   0.726   0.388  -0.028  -0.135   0.004   0.392
   0.388   0.108  -0.147  -0.151  -0.109  -0.258  -0.348  -0.193  -0.175  -0.371
  -0.067   0.018  -0.263  -0.339   0.067   0.117  -0.060   0.019   0.060   0.229
   0.400   0.423   0.377   0.033  -0.298  -0.322  -0.271  -0.330  -0.408  -0.301
  -0.011   0.211   0.500   0.476  -0.050  -0.313  -0.439  -0.053   0.298   0.635
   0.782   0.513   0.126  -0.262  -0.460  -0.634  -0.778  -0.566  -0.348  -0.308
  -0.088   0.165   0.099  -0.148  -0.041   0.194   0.178  -0.029  -0.452  -0.989
  -1.059  -0.600  -0.075   0.097  -0.092  -0.383  -0.261   0.302   0.541   0.786
