Corrected accelerogram 20160214_001343_SJFS_20 GNS Science
Site SJFS      42 20 04S  172 10 49E     Basalt file:  20160214_001408_SJFS
Springs Junction Fire Station
Instrument Basalt_2423
Resolution: 24-bit   Instr Period: 0.0050 s   Damping: 0.700
Accelerogram 20160214_001343_SJFS_20                 Processed 2016 February 22
11 km east of CHRISTCHURCH
2016 February 14         00:13:43 UT
Epicentre  43 29 50S 172 45 18E  Bearing S20E  Dist  137km  Depth    8km M  5.70
Number of points  6700    Duration 133.98 sec
Instrument corrected data at 0.020 sec intervals
Band-pass filter transition bands are .10-.25 Hz and 24.50-25.50 Hz
Component N00E  Horizontal Axis 1
Acceleration:  peak     18.7 mm/s/s at  63.14 sec     rms      2.4 mm/s/s
Velocity:      peak     2.73 mm/s   at  62.12 sec     rms     0.33 mm/s
Displacement:  peak    0.699 mm     at  62.48 sec     rms    0.123 mm
    2016       2      14       0      13     430       0       0    2016       2
      43      29      50     172      45      18       8       0      14       0
      42      20       4     172      10      49       0       0     160     137
   24800     250     250    6700    6700    6700       0       0      13   28000
   200.0    0.70    0.00   0.000  0.0000   0.000   0.000   1.000     0.0    0.00
  42.335 172.180   43.50  172.76    5.70    0.00    0.00    0.00      0.      0.
  124.00    5.00    5.00  133.98  0.0050  0.0200      0.      0.      0.  9806.6
    18.6   63.15     2.5   0.000      0.    18.7   63.14     2.4    22.0   2.530
    2.73   62.12    0.33    3.72   0.278    0.70   62.48    0.12    1.15   0.256
   0.100   0.150   0.250      0.      0.  24.500   1.000  25.500      0.      0.
  -0.001  -0.001  -0.001  -0.001  -0.001  -0.001  -0.001  -0.000  -0.000  -0.000
  -0.000  -0.000  -0.000  -0.000  -0.000  -0.000  -0.000  -0.000  -0.000  -0.000
  -0.000  -0.000  -0.000   0.000   0.000   0.000   0.000   0.000   0.000   0.000
   0.000   0.000   0.000   0.000   0.000   0.001   0.001   0.001   0.001   0.001
   0.001   0.001   0.001   0.001   0.001   0.001   0.001   0.001   0.001   0.001
   0.001   0.001   0.001   0.001   0.001   0.002   0.002   0.002   0.002   0.002
   0.002   0.002   0.002   0.002   0.002   0.002   0.002   0.002   0.002   0.002
   0.002   0.002   0.002   0.002   0.002   0.002   0.003   0.003   0.003   0.003
   0.003   0.003   0.003   0.003   0.003   0.003   0.003   0.003   0.003   0.003
   0.003   0.003   0.003   0.003   0.003   0.003   0.003   0.003   0.003   0.003
   0.003   0.003   0.003   0.003   0.003   0.003   0.003   0.003   0.003   0.003
   0.003   0.003   0.003   0.003   0.003   0.003   0.003   0.003   0.003   0.003
   0.003   0.003   0.003   0.003   0.003   0.003   0.003   0.003   0.003   0.003
   0.003   0.003   0.003   0.003   0.003   0.003   0.003   0.003   0.003   0.003
   0.002   0.002   0.002   0.002   0.002   0.002   0.002   0.002   0.002   0.002
   0.002   0.002   0.001   0.001   0.001   0.001   0.001   0.001   0.001   0.001
   0.000   0.000   0.000   0.000  -0.000  -0.000  -0.000  -0.000  -0.001  -0.001
  -0.001  -0.001  -0.001  -0.001  -0.002  -0.002  -0.002  -0.002  -0.003  -0.003
  -0.003  -0.003  -0.003  -0.003  -0.004  -0.004  -0.004  -0.004  -0.005  -0.005
  -0.005  -0.005  -0.006  -0.006  -0.006  -0.006  -0.006  -0.007  -0.007  -0.007
  -0.007  -0.008  -0.008  -0.008  -0.009  -0.009  -0.009  -0.009  -0.010  -0.010
  -0.010  -0.010  -0.011  -0.011  -0.011  -0.012  -0.012  -0.012  -0.013  -0.013
  -0.013  -0.013  -0.014  -0.014  -0.014  -0.015  -0.015  -0.015  -0.016  -0.016
  -0.016  -0.017  -0.017  -0.018  -0.017  -0.018  -0.018  -0.019  -0.018  -0.020
  -0.019  -0.021  -0.019  -0.022  -0.020  -0.023  -0.019  -0.025  -0.018  -0.031
   0.006  -0.011   0.028   0.041   0.025   0.005   0.006   0.043   0.022  -0.001
   0.038   0.036  -0.000  -0.021   0.025   0.053  -0.054   0.030   0.034   0.016
   0.023  -0.024   0.016   0.057   0.032   0.020  -0.011   0.035  -0.018  -0.002
   0.029   0.005   0.025  -0.024   0.034   0.048  -0.015   0.007   0.014  -0.008
  -0.003   0.008  -0.012   0.001   0.003   0.019  -0.037   0.040   0.027  -0.032
   0.022   0.004   0.022   0.019   0.021   0.010   0.042  -0.028  -0.002   0.019
  -0.017  -0.012   0.028   0.002   0.010  -0.018   0.015  -0.010   0.016  -0.014
   0.032   0.011   0.006   0.004  -0.015   0.031   0.008  -0.017  -0.027   0.047
   0.045  -0.034  -0.020   0.063   0.004  -0.038  -0.008   0.020  -0.007  -0.000
  -0.032  -0.009  -0.005   0.017  -0.022   0.026   0.019  -0.030   0.017   0.012
  -0.008  -0.011  -0.021   0.031   0.041  -0.018  -0.066   0.032   0.022  -0.012
  -0.019  -0.030   0.038   0.027  -0.034  -0.015   0.079  -0.013  -0.031   0.024
   0.047  -0.035  -0.042   0.007   0.026  -0.009   0.028  -0.031  -0.005  -0.001
   0.015   0.004   0.040  -0.006  -0.055   0.022   0.051  -0.030  -0.044   0.043
   0.008  -0.031  -0.024   0.004   0.005  -0.006  -0.032   0.006  -0.001  -0.024
  -0.028   0.003  -0.020  -0.011  -0.004   0.020  -0.007   0.019  -0.028   0.020
  -0.002   0.016   0.014  -0.012  -0.013  -0.030   0.028   0.000  -0.008   0.020
  -0.014   0.031  -0.020   0.004   0.026  -0.014  -0.006   0.017   0.001   0.003
  -0.019  -0.013   0.011  -0.024   0.003  -0.042   0.001   0.019   0.001   0.011
  -0.032  -0.022  -0.026  -0.022   0.001   0.002   0.033  -0.025  -0.008   0.003
   0.011  -0.025  -0.005   0.024  -0.034  -0.029  -0.001  -0.013   0.019   0.008
   0.024  -0.025  -0.030   0.014  -0.006   0.026   0.048  -0.049  -0.000   0.055
  -0.029  -0.014   0.020   0.008   0.006   0.001  -0.027   0.020   0.022   0.011
   0.004  -0.040  -0.003   0.024  -0.014  -0.014   0.029   0.023   0.002  -0.003
   0.008   0.039   0.018  -0.018   0.005   0.023  -0.028  -0.040  -0.007  -0.023
  -0.003  -0.016   0.005  -0.004  -0.008  -0.008   0.039  -0.010  -0.023   0.010
   0.025  -0.035  -0.020   0.001  -0.009  -0.035   0.004   0.012  -0.005  -0.011
   0.002  -0.023   0.047  -0.036  -0.029   0.041  -0.050  -0.001  -0.022  -0.009
   0.029   0.008   0.011   0.045   0.019  -0.013   0.023   0.016  -0.015   0.020
  -0.032  -0.006  -0.001  -0.015   0.009  -0.003  -0.038  -0.001  -0.017   0.009
   0.016   0.019   0.018   0.032  -0.027   0.002   0.002  -0.001  -0.006  -0.002
   0.031  -0.010  -0.009  -0.007   0.025   0.012  -0.010   0.028  -0.038   0.006
   0.026  -0.001  -0.011  -0.006   0.034  -0.010  -0.023  -0.004  -0.023  -0.002
   0.052   0.018  -0.036   0.014  -0.004  -0.025   0.016  -0.006  -0.007  -0.003
   0.022   0.013   0.007   0.011   0.001   0.017   0.003   0.009  -0.020   0.022
   0.022  -0.025  -0.003  -0.040   0.029   0.006  -0.002   0.029  -0.039   0.017
   0.024  -0.005   0.006  -0.012  -0.009   0.035  -0.012   0.052  -0.030   0.002
  -0.002  -0.053  -0.001  -0.005  -0.003   0.016  -0.015   0.027  -0.031   0.006
   0.026  -0.003   0.008  -0.004   0.020  -0.034   0.005  -0.014   0.008  -0.020
  -0.020   0.036  -0.004  -0.020  -0.004   0.004  -0.006   0.005   0.032   0.003
   0.020  -0.018   0.024  -0.022  -0.028  -0.003  -0.006   0.009  -0.003   0.004
  -0.005   0.035  -0.002  -0.004  -0.013  -0.004   0.007   0.018  -0.022   0.022
   0.040   0.006  -0.020   0.012   0.006  -0.019  -0.018  -0.026  -0.009   0.016
   0.038  -0.044   0.017   0.003  -0.002   0.006   0.004  -0.019  -0.018   0.028
   0.005  -0.011   0.003  -0.022   0.021  -0.014   0.042  -0.019   0.007   0.011
  -0.004  -0.031   0.032   0.012  -0.022   0.032  -0.045   0.006   0.001  -0.004
  -0.004   0.064  -0.024   0.020   0.008  -0.007   0.020  -0.006   0.009   0.020
  -0.007  -0.025  -0.009   0.032  -0.036   0.010  -0.002   0.018   0.012  -0.026
   0.017  -0.024   0.007   0.014  -0.002  -0.044   0.018   0.017   0.010   0.014
  -0.003  -0.027  -0.005  -0.025   0.019  -0.020  -0.030   0.014   0.006   0.006
   0.011  -0.023   0.010  -0.019   0.003  -0.006   0.004  -0.027  -0.011  -0.013
  -0.004  -0.010   0.006   0.011  -0.022   0.006  -0.011  -0.034  -0.015   0.021
   0.009   0.017  -0.014   0.003   0.007   0.010   0.004   0.019   0.001   0.021
  -0.020  -0.011  -0.013  -0.025   0.040  -0.010   0.012  -0.006   0.014  -0.011
   0.007  -0.003   0.020   0.012  -0.012  -0.005  -0.002   0.030   0.032  -0.028
  -0.011   0.002  -0.026  -0.000   0.028  -0.020  -0.019  -0.002   0.042  -0.042
   0.022  -0.012   0.011   0.042  -0.014  -0.011  -0.003  -0.011   0.008  -0.042
   0.031   0.020  -0.030   0.029  -0.024  -0.007  -0.032   0.020   0.040  -0.012
  -0.009   0.008   0.039  -0.013  -0.014   0.015  -0.014   0.005  -0.007  -0.033
   0.018   0.013  -0.004   0.010  -0.002  -0.017  -0.019   0.009  -0.029  -0.016
   0.023  -0.011  -0.005   0.005  -0.007  -0.031   0.021  -0.013  -0.018  -0.001
  -0.021  -0.007  -0.004  -0.011  -0.014   0.021  -0.022   0.022  -0.007  -0.007
  -0.028   0.009  -0.001   0.017   0.033  -0.025  -0.026  -0.004   0.013  -0.007
   0.003  -0.027  -0.003   0.014   0.012   0.026   0.001  -0.002   0.011  -0.007
   0.017  -0.012   0.029  -0.016   0.037  -0.012   0.021  -0.014  -0.026   0.015
   0.004   0.006   0.014   0.023  -0.022   0.002  -0.033  -0.019   0.021   0.015
   0.015   0.002   0.019   0.029   0.015   0.020   0.004   0.043  -0.009   0.018
   0.014   0.018  -0.019   0.011  -0.023   0.012   0.029   0.015  -0.012  -0.009
  -0.005   0.024   0.007   0.004   0.020  -0.010  -0.007   0.004  -0.024   0.025
   0.027  -0.021   0.003   0.009   0.003  -0.009   0.008  -0.026   0.014  -0.012
  -0.028   0.015   0.032  -0.029  -0.017   0.004  -0.007  -0.022   0.001   0.014
  -0.031   0.009   0.015  -0.023   0.002  -0.018  -0.002   0.005  -0.032  -0.000
   0.004  -0.011   0.041   0.026  -0.036   0.021   0.012   0.016  -0.033   0.000
  -0.032   0.018   0.005  -0.032  -0.018   0.000   0.030  -0.004  -0.010  -0.015
  -0.001  -0.011   0.001  -0.017   0.023   0.005   0.003   0.002  -0.022  -0.002
   0.023  -0.025   0.014   0.047   0.032  -0.009   0.014   0.006  -0.022   0.012
   0.026  -0.010   0.002   0.032   0.004  -0.021  -0.029   0.006   0.005   0.005
  -0.019  -0.017  -0.011   0.020  -0.028   0.007  -0.033   0.026  -0.005  -0.021
   0.010  -0.018  -0.022  -0.016  -0.023  -0.002   0.011  -0.018   0.007   0.002
   0.016  -0.007  -0.017   0.034  -0.010  -0.036  -0.020  -0.009   0.020   0.011
   0.016   0.007  -0.001   0.013   0.012  -0.018  -0.017  -0.017   0.007  -0.020
  -0.004  -0.017   0.010  -0.018   0.010  -0.000   0.010  -0.001  -0.027  -0.001
  -0.006   0.007  -0.014   0.036  -0.015   0.015   0.021  -0.001   0.019   0.010
   0.001   0.019   0.002  -0.022   0.019   0.026   0.015  -0.027   0.013  -0.029
  -0.016  -0.009  -0.004  -0.001   0.020  -0.023  -0.004  -0.020   0.014  -0.015
  -0.008   0.000   0.011   0.011  -0.015  -0.003  -0.013   0.019  -0.007  -0.030
   0.025   0.007  -0.025   0.004   0.014   0.031   0.019  -0.000  -0.020   0.001
   0.002   0.015  -0.003  -0.014  -0.003   0.010   0.001   0.006  -0.017   0.013
   0.019  -0.013   0.001  -0.010   0.004  -0.012   0.010  -0.006  -0.013   0.003
  -0.001  -0.010   0.006   0.001   0.020  -0.012  -0.023  -0.001  -0.012   0.030
   0.026   0.023   0.002   0.024   0.004   0.042   0.006   0.000   0.019   0.016
  -0.003   0.006   0.032  -0.006  -0.008  -0.005  -0.016  -0.022   0.007   0.005
  -0.022   0.012  -0.021   0.022   0.032  -0.003  -0.024   0.031  -0.017   0.002
  -0.007   0.031  -0.006  -0.032   0.012  -0.016  -0.031   0.004  -0.007   0.018
   0.023  -0.031   0.046  -0.028   0.016   0.007  -0.030  -0.005   0.020  -0.003
  -0.016  -0.024   0.016  -0.002  -0.019   0.015  -0.007   0.017   0.029  -0.016
   0.008   0.013  -0.031  -0.013  -0.026  -0.001  -0.019   0.008  -0.012  -0.025
  -0.009   0.022   0.002  -0.021  -0.013   0.020   0.028  -0.056   0.034   0.069
  -0.009   0.007  -0.029  -0.025  -0.006  -0.003  -0.001   0.042   0.014  -0.008
  -0.021  -0.012  -0.002  -0.020  -0.002  -0.018   0.026  -0.002  -0.015   0.017
  -0.010   0.010   0.050  -0.012   0.020   0.006   0.016  -0.010  -0.011   0.036
  -0.035   0.046  -0.010  -0.022  -0.007  -0.014   0.012  -0.017  -0.004   0.053
  -0.006  -0.025   0.019   0.006   0.003  -0.015   0.035  -0.014  -0.005   0.009
   0.007   0.008  -0.024  -0.025   0.025  -0.005   0.006  -0.001  -0.026  -0.015
  -0.017  -0.000   0.014   0.012  -0.018  -0.020  -0.002  -0.012   0.033  -0.018
   0.017   0.009  -0.011  -0.020  -0.010  -0.016  -0.009  -0.025   0.016   0.010
  -0.017  -0.010  -0.007   0.008  -0.032   0.016   0.002  -0.014   0.003  -0.011
  -0.020   0.032   0.026   0.017  -0.010  -0.015   0.008  -0.032   0.024  -0.004
   0.041   0.021  -0.021  -0.007   0.018   0.001  -0.013   0.020  -0.003  -0.013
  -0.021  -0.013   0.001  -0.019   0.030   0.007  -0.013  -0.024   0.025  -0.010
  -0.022   0.010  -0.018   0.023   0.006  -0.025   0.020   0.019  -0.005   0.011
   0.018  -0.005  -0.008   0.020   0.005   0.031  -0.005  -0.013   0.004  -0.013
  -0.014   0.030   0.014  -0.035   0.016   0.023   0.020  -0.025  -0.007   0.025
  -0.003   0.011  -0.006  -0.027   0.034   0.005  -0.019   0.009   0.032   0.004
  -0.001   0.029  -0.017   0.026   0.034  -0.028   0.010  -0.018  -0.002  -0.039
   0.017  -0.000  -0.006   0.001  -0.017  -0.022  -0.007  -0.002  -0.012   0.025
  -0.004  -0.027  -0.015   0.016   0.017   0.053  -0.039   0.005   0.007  -0.023
   0.012   0.020   0.001  -0.003   0.000  -0.004  -0.022   0.013   0.019  -0.036
  -0.010  -0.024   0.002   0.031  -0.015  -0.007  -0.008  -0.016   0.022   0.001
   0.013   0.001  -0.013  -0.017  -0.004   0.028   0.007  -0.035   0.039  -0.030
  -0.005   0.027  -0.025  -0.016  -0.004  -0.007  -0.021  -0.024  -0.020   0.036
  -0.015  -0.032   0.006   0.011  -0.033   0.015  -0.001   0.014   0.009  -0.004
  -0.027   0.019  -0.021   0.010  -0.011  -0.004  -0.017  -0.010   0.024   0.014
  -0.007   0.005   0.006  -0.009   0.012  -0.015   0.017   0.014   0.014  -0.024
   0.051  -0.032   0.010  -0.030   0.012   0.012  -0.020  -0.027  -0.020  -0.026
   0.019   0.015   0.012   0.021  -0.024   0.006   0.026   0.015   0.026   0.018
   0.001   0.040  -0.029   0.012  -0.008  -0.000   0.031   0.013  -0.014   0.018
  -0.007   0.005   0.027  -0.017   0.028   0.016  -0.015   0.012  -0.017  -0.023
   0.051  -0.010  -0.012   0.035  -0.003   0.004  -0.030   0.015   0.050  -0.007
   0.002  -0.018   0.007  -0.013  -0.002  -0.023  -0.012  -0.009   0.016   0.023
   0.006   0.005  -0.001   0.005  -0.002   0.022  -0.023   0.035  -0.009   0.005
   0.006   0.035   0.004  -0.007   0.003  -0.015   0.013   0.022  -0.014   0.003
   0.002   0.024  -0.010   0.023  -0.003  -0.018  -0.022  -0.020  -0.020  -0.026
   0.008  -0.012  -0.011  -0.021  -0.011  -0.019   0.019   0.001   0.020   0.033
  -0.000  -0.020  -0.021  -0.005   0.011   0.003  -0.021  -0.008  -0.014  -0.017
   0.020   0.031  -0.006   0.000  -0.023   0.012  -0.029  -0.034   0.009  -0.019
  -0.008   0.002  -0.018  -0.015  -0.018   0.021   0.020   0.011  -0.014  -0.009
  -0.013   0.020  -0.027  -0.014  -0.015   0.008  -0.005  -0.013   0.013  -0.002
  -0.019   0.009   0.000  -0.026   0.002  -0.023   0.020   0.020  -0.001  -0.020
   0.011  -0.008  -0.011  -0.001  -0.015   0.008   0.006   0.014  -0.003  -0.016
   0.012  -0.015   0.014   0.019  -0.013  -0.005  -0.012   0.043   0.000  -0.026
   0.029  -0.018  -0.026   0.020  -0.021   0.004   0.016  -0.006  -0.020   0.002
   0.010   0.005   0.019  -0.009  -0.012   0.027  -0.007   0.005  -0.021   0.011
  -0.009  -0.007   0.003   0.014   0.004   0.012   0.029  -0.016  -0.017  -0.008
   0.006  -0.007  -0.004   0.007  -0.004  -0.014   0.045   0.018  -0.018  -0.010
   0.020  -0.007   0.006   0.036  -0.006  -0.014   0.013   0.027  -0.026   0.006
  -0.014   0.043   0.013   0.007   0.004   0.031  -0.003  -0.011  -0.018   0.002
  -0.008  -0.003   0.013   0.006  -0.022   0.012   0.000   0.008   0.008   0.004
  -0.002  -0.003  -0.015   0.010   0.009   0.016  -0.015  -0.007  -0.013   0.018
  -0.011  -0.012  -0.011   0.003  -0.014  -0.006   0.010   0.009   0.008   0.026
   0.015   0.009  -0.012   0.012   0.010   0.000  -0.005   0.016   0.019  -0.001
  -0.015   0.011   0.007  -0.019  -0.007  -0.004   0.006  -0.023   0.002  -0.005
   0.014   0.011   0.011  -0.008   0.026  -0.014   0.006   0.004  -0.019  -0.004
  -0.012  -0.002  -0.011   0.004  -0.017  -0.004  -0.015   0.003   0.053   0.010
  -0.025   0.004  -0.007  -0.005  -0.014  -0.011   0.014  -0.007  -0.013  -0.014
  -0.001  -0.012   0.002   0.008  -0.001  -0.008   0.020  -0.002  -0.023   0.003
  -0.013  -0.006  -0.006  -0.014   0.023   0.005  -0.022   0.013   0.011  -0.004
  -0.010  -0.006  -0.007  -0.006  -0.016   0.002  -0.004   0.011   0.009  -0.016
  -0.003  -0.015   0.003   0.006  -0.016  -0.004  -0.013   0.013   0.003  -0.008
  -0.010  -0.003   0.014  -0.006  -0.007  -0.004  -0.003  -0.005  -0.009  -0.009
   0.001   0.030  -0.013  -0.004  -0.017   0.009   0.009   0.001   0.015  -0.022
  -0.001  -0.015  -0.007   0.011   0.008  -0.011   0.008   0.000  -0.014  -0.006
   0.015  -0.015   0.038   0.009  -0.013  -0.008  -0.005  -0.008  -0.014  -0.009
   0.005   0.026   0.003  -0.006   0.005  -0.013   0.018   0.025  -0.015   0.018
   0.006  -0.011   0.016  -0.000   0.024  -0.000  -0.014  -0.008  -0.015   0.014
   0.010   0.007   0.006   0.019  -0.016   0.021   0.038   0.004  -0.016  -0.004
  -0.006  -0.004  -0.000  -0.003  -0.004  -0.001  -0.005  -0.010  -0.002   0.001
   0.017  -0.002   0.007   0.015  -0.010   0.015   0.028   0.018   0.012  -0.003
   0.001   0.000   0.019   0.018   0.013   0.024   0.046  -0.007   0.024   0.010
  -0.015   0.012  -0.012   0.002   0.011  -0.012  -0.007  -0.003   0.004  -0.013
   0.004   0.036   0.016  -0.007  -0.005  -0.016   0.022   0.041  -0.007   0.014
  -0.020   0.016   0.032  -0.010   0.004  -0.009   0.008  -0.011   0.005   0.012
  -0.012  -0.002  -0.006  -0.009   0.004  -0.007  -0.004   0.012  -0.006   0.031
   0.004  -0.012  -0.005   0.001  -0.015   0.013   0.019  -0.018   0.014   0.022
   0.006   0.005   0.017   0.011   0.033  -0.009  -0.009  -0.009   0.001   0.003
  -0.014   0.003  -0.022  -0.000   0.010  -0.012  -0.005  -0.003  -0.008  -0.001
   0.011  -0.008   0.022  -0.023   0.012  -0.002   0.009   0.008  -0.025  -0.004
  -0.022   0.008   0.007  -0.022   0.006  -0.016  -0.013   0.014  -0.017   0.002
  -0.007  -0.020  -0.005  -0.006   0.008   0.027  -0.024   0.004  -0.001  -0.015
  -0.008  -0.030   0.004   0.001  -0.023  -0.018  -0.027  -0.020  -0.026  -0.021
  -0.027  -0.021  -0.027  -0.017  -0.021  -0.026  -0.018  -0.013  -0.019  -0.029
  -0.001  -0.006  -0.033  -0.011   0.003   0.002   0.009  -0.017  -0.019  -0.017
  -0.020  -0.012  -0.002  -0.047  -0.037   0.002  -0.021  -0.026  -0.001  -0.010
  -0.031  -0.015  -0.014  -0.001  -0.029  -0.025  -0.027  -0.017  -0.008  -0.012
  -0.030  -0.015  -0.024   0.022  -0.015  -0.014  -0.026  -0.058  -0.015   0.003
   0.015  -0.024  -0.014  -0.003  -0.034  -0.008  -0.007  -0.022  -0.025   0.015
  -0.005  -0.030  -0.025  -0.026  -0.026  -0.020  -0.021  -0.023   0.008  -0.014
  -0.019  -0.020  -0.012   0.010  -0.034  -0.011  -0.000  -0.000  -0.018  -0.011
  -0.016  -0.019  -0.013  -0.015  -0.008  -0.020  -0.022  -0.014  -0.014  -0.005
  -0.020  -0.015  -0.023  -0.002   0.019  -0.013  -0.003  -0.024  -0.007  -0.010
   0.020  -0.028   0.015   0.031   0.031  -0.009  -0.012   0.003   0.002  -0.010
   0.002   0.015   0.005   0.026   0.002   0.016   0.093   0.062   0.028   0.094
   0.101   0.067   0.085   0.092   0.091   0.108   0.107   0.093   0.113   0.109
   0.106   0.161   0.075   0.070   0.072   0.034   0.084   0.095   0.079   0.092
   0.122   0.029  -0.046  -0.037  -0.054   0.038   0.071   0.153   0.238   0.300
   0.293   0.153   0.050  -0.014  -0.110  -0.112  -0.021   0.047   0.161   0.208
   0.260   0.238   0.192   0.098  -0.019   0.047   0.008   0.033   0.196   0.216
   0.242   0.106  -0.001   0.042  -0.113  -0.081   0.034   0.022  -0.067  -0.160
  -0.288  -0.224  -0.131   0.086   0.282   0.290   0.144   0.087  -0.027   0.028
  -0.061   0.057   0.436   0.621   0.532   0.329  -0.085  -0.559  -0.741  -0.462
