Corrected accelerogram 20160214_001343_GLWS_20 GNS Science
Site GLWS      42 35 39S  172 30 40E     Etna file:  20160214_001403_GLWS
Glyn Wye
Instrument Etna_1391
Resolution: 18-bit   Instr Period: 0.0050 s   Damping: 0.700
Accelerogram 20160214_001343_GLWS_20                 Processed 2016 February 22
11 km east of CHRISTCHURCH
2016 February 14         00:13:43 UT
Epicentre  43 29 50S 172 45 18E  Bearing S11E  Dist  102km  Depth    8km M  5.70
Number of points  5900    Duration 117.98 sec
Instrument corrected data at 0.020 sec intervals
Band-pass filter transition bands are .10-.25 Hz and 24.50-25.50 Hz
Component N00E  Horizontal Axis 1
Acceleration:  peak    -90.1 mm/s/s at  66.42 sec     rms     10.6 mm/s/s
Velocity:      peak    10.05 mm/s   at  67.90 sec     rms     1.38 mm/s
Displacement:  peak   -2.102 mm     at  70.40 sec     rms    0.384 mm
    2016       2      14       0      13     430       0       0    2016       2
      43      29      50     172      45      18       8       0      14       0
      42      35      39     172      30      40       0       0     169     102
   21600     250     250    5900    5900    5900       0       0      13   13000
   200.0    0.70    0.00   0.000  0.0000   0.000   0.000   1.000     0.0    0.00
  42.594 172.511   43.50  172.76    5.70    0.00    0.00    0.00      0.      0.
  108.00    5.00    5.00  117.98  0.0050  0.0200      0.      0.      0.  9806.6
   -91.0   66.43    11.1   0.000      0.   -90.1   66.42    10.6   101.9   1.370
   10.05   67.90    1.38   13.51   0.705   -2.10   70.40    0.38    3.61   0.317
   0.100   0.150   0.250      0.      0.  24.500   1.000  25.500      0.      0.
   0.000   0.000   0.000   0.000   0.000   0.000   0.000   0.000   0.000   0.000
   0.000  -0.000  -0.000  -0.000  -0.000  -0.000  -0.000  -0.000  -0.000  -0.000
  -0.000  -0.000  -0.000  -0.000  -0.000  -0.000  -0.000  -0.000  -0.000  -0.000
  -0.000  -0.000  -0.000  -0.000  -0.000  -0.000  -0.000  -0.000  -0.000  -0.000
  -0.001  -0.000  -0.001  -0.001  -0.001  -0.001  -0.001  -0.001  -0.001  -0.001
  -0.001  -0.001  -0.001  -0.001  -0.001  -0.001  -0.001  -0.001  -0.001  -0.001
  -0.001  -0.001  -0.001  -0.001  -0.001  -0.001  -0.001  -0.001  -0.001  -0.001
  -0.001  -0.001  -0.001  -0.001  -0.001  -0.001  -0.001  -0.001  -0.001  -0.001
  -0.001  -0.001  -0.001  -0.001  -0.001  -0.001  -0.001  -0.001  -0.001  -0.001
  -0.001  -0.001  -0.001  -0.001  -0.001  -0.001  -0.001  -0.001  -0.001  -0.001
  -0.001  -0.001  -0.001  -0.001  -0.001  -0.001  -0.001  -0.001  -0.001  -0.001
  -0.001  -0.001  -0.001  -0.001  -0.001  -0.001  -0.001  -0.001  -0.001  -0.001
  -0.001  -0.001  -0.001  -0.001  -0.001  -0.001  -0.001  -0.001  -0.001  -0.000
  -0.001  -0.000  -0.001  -0.000  -0.001  -0.000  -0.001  -0.000  -0.001  -0.000
  -0.000  -0.000  -0.000   0.000  -0.000   0.000  -0.000   0.000  -0.000   0.000
  -0.000   0.000   0.000   0.001   0.000   0.001   0.000   0.001   0.000   0.001
   0.000   0.001   0.001   0.001   0.001   0.001   0.001   0.001   0.001   0.001
   0.001   0.002   0.001   0.002   0.001   0.002   0.001   0.002   0.002   0.002
   0.002   0.002   0.002   0.002   0.002   0.002   0.002   0.003   0.002   0.003
   0.002   0.003   0.003   0.003   0.003   0.003   0.003   0.003   0.003   0.003
   0.003   0.004   0.003   0.004   0.004   0.004   0.004   0.004   0.004   0.004
   0.004   0.004   0.004   0.005   0.004   0.005   0.004   0.005   0.005   0.005
   0.005   0.005   0.005   0.005   0.005   0.006   0.005   0.006   0.005   0.006
   0.005   0.006   0.005   0.006   0.006   0.007   0.006   0.007   0.006   0.007
   0.006   0.007   0.006   0.007   0.006   0.007   0.007   0.007   0.008   0.004
  -0.043   0.008   0.037  -0.051  -0.049   0.021   0.014   0.040  -0.071   0.032
   0.035  -0.035  -0.022   0.045  -0.067   0.016  -0.033   0.041  -0.058  -0.064
  -0.011   0.070  -0.040   0.015  -0.023  -0.001  -0.007  -0.033  -0.021   0.020
   0.044  -0.001  -0.056   0.031   0.024  -0.069  -0.022  -0.075  -0.032  -0.001
  -0.004   0.012   0.101   0.008   0.018   0.085  -0.027  -0.013  -0.018   0.014
  -0.041   0.028   0.001   0.004   0.020  -0.034   0.005  -0.037   0.020  -0.081
   0.006  -0.045  -0.004  -0.032   0.019  -0.054   0.003   0.037  -0.018  -0.028
   0.040  -0.001  -0.048  -0.013  -0.020  -0.059   0.022  -0.013   0.042   0.004
  -0.015  -0.034   0.041  -0.005  -0.024  -0.027   0.025   0.010  -0.031  -0.012
   0.035  -0.009   0.034  -0.023  -0.022  -0.038   0.022   0.013   0.032  -0.052
  -0.037  -0.019  -0.018   0.032   0.001  -0.027   0.047   0.005   0.035   0.037
  -0.012   0.044   0.015  -0.029  -0.038  -0.006  -0.034  -0.086  -0.004   0.095
   0.041  -0.031  -0.002  -0.020  -0.099   0.070   0.054   0.053   0.025   0.058
   0.045   0.057  -0.015  -0.027   0.001   0.000   0.009  -0.020  -0.005   0.007
   0.012   0.030   0.003   0.063  -0.013   0.032   0.013   0.033   0.070   0.039
   0.019  -0.026   0.033   0.025  -0.025   0.069  -0.043  -0.039   0.024   0.073
   0.002   0.018  -0.001   0.054  -0.004  -0.021  -0.042   0.012   0.011   0.051
  -0.008  -0.016   0.014  -0.038   0.002  -0.060   0.020  -0.010  -0.014  -0.022
  -0.067  -0.018   0.004  -0.014   0.048   0.005   0.009   0.003   0.034   0.054
   0.041  -0.014   0.039  -0.030   0.004  -0.026   0.046   0.009   0.036   0.010
   0.042  -0.030  -0.041  -0.006  -0.043  -0.009   0.046  -0.018   0.063  -0.007
  -0.021  -0.025   0.000  -0.046   0.005  -0.057   0.018   0.037  -0.060  -0.061
   0.040   0.052  -0.082  -0.023  -0.045  -0.009  -0.010  -0.060  -0.015  -0.060
   0.019   0.013  -0.015  -0.015   0.006   0.005  -0.043   0.013   0.013   0.006
   0.012  -0.004   0.005  -0.022  -0.053  -0.001  -0.009  -0.001  -0.061  -0.015
   0.072   0.028  -0.045  -0.010  -0.080  -0.075  -0.087  -0.004  -0.034   0.023
   0.016  -0.014  -0.029  -0.003  -0.034   0.018  -0.017   0.003  -0.004  -0.070
   0.019  -0.020   0.003   0.044   0.048   0.013  -0.040   0.006   0.041  -0.018
  -0.018  -0.034  -0.026   0.040   0.035   0.053   0.023   0.039   0.022  -0.017
   0.032  -0.002   0.063   0.005   0.038  -0.008  -0.006  -0.014   0.041   0.066
   0.032  -0.062   0.028   0.006   0.000   0.011   0.051   0.026   0.062  -0.041
   0.022  -0.014  -0.052   0.041   0.053  -0.048   0.008  -0.019  -0.030  -0.024
   0.006  -0.010   0.010  -0.055   0.045  -0.046   0.006  -0.014   0.030  -0.030
  -0.006   0.005  -0.060  -0.004  -0.007   0.022   0.023   0.069   0.046  -0.003
   0.020   0.027   0.035  -0.042   0.009   0.023   0.010   0.021   0.001   0.000
   0.013  -0.029   0.012  -0.038  -0.024   0.037  -0.033  -0.041   0.051   0.018
  -0.001   0.016   0.042   0.030  -0.032  -0.016  -0.008   0.037  -0.030  -0.017
  -0.047   0.028  -0.012  -0.015   0.055  -0.052  -0.019   0.052   0.001   0.029
   0.034  -0.006  -0.038  -0.048  -0.051   0.046  -0.034   0.066   0.022   0.045
  -0.027   0.033   0.006   0.098   0.068   0.026  -0.023  -0.076  -0.036  -0.028
   0.054  -0.026  -0.071  -0.031  -0.016   0.004   0.083  -0.037  -0.029  -0.010
   0.018   0.030  -0.020   0.016  -0.013   0.024  -0.045   0.022  -0.003   0.031
  -0.005  -0.001   0.026   0.008   0.015  -0.016  -0.045  -0.014  -0.022   0.040
  -0.052  -0.006  -0.029   0.015  -0.069   0.042  -0.017   0.016   0.050  -0.041
   0.050   0.068  -0.014  -0.002   0.041  -0.014  -0.020  -0.017  -0.008   0.075
  -0.011   0.029  -0.036  -0.007  -0.018   0.037  -0.025  -0.070   0.011   0.014
  -0.023  -0.013  -0.014   0.008   0.001  -0.028  -0.003  -0.060  -0.043  -0.081
   0.058  -0.063  -0.022  -0.006   0.000   0.026   0.026   0.008   0.008   0.014
   0.004   0.021  -0.011  -0.006   0.003  -0.007   0.017  -0.001  -0.053  -0.007
  -0.035  -0.016  -0.030  -0.033   0.000  -0.032  -0.019  -0.024   0.031  -0.069
  -0.008   0.007   0.010   0.031   0.010   0.017  -0.029   0.015  -0.028  -0.069
  -0.049   0.006  -0.001   0.062   0.033   0.005  -0.020  -0.051   0.009   0.043
   0.067  -0.005   0.003   0.106  -0.025   0.002   0.012   0.010   0.023   0.004
   0.059  -0.032  -0.048   0.031   0.013   0.021  -0.020  -0.005   0.032  -0.017
  -0.000  -0.009  -0.056  -0.036  -0.053   0.033   0.040  -0.023  -0.026  -0.006
   0.051   0.065   0.028   0.004   0.013   0.006  -0.005   0.004   0.054   0.026
   0.007   0.027   0.015   0.019  -0.012   0.012  -0.008  -0.043  -0.017   0.014
  -0.020  -0.026   0.040  -0.040  -0.042   0.070   0.014   0.008  -0.009  -0.009
   0.036  -0.039   0.026  -0.020   0.046  -0.029   0.022   0.017   0.013   0.002
   0.071   0.020  -0.022  -0.050   0.065   0.070  -0.053   0.027   0.023  -0.037
   0.034  -0.029   0.010  -0.054  -0.026  -0.024  -0.039   0.028  -0.014   0.042
  -0.024  -0.003   0.014  -0.024   0.011   0.023   0.026   0.048   0.011  -0.053
  -0.014   0.001   0.040  -0.047  -0.007  -0.065  -0.025   0.040   0.018  -0.033
  -0.019   0.031   0.013  -0.008   0.033   0.035  -0.029   0.020  -0.007   0.025
  -0.033   0.008  -0.097   0.011  -0.013  -0.050  -0.044  -0.009  -0.048   0.054
  -0.006  -0.038  -0.001   0.041   0.012  -0.024  -0.032   0.008  -0.025   0.033
   0.047   0.018   0.032  -0.010   0.011   0.039   0.004   0.021   0.065  -0.011
   0.024  -0.053   0.054   0.058   0.018   0.042   0.028   0.064   0.055  -0.018
  -0.088  -0.029  -0.021  -0.024   0.031   0.014  -0.045   0.030  -0.013  -0.014
  -0.031  -0.028   0.018  -0.035   0.036  -0.019  -0.057   0.046   0.030   0.025
  -0.003  -0.011  -0.021  -0.032  -0.026  -0.010  -0.027  -0.042  -0.041  -0.060
   0.023  -0.020  -0.015  -0.046   0.043  -0.038   0.046  -0.049   0.042   0.050
  -0.057   0.002  -0.061  -0.011   0.027  -0.031  -0.064   0.031  -0.022  -0.016
   0.002  -0.005   0.019   0.047  -0.042  -0.056  -0.043   0.035  -0.021  -0.022
   0.036   0.056  -0.004  -0.019   0.051   0.063   0.019   0.008   0.039   0.051
  -0.038  -0.002  -0.030   0.015  -0.010   0.048  -0.000   0.083   0.008  -0.060
  -0.048  -0.033   0.019   0.038  -0.095  -0.012  -0.014  -0.059   0.074   0.028
  -0.022   0.022   0.080  -0.073   0.007   0.026   0.033   0.082   0.012  -0.040
  -0.009   0.016  -0.020  -0.016  -0.037  -0.036   0.094  -0.024  -0.002   0.021
  -0.029  -0.045  -0.035  -0.017  -0.041   0.057   0.051   0.018   0.035   0.030
  -0.033  -0.090  -0.056  -0.008   0.047   0.006   0.052   0.018  -0.003  -0.089
  -0.026   0.063   0.048  -0.001   0.035  -0.055   0.011   0.085   0.063   0.012
   0.020  -0.011  -0.035   0.054  -0.041  -0.008   0.036   0.006   0.001   0.006
  -0.051  -0.023   0.001  -0.001  -0.038  -0.025  -0.008  -0.047   0.028   0.037
   0.004  -0.007   0.027  -0.028  -0.005   0.016  -0.056   0.050   0.047  -0.047
   0.116  -0.023  -0.026   0.007  -0.061   0.020   0.010   0.046  -0.007  -0.051
   0.089  -0.028  -0.007  -0.035  -0.031   0.013  -0.043   0.071   0.062  -0.021
  -0.020  -0.031   0.033  -0.024  -0.097   0.029   0.015   0.010  -0.042  -0.047
  -0.025   0.053   0.056  -0.020  -0.054  -0.005  -0.010  -0.083  -0.108   0.005
   0.036  -0.039   0.016   0.013  -0.029  -0.006   0.067   0.063  -0.009   0.019
  -0.011   0.052   0.030  -0.080  -0.009  -0.038   0.068   0.017   0.004   0.019
  -0.036   0.066   0.008   0.091  -0.042  -0.000  -0.001  -0.011   0.024   0.006
   0.033  -0.035  -0.006   0.020   0.002   0.018   0.025  -0.037  -0.072   0.010
  -0.039   0.008   0.027  -0.031  -0.007  -0.009   0.045  -0.017   0.012   0.055
   0.055  -0.002   0.008  -0.027   0.000   0.036  -0.032  -0.017   0.078  -0.055
  -0.015  -0.081  -0.014   0.023  -0.050  -0.066   0.014   0.057   0.034  -0.001
   0.016   0.008  -0.019  -0.024   0.002  -0.047  -0.026  -0.004   0.004   0.044
  -0.033   0.010   0.004   0.023  -0.021  -0.023  -0.011   0.003   0.053   0.016
   0.034   0.028  -0.000   0.083   0.005   0.015   0.007   0.045  -0.031  -0.017
  -0.007   0.010   0.009  -0.021  -0.039  -0.040   0.001   0.011  -0.020   0.017
  -0.002   0.037   0.028  -0.026   0.006  -0.037  -0.024   0.017   0.001   0.037
  -0.048  -0.015   0.020   0.008  -0.001   0.010  -0.068  -0.034  -0.062   0.036
   0.014   0.000   0.028  -0.025   0.004  -0.014   0.001  -0.003   0.071   0.018
  -0.002   0.015   0.042   0.039  -0.041  -0.036   0.054   0.004  -0.014   0.028
  -0.017  -0.072   0.025  -0.025   0.057   0.031  -0.024  -0.005  -0.032   0.021
  -0.022   0.015   0.033  -0.031  -0.032   0.007  -0.016  -0.059   0.014   0.030
  -0.044   0.016   0.068   0.024   0.034  -0.009  -0.076  -0.008   0.067  -0.039
  -0.051  -0.040  -0.020   0.007  -0.061   0.035   0.042   0.016  -0.000   0.039
   0.037   0.019   0.025   0.029  -0.067  -0.003   0.015   0.024   0.044  -0.027
  -0.038   0.016  -0.040   0.010  -0.077   0.017   0.006  -0.058   0.019   0.021
  -0.086  -0.025   0.034   0.008   0.054   0.054  -0.021  -0.027   0.033   0.017
  -0.036   0.059   0.048   0.012   0.010  -0.012  -0.042  -0.015   0.015   0.016
  -0.048  -0.009   0.014  -0.008   0.004   0.051   0.006  -0.034  -0.033  -0.029
  -0.035   0.006  -0.023   0.007   0.037  -0.006  -0.013   0.027  -0.021  -0.043
   0.017   0.008  -0.009   0.049   0.018  -0.003  -0.039   0.026   0.026   0.004
  -0.021  -0.015  -0.018  -0.041  -0.039  -0.014  -0.010  -0.027   0.014   0.011
  -0.029  -0.009   0.051  -0.043   0.018  -0.014   0.002   0.002   0.059  -0.049
  -0.060   0.051  -0.013  -0.019   0.029   0.007  -0.018  -0.020   0.014   0.005
  -0.017   0.013   0.014  -0.010   0.061  -0.039   0.039   0.023  -0.022   0.037
   0.053  -0.042   0.012   0.009   0.016  -0.009  -0.002   0.048   0.031  -0.089
   0.022   0.030  -0.031  -0.042  -0.037   0.006   0.013   0.000  -0.002   0.009
  -0.034   0.013  -0.099   0.010  -0.011   0.017  -0.003   0.035   0.045  -0.021
  -0.049   0.053   0.023   0.095  -0.007   0.041   0.054   0.060  -0.050  -0.039
   0.023  -0.079   0.037   0.032  -0.014   0.016   0.008  -0.037  -0.014   0.071
   0.020   0.006   0.017  -0.026   0.021  -0.010   0.026  -0.052   0.037   0.022
  -0.010  -0.026   0.045   0.048  -0.010   0.016   0.038  -0.013   0.035  -0.001
  -0.027  -0.046  -0.011   0.039  -0.047  -0.030   0.022   0.023  -0.037   0.025
   0.024   0.009   0.043  -0.029  -0.014   0.050  -0.039  -0.005   0.030  -0.047
  -0.026   0.038  -0.006  -0.022  -0.013  -0.033  -0.032  -0.013  -0.029  -0.063
   0.029   0.001   0.024  -0.034  -0.051  -0.074  -0.008   0.009   0.044  -0.035
   0.011  -0.040  -0.024   0.036   0.008  -0.046  -0.013  -0.002  -0.034   0.005
   0.029  -0.007   0.009  -0.031   0.008  -0.008   0.004   0.030  -0.058  -0.003
   0.009   0.043  -0.007   0.045   0.012  -0.033   0.026   0.010  -0.024   0.017
   0.072   0.017   0.003   0.034  -0.017   0.030  -0.017   0.008  -0.059   0.060
   0.016  -0.015  -0.026   0.049   0.012   0.027   0.031   0.005  -0.030   0.009
   0.015  -0.006  -0.022  -0.000  -0.023  -0.023   0.023   0.000   0.014   0.035
  -0.069   0.014   0.008  -0.040   0.005   0.035   0.006   0.036   0.026  -0.042
   0.038   0.076  -0.073   0.002  -0.021  -0.059   0.056  -0.057   0.010   0.012
  -0.017   0.036   0.013  -0.080  -0.023   0.012   0.025   0.015   0.007  -0.027
  -0.009   0.056  -0.010  -0.081   0.029  -0.041   0.051   0.003  -0.057   0.020
   0.016  -0.018  -0.021  -0.005   0.001   0.077   0.003  -0.029  -0.088   0.002
   0.011   0.012   0.036  -0.028  -0.040  -0.025  -0.030  -0.058  -0.016  -0.052
   0.004   0.014  -0.016  -0.013   0.051   0.025   0.035   0.028  -0.005  -0.057
   0.010   0.048  -0.023  -0.020   0.016   0.006   0.025   0.011  -0.016  -0.008
   0.014  -0.016  -0.021   0.045   0.072   0.012  -0.039   0.023   0.003  -0.012
  -0.017   0.088   0.033  -0.007  -0.001  -0.015  -0.027   0.063  -0.016   0.020
   0.075  -0.031  -0.049   0.002  -0.022   0.003  -0.022   0.036   0.030   0.005
  -0.052  -0.016  -0.015   0.017   0.022  -0.045  -0.063  -0.018   0.045  -0.023
  -0.058  -0.099   0.041   0.022   0.048   0.039  -0.035   0.047  -0.051   0.021
   0.028  -0.050   0.057   0.004  -0.020   0.017  -0.036  -0.043   0.018   0.037
   0.035   0.038   0.010  -0.023   0.026   0.041   0.037   0.063   0.082  -0.043
  -0.060   0.010  -0.012   0.027   0.021  -0.036   0.072  -0.073   0.009  -0.054
  -0.017  -0.024  -0.019   0.004   0.021   0.079  -0.057   0.040   0.046  -0.065
   0.004  -0.017   0.007   0.005  -0.070  -0.005   0.111   0.016   0.000   0.021
  -0.035   0.031   0.001   0.096  -0.019  -0.025  -0.029  -0.002  -0.008  -0.043
  -0.026   0.018  -0.063   0.000   0.059   0.056  -0.005   0.042   0.051   0.006
  -0.006  -0.097   0.083  -0.048  -0.019  -0.039  -0.019  -0.073  -0.007   0.025
   0.058  -0.013   0.031  -0.023  -0.026  -0.020  -0.013  -0.034  -0.023  -0.077
  -0.005  -0.001  -0.083   0.029   0.060  -0.021  -0.021  -0.063   0.022   0.009
   0.087  -0.007   0.016  -0.054  -0.044   0.078   0.023   0.042  -0.031   0.036
   0.047  -0.026   0.012   0.006  -0.025  -0.046  -0.052  -0.023  -0.031  -0.006
   0.033  -0.001   0.006  -0.003   0.029   0.091   0.045  -0.030  -0.008   0.018
  -0.012   0.033  -0.018   0.009  -0.010  -0.015  -0.103  -0.039  -0.006  -0.063
  -0.033   0.005   0.024  -0.008   0.069  -0.046  -0.003   0.060  -0.002  -0.005
   0.004  -0.033   0.053  -0.009   0.030   0.018  -0.008   0.058   0.016  -0.030
  -0.033   0.105  -0.039   0.065   0.039  -0.023   0.000   0.001  -0.018  -0.053
  -0.024  -0.001  -0.107  -0.024   0.000  -0.056  -0.011  -0.009  -0.019   0.032
   0.007   0.046   0.008   0.041   0.016   0.020   0.002   0.043  -0.017  -0.050
  -0.022  -0.063   0.005  -0.017   0.023   0.039  -0.079  -0.020  -0.006   0.006
   0.016   0.023  -0.048   0.034   0.035   0.042  -0.002   0.041   0.052  -0.080
  -0.073  -0.065   0.043   0.002  -0.008  -0.020   0.009   0.039  -0.014   0.064
   0.012  -0.015   0.045  -0.028   0.015  -0.071   0.036   0.045  -0.003   0.012
   0.011  -0.045   0.048  -0.011  -0.039   0.022   0.055  -0.036   0.040  -0.009
   0.050  -0.042  -0.021  -0.025   0.028   0.039   0.037  -0.006   0.022   0.067
   0.006  -0.006   0.027  -0.037   0.015  -0.011   0.035   0.041  -0.023  -0.020
   0.055  -0.041   0.019   0.003  -0.040  -0.025  -0.051   0.029   0.056   0.030
   0.008   0.006  -0.020   0.002  -0.016  -0.022  -0.083  -0.005  -0.046   0.027
  -0.024  -0.017   0.037  -0.010   0.001  -0.011   0.031   0.014  -0.065   0.080
   0.040  -0.030  -0.071  -0.020   0.008   0.046  -0.013   0.006  -0.068   0.026
  -0.009   0.019   0.036   0.009   0.089   0.013  -0.013   0.028  -0.000   0.037
   0.004   0.075  -0.008   0.013   0.008   0.033   0.041   0.023  -0.032   0.047
   0.049   0.013   0.000   0.033  -0.042  -0.060  -0.013   0.041   0.045  -0.022
   0.020  -0.107   0.013  -0.012  -0.022  -0.093   0.017  -0.034  -0.035   0.011
  -0.032  -0.018   0.028  -0.038  -0.079  -0.058   0.012  -0.029   0.004   0.036
   0.050   0.066   0.033  -0.028   0.031  -0.037  -0.010  -0.029  -0.008  -0.037
  -0.031  -0.026  -0.051  -0.057  -0.005   0.030  -0.048   0.032   0.028   0.022
  -0.012   0.034   0.037  -0.038  -0.064  -0.065  -0.005   0.006  -0.024  -0.074
  -0.020  -0.005  -0.044   0.001  -0.014   0.053  -0.006   0.026   0.011   0.036
   0.036  -0.015   0.054   0.024  -0.031  -0.038   0.028  -0.011  -0.009   0.007
   0.011   0.003   0.098  -0.006  -0.032  -0.038  -0.033   0.005  -0.002   0.052
   0.055  -0.057  -0.013  -0.013  -0.034   0.009   0.044  -0.036  -0.005   0.036
   0.013   0.010  -0.055  -0.007   0.003   0.006   0.046   0.052   0.018   0.039
  -0.019   0.015   0.013  -0.069  -0.055   0.029   0.078   0.029  -0.048   0.031
   0.037  -0.057   0.012  -0.041  -0.013  -0.031  -0.058   0.030   0.034   0.023
   0.041   0.005  -0.036  -0.022   0.005   0.008  -0.060  -0.036  -0.016  -0.002
   0.027   0.005   0.007  -0.044   0.095   0.005   0.035  -0.002   0.013  -0.046
  -0.059  -0.032   0.022   0.007   0.012   0.035   0.025   0.026   0.013   0.086
   0.058   0.006  -0.062  -0.057   0.026   0.060   0.026  -0.033  -0.006   0.019
  -0.001  -0.035   0.009   0.015   0.013  -0.004   0.009  -0.004   0.045  -0.027
  -0.066  -0.021   0.021  -0.018   0.036  -0.080  -0.020   0.054   0.023   0.037
   0.100   0.089   0.049  -0.035   0.020  -0.042  -0.073   0.037   0.018  -0.042
