Corrected accelerogram 20160214_001343_THZ_20 GNS Science
Site THZ       41 45 45S  172 54 19E     Basalt file:  20160214_001415_THZ
Top House
Instrument Basalt_1264
Resolution: 24-bit   Instr Period: 0.0050 s   Damping: 0.700
Accelerogram 20160214_001343_THZ_20                  Processed 2016 February 22
11 km east of CHRISTCHURCH
2016 February 14         00:13:43 UT
Epicentre  43 29 50S 172 45 18E  Bearing S04W  Dist  193km  Depth    8km M  5.70
Number of points  8100    Duration 161.98 sec
Instrument corrected data at 0.020 sec intervals
Band-pass filter transition bands are .10-.25 Hz and 24.50-25.50 Hz
Component N00E  Transverse Accelerometer Axis
Acceleration:  peak      6.3 mm/s/s at  47.66 sec     rms      1.0 mm/s/s
Velocity:      peak     0.96 mm/s   at  66.06 sec     rms     0.22 mm/s
Displacement:  peak   -0.425 mm     at 105.78 sec     rms    0.108 mm
    2016       2      14       0      13     430       0       0    2016       2
      43      29      50     172      45      18       8       0      14       0
      41      45      45     172      54      19       0       0     184     193
   30400     250     250    8100    8100    8100       0       0      13   35000
   200.0    0.70    0.00   0.000  0.0000   0.000   0.000   1.000     0.0    0.00
  41.762 172.905   43.50  172.76    5.70    0.00    0.00    0.00      0.      0.
  152.00    5.00    5.00  161.98  0.0050  0.0200      0.      0.      0.  9806.6
     6.3   47.66     1.0   0.000      0.     6.3   47.66     1.0     6.3   1.297
    0.96   66.06    0.22    1.47   0.308   -0.42  105.78    0.11    0.54   0.235
   0.100   0.150   0.250      0.      0.  24.500   1.000  25.500      0.      0.
   0.001   0.001   0.001   0.001   0.001   0.001   0.001   0.001   0.001   0.001
   0.000   0.001   0.000   0.000   0.000   0.000   0.000   0.000  -0.000   0.000
  -0.000  -0.000  -0.000  -0.000  -0.000  -0.000  -0.001  -0.001  -0.001  -0.001
  -0.001  -0.001  -0.001  -0.001  -0.001  -0.001  -0.001  -0.001  -0.002  -0.002
  -0.002  -0.002  -0.002  -0.002  -0.002  -0.002  -0.002  -0.002  -0.003  -0.003
  -0.003  -0.003  -0.003  -0.003  -0.003  -0.003  -0.003  -0.003  -0.004  -0.004
  -0.004  -0.004  -0.004  -0.004  -0.004  -0.004  -0.004  -0.004  -0.005  -0.004
  -0.005  -0.005  -0.005  -0.005  -0.005  -0.005  -0.005  -0.005  -0.005  -0.005
  -0.005  -0.005  -0.006  -0.006  -0.006  -0.006  -0.006  -0.006  -0.006  -0.006
  -0.006  -0.006  -0.006  -0.006  -0.006  -0.006  -0.006  -0.006  -0.006  -0.006
  -0.007  -0.006  -0.007  -0.006  -0.007  -0.006  -0.007  -0.006  -0.007  -0.006
  -0.007  -0.006  -0.007  -0.006  -0.007  -0.006  -0.006  -0.006  -0.006  -0.006
  -0.006  -0.006  -0.006  -0.006  -0.006  -0.006  -0.006  -0.006  -0.006  -0.005
  -0.006  -0.005  -0.005  -0.005  -0.005  -0.005  -0.005  -0.004  -0.005  -0.004
  -0.004  -0.004  -0.004  -0.004  -0.004  -0.003  -0.003  -0.003  -0.003  -0.002
  -0.002  -0.002  -0.002  -0.002  -0.001  -0.001  -0.001  -0.001  -0.000  -0.000
   0.000   0.001   0.001   0.001   0.001   0.002   0.002   0.002   0.002   0.003
   0.003   0.004   0.004   0.004   0.004   0.005   0.005   0.006   0.006   0.007
   0.007   0.007   0.008   0.008   0.008   0.009   0.009   0.010   0.010   0.011
   0.011   0.012   0.012   0.013   0.013   0.013   0.014   0.014   0.015   0.015
   0.016   0.016   0.017   0.017   0.018   0.019   0.019   0.020   0.020   0.021
   0.021   0.022   0.022   0.023   0.023   0.024   0.024   0.025   0.025   0.026
   0.026   0.027   0.028   0.029   0.029   0.030   0.030   0.031   0.031   0.032
   0.032   0.034   0.033   0.035   0.034   0.036   0.036   0.037   0.037   0.039
   0.038   0.040   0.039   0.042   0.040   0.044   0.040   0.046   0.039   0.052
  -0.023  -0.060  -0.020  -0.017  -0.040  -0.055  -0.048  -0.051  -0.050  -0.028
  -0.004  -0.008  -0.017  -0.033  -0.017  -0.043  -0.042  -0.046  -0.039  -0.049
  -0.023  -0.028  -0.045  -0.038  -0.041  -0.038  -0.039  -0.038  -0.036  -0.011
  -0.037  -0.035  -0.035  -0.035  -0.030   0.005  -0.022  -0.037  -0.017  -0.008
  -0.014  -0.033  -0.028  -0.004  -0.030  -0.028  -0.010  -0.003  -0.015  -0.029
  -0.024  -0.025  -0.026  -0.003  -0.016  -0.029  -0.017  -0.030  -0.002  -0.010
  -0.005   0.002  -0.002   0.001   0.001  -0.018  -0.018   0.006   0.000  -0.006
  -0.027   0.014   0.008  -0.008   0.005   0.013   0.008  -0.013   0.045  -0.002
  -0.016  -0.013  -0.012   0.012  -0.014  -0.011  -0.013  -0.011  -0.013  -0.009
  -0.015  -0.001   0.011  -0.015  -0.008  -0.010  -0.012   0.006   0.033  -0.019
  -0.001   0.010  -0.003   0.011  -0.001   0.027   0.006  -0.018   0.021  -0.008
   0.002   0.014  -0.013   0.007   0.033   0.017  -0.005  -0.010   0.029   0.012
  -0.009  -0.007  -0.005  -0.009  -0.001   0.013   0.019   0.022  -0.006  -0.010
   0.011   0.008  -0.010  -0.006   0.015   0.001  -0.009  -0.004  -0.006  -0.008
   0.002   0.043  -0.014  -0.001  -0.007   0.046   0.013   0.019  -0.002   0.019
  -0.010   0.001   0.028   0.027  -0.004  -0.007  -0.006  -0.007  -0.005  -0.010
   0.016  -0.000  -0.010  -0.005  -0.005   0.031   0.024   0.072   0.016  -0.004
   0.017  -0.016   0.017  -0.002  -0.013   0.008   0.008  -0.018   0.019   0.020
  -0.012   0.011   0.014   0.002  -0.002   0.027  -0.005   0.002   0.025   0.049
   0.008   0.007   0.005  -0.017   0.001   0.010  -0.015  -0.009  -0.006   0.016
  -0.023   0.009   0.021  -0.005   0.014   0.037   0.002   0.019  -0.011   0.009
  -0.005   0.012   0.015  -0.005   0.006   0.017   0.037  -0.021   0.007   0.001
  -0.021   0.006   0.026  -0.021   0.011   0.029   0.024   0.030  -0.010   0.001
   0.002  -0.020  -0.010  -0.017  -0.012  -0.015   0.013  -0.019   0.009  -0.008
  -0.021  -0.004   0.005  -0.018  -0.016  -0.007   0.006   0.017   0.023  -0.004
   0.038  -0.008   0.002  -0.002  -0.022   0.008  -0.010  -0.020  -0.013  -0.019
  -0.012  -0.022   0.008   0.019   0.007  -0.027   0.006  -0.009   0.004  -0.011
   0.013   0.007   0.002  -0.014   0.007   0.008  -0.020   0.031  -0.011  -0.023
   0.009   0.011  -0.018  -0.020   0.007   0.012  -0.000  -0.004   0.017  -0.007
  -0.001  -0.006  -0.025  -0.011  -0.024  -0.008   0.015  -0.003  -0.026  -0.010
  -0.028   0.004   0.021   0.026   0.006  -0.012   0.025  -0.014  -0.024   0.008
   0.011  -0.020  -0.020  -0.006   0.021   0.006   0.012   0.006  -0.031   0.009
   0.015  -0.011   0.011  -0.013  -0.017  -0.024   0.007   0.010  -0.021  -0.020
   0.029   0.011  -0.024  -0.016  -0.022  -0.017  -0.022  -0.017   0.003  -0.002
   0.004   0.021   0.014   0.022   0.021   0.007  -0.002  -0.010   0.000  -0.020
  -0.001  -0.010  -0.028   0.023   0.012  -0.016   0.008   0.006  -0.006  -0.013
  -0.029   0.006  -0.000   0.023  -0.009  -0.016  -0.030   0.002   0.012  -0.017
   0.013   0.000  -0.008  -0.008   0.012  -0.005   0.011  -0.004  -0.003   0.012
  -0.011  -0.022   0.020   0.012  -0.024   0.027   0.008  -0.030  -0.017  -0.001
  -0.009  -0.002  -0.010   0.008  -0.027   0.010   0.047  -0.014  -0.004   0.014
  -0.009  -0.014   0.061   0.006  -0.016  -0.000  -0.031  -0.017  -0.002   0.043
   0.013   0.005   0.016   0.023  -0.019   0.016   0.038  -0.007   0.007   0.033
  -0.003   0.000   0.006  -0.023   0.014   0.008   0.005   0.005  -0.002   0.016
  -0.015  -0.026   0.025  -0.018   0.023  -0.010   0.001   0.018  -0.011  -0.025
  -0.027   0.001   0.021   0.011   0.019  -0.015   0.024   0.025   0.008   0.034
  -0.025  -0.019   0.001  -0.036   0.016   0.014  -0.024  -0.004  -0.002   0.006
  -0.029  -0.023   0.004   0.010   0.007   0.008   0.018  -0.026  -0.000   0.021
  -0.012   0.025  -0.010   0.029   0.028  -0.005   0.025  -0.004  -0.006   0.043
   0.021  -0.040  -0.001  -0.017  -0.024  -0.001   0.037   0.015  -0.032  -0.020
   0.033   0.021  -0.013   0.016  -0.015  -0.004   0.019  -0.013  -0.027   0.008
  -0.006  -0.018   0.001  -0.001   0.002  -0.016   0.022   0.032  -0.003  -0.007
   0.025  -0.019  -0.004   0.008  -0.006  -0.020   0.021  -0.002  -0.004  -0.018
   0.001   0.008  -0.013  -0.014   0.014  -0.028  -0.002   0.007  -0.032   0.018
  -0.009   0.009  -0.009   0.008  -0.011  -0.036   0.016   0.022  -0.040   0.008
   0.032   0.036  -0.007   0.026   0.009   0.008  -0.001  -0.032   0.047  -0.025
  -0.020  -0.033  -0.006  -0.008   0.003  -0.008   0.004  -0.001  -0.036  -0.005
   0.004  -0.003  -0.017   0.008   0.028  -0.045   0.003  -0.019   0.040   0.010
  -0.016   0.015  -0.028   0.016  -0.011  -0.032  -0.010   0.008   0.032   0.007
   0.019  -0.007  -0.008   0.012   0.019  -0.004   0.022   0.022  -0.005  -0.033
   0.015  -0.013  -0.000  -0.025   0.003   0.017  -0.014  -0.034  -0.004  -0.017
  -0.002   0.003  -0.006  -0.018   0.010  -0.001  -0.007  -0.004  -0.005  -0.006
   0.011  -0.026  -0.018   0.008  -0.003  -0.013  -0.006   0.036   0.000   0.006
   0.002  -0.001  -0.011   0.006   0.001   0.006   0.008  -0.017   0.004   0.003
  -0.003  -0.001   0.014   0.024   0.018  -0.015  -0.008  -0.006   0.012  -0.027
  -0.015  -0.006  -0.024   0.016   0.032   0.001  -0.020   0.022  -0.002  -0.035
   0.008   0.033  -0.010   0.001   0.015   0.010   0.015   0.005  -0.005   0.015
   0.020   0.021   0.003  -0.004  -0.024   0.004   0.006  -0.014  -0.018   0.008
   0.016  -0.008  -0.015   0.024   0.012   0.023   0.005   0.035   0.021   0.028
   0.014   0.007  -0.009  -0.030  -0.016  -0.005   0.007  -0.001   0.008   0.022
  -0.012   0.019  -0.028  -0.012   0.015   0.016   0.007  -0.009   0.016  -0.000
   0.021  -0.005   0.002   0.009   0.007  -0.005  -0.003  -0.011   0.006  -0.015
   0.023   0.007  -0.022   0.028  -0.011   0.040  -0.003  -0.001   0.010  -0.032
  -0.017  -0.004  -0.032   0.023  -0.002   0.016   0.021  -0.000  -0.000   0.017
   0.011   0.017   0.010   0.018   0.007  -0.022  -0.029  -0.024  -0.027  -0.001
  -0.010   0.017  -0.010   0.018   0.017   0.017  -0.011   0.005  -0.005  -0.032
  -0.023  -0.032  -0.006   0.023   0.004  -0.015  -0.012  -0.013  -0.011  -0.033
  -0.020   0.011  -0.018  -0.024   0.010  -0.003  -0.010   0.019   0.037   0.004
   0.019  -0.024  -0.006   0.018   0.015   0.021   0.012  -0.027   0.002   0.013
   0.014   0.008  -0.007  -0.015  -0.031  -0.023   0.013   0.005  -0.028  -0.033
  -0.005   0.011  -0.013   0.023   0.011  -0.008  -0.013  -0.025   0.008   0.002
  -0.013   0.001  -0.018  -0.032  -0.026  -0.003   0.031   0.025  -0.011  -0.012
  -0.018  -0.011  -0.029   0.026  -0.016  -0.016   0.010   0.014  -0.024   0.004
  -0.007   0.008  -0.023  -0.009  -0.025   0.006   0.006  -0.005   0.019  -0.030
  -0.000   0.037  -0.019   0.005  -0.010   0.017   0.002  -0.018   0.006   0.009
   0.011  -0.003  -0.003   0.013  -0.020   0.014   0.012   0.009   0.009   0.008
   0.011  -0.013  -0.031   0.008   0.018   0.028   0.012  -0.013   0.013  -0.011
   0.023   0.020  -0.002  -0.007  -0.015   0.023   0.010   0.004  -0.024  -0.031
  -0.008   0.031   0.009   0.008   0.021   0.006   0.012   0.009   0.039   0.031
   0.005  -0.028   0.033  -0.029  -0.026  -0.010  -0.010   0.016  -0.008   0.010
  -0.001   0.022   0.018   0.026   0.003  -0.037   0.027   0.006  -0.014  -0.015
   0.024   0.041  -0.001  -0.014   0.009   0.004  -0.008   0.028   0.023  -0.003
   0.013  -0.002   0.003  -0.005   0.003  -0.003   0.018  -0.002  -0.001   0.024
  -0.032   0.008  -0.003  -0.009   0.011  -0.019   0.008   0.001  -0.014  -0.019
  -0.003   0.011  -0.038   0.008   0.002  -0.001  -0.011  -0.001  -0.012   0.003
  -0.006   0.003  -0.010  -0.006   0.018   0.002  -0.006  -0.010   0.041  -0.001
  -0.007   0.002  -0.006   0.005  -0.000   0.023   0.013  -0.016  -0.018   0.014
   0.001  -0.012   0.009  -0.003   0.023  -0.022   0.009  -0.010  -0.005   0.019
  -0.020  -0.038  -0.017  -0.000   0.002   0.028   0.009   0.005  -0.020  -0.012
   0.005   0.018  -0.030  -0.041   0.015   0.003   0.007   0.027   0.019  -0.020
   0.014  -0.023  -0.005  -0.003  -0.001  -0.004  -0.007  -0.010   0.006  -0.018
  -0.003   0.016  -0.015   0.008   0.032  -0.019  -0.046  -0.016  -0.021   0.019
   0.017   0.004   0.007   0.009  -0.020   0.014  -0.005  -0.022  -0.045  -0.008
  -0.010  -0.026   0.002   0.001   0.014  -0.008   0.022  -0.008  -0.023   0.004
   0.033  -0.012  -0.018  -0.005  -0.022   0.012  -0.014   0.010  -0.011   0.007
  -0.002   0.028   0.001   0.011   0.001  -0.003  -0.012   0.008  -0.006   0.012
   0.000  -0.024   0.006   0.027   0.002   0.034   0.002  -0.027   0.004  -0.007
  -0.005   0.021  -0.002   0.016   0.027  -0.006  -0.037   0.024  -0.015  -0.045
   0.020  -0.025  -0.000   0.011  -0.012   0.021   0.002  -0.011  -0.001  -0.023
  -0.004   0.025  -0.004   0.006   0.029   0.015  -0.001  -0.009  -0.007  -0.003
   0.024   0.026  -0.011   0.013   0.026   0.023  -0.005  -0.017   0.027   0.019
   0.019  -0.004  -0.019  -0.010   0.010  -0.037   0.009  -0.003   0.031  -0.023
  -0.005   0.024   0.006  -0.011  -0.016   0.013   0.002  -0.001   0.007   0.019
  -0.025   0.012  -0.013  -0.018   0.004  -0.011   0.003   0.022   0.002   0.010
  -0.007   0.027  -0.005   0.025   0.005  -0.000   0.027   0.005  -0.004   0.012
   0.007  -0.003  -0.004   0.001  -0.008   0.014   0.014  -0.014   0.037  -0.008
  -0.013   0.015  -0.021  -0.005  -0.024   0.007  -0.017  -0.042  -0.027   0.040
  -0.037  -0.017  -0.006   0.027  -0.032   0.007  -0.011   0.031  -0.025  -0.027
  -0.010  -0.003  -0.008  -0.008   0.033  -0.001  -0.006   0.041   0.013   0.032
  -0.006   0.000  -0.010  -0.016  -0.007  -0.012  -0.001  -0.007  -0.003   0.006
   0.025   0.001   0.025   0.002  -0.035  -0.009  -0.017  -0.009   0.007   0.031
   0.042   0.004  -0.012  -0.023  -0.009  -0.019  -0.010   0.022  -0.013  -0.014
   0.019  -0.027   0.010  -0.010   0.018   0.015   0.004   0.016  -0.049   0.010
   0.018   0.012  -0.002  -0.023  -0.024  -0.031   0.027  -0.022  -0.013   0.003
   0.014   0.001   0.029  -0.012  -0.007  -0.020  -0.025  -0.025  -0.004   0.024
   0.021   0.023   0.001  -0.010   0.013   0.018  -0.008   0.001   0.014   0.025
   0.000   0.010  -0.010  -0.018  -0.030   0.025  -0.023  -0.022   0.023  -0.042
   0.028  -0.018  -0.023   0.027  -0.012  -0.029  -0.024   0.012  -0.004  -0.007
  -0.004  -0.008  -0.002  -0.004   0.002   0.003  -0.016   0.046  -0.003  -0.010
   0.024   0.038  -0.003  -0.014  -0.006   0.032   0.014   0.022   0.037   0.018
  -0.024  -0.019  -0.042  -0.031   0.016   0.027  -0.009  -0.004   0.012   0.012
   0.003   0.000   0.001  -0.009   0.011   0.015  -0.048  -0.041  -0.013  -0.023
  -0.011   0.028  -0.001  -0.023   0.001   0.007  -0.021   0.019   0.002  -0.019
   0.001   0.001   0.021  -0.008  -0.026  -0.019   0.018   0.013  -0.003   0.011
   0.020   0.002  -0.013   0.034   0.007   0.016   0.010   0.021  -0.016  -0.001
   0.022   0.005  -0.022  -0.021   0.007  -0.013  -0.011  -0.012   0.002   0.003
  -0.034   0.014  -0.021  -0.001   0.007   0.005   0.044   0.056   0.022  -0.017
   0.013   0.012   0.012   0.011   0.009  -0.009   0.019   0.005  -0.012   0.041
  -0.010   0.010   0.052  -0.015   0.024   0.013   0.026  -0.006  -0.014   0.009
   0.001   0.012   0.003   0.007   0.002   0.010   0.010   0.014   0.025  -0.023
   0.007  -0.014  -0.001  -0.033   0.029   0.018   0.027   0.014  -0.009  -0.027
  -0.006   0.016   0.010   0.002  -0.006  -0.008  -0.034   0.002  -0.047  -0.025
  -0.024  -0.021   0.009  -0.008   0.037   0.017  -0.020  -0.025  -0.009   0.015
  -0.043  -0.002   0.006   0.016   0.007  -0.020   0.005  -0.023  -0.022  -0.023
  -0.015  -0.033   0.004   0.015  -0.041  -0.018  -0.015  -0.012   0.016  -0.010
   0.007   0.007  -0.024  -0.005   0.061   0.001   0.021   0.028  -0.022  -0.026
   0.019  -0.024   0.001  -0.021  -0.026   0.031  -0.027  -0.007  -0.021  -0.027
  -0.001   0.008   0.002  -0.005  -0.023  -0.004  -0.025  -0.026  -0.025   0.008
   0.014   0.024   0.024  -0.006   0.013   0.009  -0.040  -0.018  -0.012  -0.022
  -0.003  -0.019  -0.006   0.019   0.011   0.014   0.009  -0.014  -0.016  -0.007
   0.028  -0.007  -0.022   0.009   0.013  -0.018  -0.027  -0.023  -0.000   0.054
   0.013   0.016   0.046  -0.012   0.035   0.006  -0.023   0.015   0.009  -0.007
   0.032  -0.014  -0.004   0.017   0.004  -0.017  -0.005   0.010  -0.011   0.013
  -0.003   0.045   0.008  -0.008  -0.006   0.013  -0.019   0.042  -0.010   0.027
   0.009   0.012  -0.011   0.003   0.011   0.022   0.009   0.011   0.028   0.006
   0.002   0.026   0.030   0.005  -0.011   0.003   0.023   0.025   0.010  -0.023
   0.008   0.013  -0.025  -0.035  -0.017  -0.019  -0.011   0.009  -0.025  -0.040
  -0.019  -0.029   0.017  -0.003   0.027   0.008   0.009  -0.028   0.017   0.017
  -0.005  -0.006   0.012   0.021   0.006   0.014  -0.040  -0.015  -0.002   0.004
  -0.009   0.025   0.004  -0.013   0.012  -0.008   0.004   0.002   0.015   0.014
   0.006  -0.020   0.005   0.019   0.006   0.001  -0.002  -0.032  -0.010  -0.035
   0.026   0.003  -0.014   0.014  -0.019   0.017  -0.027  -0.006  -0.005   0.034
  -0.007   0.007   0.015  -0.013  -0.024  -0.000   0.006  -0.022  -0.023  -0.013
   0.002  -0.001  -0.011  -0.003   0.007   0.007   0.022  -0.021   0.017   0.003
   0.022   0.017  -0.011  -0.006   0.030   0.005   0.016   0.004  -0.017  -0.015
  -0.030  -0.007   0.010   0.005   0.018  -0.038  -0.015  -0.028   0.026  -0.026
  -0.023  -0.027  -0.012  -0.024  -0.008  -0.005   0.004   0.012   0.007  -0.007
   0.010  -0.004  -0.016   0.032   0.024   0.006   0.005  -0.011   0.020   0.022
  -0.007  -0.018   0.015   0.006   0.027   0.007  -0.007   0.050   0.013   0.011
   0.013  -0.005   0.009  -0.002   0.019  -0.001  -0.006  -0.003   0.015   0.036
   0.013   0.028  -0.027  -0.005  -0.011  -0.028   0.045   0.010   0.043  -0.004
   0.018   0.015   0.015   0.015   0.031  -0.023   0.032   0.007  -0.026  -0.012
  -0.021  -0.006  -0.030  -0.007  -0.002   0.006   0.035   0.017  -0.007   0.033
   0.008  -0.011  -0.003   0.029   0.001   0.004  -0.006   0.023   0.003   0.025
  -0.051  -0.003  -0.014  -0.018  -0.018   0.007  -0.014  -0.017   0.000  -0.029
  -0.002   0.029   0.000   0.000   0.034   0.011  -0.025  -0.005   0.043  -0.013
  -0.012  -0.060  -0.003  -0.032   0.008  -0.003  -0.006   0.005  -0.002  -0.047
   0.030   0.009  -0.002   0.010   0.013  -0.033  -0.010   0.004   0.013  -0.028
  -0.015   0.002   0.005  -0.033  -0.008   0.000  -0.012  -0.005   0.027   0.002
  -0.028  -0.023  -0.008   0.010  -0.018   0.011  -0.012  -0.014  -0.034   0.028
   0.006   0.011  -0.018   0.014   0.004  -0.013  -0.008   0.009  -0.006  -0.053
  -0.005   0.002  -0.012  -0.022  -0.038  -0.027  -0.009  -0.018  -0.011  -0.018
  -0.017  -0.048  -0.010  -0.004   0.012  -0.045  -0.021   0.007   0.008   0.002
   0.017  -0.008  -0.018  -0.001  -0.019   0.022   0.004  -0.017   0.016   0.021
   0.010  -0.006   0.026   0.001  -0.019  -0.011   0.020   0.015  -0.025  -0.014
   0.016  -0.017  -0.005  -0.005   0.016  -0.014  -0.028  -0.011   0.020  -0.036
  -0.030  -0.013  -0.009  -0.039  -0.006   0.015  -0.004  -0.020   0.008  -0.018
   0.017  -0.025  -0.022  -0.036  -0.011  -0.003  -0.042  -0.028  -0.015  -0.002
  -0.003  -0.022  -0.007   0.009  -0.006  -0.009  -0.015   0.001   0.019   0.015
  -0.007   0.018  -0.013  -0.012  -0.043   0.001  -0.016  -0.022  -0.047  -0.027
  -0.028  -0.019  -0.017  -0.027  -0.007  -0.048  -0.015  -0.006  -0.006   0.000
  -0.010   0.005  -0.017   0.036  -0.020  -0.008  -0.010   0.020   0.025   0.023
   0.025   0.023   0.027   0.020   0.045   0.129   0.123   0.129   0.125   0.129
   0.126   0.129   0.127   0.129   0.137   0.188   0.215   0.160   0.092   0.046
   0.029   0.033   0.031   0.005  -0.025  -0.135  -0.187  -0.229  -0.253  -0.209
  -0.123   0.007   0.017   0.034   0.038   0.036   0.030  -0.048  -0.056  -0.002
  -0.025   0.011   0.035   0.107   0.180   0.284   0.348   0.247   0.243   0.252
   0.418   0.442   0.508   0.556   0.524   0.309   0.016  -0.147  -0.124  -0.201
  -0.261  -0.248  -0.260  -0.333  -0.397  -0.489  -0.412  -0.261  -0.045  -0.123
  -0.249  -0.270  -0.028   0.087   0.106   0.193   0.392   0.398   0.173  -0.029
  -0.094  -0.087  -0.065  -0.025   0.105   0.146   0.250   0.226   0.287   0.370
   0.343   0.337   0.273   0.085   0.047   0.160   0.020  -0.508  -0.637  -0.534
