Corrected accelerogram 20160214_001343_WCSS_20 GNS Science
Site WCSS      43 27 28S  171 51 48E     Cusp file:  20160214_001357_WCSS
Whitecliffs
Instrument Cusp_42148
Resolution: 18-bit   Instr Period: 0.0050 s   Damping: 0.700
Accelerogram 20160214_001343_WCSS_20                 Processed 2016 February 22
11 km east of CHRISTCHURCH
2016 February 14         00:13:43 UT
Epicentre  43 29 50S 172 45 18E  Bearing S86E  Dist   72km  Depth    8km M  5.70
Number of points  8192    Duration 163.82 sec
Instrument corrected data at 0.020 sec intervals
Band-pass filter transition bands are .10-.25 Hz and 24.50-25.50 Hz
Component N00E  Horizontal Axis 1
Acceleration:  peak   -242.4 mm/s/s at  53.62 sec     rms     17.7 mm/s/s
Velocity:      peak   -19.21 mm/s   at  53.78 sec     rms     1.84 mm/s
Displacement:  peak    3.725 mm     at  53.60 sec     rms    0.422 mm
    2016       2      14       0      13     430       0       0    2016       2
      43      29      50     172      45      18       8       0      14       0
      43      27      28     171      51      48       0       0      94      72
   35694     250     250    8192    8192    8192       0       0      13   17131
   200.0    0.70    0.00   0.000  0.0000   0.000   0.000   1.000     0.0    0.00
  43.458 171.863   43.50  172.76    5.70    0.00    0.00    0.00      0.      0.
  178.47    5.00    5.00  163.82  0.0050  0.0200      0.      0.      0.  9806.6
  -242.3   53.61    18.2   0.000      0.  -242.4   53.62    17.7   246.0   1.505
  -19.21   53.78    1.84   21.45   1.010    3.73   53.60    0.42    4.22   0.241
   0.100   0.150   0.250      0.      0.  24.500   1.000  25.500      0.      0.
    -0.0    -0.0    -0.0    -0.0    -0.0    -0.0    -0.0    -0.0     0.0    -0.0
     0.0    -0.0     0.0    -0.0     0.0    -0.0     0.0    -0.0     0.0    -0.0
     0.0    -0.0     0.0    -0.0     0.0    -0.0     0.0    -0.0     0.0    -0.0
     0.0    -0.0     0.0     0.0     0.0     0.0     0.0     0.0     0.0     0.0
     0.0     0.0     0.0     0.0     0.0     0.0     0.0     0.0     0.0     0.0
     0.0     0.0     0.0     0.0     0.0     0.0     0.0     0.0     0.0     0.0
     0.0     0.0     0.0     0.0     0.0     0.0     0.0     0.0     0.0     0.0
     0.0     0.0     0.0     0.0     0.0     0.0     0.0     0.0     0.0     0.0
     0.0     0.0     0.0     0.0     0.0     0.0     0.0     0.0     0.0     0.0
     0.0     0.0     0.0     0.0     0.0     0.0     0.0     0.0     0.0     0.0
     0.0     0.0     0.0     0.0     0.0     0.0     0.0     0.0     0.0     0.0
     0.0     0.0     0.0     0.0     0.0     0.0     0.0     0.0     0.0     0.0
     0.0     0.0     0.0     0.0     0.0     0.0     0.0     0.0     0.0     0.0
     0.0     0.0     0.0     0.0     0.0     0.0     0.0     0.0     0.0     0.0
     0.0     0.0     0.0     0.0     0.0     0.0     0.0     0.0     0.0     0.0
     0.0     0.0     0.0     0.0     0.0     0.0     0.0     0.0     0.0     0.0
     0.0    -0.0     0.0    -0.0     0.0    -0.0    -0.0    -0.0    -0.0    -0.0
    -0.0    -0.0    -0.0    -0.0    -0.0    -0.0    -0.0    -0.0    -0.0    -0.0
    -0.0    -0.0    -0.0    -0.0    -0.0    -0.0    -0.0    -0.0    -0.0    -0.0
    -0.0    -0.0    -0.0    -0.0    -0.0    -0.0    -0.0    -0.0    -0.0    -0.0
    -0.0    -0.0    -0.0    -0.0    -0.0    -0.0    -0.0    -0.0    -0.0    -0.0
    -0.0    -0.0    -0.0    -0.0    -0.0    -0.0    -0.0    -0.0    -0.0    -0.0
    -0.0    -0.0    -0.0    -0.0    -0.0    -0.0    -0.0    -0.0    -0.0    -0.0
    -0.0    -0.0    -0.0    -0.1    -0.0    -0.1    -0.1    -0.1    -0.1    -0.1
    -0.1    -0.1    -0.1    -0.1    -0.1    -0.1    -0.1    -0.1    -0.1    -0.1
    -0.0     0.0    -0.0     0.1     0.1    -0.2    -0.0     0.0     0.0     0.1
     0.1     0.1    -0.1     0.1     0.0     0.0     0.0     0.0    -0.0     0.1
     0.0     0.1     0.1     0.0     0.1    -0.0    -0.1    -0.1     0.1     0.1
     0.1     0.1     0.0    -0.0     0.1     0.0     0.1    -0.0     0.0    -0.0
     0.1    -0.1    -0.0    -0.0     0.0     0.0     0.1    -0.0     0.1     0.1
     0.0    -0.0     0.0     0.0     0.1     0.0     0.1     0.1    -0.0     0.1
     0.1    -0.1     0.1     0.0     0.0     0.0     0.0    -0.0     0.1    -0.1
    -0.1    -0.0    -0.0     0.1     0.1     0.1     0.1     0.0     0.0    -0.0
     0.0     0.0     0.1     0.0    -0.0     0.1     0.1     0.1     0.0     0.0
     0.1     0.1     0.2     0.0     0.0    -0.0    -0.0    -0.1     0.0    -0.0
     0.0     0.1     0.0    -0.0    -0.0     0.0    -0.1     0.0    -0.0    -0.1
    -0.0    -0.0    -0.0    -0.1    -0.0    -0.0     0.0    -0.1    -0.1     0.0
    -0.1     0.0    -0.0    -0.0    -0.0     0.0     0.0     0.0    -0.0    -0.1
    -0.1    -0.1    -0.1    -0.1    -0.1    -0.1    -0.1    -0.0     0.0    -0.0
    -0.0    -0.1     0.0     0.1     0.0    -0.0    -0.0    -0.0     0.0    -0.0
    -0.0    -0.1     0.0    -0.0    -0.1     0.1    -0.0     0.0    -0.0    -0.0
    -0.0    -0.0     0.1     0.1     0.0    -0.0    -0.1    -0.1     0.0     0.0
    -0.1    -0.0     0.1    -0.0    -0.0     0.0     0.1     0.1    -0.0     0.0
    -0.1     0.1    -0.1    -0.0    -0.1     0.0     0.0     0.0    -0.0     0.0
     0.0    -0.0     0.0     0.0     0.1     0.0     0.1     0.1     0.0     0.0
     0.1     0.1     0.0    -0.0    -0.1    -0.0    -0.1     0.1    -0.1     0.0
    -0.0     0.1     0.1     0.0     0.1    -0.1    -0.0    -0.0     0.1    -0.0
    -0.0    -0.1     0.0     0.1     0.0    -0.0     0.0    -0.0     0.0    -0.1
    -0.1    -0.0    -0.1    -0.1     0.1    -0.1     0.0     0.0    -0.2     0.0
     0.0     0.1    -0.1    -0.0    -0.0    -0.0    -0.0    -0.1    -0.0     0.1
    -0.1    -0.1     0.1     0.0     0.0    -0.0     0.1     0.1    -0.1    -0.0
     0.0    -0.1    -0.1    -0.0     0.1    -0.0     0.1    -0.1     0.0     0.0
     0.0     0.1     0.0    -0.0    -0.1     0.0    -0.0     0.0     0.0    -0.0
    -0.0     0.0    -0.0    -0.0    -0.0    -0.1     0.0    -0.1    -0.0    -0.1
    -0.0     0.0    -0.1     0.0     0.0    -0.0    -0.0    -0.0    -0.0     0.1
     0.0    -0.0     0.1     0.1     0.0    -0.1    -0.0     0.0    -0.0     0.0
    -0.0    -0.2    -0.0    -0.2     0.0    -0.0     0.0     0.0     0.1     0.0
     0.0     0.0     0.0     0.1     0.1     0.0    -0.0     0.0    -0.0    -0.0
     0.1     0.1     0.0     0.0    -0.1     0.0    -0.0    -0.1    -0.1    -0.1
    -0.1     0.0    -0.0     0.0    -0.0    -0.0     0.1     0.1    -0.0     0.1
     0.0     0.0     0.0     0.1    -0.0     0.0     0.1     0.0     0.0     0.0
     0.0     0.1     0.1     0.1     0.1     0.0    -0.0    -0.1    -0.0    -0.0
     0.1     0.0     0.1     0.0     0.0     0.0     0.1    -0.0     0.1     0.0
    -0.1     0.1    -0.0     0.0     0.1    -0.0    -0.0     0.0     0.0    -0.0
     0.0     0.0     0.0     0.0     0.0    -0.0    -0.0    -0.0     0.1     0.0
    -0.0    -0.0    -0.0     0.1     0.0     0.0    -0.1     0.0    -0.0    -0.1
     0.1    -0.0    -0.0     0.0    -0.0     0.0     0.0    -0.0     0.0    -0.0
     0.0    -0.0    -0.0    -0.0    -0.0     0.0     0.0    -0.1     0.1    -0.1
    -0.0    -0.0    -0.0    -0.1    -0.0    -0.0    -0.0     0.0     0.1     0.0
    -0.1     0.0     0.1    -0.0    -0.0    -0.1    -0.1     0.1    -0.0     0.0
     0.1     0.0    -0.0     0.1    -0.1     0.0    -0.0    -0.0    -0.1     0.1
     0.1    -0.0     0.0    -0.1     0.0     0.0    -0.0    -0.1     0.0     0.1
     0.0    -0.0    -0.0    -0.0     0.1    -0.1    -0.1     0.0     0.0    -0.1
     0.0     0.0    -0.1    -0.0     0.0    -0.0    -0.0    -0.1    -0.1     0.1
     0.1     0.1     0.0     0.0    -0.2    -0.0    -0.1    -0.0    -0.1    -0.1
    -0.0    -0.1    -0.0    -0.0    -0.0    -0.1     0.0    -0.1     0.0    -0.0
    -0.1    -0.1     0.0    -0.0    -0.0    -0.1     0.1     0.1     0.0     0.1
     0.0    -0.0     0.0    -0.0    -0.1    -0.1    -0.0    -0.1     0.0    -0.0
     0.0     0.1    -0.0    -0.0     0.1     0.0     0.0    -0.1     0.0     0.0
    -0.1     0.1    -0.0     0.1     0.0     0.0     0.0     0.0     0.0     0.1
     0.1     0.1     0.1     0.0     0.1     0.1     0.1     0.0    -0.0     0.0
    -0.0     0.0     0.0     0.0    -0.0    -0.0     0.1    -0.0    -0.1     0.1
     0.1     0.1     0.0     0.1     0.0     0.1     0.0    -0.0    -0.0     0.0
    -0.0    -0.0     0.0     0.0     0.0     0.1     0.0     0.1    -0.0     0.0
    -0.1    -0.1    -0.0    -0.0    -0.0     0.1     0.0    -0.1     0.0    -0.1
    -0.0     0.0    -0.0    -0.1     0.1     0.1    -0.0    -0.0     0.0    -0.0
     0.0    -0.1    -0.1    -0.0    -0.1    -0.0    -0.1     0.0    -0.0    -0.1
    -0.0    -0.1    -0.1    -0.1    -0.0    -0.0    -0.1    -0.0     0.0    -0.1
     0.0     0.1    -0.0     0.0    -0.1    -0.0    -0.1     0.1     0.0    -0.0
     0.1     0.1     0.1    -0.0     0.0    -0.1    -0.1    -0.1     0.0     0.0
     0.0    -0.0    -0.2     0.0     0.0    -0.1     0.1    -0.0    -0.0    -0.0
    -0.1    -0.1    -0.0     0.0     0.0    -0.0    -0.1    -0.0     0.0     0.0
     0.1     0.0     0.0     0.0    -0.0     0.1     0.1     0.1     0.1     0.0
     0.1    -0.0     0.1     0.0     0.1     0.0     0.0     0.1     0.0     0.1
     0.0     0.1     0.1     0.1     0.0    -0.1     0.1     0.0     0.0     0.0
    -0.1     0.0    -0.0    -0.2    -0.0    -0.0    -0.1    -0.1    -0.1    -0.0
     0.1     0.0     0.1    -0.0    -0.1    -0.0    -0.0    -0.2    -0.1     0.1
    -0.0     0.1    -0.0    -0.0    -0.0    -0.1     0.0     0.0    -0.0     0.0
    -0.0     0.0    -0.1    -0.0     0.1    -0.0    -0.0    -0.0     0.1    -0.1
    -0.0     0.1     0.1     0.1     0.1    -0.0     0.0     0.1    -0.0     0.1
    -0.0     0.0    -0.1    -0.0     0.2     0.1     0.0     0.1    -0.0     0.0
    -0.0    -0.1    -0.1    -0.1    -0.0     0.0     0.0    -0.0    -0.0     0.0
    -0.0    -0.0    -0.1    -0.1     0.0     0.0    -0.1    -0.0     0.0     0.0
     0.0    -0.0    -0.0     0.0     0.0     0.0    -0.1     0.1    -0.0     0.0
     0.0     0.1     0.0    -0.1    -0.0    -0.0     0.1     0.0     0.0     0.0
     0.0    -0.0    -0.0    -0.1    -0.0     0.1     0.1    -0.0     0.1    -0.0
     0.0     0.0     0.1    -0.1     0.0     0.0     0.1     0.0    -0.0    -0.1
    -0.1    -0.0    -0.0     0.0    -0.1    -0.0    -0.1     0.0     0.0    -0.0
     0.0    -0.0    -0.1    -0.1    -0.1    -0.1    -0.2     0.0    -0.1    -0.0
    -0.0    -0.0     0.0    -0.1    -0.0    -0.1    -0.2    -0.0    -0.0    -0.0
    -0.1    -0.1    -0.1    -0.1    -0.0    -0.1     0.0    -0.1     0.1     0.0
     0.0    -0.1    -0.1    -0.0     0.0     0.0     0.2    -0.0    -0.1    -0.1
     0.1     0.1     0.0     0.0    -0.0     0.0     0.0     0.0    -0.0    -0.0
    -0.0     0.1     0.0     0.0     0.0    -0.0     0.1     0.0     0.0     0.0
     0.1     0.0    -0.1     0.0     0.1     0.2     0.1     0.1     0.2     0.1
     0.1    -0.0     0.1    -0.1     0.0    -0.1     0.0     0.1     0.1     0.2
     0.1     0.1     0.0    -0.0     0.0     0.0     0.0    -0.0    -0.1    -0.0
     0.0    -0.0     0.1     0.1    -0.1    -0.0    -0.0     0.0    -0.1     0.0
     0.1     0.1    -0.1     0.1     0.1     0.0    -0.0    -0.0     0.1    -0.0
    -0.1     0.0     0.0     0.1     0.2     0.0     0.0     0.0     0.1    -0.0
    -0.0     0.1    -0.1    -0.1     0.1     0.0    -0.1     0.0     0.1    -0.1
    -0.0    -0.1     0.0    -0.0    -0.0    -0.0    -0.0    -0.0    -0.1     0.0
    -0.0    -0.0    -0.0     0.0    -0.0    -0.1     0.0    -0.0     0.0     0.0
     0.0    -0.0     0.0    -0.0    -0.0    -0.1    -0.1     0.0    -0.1    -0.0
    -0.0     0.0    -0.1    -0.0    -0.1    -0.0    -0.0     0.1     0.0     0.0
    -0.1    -0.1     0.0    -0.1    -0.0    -0.0    -0.1     0.1    -0.0    -0.0
    -0.0    -0.0     0.1    -0.1    -0.1    -0.0     0.0     0.0     0.0    -0.0
    -0.1    -0.1     0.0    -0.1     0.0     0.0     0.0     0.1     0.0    -0.0
     0.0     0.0     0.1     0.0     0.0    -0.0     0.0     0.1    -0.0    -0.1
    -0.0    -0.0    -0.0    -0.0    -0.0     0.0     0.0     0.1     0.0    -0.1
    -0.0    -0.0    -0.1    -0.0    -0.0    -0.0    -0.0     0.1    -0.1     0.0
     0.1    -0.0     0.0    -0.0    -0.1    -0.0    -0.1     0.1     0.0     0.0
    -0.1    -0.1    -0.0     0.1     0.1     0.0    -0.0     0.0     0.0     0.1
    -0.0    -0.0    -0.0     0.0     0.1     0.0     0.0    -0.0    -0.0    -0.0
     0.0    -0.0     0.1     0.0    -0.0    -0.1     0.0     0.0     0.1    -0.0
    -0.0     0.0     0.1     0.0     0.0    -0.0    -0.0    -0.1    -0.0     0.0
    -0.0    -0.0     0.0    -0.1    -0.1    -0.0    -0.0    -0.0    -0.0    -0.0
     0.0    -0.1    -0.1    -0.0    -0.0    -0.0    -0.1    -0.0     0.0     0.1
     0.0    -0.0     0.1    -0.0     0.1     0.0    -0.1     0.1     0.0    -0.0
    -0.0    -0.2     0.1     0.2     0.0     0.1     0.1     0.0     0.1     0.1
     0.1    -0.0     0.1     0.0    -0.0    -0.1     0.1     0.0     0.0     0.1
     0.0     0.1    -0.0     0.0     0.1     0.1     0.1     0.0     0.1     0.1
     0.1    -0.1     0.0     0.1     0.0     0.1    -0.0     0.1    -0.0     0.0
     0.1    -0.0     0.0    -0.0    -0.0    -0.1    -0.1    -0.1    -0.1    -0.1
    -0.1    -0.0    -0.0    -0.0     0.0     0.1     0.0     0.0     0.0    -0.1
    -0.0    -0.1     0.0    -0.0    -0.1    -0.1    -0.1     0.1     0.0    -0.0
    -0.0     0.0     0.1    -0.0    -0.0     0.0     0.1    -0.0    -0.0    -0.0
     0.0    -0.0    -0.0    -0.0     0.1    -0.1    -0.0     0.0     0.0    -0.0
    -0.0    -0.0    -0.1     0.1    -0.0     0.0    -0.1     0.0     0.1     0.0
     0.0     0.0     0.1    -0.0    -0.1     0.0    -0.0    -0.1    -0.0    -0.0
     0.0     0.0    -0.1    -0.0     0.0    -0.1    -0.0     0.0     0.1    -0.1
    -0.0    -0.0    -0.1    -0.0    -0.0    -0.0     0.0    -0.0     0.0    -0.0
     0.0     0.1     0.0     0.0     0.1    -0.1    -0.1     0.0    -0.2    -0.1
    -0.0    -0.0     0.0    -0.1    -0.0     0.1    -0.1    -0.0     0.1     0.0
     0.1    -0.1     0.1    -0.0     0.0    -0.0    -0.0    -0.0     0.0     0.1
     0.0     0.0     0.1     0.0    -0.1    -0.0     0.0    -0.0    -0.1    -0.1
    -0.1    -0.1    -0.1    -0.1    -0.0    -0.0    -0.1    -0.0     0.0    -0.1
    -0.0    -0.1    -0.0    -0.1    -0.1     0.1    -0.0    -0.0     0.1     0.0
    -0.1    -0.0     0.0     0.0     0.0    -0.0    -0.1     0.1     0.0    -0.0
    -0.0    -0.0     0.0     0.1     0.0     0.1     0.1     0.1     0.1     0.1
    -0.0    -0.0     0.1     0.0     0.1     0.1     0.0     0.1    -0.0    -0.0
    -0.0    -0.1     0.1    -0.0     0.0     0.0     0.1    -0.0    -0.0     0.0
     0.0     0.1     0.1     0.0    -0.1    -0.0    -0.1    -0.0     0.0     0.0
     0.1     0.0     0.1    -0.0    -0.0     0.1     0.1     0.1     0.1    -0.0
    -0.0     0.0    -0.0     0.0    -0.0    -0.0    -0.1    -0.1     0.0     0.0
     0.0     0.0    -0.0    -0.0     0.1    -0.1    -0.0    -0.0     0.0    -0.0
    -0.1     0.0     0.0     0.1     0.0     0.0     0.1     0.0     0.0     0.1
     0.0     0.0     0.0    -0.0    -0.0    -0.0     0.0     0.1    -0.0    -0.0
     0.1     0.0     0.0     0.0     0.0    -0.1     0.0    -0.0     0.0     0.1
     0.1     0.0     0.0    -0.0     0.0     0.1    -0.0     0.0    -0.1    -0.1
    -0.0     0.0     0.0    -0.0    -0.0    -0.1     0.0    -0.1    -0.1     0.0
     0.0    -0.2    -0.0     0.0    -0.1    -0.0    -0.0    -0.0     0.0    -0.1
     0.0     0.1     0.0    -0.1     0.1    -0.1    -0.0    -0.1    -0.0    -0.1
     0.1    -0.0    -0.1     0.0    -0.0     0.0     0.1     0.1     0.1    -0.0
    -0.1    -0.0     0.0    -0.0     0.1    -0.1    -0.1    -0.1    -0.0    -0.2
    -0.1    -0.1    -0.1    -0.1    -0.0    -0.2    -0.2     0.0    -0.1    -0.0
    -0.0    -0.0    -0.1     0.0     0.0     0.0    -0.1     0.0     0.1     0.0
    -0.0     0.0     0.0     0.0     0.0     0.1    -0.1     0.0     0.1     0.0
     0.1     0.1    -0.0    -0.1     0.0     0.1     0.1     0.0     0.0     0.0
     0.0     0.0    -0.1     0.1     0.1     0.1     0.0    -0.0     0.1     0.0
     0.1     0.1     0.1     0.0     0.0     0.0    -0.0    -0.1     0.1     0.0
     0.0     0.1    -0.1     0.0     0.0     0.0    -0.0    -0.2     0.0     0.1
    -0.0    -0.0    -0.1    -0.0     0.0     0.0     0.1     0.1     0.1     0.0
     0.1     0.1     0.0     0.0    -0.0     0.0    -0.0    -0.1     0.0     0.0
     0.0    -0.1    -0.1    -0.0     0.1    -0.0     0.0     0.1     0.0    -0.0
     0.0    -0.0    -0.2    -0.0    -0.0    -0.1     0.0    -0.0    -0.1    -0.1
    -0.0    -0.0     0.0    -0.0     0.0     0.0    -0.0     0.1     0.1     0.0
     0.0     0.0     0.0     0.0     0.1     0.0     0.1     0.1     0.1     0.1
    -0.1     0.1    -0.1     0.0    -0.1    -0.0    -0.0    -0.0     0.1     0.0
    -0.0    -0.0    -0.1     0.0    -0.0     0.0    -0.0     0.1    -0.0    -0.1
     0.0     0.0    -0.1    -0.1    -0.0     0.0     0.1     0.0     0.0    -0.1
    -0.0     0.1    -0.1     0.0     0.0     0.0     0.0    -0.2     0.0    -0.1
     0.0    -0.1    -0.0     0.1     0.1    -0.1    -0.0    -0.0     0.1    -0.1
    -0.1    -0.0     0.1     0.1     0.0     0.1    -0.0    -0.0    -0.1    -0.0
     0.0     0.0    -0.0    -0.0     0.1     0.1     0.0     0.1    -0.0     0.1
     0.1     0.1     0.0     0.1    -0.0    -0.1     0.0     0.0     0.1    -0.1
     0.0     0.0     0.0     0.0     0.1     0.0     0.0     0.0    -0.1    -0.0
    -0.1    -0.0     0.0     0.0    -0.1    -0.0     0.1     0.0     0.1     0.0
     0.0    -0.0    -0.0    -0.1    -0.0    -0.0    -0.0     0.1     0.0    -0.1
    -0.1     0.0    -0.0     0.1    -0.0    -0.1    -0.1    -0.0    -0.1    -0.1
    -0.1    -0.1    -0.1     0.0     0.1     0.0    -0.0     0.1     0.0     0.1
     0.0     0.0     0.0    -0.1    -0.1    -0.1     0.0     0.0     0.0    -0.0
    -0.0    -0.0    -0.0    -0.1     0.0    -0.0     0.0     0.0     0.1    -0.0
     0.0    -0.1    -0.1    -0.1    -0.0    -0.1    -0.1    -0.1    -0.1    -0.1
     0.0    -0.1    -0.0    -0.1    -0.1    -0.1     0.0    -0.1     0.1     0.0
     0.1    -0.0     0.1     0.0    -0.0    -0.0    -0.1     0.0     0.1    -0.0
     0.1    -0.1    -0.1    -0.1    -0.0    -0.0     0.1     0.1     0.1     0.1
     0.0     0.1    -0.0     0.1     0.1    -0.0     0.0     0.1     0.2    -0.0
    -0.0     0.1    -0.1    -0.0    -0.1     0.0     0.0     0.1     0.0     0.0
     0.1     0.1     0.0     0.1     0.0     0.0     0.0    -0.0     0.1     0.1
     0.1     0.0     0.1    -0.1     0.0     0.0     0.0    -0.0     0.0     0.1
     0.1     0.0    -0.0     0.0    -0.1     0.0     0.1    -0.1     0.0     0.0
     0.0    -0.0     0.0    -0.1    -0.1    -0.1     0.0    -0.0    -0.1    -0.0
    -0.1    -0.0    -0.0    -0.1     0.1     0.0     0.1    -0.0    -0.0    -0.0
     0.0     0.0    -0.0     0.0     0.0    -0.1    -0.1    -0.1     0.0    -0.0
     0.1    -0.0     0.1    -0.0    -0.1     0.0    -0.1    -0.0     0.0    -0.1
     0.1    -0.1     0.1     0.0     0.0     0.0     0.1    -0.0     0.1     0.0
     0.1    -0.0     0.1     0.1     0.1     0.0     0.2    -0.1    -0.0    -0.0
     0.1    -0.0    -0.0    -0.0     0.1    -0.0    -0.0    -0.1    -0.1    -0.1
     0.0    -0.1    -0.1    -0.1     0.1     0.0    -0.0     0.0    -0.0    -0.0
     0.1    -0.0     0.0     0.1     0.0    -0.0     0.0    -0.0     0.0     0.0
     0.0     0.0     0.0    -0.0     0.1    -0.1    -0.0    -0.1    -0.0    -0.0
    -0.0    -0.0    -0.0    -0.1    -0.0     0.0    -0.0    -0.1    -0.1    -0.2
    -0.3    -0.2    -0.1    -0.2     0.1     0.2     0.2     0.2     0.3    -0.0
    -0.3    -0.2    -0.1    -0.2    -0.2    -0.5    -0.6    -1.2    -1.4    -0.8
     0.4     1.4     1.7     1.9     1.6    -0.1    -1.5    -3.0    -3.3    -3.2
