Corrected accelerogram 20160214_001343_INGS_20 GNS Science
Site INGS      41 51 26S  171 57 09E     Basalt file:  20160214_001417_INGS
Inangahua Fire Station
Instrument Basalt_620
Resolution: 24-bit   Instr Period: 0.0050 s   Damping: 0.700
Accelerogram 20160214_001343_INGS_20                 Processed 2016 February 22
11 km east of CHRISTCHURCH
2016 February 14         00:13:43 UT
Epicentre  43 29 50S 172 45 18E  Bearing S20E  Dist  194km  Depth    8km M  5.70
Number of points  8150    Duration 162.98 sec
Instrument corrected data at 0.020 sec intervals
Band-pass filter transition bands are .10-.25 Hz and 24.50-25.50 Hz
Component N00E  Horizontal Axis 1
Acceleration:  peak     -9.9 mm/s/s at  81.82 sec     rms      1.7 mm/s/s
Velocity:      peak    -3.05 mm/s   at  82.10 sec     rms     0.50 mm/s
Displacement:  peak   -1.374 mm     at  80.14 sec     rms    0.237 mm
    2016       2      14       0      13     430       0       0    2016       2
      43      29      50     172      45      18       8       0      14       0
      41      51      26     171      57       9       0       0     160     194
   30600     250     250    8150    8150    8150       0       0      13   37000
   200.0    0.70    0.00   0.000  0.0000   0.000   0.000   1.000     0.0    0.00
  41.857 171.953   43.50  172.76    5.70    0.00    0.00    0.00      0.      0.
  153.00    5.00    5.00  162.98  0.0050  0.0200      0.      0.      0.  9806.6
    -9.8   81.85     1.8   0.000      0.    -9.9   81.82     1.7    16.3   0.366
   -3.05   82.10    0.50    3.21   0.266   -1.37   80.14    0.24    1.47   0.262
   0.100   0.150   0.250      0.      0.  24.500   1.000  25.500      0.      0.
  -0.001  -0.000  -0.001  -0.000  -0.001  -0.000  -0.001  -0.000  -0.000  -0.000
  -0.000   0.000  -0.000   0.000  -0.000   0.000  -0.000   0.000  -0.000   0.000
  -0.000   0.000  -0.000   0.000  -0.000   0.000  -0.000   0.000  -0.000   0.001
   0.000   0.001   0.000   0.001   0.000   0.001   0.000   0.001   0.000   0.001
   0.000   0.001   0.000   0.001   0.000   0.001   0.001   0.001   0.001   0.001
   0.001   0.001   0.001   0.001   0.001   0.002   0.001   0.002   0.001   0.002
   0.001   0.002   0.001   0.002   0.001   0.002   0.001   0.002   0.001   0.002
   0.001   0.002   0.001   0.002   0.001   0.002   0.002   0.002   0.002   0.002
   0.002   0.002   0.002   0.003   0.002   0.003   0.002   0.003   0.002   0.003
   0.002   0.003   0.002   0.003   0.002   0.003   0.002   0.003   0.002   0.003
   0.002   0.003   0.002   0.003   0.002   0.003   0.002   0.003   0.002   0.003
   0.002   0.003   0.002   0.003   0.002   0.003   0.002   0.003   0.002   0.003
   0.002   0.003   0.002   0.003   0.002   0.003   0.002   0.003   0.002   0.003
   0.002   0.003   0.001   0.003   0.001   0.003   0.001   0.002   0.001   0.002
   0.001   0.002   0.001   0.002   0.001   0.002   0.001   0.002   0.000   0.002
   0.000   0.002   0.000   0.001  -0.000   0.001  -0.000   0.001  -0.000   0.001
  -0.001   0.001  -0.001   0.001  -0.001   0.000  -0.001   0.000  -0.002  -0.000
  -0.002  -0.000  -0.002  -0.001  -0.002  -0.001  -0.003  -0.001  -0.003  -0.001
  -0.003  -0.002  -0.004  -0.002  -0.004  -0.002  -0.004  -0.002  -0.005  -0.003
  -0.005  -0.003  -0.005  -0.003  -0.006  -0.004  -0.006  -0.004  -0.006  -0.004
  -0.007  -0.005  -0.007  -0.005  -0.008  -0.006  -0.008  -0.006  -0.009  -0.006
  -0.009  -0.007  -0.009  -0.007  -0.010  -0.007  -0.010  -0.008  -0.011  -0.008
  -0.011  -0.009  -0.012  -0.009  -0.012  -0.009  -0.013  -0.010  -0.013  -0.010
  -0.014  -0.011  -0.014  -0.011  -0.015  -0.011  -0.016  -0.012  -0.016  -0.012
  -0.017  -0.012  -0.018  -0.012  -0.019  -0.012  -0.020  -0.011  -0.023  -0.007
   0.001  -0.016  -0.018   0.021  -0.000   0.056   0.036  -0.021   0.028   0.023
   0.003   0.039   0.046   0.006   0.016   0.051  -0.018   0.033  -0.010   0.009
   0.017   0.000   0.068  -0.060   0.051  -0.010   0.002   0.050  -0.010   0.021
   0.020   0.017  -0.038   0.009   0.029   0.017   0.026  -0.009  -0.031   0.013
  -0.022  -0.006   0.011  -0.003   0.030   0.042  -0.053   0.033   0.009  -0.005
  -0.011   0.013  -0.042   0.072  -0.013  -0.033  -0.002   0.028  -0.078   0.022
   0.026  -0.020   0.015   0.045  -0.023   0.045  -0.025   0.005   0.017   0.007
  -0.026   0.045  -0.011  -0.043  -0.002   0.031  -0.044   0.072  -0.018   0.044
  -0.011   0.025  -0.028   0.038  -0.009  -0.015   0.011  -0.001   0.010   0.021
  -0.021  -0.021   0.006   0.051   0.004  -0.001   0.024   0.030  -0.048   0.007
  -0.045   0.036  -0.025  -0.020   0.060  -0.036   0.038  -0.049   0.033  -0.038
  -0.019  -0.016   0.021  -0.022   0.023  -0.020   0.042  -0.011   0.018  -0.011
   0.027  -0.057   0.060  -0.045   0.039  -0.013   0.004   0.007   0.014  -0.001
   0.004   0.024  -0.041   0.021   0.007   0.007   0.014  -0.011   0.012  -0.062
   0.017   0.037  -0.010   0.011  -0.003  -0.025   0.002  -0.043   0.055  -0.057
  -0.008  -0.015  -0.037  -0.002   0.033  -0.048  -0.035  -0.002  -0.016   0.030
  -0.003  -0.002  -0.004  -0.032   0.031   0.031  -0.005  -0.051   0.012  -0.019
   0.011  -0.015   0.003  -0.054   0.031  -0.076   0.030   0.009  -0.016   0.008
   0.038  -0.039  -0.051   0.050  -0.080  -0.013   0.031   0.008   0.027  -0.049
   0.013  -0.041   0.047  -0.006  -0.022   0.012  -0.007   0.037  -0.012  -0.058
   0.039  -0.025   0.044  -0.053   0.004   0.019   0.004   0.021   0.011  -0.005
   0.032   0.005  -0.000  -0.005   0.043  -0.009   0.009  -0.020   0.027  -0.004
  -0.032  -0.004   0.030   0.007  -0.004   0.015  -0.019   0.015   0.037  -0.040
   0.039  -0.002  -0.005   0.014  -0.019   0.028  -0.047   0.010  -0.026   0.044
  -0.009   0.034  -0.020   0.004  -0.017   0.002  -0.017  -0.003   0.014  -0.015
   0.004  -0.033   0.019  -0.078   0.040   0.028  -0.014  -0.033   0.045  -0.013
  -0.001  -0.005   0.004  -0.025   0.033   0.008  -0.010  -0.018   0.027  -0.014
   0.011  -0.013  -0.038   0.036   0.001   0.032   0.003   0.017  -0.005  -0.014
   0.002   0.043  -0.078   0.006   0.022   0.014  -0.019   0.004  -0.010   0.067
   0.033  -0.056   0.022  -0.028   0.011   0.037  -0.032   0.069  -0.002  -0.046
   0.007  -0.014   0.067  -0.009   0.012   0.004  -0.041   0.004   0.013   0.059
  -0.067  -0.005   0.007   0.014  -0.027  -0.002  -0.019   0.048  -0.007   0.012
  -0.015  -0.024   0.046  -0.061  -0.009   0.046  -0.020  -0.017   0.009   0.042
  -0.035   0.005   0.029  -0.032  -0.016   0.053  -0.049   0.010   0.023   0.031
  -0.037   0.072   0.036  -0.033  -0.017  -0.030  -0.014  -0.015   0.045  -0.014
  -0.069   0.109  -0.091   0.000   0.002   0.000  -0.015   0.007  -0.019   0.041
  -0.007  -0.047   0.037  -0.010  -0.008  -0.043   0.006  -0.029   0.031  -0.014
   0.067  -0.034  -0.010  -0.063  -0.036   0.101  -0.042  -0.092   0.090  -0.024
  -0.039   0.006   0.061  -0.080   0.034  -0.076   0.052  -0.063   0.048  -0.007
   0.034  -0.051   0.012  -0.030   0.081   0.000  -0.003   0.006  -0.000   0.040
  -0.051   0.044  -0.023   0.017  -0.031  -0.001  -0.045   0.038  -0.018   0.034
  -0.021  -0.009  -0.023   0.054  -0.058   0.074  -0.036   0.042  -0.023   0.032
  -0.072   0.120  -0.070   0.085  -0.071   0.030   0.021  -0.012   0.016   0.016
   0.024  -0.007   0.066  -0.040   0.044  -0.058   0.008   0.011  -0.012  -0.011
  -0.027   0.019   0.030   0.003  -0.039   0.030   0.011   0.024  -0.003  -0.022
   0.014  -0.060   0.011   0.006   0.016  -0.068  -0.005   0.004  -0.046   0.067
  -0.071   0.029   0.070  -0.033   0.052  -0.096   0.083  -0.073   0.049  -0.084
   0.117  -0.038   0.043  -0.024   0.033   0.020  -0.059   0.015  -0.034   0.031
  -0.000  -0.005   0.048  -0.076   0.033  -0.068   0.131  -0.061   0.044  -0.033
  -0.029   0.109  -0.059   0.043  -0.061   0.068  -0.064   0.039  -0.075   0.057
  -0.025   0.061  -0.069   0.055  -0.041   0.052  -0.060   0.009   0.058   0.021
  -0.050   0.012   0.005   0.026   0.000  -0.124   0.070   0.046   0.020  -0.098
   0.039  -0.019   0.033   0.038  -0.046   0.030   0.014   0.009  -0.050  -0.072
  -0.000   0.072   0.016   0.013  -0.078   0.076  -0.029   0.005  -0.054   0.003
   0.069   0.035  -0.084  -0.060   0.076  -0.032   0.048  -0.050   0.009  -0.014
   0.034  -0.127   0.081  -0.042   0.139  -0.215   0.166  -0.054   0.007  -0.023
  -0.012  -0.030   0.107  -0.062  -0.065   0.028   0.032   0.035  -0.139   0.099
  -0.055   0.033  -0.018  -0.034   0.025   0.012  -0.019   0.009   0.016  -0.094
   0.062  -0.034   0.107  -0.150   0.029   0.007   0.075  -0.066   0.001  -0.033
   0.087  -0.041  -0.053   0.023   0.043  -0.003  -0.161   0.140  -0.002   0.009
  -0.066   0.068  -0.050   0.115  -0.062   0.024  -0.028   0.039  -0.021  -0.024
   0.033   0.030  -0.070   0.060  -0.014   0.004   0.037  -0.019   0.038   0.040
  -0.134   0.157  -0.071   0.101  -0.058   0.029  -0.060  -0.001  -0.014  -0.040
   0.068  -0.054  -0.001  -0.036   0.078  -0.039   0.048  -0.166   0.171  -0.037
  -0.011  -0.012  -0.049   0.110  -0.043   0.004  -0.056   0.095  -0.011   0.009
  -0.094   0.049  -0.012   0.012  -0.014  -0.034   0.064  -0.066   0.100  -0.085
   0.012   0.017  -0.045   0.070  -0.051   0.045  -0.013  -0.020   0.038  -0.039
   0.023  -0.042   0.007  -0.014  -0.017   0.073  -0.058   0.013   0.008  -0.056
   0.099  -0.050   0.065  -0.083   0.014   0.113  -0.084  -0.018   0.016   0.016
   0.050  -0.069   0.067  -0.022   0.003   0.046  -0.049   0.082  -0.007   0.001
   0.083  -0.047   0.002  -0.047   0.063  -0.049  -0.032   0.052  -0.038   0.010
  -0.045   0.024   0.043  -0.034  -0.012   0.019   0.031  -0.031   0.037   0.019
  -0.124   0.137  -0.105   0.080   0.008  -0.096   0.064  -0.040   0.161  -0.124
   0.028   0.003  -0.040   0.046  -0.124   0.054   0.043   0.068  -0.122  -0.020
   0.076  -0.054   0.011  -0.079   0.141  -0.157   0.068   0.040  -0.060   0.009
   0.007   0.056  -0.071   0.101  -0.126  -0.006   0.068  -0.010  -0.067   0.004
   0.044  -0.011  -0.017   0.003   0.032  -0.024   0.031  -0.047   0.039   0.014
  -0.106   0.066  -0.053   0.131  -0.102  -0.042   0.098  -0.068   0.121  -0.092
   0.025  -0.053   0.110  -0.044  -0.104   0.091   0.000  -0.042   0.008  -0.019
   0.055  -0.004   0.018  -0.063  -0.018   0.074  -0.072   0.025  -0.023   0.073
   0.003  -0.117   0.023  -0.010   0.083  -0.052   0.015  -0.035   0.016   0.057
  -0.018  -0.051  -0.053   0.136  -0.108  -0.035   0.074   0.020  -0.055  -0.052
   0.109  -0.044   0.029  -0.038  -0.022   0.020   0.053  -0.020  -0.018   0.010
  -0.003   0.091  -0.067   0.013  -0.030   0.121  -0.149   0.030  -0.022   0.042
  -0.057   0.021   0.055  -0.049   0.016  -0.004   0.004  -0.003  -0.072   0.034
   0.041   0.015  -0.087  -0.062   0.088  -0.032   0.004   0.016  -0.103   0.163
  -0.087   0.037  -0.088   0.151  -0.054  -0.005   0.014  -0.021   0.039  -0.005
   0.019  -0.057   0.092  -0.054   0.032  -0.042   0.080  -0.078   0.049   0.005
   0.027  -0.045   0.082  -0.032   0.077  -0.040   0.103  -0.160   0.123  -0.080
   0.085  -0.096   0.096  -0.079   0.122  -0.087   0.005   0.032  -0.020   0.013
  -0.005   0.005  -0.002   0.031  -0.055   0.022  -0.074   0.148  -0.162   0.070
   0.037   0.027  -0.057  -0.023   0.063   0.006  -0.118   0.121  -0.170   0.179
  -0.157   0.085  -0.020  -0.008  -0.036   0.028  -0.006   0.060  -0.074   0.035
  -0.083   0.169  -0.082  -0.027  -0.076   0.134   0.015  -0.025  -0.091   0.101
  -0.028  -0.014   0.070  -0.094   0.070   0.038  -0.080  -0.056   0.082   0.065
  -0.197   0.105  -0.011   0.010  -0.059   0.010   0.057  -0.054   0.074  -0.067
   0.088   0.020  -0.061  -0.023   0.069   0.005  -0.092   0.036  -0.064   0.062
  -0.031  -0.018  -0.041   0.007   0.044  -0.026  -0.067  -0.043   0.120  -0.081
  -0.014   0.052  -0.016  -0.035   0.103  -0.084  -0.010   0.015   0.014  -0.025
   0.001  -0.005   0.038  -0.032   0.006  -0.017   0.044  -0.055   0.065  -0.085
  -0.002   0.072  -0.053  -0.121   0.061   0.022  -0.018   0.033  -0.072  -0.053
   0.153   0.048  -0.048  -0.036   0.000   0.089  -0.020  -0.135   0.026  -0.019
   0.105  -0.134   0.054  -0.011   0.064   0.066  -0.077   0.019   0.012   0.068
  -0.080  -0.001   0.056  -0.046   0.068  -0.088   0.109  -0.035   0.076  -0.093
  -0.062   0.025   0.034   0.052  -0.088  -0.026   0.040   0.001  -0.012   0.079
  -0.010  -0.048   0.043  -0.001  -0.085   0.055  -0.041  -0.023   0.035   0.015
   0.068  -0.080  -0.019   0.034   0.063  -0.106   0.069   0.039  -0.018  -0.048
   0.051   0.002   0.075   0.014  -0.035   0.019   0.050   0.016  -0.082   0.060
   0.065  -0.036  -0.061   0.107   0.030  -0.119  -0.013   0.035   0.051   0.013
  -0.020  -0.067  -0.000   0.045  -0.063  -0.047   0.095  -0.038   0.061  -0.056
  -0.057   0.037   0.027   0.005  -0.049   0.045   0.032  -0.022  -0.065   0.048
  -0.070   0.032   0.005   0.055  -0.040  -0.036   0.059   0.008  -0.017  -0.042
   0.060   0.005   0.011  -0.015  -0.046   0.065  -0.018  -0.010   0.078  -0.074
   0.007   0.024  -0.014   0.018   0.007  -0.002   0.008   0.030  -0.027   0.022
  -0.011   0.017  -0.051  -0.002  -0.039   0.045  -0.034   0.060  -0.013  -0.035
  -0.045   0.046  -0.007  -0.032  -0.015  -0.013   0.009   0.014  -0.045   0.000
   0.058  -0.022  -0.004  -0.007   0.006   0.017   0.048  -0.043  -0.053  -0.014
   0.110  -0.042  -0.025   0.028   0.018  -0.000   0.050  -0.111   0.021   0.008
   0.004   0.005  -0.024   0.035  -0.023  -0.029   0.041  -0.013  -0.032   0.018
   0.043  -0.047   0.027   0.007   0.006  -0.011  -0.087   0.030  -0.009   0.112
  -0.078  -0.107   0.088  -0.004  -0.045  -0.035  -0.031   0.035  -0.040   0.075
  -0.034  -0.025   0.067  -0.018  -0.037  -0.028   0.035  -0.041  -0.024   0.036
   0.019  -0.010  -0.051   0.017   0.020  -0.016  -0.053   0.014   0.041   0.007
  -0.041   0.000   0.038   0.040  -0.003  -0.054  -0.003   0.051   0.018  -0.090
   0.074  -0.000  -0.008   0.013  -0.056   0.063  -0.085   0.040  -0.064   0.078
   0.022  -0.051  -0.020   0.038   0.041  -0.002  -0.077   0.036   0.031  -0.027
   0.058  -0.055   0.036  -0.026   0.022  -0.017  -0.027   0.086  -0.012  -0.052
   0.044  -0.027  -0.020  -0.025   0.076   0.048  -0.064  -0.043   0.041   0.064
  -0.043  -0.077  -0.009   0.100  -0.003  -0.029  -0.036   0.053   0.013  -0.072
   0.044  -0.016   0.027   0.001   0.020   0.011  -0.018   0.031  -0.048   0.042
  -0.054   0.036   0.029   0.010  -0.038   0.055  -0.018   0.030   0.035  -0.017
  -0.036   0.043   0.017  -0.003   0.011  -0.082   0.055  -0.091   0.138  -0.010
  -0.025   0.001   0.036  -0.017  -0.057   0.025  -0.022  -0.005   0.024  -0.034
  -0.019  -0.039   0.041   0.050  -0.044  -0.015   0.041  -0.010   0.028   0.039
  -0.031   0.002  -0.018  -0.017  -0.004   0.006   0.008  -0.002   0.017  -0.031
  -0.032  -0.015   0.068  -0.045   0.018   0.028   0.028  -0.013  -0.035   0.053
   0.008   0.031  -0.060   0.028   0.062  -0.008  -0.033  -0.042   0.077   0.007
  -0.021  -0.039  -0.011   0.078  -0.011  -0.043   0.008   0.035  -0.018  -0.034
   0.038  -0.026   0.021  -0.018   0.052   0.014  -0.038  -0.002   0.036  -0.031
   0.016  -0.062   0.018  -0.008   0.018  -0.032  -0.050   0.045  -0.018  -0.023
   0.065  -0.080   0.029  -0.003  -0.026   0.047  -0.024  -0.027   0.005   0.024
  -0.006  -0.050   0.030   0.024  -0.032  -0.052  -0.022   0.060  -0.049  -0.014
   0.015   0.042   0.022  -0.022  -0.031   0.018   0.007   0.042  -0.030  -0.084
   0.065   0.047  -0.033  -0.078   0.002   0.081   0.008  -0.001  -0.068   0.022
   0.039  -0.027  -0.018  -0.049   0.018   0.073   0.006  -0.078   0.015   0.071
  -0.020  -0.044  -0.008   0.034   0.002   0.009  -0.013  -0.010   0.042  -0.062
   0.013   0.017  -0.004  -0.006  -0.015   0.002   0.051   0.018  -0.069  -0.064
   0.060   0.032   0.038  -0.077  -0.092   0.032   0.041   0.000  -0.037  -0.055
   0.005   0.068  -0.001   0.001  -0.026  -0.039   0.012   0.054  -0.009  -0.018
  -0.017   0.027   0.041  -0.018  -0.024   0.060  -0.026   0.010   0.025  -0.025
  -0.021  -0.019  -0.021   0.060   0.063   0.029  -0.020  -0.077  -0.007   0.090
   0.021  -0.054  -0.013  -0.007   0.007  -0.024  -0.059   0.064   0.011  -0.063
   0.035  -0.036   0.052   0.056  -0.055  -0.071   0.059   0.047  -0.058  -0.029
   0.020   0.048   0.047   0.010  -0.145   0.036   0.056   0.002  -0.026  -0.008
   0.077   0.012   0.023  -0.020  -0.032   0.017   0.023   0.010  -0.051  -0.001
   0.031   0.073  -0.043  -0.043  -0.018   0.054  -0.014   0.035   0.052  -0.028
  -0.003   0.006   0.019  -0.011  -0.057   0.004   0.020  -0.024   0.012  -0.010
   0.031  -0.029  -0.012   0.081  -0.027  -0.096   0.044   0.047  -0.014  -0.037
  -0.031   0.044   0.040  -0.044  -0.017  -0.012  -0.008  -0.017   0.011   0.007
   0.003  -0.006   0.026  -0.010  -0.038   0.001   0.034  -0.039  -0.037   0.025
  -0.007  -0.019   0.016   0.010  -0.030   0.052  -0.050   0.065   0.043  -0.078
  -0.004   0.046   0.021   0.016   0.002  -0.105   0.103   0.003  -0.039  -0.020
  -0.045   0.061   0.047   0.011  -0.033  -0.040   0.025   0.103   0.042  -0.091
  -0.040   0.106  -0.027  -0.066   0.048   0.031  -0.080   0.003  -0.002  -0.028
   0.095   0.015  -0.030  -0.066  -0.013   0.062   0.064  -0.043  -0.065   0.058
   0.065  -0.053  -0.104   0.081   0.016   0.035  -0.060  -0.031   0.043   0.044
   0.015  -0.055   0.045  -0.065   0.047  -0.011   0.006   0.034   0.058  -0.072
  -0.012   0.044  -0.033   0.021  -0.020  -0.056   0.088   0.011  -0.019  -0.035
   0.017  -0.033   0.040   0.002  -0.050   0.001   0.060  -0.031  -0.039  -0.053
   0.112  -0.047  -0.000  -0.010   0.065   0.059  -0.043   0.004  -0.004  -0.059
   0.037   0.029  -0.050   0.003   0.003   0.086  -0.043  -0.015  -0.017   0.006
  -0.000  -0.027   0.010   0.004  -0.026  -0.000   0.001  -0.023   0.035  -0.005
  -0.055  -0.023   0.019   0.017  -0.009  -0.062   0.003   0.053   0.055  -0.048
  -0.013  -0.028   0.011   0.068  -0.001  -0.012  -0.016  -0.050   0.071  -0.065
  -0.003  -0.009   0.033  -0.015  -0.014  -0.021  -0.008  -0.038   0.001  -0.035
   0.014  -0.027  -0.036   0.027   0.004  -0.017  -0.034   0.017  -0.037  -0.018
   0.028  -0.015  -0.018  -0.052   0.028   0.026  -0.016   0.001  -0.031   0.006
  -0.001  -0.029  -0.041   0.011  -0.018   0.003  -0.027  -0.015   0.018  -0.014
  -0.027   0.058  -0.033   0.004  -0.054   0.006   0.028  -0.042  -0.007  -0.000
  -0.011  -0.008  -0.003  -0.010   0.019  -0.008  -0.001  -0.016   0.007  -0.017
   0.001   0.010  -0.019  -0.028   0.071  -0.055   0.009  -0.013  -0.003   0.001
  -0.013  -0.021  -0.027  -0.008  -0.029   0.044  -0.033   0.008  -0.012  -0.031
   0.003   0.014  -0.007  -0.042   0.008  -0.028  -0.007  -0.015  -0.011  -0.019
   0.035  -0.015   0.019  -0.003  -0.024   0.038  -0.009   0.006  -0.023  -0.002
   0.006   0.002  -0.015   0.057  -0.014  -0.008  -0.017   0.020  -0.012   0.054
   0.016   0.108   0.026   0.037   0.007   0.095   0.051   0.057   0.031   0.016
   0.084   0.062   0.098   0.090   0.099   0.022   0.110   0.002   0.074   0.000
   0.023   0.006   0.029   0.139   0.098   0.110   0.108   0.156   0.100  -0.034
   0.016  -0.028  -0.047  -0.087  -0.067   0.079   0.012   0.169   0.190   0.145
   0.095  -0.085   0.067  -0.071  -0.090  -0.144  -0.079   0.083  -0.014   0.182
   0.104   0.193  -0.026  -0.031   0.018  -0.047   0.029  -0.163  -0.016  -0.019
  -0.025   0.126  -0.034   0.168   0.075   0.065  -0.016   0.060   0.123  -0.061
  -0.113  -0.223  -0.121  -0.057  -0.135  -0.204  -0.043   0.207   0.045   0.298
   0.299   0.168   0.026  -0.211  -0.021  -0.060  -0.218  -0.121  -0.022  -0.076
  -0.178   0.126  -0.009  -0.103  -0.124  -0.065   0.108   0.004  -0.182  -0.211
  -0.246  -0.259  -0.073  -0.190  -0.384  -0.276  -0.136  -0.405  -0.246  -0.336
  -0.516  -0.459  -0.200  -0.467  -0.356   0.097  -0.407  -0.247   0.196  -0.094
  -0.043   0.425   0.126  -0.117  -0.341  -0.112   0.026   0.358   0.064  -0.134
  -0.127  -0.138  -0.158   0.206  -0.103  -0.316  -0.050   0.455   0.737   0.321
   0.021  -0.084  -0.277  -0.363   0.089   0.140   0.520   0.421   0.988   0.988
   1.295   0.926   0.453  -0.221  -0.344  -0.495  -0.365  -0.004  -0.004   0.120
