Corrected accelerogram 20160214_001343_HMCS_20 GNS Science
Site HMCS      42 43 01S  170 57 50E     Cusp file:  20160214_001414_HMCS
Hokitika Medical Centre
Instrument Cusp_42065
Resolution: 18-bit   Instr Period: 0.0050 s   Damping: 0.700
Accelerogram 20160214_001343_HMCS_20                 Processed 2016 February 22
11 km east of CHRISTCHURCH
2016 February 14         00:13:43 UT
Epicentre  43 29 50S 172 45 18E  Bearing S59E  Dist  170km  Depth    8km M  5.70
Number of points  8192    Duration 163.82 sec
Instrument corrected data at 0.020 sec intervals
Band-pass filter transition bands are .10-.25 Hz and 24.50-25.50 Hz
Component N00E  Horizontal Axis 1
Acceleration:  peak    -18.4 mm/s/s at  62.98 sec     rms      2.0 mm/s/s
Velocity:      peak     2.22 mm/s   at  95.20 sec     rms     0.50 mm/s
Displacement:  peak   -1.151 mm     at 102.62 sec     rms    0.278 mm
    2016       2      14       0      13     430       0       0    2016       2
      43      29      50     172      45      18       8       0      14       0
      42      43       1     170      57      50       0       0     121     170
   33584     250     250    8192    8192    8192       0       0      13   34640
   200.0    0.70    0.00   0.000  0.0000   0.000   0.000   1.000     0.0    0.00
  42.717 170.964   43.50  172.76    5.70    0.00    0.00    0.00      0.      0.
  167.91    5.00    5.00  163.82  0.0050  0.0200      0.      0.      0.  9806.6
   -19.0   62.98     2.1   0.000      0.   -18.4   62.98     2.0    20.0   0.385
    2.22   95.20    0.50    2.42   0.238   -1.15  102.62    0.28    1.37   0.235
   0.100   0.150   0.250      0.      0.  24.500   1.000  25.500      0.      0.
  -0.000  -0.001  -0.000  -0.001  -0.000  -0.001  -0.000  -0.001  -0.000  -0.000
  -0.000  -0.000  -0.000  -0.000   0.000  -0.000   0.000  -0.000   0.000  -0.000
   0.000  -0.000   0.000  -0.000   0.000   0.000   0.000   0.000   0.001   0.000
   0.001   0.000   0.001   0.000   0.001   0.000   0.001   0.001   0.001   0.001
   0.001   0.001   0.001   0.001   0.001   0.001   0.001   0.001   0.001   0.001
   0.002   0.001   0.002   0.001   0.002   0.001   0.002   0.001   0.002   0.001
   0.002   0.002   0.002   0.002   0.002   0.002   0.002   0.002   0.002   0.002
   0.002   0.002   0.003   0.002   0.003   0.002   0.003   0.002   0.003   0.002
   0.003   0.002   0.003   0.002   0.003   0.002   0.003   0.003   0.003   0.003
   0.003   0.003   0.003   0.003   0.003   0.003   0.003   0.003   0.003   0.003
   0.003   0.003   0.003   0.003   0.003   0.003   0.003   0.003   0.003   0.003
   0.003   0.003   0.003   0.003   0.003   0.003   0.003   0.003   0.003   0.002
   0.003   0.002   0.003   0.002   0.003   0.002   0.003   0.002   0.003   0.002
   0.003   0.002   0.002   0.002   0.002   0.002   0.002   0.002   0.002   0.001
   0.002   0.001   0.002   0.001   0.002   0.001   0.002   0.001   0.001   0.001
   0.001   0.000   0.001   0.000   0.001  -0.000   0.000  -0.000   0.000  -0.001
   0.000  -0.001  -0.000  -0.001  -0.000  -0.001  -0.001  -0.002  -0.001  -0.002
  -0.001  -0.002  -0.002  -0.003  -0.002  -0.003  -0.002  -0.003  -0.003  -0.003
  -0.003  -0.004  -0.003  -0.004  -0.004  -0.005  -0.004  -0.005  -0.004  -0.005
  -0.005  -0.006  -0.005  -0.006  -0.006  -0.006  -0.006  -0.007  -0.006  -0.007
  -0.007  -0.008  -0.007  -0.008  -0.008  -0.008  -0.008  -0.009  -0.008  -0.009
  -0.009  -0.010  -0.009  -0.010  -0.010  -0.011  -0.010  -0.011  -0.010  -0.012
  -0.011  -0.012  -0.011  -0.013  -0.011  -0.013  -0.012  -0.014  -0.012  -0.015
  -0.012  -0.015  -0.013  -0.016  -0.013  -0.017  -0.013  -0.017  -0.013  -0.018
  -0.013  -0.019  -0.013  -0.020  -0.012  -0.022  -0.011  -0.025  -0.008  -0.033
   0.115  -0.038  -0.145  -0.079  -0.037  -0.009   0.016   0.049  -0.039  -0.137
   0.067  -0.055  -0.102   0.051  -0.158  -0.058   0.076   0.084  -0.075   0.085
   0.132   0.115   0.031  -0.027   0.034   0.029   0.100   0.055  -0.055   0.159
   0.179  -0.099   0.215   0.132   0.130  -0.156   0.061   0.176   0.110  -0.055
  -0.040   0.059   0.019  -0.180  -0.053   0.182  -0.042  -0.235   0.157   0.125
  -0.061  -0.098   0.170  -0.034  -0.117   0.080   0.005  -0.269   0.122   0.120
  -0.067   0.136   0.047  -0.125   0.127   0.135  -0.036   0.143  -0.075   0.141
  -0.119   0.220  -0.055  -0.242   0.107   0.165  -0.141  -0.048   0.023   0.083
  -0.182   0.170  -0.136   0.017   0.035   0.115  -0.198   0.112   0.094  -0.060
   0.042  -0.088  -0.117   0.073   0.137   0.159  -0.076  -0.063   0.069   0.029
  -0.005   0.026  -0.036  -0.165  -0.038  -0.140   0.051  -0.003  -0.024   0.010
  -0.016  -0.153  -0.063   0.038  -0.181   0.063   0.039   0.056   0.001  -0.062
   0.014  -0.041   0.075  -0.015  -0.088  -0.035   0.006   0.007   0.056  -0.010
   0.152  -0.189   0.092   0.165  -0.187   0.078   0.185  -0.152   0.089   0.097
  -0.041  -0.109   0.197   0.052  -0.148   0.035   0.015  -0.026  -0.157   0.026
   0.069  -0.086   0.023  -0.090  -0.254  -0.148   0.115  -0.053   0.120  -0.248
  -0.049  -0.032  -0.004   0.132   0.018  -0.177   0.011  -0.018   0.034   0.069
  -0.046  -0.012  -0.150  -0.016   0.097  -0.010  -0.253   0.149   0.134  -0.027
  -0.011   0.151  -0.092   0.081   0.092  -0.243   0.094  -0.116  -0.137   0.080
  -0.035   0.110   0.054   0.117  -0.108  -0.087   0.108  -0.141  -0.038  -0.089
   0.026  -0.171  -0.072   0.183  -0.135  -0.052   0.057  -0.066   0.001   0.062
   0.111  -0.048   0.021   0.182   0.058  -0.110  -0.027   0.048  -0.156  -0.061
   0.007   0.140  -0.127   0.021  -0.084   0.105  -0.123   0.089   0.156  -0.108
  -0.024   0.099   0.159   0.113   0.143  -0.026   0.088   0.165   0.143   0.091
  -0.004   0.062   0.222   0.082   0.051  -0.006  -0.026  -0.115   0.040   0.031
  -0.143   0.053   0.113  -0.089  -0.034  -0.025  -0.030   0.072  -0.026   0.117
  -0.025   0.011  -0.155  -0.011   0.088   0.072  -0.086   0.004  -0.158  -0.052
   0.082   0.056   0.004  -0.068   0.044  -0.039  -0.313   0.155   0.072  -0.187
   0.159  -0.238  -0.115   0.189  -0.040  -0.034  -0.080   0.025   0.100  -0.026
  -0.050   0.127  -0.100  -0.108  -0.064  -0.147   0.165  -0.170  -0.060   0.046
  -0.169  -0.015  -0.105  -0.054   0.131  -0.070   0.161  -0.090  -0.052   0.184
   0.160  -0.096   0.030  -0.016  -0.027   0.194   0.006  -0.078  -0.001   0.056
   0.045  -0.315   0.106   0.001  -0.083   0.004  -0.083  -0.092   0.106   0.107
   0.064  -0.218   0.145  -0.026   0.091   0.111  -0.058  -0.018   0.087  -0.038
   0.017   0.050   0.066  -0.070   0.056   0.118  -0.065  -0.139   0.138   0.104
  -0.094  -0.026   0.082  -0.000   0.008   0.306   0.011  -0.097   0.133   0.100
  -0.044   0.055   0.040   0.062   0.020  -0.157   0.041   0.014  -0.018   0.104
   0.147  -0.057  -0.029  -0.068   0.101  -0.150   0.115   0.125   0.048  -0.097
   0.107   0.042   0.085  -0.086  -0.011  -0.061   0.022  -0.130  -0.080   0.043
  -0.166   0.065  -0.026  -0.131   0.081   0.007  -0.075  -0.091   0.052  -0.021
   0.007  -0.135   0.105   0.012  -0.010   0.029   0.073   0.066  -0.194   0.010
   0.043  -0.345  -0.054   0.161  -0.002  -0.157   0.113  -0.016  -0.169  -0.019
  -0.095  -0.116  -0.024   0.045   0.012  -0.067   0.117  -0.139   0.016   0.034
  -0.035  -0.002  -0.086   0.148   0.006   0.033   0.131   0.155  -0.122   0.075
  -0.124   0.015   0.078  -0.068  -0.043   0.010  -0.037   0.133   0.148  -0.060
   0.056   0.236   0.053   0.044   0.057  -0.012  -0.119   0.065  -0.005  -0.170
  -0.101  -0.059  -0.122   0.042  -0.021  -0.043  -0.137  -0.099   0.167  -0.025
   0.008   0.073  -0.075   0.022   0.014  -0.082  -0.090   0.040   0.051   0.040
  -0.003   0.098  -0.155   0.147   0.176  -0.107  -0.064   0.114  -0.054   0.058
  -0.256   0.009   0.013   0.080   0.099  -0.114  -0.004   0.192  -0.067   0.182
  -0.016  -0.042   0.138  -0.026  -0.047   0.018   0.152  -0.047  -0.216   0.167
   0.059  -0.049   0.021  -0.146  -0.049  -0.000   0.185  -0.041  -0.031   0.121
  -0.163  -0.026  -0.026  -0.227   0.012  -0.088  -0.114   0.051  -0.101  -0.104
  -0.114   0.106   0.018  -0.095   0.135  -0.046  -0.100   0.097   0.129  -0.077
  -0.079   0.185  -0.077  -0.018   0.151  -0.079  -0.131  -0.026  -0.049  -0.007
  -0.038   0.001  -0.078  -0.025   0.074   0.023  -0.118  -0.140   0.106  -0.103
  -0.117   0.153  -0.033  -0.018   0.017  -0.010   0.034  -0.148   0.122  -0.109
   0.037  -0.012  -0.011   0.060   0.047  -0.022   0.078  -0.060   0.069  -0.061
   0.057  -0.015   0.049  -0.060   0.079   0.026  -0.040  -0.042   0.202   0.024
   0.110  -0.041   0.141   0.069  -0.033   0.068   0.190  -0.084  -0.169   0.243
   0.070   0.021  -0.097   0.112   0.006  -0.019   0.096  -0.066   0.081   0.228
   0.049  -0.067   0.053   0.058  -0.036   0.056   0.058   0.051   0.020   0.255
   0.148  -0.069  -0.070   0.173  -0.002   0.058   0.029  -0.028  -0.064   0.091
  -0.148  -0.003   0.026  -0.017   0.098  -0.025  -0.035   0.027   0.030  -0.086
  -0.046  -0.011   0.036   0.050  -0.056   0.065   0.041  -0.023   0.018  -0.029
   0.019  -0.061  -0.056  -0.047   0.017  -0.083  -0.061  -0.032  -0.084   0.023
   0.014   0.017   0.045   0.013   0.032  -0.074  -0.163   0.069  -0.102   0.041
   0.056   0.076  -0.059  -0.013   0.004  -0.036   0.024   0.069  -0.112  -0.089
  -0.158  -0.133  -0.028  -0.046   0.001  -0.091   0.033  -0.155  -0.134   0.135
   0.103  -0.038  -0.001  -0.082  -0.034  -0.019  -0.002  -0.040   0.079   0.055
   0.039  -0.099   0.068   0.055  -0.162   0.090   0.078  -0.007  -0.125  -0.073
   0.008  -0.092  -0.002   0.083  -0.041   0.001  -0.036   0.003  -0.005  -0.064
  -0.010   0.085   0.077  -0.084  -0.147   0.080   0.172   0.027  -0.045  -0.043
  -0.178   0.046   0.003  -0.063  -0.078   0.095   0.025  -0.132   0.092  -0.005
  -0.063  -0.054  -0.150  -0.004   0.063  -0.089  -0.025   0.070   0.024  -0.088
   0.041  -0.115  -0.067  -0.127  -0.060  -0.065  -0.115   0.011  -0.008   0.080
  -0.071   0.015  -0.038   0.129   0.043  -0.020   0.035  -0.022  -0.020   0.019
   0.159   0.015   0.040   0.079   0.104   0.056   0.093  -0.051   0.234  -0.097
   0.086   0.114  -0.088   0.265   0.043  -0.011   0.060  -0.103  -0.045   0.109
   0.030   0.014  -0.020   0.003   0.047  -0.089   0.090   0.176   0.071   0.031
   0.068   0.095   0.137  -0.087  -0.038   0.032  -0.005   0.005  -0.049   0.125
  -0.022  -0.074   0.181  -0.076  -0.128   0.098  -0.063  -0.048  -0.125  -0.046
  -0.099  -0.108   0.133  -0.080   0.044   0.059  -0.131   0.021   0.081  -0.035
  -0.099  -0.011  -0.057   0.190   0.042   0.134   0.026   0.079  -0.037  -0.017
   0.052   0.010   0.006  -0.051   0.161  -0.053   0.016  -0.058  -0.082  -0.156
  -0.005  -0.000   0.002  -0.060  -0.091   0.048   0.005  -0.048  -0.043  -0.150
   0.039   0.111  -0.034   0.003   0.026  -0.126   0.097   0.092  -0.118   0.060
  -0.063  -0.050  -0.095   0.160   0.050  -0.104   0.110   0.070  -0.050  -0.083
   0.132  -0.160   0.024   0.136   0.032   0.048  -0.079   0.009  -0.133   0.126
   0.120  -0.046  -0.088   0.157  -0.161   0.031   0.218  -0.085  -0.095   0.126
  -0.061  -0.076  -0.110   0.033  -0.068  -0.076  -0.001  -0.067  -0.087   0.197
  -0.006   0.004   0.122  -0.173  -0.023  -0.070   0.025  -0.072   0.093   0.047
   0.160   0.011  -0.056   0.048   0.035  -0.019  -0.086  -0.007   0.092  -0.046
   0.066   0.045  -0.053   0.010   0.090  -0.017  -0.091  -0.184   0.100  -0.221
  -0.038   0.172  -0.017  -0.054   0.025  -0.070  -0.111   0.103   0.038  -0.036
   0.021   0.042   0.091  -0.086   0.246  -0.006  -0.087   0.124   0.029   0.125
   0.222  -0.051   0.059  -0.030   0.052  -0.121  -0.164  -0.004  -0.029  -0.071
   0.056   0.121   0.059  -0.027   0.148   0.015  -0.144   0.180  -0.036  -0.171
  -0.057   0.081  -0.178  -0.064   0.033  -0.166  -0.155  -0.050  -0.124   0.187
  -0.139  -0.045  -0.107  -0.104   0.248  -0.131  -0.047   0.061  -0.049   0.051
  -0.018  -0.175   0.038  -0.293  -0.002   0.115  -0.149  -0.082  -0.044   0.135
   0.041  -0.105  -0.009  -0.083  -0.001  -0.007   0.116  -0.027  -0.059  -0.017
  -0.031   0.098   0.081  -0.058  -0.038   0.050   0.056   0.073  -0.047  -0.015
  -0.167   0.051   0.001  -0.105  -0.057   0.053  -0.081  -0.003   0.136  -0.089
   0.073   0.016  -0.034   0.146  -0.066  -0.090  -0.039   0.027   0.058  -0.095
  -0.068   0.049   0.090  -0.150   0.116   0.145  -0.210   0.066   0.140   0.028
   0.068   0.044   0.077  -0.013   0.189   0.075   0.040   0.137  -0.073   0.075
   0.063   0.155   0.077   0.137  -0.079   0.059   0.118   0.018  -0.038   0.251
   0.179  -0.233   0.349  -0.025   0.252  -0.360   0.166   0.199  -0.099   0.180
  -0.160  -0.076   0.013   0.339  -0.288   0.128  -0.016  -0.041   0.144  -0.186
  -0.063  -0.007   0.053  -0.024  -0.069  -0.086   0.052  -0.085  -0.178   0.053
   0.121  -0.184   0.019   0.009   0.100   0.238   0.004   0.025   0.002   0.053
  -0.059   0.054  -0.100   0.102  -0.014   0.048   0.023   0.000   0.059   0.047
  -0.072   0.102   0.006   0.061  -0.048   0.086   0.070  -0.084   0.077  -0.033
  -0.130   0.025   0.025  -0.015  -0.024  -0.032  -0.057   0.054  -0.109  -0.013
  -0.047  -0.027  -0.245   0.022   0.102  -0.064  -0.016   0.069  -0.003  -0.152
  -0.070  -0.081  -0.078   0.032  -0.010  -0.122  -0.114   0.051  -0.089  -0.046
  -0.081   0.154  -0.110  -0.008  -0.118  -0.256   0.013   0.071  -0.012  -0.028
   0.118  -0.060   0.113   0.034   0.052  -0.122  -0.049   0.039  -0.026  -0.051
   0.027   0.052  -0.210  -0.037   0.078   0.053  -0.035   0.003  -0.182  -0.011
  -0.012   0.032  -0.232  -0.014  -0.285  -0.048  -0.098   0.008   0.054   0.006
  -0.040   0.109   0.095  -0.089   0.004  -0.024  -0.194  -0.134   0.012   0.150
   0.041  -0.033   0.073  -0.088   0.045   0.045   0.078  -0.083  -0.059  -0.055
  -0.144   0.036  -0.043  -0.139   0.083   0.112  -0.070  -0.156   0.068  -0.045
  -0.096   0.094   0.023  -0.111   0.011   0.090  -0.065  -0.036   0.015  -0.047
   0.067   0.255  -0.035  -0.098   0.147  -0.005  -0.064   0.108   0.088   0.068
   0.008   0.087   0.150  -0.094   0.018   0.084  -0.113   0.068   0.264  -0.126
   0.088   0.247   0.093   0.072   0.078  -0.076   0.103   0.195   0.121   0.127
   0.084   0.060  -0.053   0.099   0.015  -0.051   0.016  -0.128   0.125  -0.055
   0.048  -0.095  -0.019   0.250  -0.091   0.089   0.083   0.007  -0.032   0.174
  -0.086  -0.126   0.163   0.043  -0.006   0.049   0.125   0.079   0.044  -0.072
   0.176  -0.063   0.034  -0.086  -0.357   0.056   0.059  -0.005   0.069   0.009
  -0.125   0.056   0.037  -0.086  -0.107  -0.029   0.030  -0.087  -0.071   0.162
  -0.060  -0.179   0.058  -0.096  -0.174   0.014  -0.002  -0.155   0.042  -0.196
   0.000   0.025   0.078  -0.107  -0.118   0.080  -0.007  -0.133  -0.066  -0.047
  -0.122  -0.053   0.058  -0.125   0.016   0.109  -0.126   0.167  -0.164  -0.085
  -0.012   0.228  -0.087  -0.115   0.095  -0.105   0.073   0.070  -0.068  -0.065
  -0.092   0.053  -0.180   0.149   0.134  -0.149   0.155   0.069  -0.016   0.005
   0.095   0.104  -0.064   0.115   0.080  -0.130   0.062  -0.030  -0.058  -0.174
   0.095   0.031   0.038   0.081   0.219  -0.126   0.136   0.062  -0.237   0.026
   0.116   0.041   0.101   0.265  -0.127   0.150   0.101  -0.066   0.313  -0.063
   0.177  -0.000  -0.078   0.050  -0.069   0.132  -0.064   0.087   0.027  -0.112
  -0.100  -0.091  -0.016   0.063   0.067  -0.028  -0.192  -0.108  -0.018   0.097
   0.048   0.025   0.035  -0.014   0.055   0.067  -0.052  -0.125   0.020  -0.031
  -0.156   0.152   0.063  -0.185   0.001   0.141  -0.040   0.002   0.097  -0.021
   0.018   0.051   0.001  -0.059   0.083  -0.034   0.009  -0.015  -0.017   0.087
  -0.031   0.155  -0.092  -0.006   0.133   0.056  -0.002   0.031  -0.110  -0.032
  -0.092  -0.060   0.050   0.000  -0.089   0.056  -0.084  -0.117  -0.116  -0.077
  -0.102  -0.085  -0.032  -0.084   0.086  -0.040  -0.227  -0.024  -0.088  -0.118
  -0.036  -0.149  -0.104   0.114  -0.065  -0.092   0.071  -0.036   0.020  -0.042
   0.002  -0.019  -0.053   0.015   0.027   0.005   0.007  -0.097  -0.084   0.147
  -0.169  -0.042   0.023   0.032  -0.083  -0.071  -0.004  -0.037   0.074   0.059
  -0.091  -0.073  -0.004   0.028  -0.062  -0.075   0.068   0.043   0.038   0.046
   0.101  -0.108  -0.034  -0.182   0.115   0.070   0.002  -0.207  -0.008   0.069
  -0.044   0.032   0.106  -0.185   0.003   0.080  -0.089   0.046   0.201   0.012
   0.004   0.081   0.100   0.033  -0.046   0.175   0.247   0.018  -0.064  -0.002
   0.124   0.005   0.119   0.000   0.123   0.066  -0.020   0.020   0.028  -0.040
   0.117   0.025   0.051   0.236   0.022  -0.145   0.060   0.183  -0.052  -0.132
  -0.019  -0.058  -0.107   0.041  -0.040  -0.046  -0.006   0.085   0.027   0.034
   0.107   0.135   0.138  -0.071   0.131  -0.009  -0.017  -0.048  -0.085   0.092
   0.059  -0.143   0.067   0.142  -0.006  -0.241   0.129   0.147   0.050  -0.015
   0.040  -0.133   0.057   0.092   0.096   0.189   0.013   0.039   0.004   0.055
  -0.003  -0.018   0.052   0.018   0.005   0.071  -0.094   0.152   0.091  -0.114
  -0.013  -0.049  -0.081  -0.044   0.100   0.063  -0.066  -0.125  -0.068  -0.091
  -0.109   0.081  -0.078  -0.082  -0.056   0.027  -0.305  -0.149   0.058  -0.067
   0.150  -0.181  -0.201  -0.096   0.081  -0.082  -0.163  -0.011   0.019  -0.116
   0.009   0.043   0.065  -0.095  -0.063  -0.008  -0.003   0.164  -0.071   0.021
   0.025   0.066  -0.084   0.085   0.073  -0.014  -0.010  -0.076  -0.215   0.017
   0.084   0.046   0.002   0.125  -0.026  -0.050   0.076   0.082  -0.203  -0.020
   0.133  -0.037  -0.056   0.039  -0.002  -0.017  -0.196   0.033  -0.059   0.118
  -0.045  -0.001   0.090  -0.155  -0.010  -0.047  -0.044   0.001  -0.030   0.020
  -0.065  -0.047  -0.088   0.002   0.028  -0.080   0.070  -0.002   0.007   0.134
  -0.146  -0.053   0.225  -0.134  -0.046   0.044   0.192   0.032   0.013   0.082
   0.055  -0.037   0.047  -0.029   0.069  -0.034  -0.100  -0.011   0.222  -0.115
  -0.164   0.098   0.030   0.052  -0.045  -0.019   0.038   0.133  -0.084  -0.089
   0.009   0.103   0.179  -0.030  -0.079   0.089   0.154  -0.029  -0.085   0.042
  -0.008   0.051  -0.101   0.084   0.014  -0.132   0.058  -0.056   0.027   0.107
   0.132  -0.159  -0.070   0.071   0.062  -0.093  -0.057   0.042  -0.003   0.016
   0.054  -0.034  -0.165   0.006  -0.011  -0.072  -0.063   0.028   0.099  -0.028
   0.090  -0.132  -0.022  -0.053  -0.003   0.222   0.126   0.022  -0.097  -0.013
   0.068  -0.072   0.067   0.040  -0.053   0.125   0.101  -0.038   0.011   0.038
  -0.001  -0.093  -0.025  -0.013   0.049   0.048  -0.020  -0.031   0.015  -0.034
  -0.062   0.074  -0.042   0.036   0.056   0.260  -0.041  -0.120   0.145   0.140
   0.059   0.071  -0.021  -0.138   0.076   0.082   0.133   0.191   0.135  -0.150
  -0.122   0.051   0.121   0.150   0.149   0.019  -0.350   0.062   0.044  -0.130
   0.033   0.120  -0.010  -0.140   0.040   0.038  -0.162  -0.040   0.433   0.088
  -0.076  -0.052  -0.285  -0.143  -0.100   0.319   0.249   0.026   0.123  -0.369
  -0.310   0.012   0.433   0.328  -0.403   0.172  -0.154  -0.226   0.086   0.154
   0.226   0.017  -0.161  -0.462  -0.279   0.474   0.300  -0.344   0.050  -0.213
  -0.165   0.185  -0.070   0.476  -0.586  -0.798  -0.037   0.413   0.381   0.411
  -0.112  -1.016  -0.571   0.679  -0.073   0.473   0.198  -0.278  -0.971  -0.829
   1.288   0.612  -0.429  -0.253  -0.380  -0.151   0.590   0.862   0.289  -1.048
  -1.592  -1.026   0.609   1.364   0.421  -0.058  -1.571  -1.435   0.167   0.435
   1.477  -0.169  -1.629  -0.103  -0.978  -0.156   1.204   1.054   0.863  -1.879
  -1.843   0.005  -0.422   1.313   1.744  -0.498  -1.371  -0.998   0.393   1.214
   0.286  -0.161  -0.129  -0.996   1.386   0.450   0.414  -0.195  -0.335   0.053
  -1.141   0.853   1.329  -0.037  -2.140  -1.842   0.340  -0.187   2.319  -0.028
  -2.900  -0.795  -0.688   1.420   1.620   0.138  -0.253   0.806   0.548  -0.029
   1.563   0.501   1.360   0.238  -0.479   0.980  -0.180   1.022   2.399   1.231
   0.211  -2.491  -0.402  -1.469  -0.560   0.315  -0.764   1.092  -0.285   0.217
   0.928   0.403   1.120  -0.937  -1.827   0.542   3.972   3.057   2.012  -0.273
