Corrected accelerogram 20160214_001343_GDLC_20 GNS Science
Site GDLC      43 35 10S  172 05 20E     Cusp file:  20160214_001354_GDLC
Greendale
Instrument Cusp_10461
Resolution: 18-bit   Instr Period: 0.0050 s   Damping: 0.700
Accelerogram 20160214_001343_GDLC_20                 Processed 2016 February 22
11 km east of CHRISTCHURCH
2016 February 14         00:13:43 UT
Epicentre  43 29 50S 172 45 18E  Bearing N80E  Dist   55km  Depth    8km M  5.70
Number of points  8192    Duration 163.82 sec
Instrument corrected data at 0.020 sec intervals
Band-pass filter transition bands are .10-.25 Hz and 24.50-25.50 Hz
Component N00E  Horizontal Axis 1
Acceleration:  peak     76.0 mm/s/s at  50.06 sec     rms      7.1 mm/s/s
Velocity:      peak     9.37 mm/s   at  53.76 sec     rms     1.87 mm/s
Displacement:  peak    4.452 mm     at  54.44 sec     rms    1.037 mm
    2016       2      14       0      13     430       0       0    2016       2
      43      29      50     172      45      18       8       0      14       0
      43      35      10     172       5      20       0       0      80      55
   34918     250     250    8192    8192    8192       0       0      13   14423
   200.0    0.70    0.00   0.000  0.0000   0.000   0.000   1.000     0.0    0.00
  43.586 172.089   43.50  172.76    5.70    0.00    0.00    0.00      0.      0.
  174.59    5.00    5.00  163.82  0.0050  0.0200      0.      0.      0.  9806.6
    78.5   50.06     7.5   0.000      0.    76.0   50.06     7.1   105.0   0.305
    9.37   53.76    1.87    9.97   0.241    4.45   54.44    1.04    4.73   0.241
   0.100   0.150   0.250      0.      0.  24.500   1.000  25.500      0.      0.
  -0.001  -0.004  -0.001  -0.004  -0.001  -0.004  -0.001  -0.004  -0.001  -0.004
  -0.001  -0.004  -0.001  -0.004  -0.001  -0.004  -0.000  -0.004  -0.000  -0.004
  -0.000  -0.004  -0.000  -0.003  -0.000  -0.003   0.000  -0.003   0.000  -0.003
   0.000  -0.003   0.001  -0.003   0.001  -0.003   0.001  -0.002   0.001  -0.002
   0.001  -0.002   0.001  -0.002   0.001  -0.002   0.002  -0.002   0.002  -0.002
   0.002  -0.001   0.002  -0.001   0.002  -0.001   0.003  -0.001   0.003  -0.001
   0.003  -0.000   0.003  -0.000   0.003   0.000   0.004   0.000   0.004   0.000
   0.004   0.001   0.004   0.001   0.004   0.001   0.005   0.001   0.005   0.002
   0.005   0.002   0.005   0.002   0.005   0.002   0.006   0.002   0.006   0.003
   0.006   0.003   0.006   0.003   0.006   0.003   0.007   0.003   0.007   0.004
   0.007   0.004   0.007   0.004   0.007   0.004   0.008   0.004   0.008   0.005
   0.008   0.005   0.008   0.005   0.008   0.005   0.008   0.005   0.009   0.006
   0.009   0.006   0.009   0.006   0.009   0.006   0.009   0.006   0.009   0.006
   0.009   0.006   0.010   0.006   0.010   0.006   0.010   0.007   0.010   0.007
   0.010   0.007   0.010   0.007   0.010   0.007   0.010   0.007   0.010   0.007
   0.010   0.007   0.010   0.007   0.010   0.007   0.010   0.007   0.010   0.007
   0.010   0.007   0.010   0.007   0.009   0.007   0.009   0.006   0.009   0.006
   0.009   0.006   0.008   0.006   0.008   0.006   0.008   0.006   0.007   0.006
   0.007   0.005   0.007   0.005   0.006   0.005   0.006   0.005   0.005   0.005
   0.004   0.004   0.004   0.004   0.003   0.004   0.002   0.004   0.002   0.003
   0.001   0.003   0.000   0.003  -0.001   0.002  -0.002   0.002  -0.003   0.001
  -0.004   0.001  -0.005   0.001  -0.006   0.000  -0.007  -0.000  -0.008  -0.001
  -0.010  -0.001  -0.011  -0.002  -0.013  -0.002  -0.014  -0.002  -0.016  -0.003
  -0.018  -0.003  -0.019  -0.003  -0.021  -0.003  -0.024  -0.003  -0.026  -0.003
  -0.029  -0.003  -0.033  -0.001  -0.037   0.002  -0.044   0.008  -0.057   0.033
  -0.170  -0.439  -0.316   0.196  -0.172  -0.326  -0.126  -0.248  -0.137  -0.069
  -0.277  -0.026   0.111   0.091   0.259  -0.237   0.031  -0.166   0.043  -0.204
  -0.039  -0.199   0.261  -0.070   0.039  -0.254   0.314   0.510   0.609   0.164
   0.428  -0.061   0.107  -0.136  -0.290  -0.166   0.123  -0.209  -0.081  -0.238
  -0.445  -0.149  -0.229   0.045   0.013  -0.065   0.069  -0.121  -0.164   0.293
   0.210   0.067   0.123   0.441   0.354   0.353   0.364   0.607   0.153   0.138
   0.048   0.135  -0.325   0.004   0.319   0.387  -0.041   0.051  -0.397   0.195
   0.068   0.102  -0.136  -0.002   0.172   0.107   0.161   0.357   0.467  -0.047
   0.154  -0.241   0.083  -0.274  -0.083   0.276   0.107   0.065  -0.107  -0.286
   0.037   0.143   0.118  -0.074  -0.019  -0.015  -0.175  -0.137  -0.276  -0.378
  -0.331  -0.210   0.149  -0.079  -0.265  -0.181  -0.405  -0.080  -0.182  -0.199
  -0.290  -0.185  -0.067  -0.018   0.061  -0.251  -0.166   0.136   0.177  -0.150
  -0.152  -0.106   0.013  -0.335  -0.187  -0.116   0.303  -0.054  -0.104   0.171
  -0.213  -0.022   0.159   0.223   0.132   0.232   0.137   0.131   0.283   0.080
   0.627   0.085   0.363  -0.264  -0.434  -0.226  -0.285   0.120   0.281   0.043
   0.237   0.176   0.035   0.117   0.081  -0.214  -0.151   0.013   0.048  -0.311
   0.336  -0.320   0.026   0.229   0.043  -0.199  -0.116  -0.011  -0.538  -0.238
  -0.171   0.161  -0.706   0.009  -0.299  -0.358   0.014   0.002   0.053   0.120
  -0.164   0.291   0.131   0.174   0.072  -0.112   0.053  -0.113   0.195   0.194
  -0.064   0.142   0.124   0.014  -0.312  -0.523  -0.076  -0.028  -0.105   0.151
  -0.010   0.145   0.039   0.035   0.030   0.256  -0.057  -0.164   0.014   0.048
  -0.396  -0.025   0.156  -0.229   0.048  -0.082   0.144  -0.213   0.155   0.070
   0.377   0.387   0.489  -0.050   0.064   0.256   0.224   0.133  -0.065   0.407
   0.332  -0.388  -0.156   0.192   0.145   0.332   0.230  -0.047  -0.092   0.246
   0.139   0.219   0.880   0.243   0.197   0.260   0.370   0.194  -0.450  -0.057
   0.348   0.294   0.311   0.385   0.091   0.226  -0.086  -0.124   0.003  -0.085
  -0.144   0.388  -0.073  -0.349  -0.312   0.115  -0.293   0.528  -0.373  -0.295
  -0.205  -0.073   0.227   0.192  -0.565  -0.118   0.368  -0.232  -0.204  -0.191
  -0.352  -0.288   0.307   0.131   0.148  -0.195  -0.393  -0.044   0.103   0.152
  -0.718  -0.164  -0.185   0.093   0.298  -0.212  -0.332  -0.244  -0.164   0.122
   0.073   0.098   0.015  -0.329  -0.045   0.399   0.023  -0.120   0.115  -0.176
  -0.093  -0.049   0.236  -0.073   0.186   0.159  -0.018  -0.177  -0.101   0.112
  -0.030  -0.167  -0.254  -0.065   0.248  -0.265  -0.086  -0.180  -0.036  -0.129
  -0.031  -0.307  -0.216  -0.483  -0.290   0.181  -0.607  -0.401   0.127  -0.204
   0.003  -0.293   0.263  -0.291  -0.077  -0.302   0.070   0.271   0.115   0.177
  -0.043   0.012   0.224  -0.302   0.024  -0.149  -0.403   0.027   0.059   0.049
   0.298  -0.269  -0.146   0.424  -0.022  -0.158   0.118   0.207   0.200   0.381
  -0.188  -0.296  -0.027  -0.055   0.204  -0.055  -0.142  -0.060  -0.180   0.393
  -0.279   0.021   0.113   0.310   0.111   0.202   0.070   0.187   0.619  -0.151
  -0.154   0.077   0.029   0.000   0.015  -0.111   0.254  -0.219   0.113  -0.176
   0.059   0.230   0.169  -0.039  -0.363   0.262   0.340  -0.118   0.241  -0.162
   0.085  -0.188  -0.485  -0.197   0.126   0.265   0.271   0.112  -0.161  -0.417
   0.274   0.279   0.249   0.021  -0.232   0.543  -0.299  -0.165   0.164   0.267
  -0.064  -0.200   0.563  -0.024   0.059   0.246  -0.235  -0.138   0.074   0.155
   0.022  -0.121  -0.384   0.052   0.347  -0.014  -0.209   0.003   0.460   0.083
   0.149   0.134   0.142   0.111  -0.129   0.184  -0.022  -0.013  -0.211   0.160
  -0.148   0.016   0.218  -0.200   0.299   0.468   0.501  -0.019  -0.176  -0.136
   0.028  -0.088  -0.134  -0.073  -0.408   0.175  -0.016  -0.210  -0.075   0.079
  -0.063  -0.230  -0.215  -0.312  -0.279   0.121   0.485   0.028   0.080  -0.236
  -0.072   0.311   0.157   0.349   0.284   0.383  -0.185  -0.125   0.096  -0.262
   0.028   0.032  -0.220  -0.275  -0.378  -0.166   0.128  -0.054   0.009   0.017
  -0.449   0.040   0.120   0.131   0.102  -0.334   0.182  -0.300  -0.197  -0.301
   0.221  -0.169  -0.125  -0.406  -0.034  -0.158  -0.173   0.034  -0.074  -0.007
  -0.307  -0.009  -0.359  -0.121   0.061   0.181  -0.034  -0.011   0.096   0.213
   0.288   0.005   0.084  -0.175   0.398   0.275  -0.119   0.352   0.391   0.435
  -0.001  -0.067   0.399   0.311   0.201   0.308   0.274   0.142  -0.083   0.099
  -0.482  -0.188  -0.460  -0.213  -0.032  -0.080   0.065  -0.265  -0.184  -0.004
   0.367  -0.194  -0.212   0.266  -0.019   0.123   0.281   0.230   0.014  -0.207
  -0.072   0.330  -0.080  -0.143  -0.391  -0.407   0.071   0.281   0.219   0.088
  -0.057   0.115   0.082   0.289  -0.268  -0.400   0.226   0.021  -0.192  -0.469
  -0.369  -0.012  -0.217   0.206   0.300   0.021   0.081  -0.318  -0.020   0.005
  -0.350  -0.124  -0.065   0.332  -0.317   0.117   0.021  -0.253  -0.219  -0.412
   0.158   0.178  -0.320  -0.117   0.074   0.031   0.135   0.103  -0.155  -0.220
   0.055   0.153  -0.054   0.093   0.456   0.379   0.226   0.133  -0.018  -0.223
   0.095   0.280  -0.209  -0.015  -0.190   0.079   0.356   0.286   0.308  -0.235
   0.240  -0.183   0.071   0.333   0.137  -0.034   0.039   0.298  -0.310  -0.257
   0.251  -0.000  -0.000  -0.166   0.352   0.335  -0.029  -0.086   0.284  -0.036
  -0.166  -0.022  -0.315  -0.253  -0.330   0.266   0.248   0.247  -0.016   0.182
  -0.263  -0.200  -0.343  -0.171  -0.311  -0.252  -0.057  -0.530  -0.150  -0.033
  -0.074   0.199  -0.070   0.060  -0.129   0.026  -0.066  -0.198  -0.054   0.046
   0.417  -0.007   0.001   0.271  -0.110   0.040  -0.062   0.120  -0.179  -0.062
  -0.059  -0.131   0.013   0.056   0.067   0.236   0.012   0.233   0.029  -0.368
  -0.075   0.190   0.092  -0.069  -0.001   0.226  -0.295  -0.015  -0.098  -0.221
  -0.109   0.058  -0.033   0.635  -0.021  -0.083  -0.361  -0.157  -0.083  -0.272
   0.133  -0.385   0.385   0.099   0.091   0.049  -0.347   0.123   0.294   0.137
   0.221   0.104  -0.130  -0.140  -0.145   0.198  -0.390  -0.070  -0.219   0.076
  -0.037   0.277   0.151  -0.123   0.157   0.278   0.330   0.147  -0.186   0.281
   0.185   0.082  -0.142   0.095   0.117  -0.155  -0.186   0.029  -0.027  -0.074
  -0.111   0.378   0.213  -0.098  -0.037  -0.433   0.006  -0.500   0.053   0.236
  -0.177   0.384  -0.154   0.395  -0.027  -0.110   0.292  -0.170   0.097   0.248
   0.603   0.222   0.324   0.074   0.138  -0.062  -0.040   0.050   0.050   0.412
  -0.183   0.126  -0.149  -0.060   0.144   0.242   0.071   0.013   0.123   0.220
   0.095  -0.298   0.175  -0.186  -0.207   0.112   0.019  -0.037   0.059   0.143
  -0.106   0.221   0.294  -0.285  -0.579   0.281  -0.046  -0.047  -0.090   0.227
  -0.113  -0.391  -0.291  -0.372  -0.198   0.020  -0.362   0.218   0.020  -0.140
  -0.034  -0.160   0.022  -0.208  -0.122  -0.166  -0.138   0.179   0.031  -0.109
   0.064   0.049  -0.088   0.189  -0.121  -0.109  -0.019  -0.129  -0.302   0.023
  -0.111  -0.118  -0.183   0.274   0.209   0.001  -0.451  -0.259   0.027   0.097
   0.250  -0.391  -0.053  -0.175   0.105   0.160   0.017  -0.157  -0.231  -0.205
  -0.510  -0.339  -0.061  -0.648   0.480   0.179  -0.003  -0.063   0.018  -0.098
  -0.013  -0.188   0.432   0.097   0.029   0.119   0.500   0.193  -0.324  -0.373
  -0.266  -0.010   0.089   0.041  -0.210   0.147  -0.087   0.009  -0.193   0.110
   0.116  -0.204   0.177  -0.193  -0.092   0.039  -0.180   0.253   0.301   0.031
  -0.037   0.077  -0.240  -0.090   0.182  -0.010   0.028   0.319   0.033  -0.004
   0.266   0.071  -0.060   0.473   0.325   0.215  -0.126   0.252   0.118   0.099
   0.224   0.034   0.181   0.067   0.015  -0.278   0.093   0.176  -0.138  -0.038
  -0.149   0.390  -0.587   0.190   0.073  -0.062   0.076  -0.725   0.049   0.146
  -0.005  -0.041   0.108   0.145  -0.016   0.097   0.202   0.069   0.501   0.266
   0.267   0.347  -0.036   0.199   0.021   0.356   0.283  -0.074   0.444   0.100
   0.315  -0.088  -0.050   0.008  -0.079  -0.417  -0.496  -0.107  -0.158  -0.119
  -0.245   0.198   0.283   0.259  -0.095  -0.117  -0.185   0.186  -0.199   0.224
  -0.008   0.210  -0.461   0.120  -0.324  -0.095   0.229  -0.601   0.149  -0.394
   0.042  -0.129  -0.118   0.207  -0.104  -0.061  -0.184  -0.056   0.387  -0.127
   0.130  -0.307   0.265  -0.148   0.200  -0.247  -0.096   0.425  -0.174   0.074
  -0.037  -0.161   0.183   0.251  -0.261   0.390  -0.338  -0.171  -0.171   0.421
   0.006  -0.007   0.024   0.255  -0.147   0.104  -0.175   0.071  -0.172   0.037
  -0.021   0.003  -0.071   0.380   0.137  -0.154  -0.196   0.047  -0.164   0.062
   0.138  -0.001   0.410   0.083   0.155   0.058   0.350   0.219  -0.094   0.262
  -0.187  -0.108  -0.056   0.058   0.072  -0.097   0.353  -0.226  -0.247   0.314
  -0.130  -0.250   0.463  -0.121   0.085  -0.167   0.036  -0.069  -0.109  -0.443
  -0.035  -0.346  -0.230   0.206  -0.063  -0.189  -0.164  -0.102   0.069  -0.188
  -0.109  -0.196  -0.408  -0.122   0.049   0.085  -0.096   0.234  -0.111   0.328
  -0.052  -0.030   0.345  -0.373   0.085  -0.023   0.176   0.141  -0.373  -0.090
  -0.023  -0.131   0.045   0.130   0.084  -0.180  -0.085   0.021  -0.155   0.215
   0.118   0.149   0.119   0.270  -0.012  -0.022  -0.238   0.018  -0.117   0.117
   0.416  -0.227  -0.703  -0.150  -0.609  -0.124  -0.041  -0.021  -0.058  -0.433
  -0.181  -0.351  -0.105  -0.579  -0.146   0.066   0.019   0.100  -0.223   0.082
  -0.030  -0.038  -0.113  -0.208  -0.355  -0.424  -0.161   0.146   0.063  -0.076
  -0.210  -0.062  -0.351   0.430   0.117  -0.124   0.049  -0.185  -0.322  -0.256
   0.209  -0.252  -0.128  -0.112   0.096   0.258   0.198   0.354   0.188   0.144
  -0.039   0.148   0.265   0.266   0.141   0.454   0.082  -0.042   0.325  -0.066
   0.117  -0.014   0.156   0.266   0.084   0.622  -0.158   0.135   0.662   0.254
   0.347   0.166   0.351   0.389   0.108  -0.130   0.303   0.118   0.462   0.098
  -0.236   0.244   0.088   0.083   0.240   0.229  -0.025   0.033  -0.260   0.007
   0.158  -0.198  -0.027  -0.076  -0.094  -0.045  -0.149   0.322   0.037  -0.039
   0.153   0.148   0.286   0.299  -0.225   0.027  -0.561  -0.083   0.027  -0.246
  -0.001  -0.348  -0.067  -0.249  -0.232  -0.123  -0.167  -0.172   0.112  -0.179
   0.219   0.032   0.216   0.188  -0.260  -0.282   0.055  -0.076  -0.293   0.087
   0.588   0.127   0.121   0.044   0.027   0.060  -0.006  -0.128   0.029   0.325
   0.062   0.105   0.089   0.053  -0.398   0.258  -0.177  -0.137  -0.307  -0.065
  -0.082  -0.287   0.154  -0.173  -0.435   0.149   0.198   0.338  -0.125   0.308
  -0.018   0.147   0.485   0.370  -0.059   0.322  -0.329  -0.547  -0.103   0.088
  -0.111   0.032  -0.148   0.294   0.155  -0.156  -0.157  -0.607  -0.055  -0.134
   0.053  -0.101   0.351  -0.079  -0.394   0.121   0.115   0.104  -0.146  -0.051
  -0.257  -0.136   0.115  -0.322  -0.324  -0.246  -0.267  -0.038  -0.172  -0.079
   0.145   0.197   0.405   0.227   0.352  -0.053   0.120   0.047   0.234   0.201
   0.223   0.200  -0.017   0.248   0.127   0.294  -0.211   0.110  -0.215  -0.107
   0.082  -0.269  -0.225   0.071  -0.133   0.152  -0.013  -0.397   0.267  -0.062
  -0.150  -0.300  -0.313  -0.007   0.176  -0.018  -0.129   0.179   0.152   0.057
  -0.403  -0.009  -0.044   0.340   0.176   0.244   0.021  -0.076   0.036  -0.227
   0.130   0.468   0.159   0.321  -0.007  -0.114   0.139   0.641   0.097  -0.504
  -0.155  -0.321   0.297  -0.249   0.017   0.135   0.180   0.013  -0.176  -0.330
   0.142  -0.115   0.032   0.204  -0.545  -0.446  -0.072   0.244  -0.156  -0.256
  -0.266  -0.405  -0.209  -0.212   0.089  -0.473  -0.247  -0.184  -0.184  -0.083
   0.003  -0.130   0.007   0.056   0.086  -0.141  -0.087   0.116  -0.190   0.298
  -0.203   0.024   0.025   0.450   0.458   0.141  -0.236   0.327   0.008  -0.183
  -0.332  -0.047   0.223  -0.230   0.019   0.330  -0.297   0.216   0.355  -0.046
   0.253  -0.412   0.048   0.156  -0.101   0.416   0.364  -0.020   0.232   0.192
  -0.447   0.164   0.007   0.408  -0.130  -0.037  -0.053   0.217  -0.097   0.098
   0.106  -0.152   0.087   0.006  -0.333  -0.261  -0.394  -0.257   0.106   0.119
   0.089  -0.215  -0.394  -0.379  -0.053  -0.009   0.174  -0.287  -0.119   0.037
   0.049   0.100  -0.123  -0.164   0.132   0.074   0.247  -0.157   0.067   0.110
   0.183   0.018   0.226   0.166   0.198  -0.028  -0.200  -0.144  -0.026  -0.183
   0.149  -0.232  -0.139  -0.094  -0.339  -0.169   0.074  -0.033   0.030   0.196
  -0.027   0.272  -0.006   0.034  -0.061  -0.282   0.291  -0.141   0.239   0.444
  -0.042  -0.085   0.532   0.188   0.075   0.088   0.177  -0.117   0.261   0.257
  -0.105  -0.027   0.260  -0.127  -0.104  -0.071  -0.521   0.356   0.428   0.103
  -0.129   0.204   0.115   0.506   0.213   0.306  -0.019  -0.215  -0.019   0.217
   0.248   0.274   0.046   0.339  -0.048   0.251   0.242  -0.295   0.198  -0.019
  -0.181  -0.017   0.001  -0.103   0.209   0.201  -0.083   0.120   0.193  -0.097
  -0.238  -0.182  -0.247  -0.292   0.005   0.225  -0.315  -0.038   0.040  -0.075
  -0.076   0.163  -0.585  -0.225  -0.313  -0.078   0.034   0.444  -0.387  -0.063
   0.130  -0.110  -0.024  -0.019   0.216   0.081  -0.294  -0.009   0.131  -0.353
   0.300  -0.152   0.132   0.011   0.483   0.131  -0.156   0.005   0.269   0.341
   0.356  -0.572  -0.290  -0.098   0.464   0.039   0.175   0.089   0.292  -0.195
   0.108   0.026  -0.072  -0.218   0.412  -0.215  -0.088   0.071  -0.473  -0.373
   0.571  -0.465  -0.114   0.204  -0.427   0.242   0.178  -0.024  -0.166   0.004
  -0.486  -0.135  -0.086  -0.274   0.239  -0.066  -0.198   0.129  -0.636  -0.387
   0.015  -0.292  -0.140  -0.085   0.267   0.001  -0.130   0.008   0.286   0.117
   0.221   0.268   0.223  -0.154  -0.115  -0.061  -0.562  -0.211   0.351  -0.406
  -0.330  -0.007  -0.306   0.178  -0.101  -0.192   0.195  -0.016   0.059  -0.215
  -0.202  -0.287  -0.177  -0.188  -0.132  -0.108  -0.250   0.213  -0.108  -0.419
  -0.016  -0.108  -0.009   0.031  -0.092   0.025   0.336   0.154   0.050  -0.180
  -0.068  -0.003  -0.210   0.133  -0.034  -0.393   0.426   0.095  -0.105   0.242
   0.194  -0.129  -0.160   0.266   0.047  -0.229   0.027  -0.043   0.063  -0.115
   0.163  -0.167   0.268   0.430   0.131   0.139  -0.217   0.088  -0.181   0.310
   0.021   0.659   0.509   0.790   0.103  -0.022   0.267  -0.139  -0.271   0.054
   0.079   0.294  -0.255  -0.321   0.068  -0.098  -0.107   0.015   0.108   0.116
  -0.318   0.255   0.204   0.324   0.362  -0.045  -0.057  -0.088  -0.106   0.105
   0.036   0.350  -0.135  -0.061  -0.627  -0.332  -0.144   0.007   0.288  -0.130
  -0.355   0.146   0.183   0.435   0.121   0.236   0.241   0.085   0.290   0.047
   0.218   0.123   0.193   0.081  -0.130   0.226  -0.044  -0.208  -0.300   0.062
  -0.071  -0.132  -0.078  -0.090  -0.352  -0.384   0.161   0.095  -0.113  -0.062
   0.123   0.420   0.099  -0.294  -0.079   0.278  -0.118   0.145  -0.070  -0.050
  -0.275  -0.302  -0.205  -0.128  -0.316  -0.075   0.124  -0.239  -0.296   0.036
   0.159  -0.014  -0.434   0.007   0.113  -0.021  -0.051  -0.224   0.206  -0.475
   0.088   0.071  -0.069   0.093   0.200  -0.034  -0.101   0.180  -0.207   0.032
   0.606   0.203   0.096   0.061   0.253  -0.006  -0.066  -0.181   0.094   0.048
   0.016   0.330   0.250   0.173   0.139   0.105  -0.335   0.097   0.276  -0.378
   0.092  -0.035  -0.261   0.270   0.346   0.391  -0.165  -0.087  -0.116   0.232
   0.344   0.255   0.081  -0.163   0.093  -0.191   0.469  -0.358  -0.109  -0.027
   0.229   0.231   0.212   0.404   0.019  -0.158   0.288   0.048   0.115   0.098
   0.096   0.102   0.092  -0.252  -0.140  -0.137   0.009  -0.026  -0.053  -0.182
   0.001  -0.054  -0.074   0.081   0.285   0.324  -0.026   0.162  -0.094   0.268
  -0.002  -0.159  -0.033   0.304  -0.117   0.182  -0.049  -0.309  -0.002  -0.053
   0.241   0.425   0.129  -0.117   0.068   0.084  -0.205  -0.306   0.008  -0.165
   0.131   0.321  -0.083  -0.387  -0.042  -0.245  -0.052  -0.518  -0.677  -0.262
  -0.289   0.316   0.160   0.024  -0.078  -0.389  -0.214   0.101  -0.191   0.104
   0.094  -0.035  -0.277   0.464   0.311   0.344  -0.448  -0.393  -0.370  -0.136
  -0.244   0.125  -0.536   0.033  -0.538  -0.695  -0.411  -0.549  -0.546  -0.242
  -0.864  -0.481   0.060   0.430  -0.632   0.035  -0.235  -0.846  -0.550  -0.983
