Corrected accelerogram 20160214_001343_KOWC_20 GNS Science
Site KOWC      43 19 17S  171 51 17E     Cusp file:  20160214_001357_KOWC
Kowai
Instrument Cusp_10454
Resolution: 18-bit   Instr Period: 0.0050 s   Damping: 0.700
Accelerogram 20160214_001343_KOWC_20                 Processed 2016 February 22
11 km east of CHRISTCHURCH
2016 February 14         00:13:43 UT
Epicentre  43 29 50S 172 45 18E  Bearing S75E  Dist   76km  Depth    8km M  5.70
Number of points  8192    Duration 163.82 sec
Instrument corrected data at 0.020 sec intervals
Band-pass filter transition bands are .10-.25 Hz and 24.50-25.50 Hz
Component N00E  Horizontal Axis 1
Acceleration:  peak     71.7 mm/s/s at  54.34 sec     rms      7.5 mm/s/s
Velocity:      peak    -7.30 mm/s   at  58.00 sec     rms     0.91 mm/s
Displacement:  peak    2.010 mm     at  56.64 sec     rms    0.403 mm
    2016       2      14       0      13     430       0       0    2016       2
      43      29      50     172      45      18       8       0      14       0
      43      19      17     171      51      17       0       0     105      76
   34641     250     250    8192    8192    8192       0       0      13   17634
   200.0    0.70    0.00   0.000  0.0000   0.000   0.000   1.000     0.0    0.00
  43.321 171.855   43.50  172.76    5.70    0.00    0.00    0.00      0.      0.
  173.20    5.00    5.00  163.82  0.0050  0.0200      0.      0.      0.  9806.6
    78.1   54.33     7.9   0.000      0.    71.7   54.34     7.5    91.4   1.828
   -7.30   58.00    0.91    8.63   0.284    2.01   56.64    0.40    2.15   0.259
   0.100   0.150   0.250      0.      0.  24.500   1.000  25.500      0.      0.
   0.009  -0.006   0.009  -0.006   0.009  -0.007   0.009  -0.007   0.009  -0.007
   0.009  -0.007   0.009  -0.007   0.009  -0.007   0.009  -0.007   0.008  -0.007
   0.008  -0.007   0.008  -0.007   0.008  -0.007   0.008  -0.008   0.008  -0.008
   0.008  -0.008   0.008  -0.008   0.008  -0.008   0.007  -0.008   0.007  -0.008
   0.007  -0.009   0.007  -0.009   0.007  -0.009   0.007  -0.009   0.007  -0.009
   0.006  -0.010   0.006  -0.010   0.006  -0.010   0.006  -0.010   0.006  -0.010
   0.006  -0.011   0.005  -0.011   0.005  -0.011   0.005  -0.011   0.005  -0.011
   0.005  -0.012   0.004  -0.012   0.004  -0.012   0.004  -0.012   0.004  -0.012
   0.004  -0.013   0.003  -0.013   0.003  -0.013   0.003  -0.013   0.003  -0.014
   0.003  -0.014   0.003  -0.014   0.002  -0.014   0.002  -0.014   0.002  -0.015
   0.002  -0.015   0.002  -0.015   0.002  -0.015   0.002  -0.015   0.002  -0.015
   0.002  -0.015   0.001  -0.015   0.001  -0.016   0.001  -0.016   0.001  -0.016
   0.001  -0.016   0.001  -0.016   0.001  -0.016   0.001  -0.016   0.001  -0.016
   0.001  -0.016   0.001  -0.016   0.002  -0.016   0.002  -0.015   0.002  -0.015
   0.002  -0.015   0.002  -0.015   0.002  -0.015   0.002  -0.014   0.003  -0.014
   0.003  -0.014   0.003  -0.013   0.003  -0.013   0.004  -0.013   0.004  -0.012
   0.005  -0.012   0.005  -0.011   0.005  -0.011   0.006  -0.010   0.006  -0.010
   0.007  -0.009   0.007  -0.009   0.008  -0.008   0.008  -0.007   0.009  -0.007
   0.010  -0.006   0.010  -0.005   0.011  -0.005   0.012  -0.004   0.013  -0.003
   0.014  -0.002   0.014  -0.001   0.015  -0.001   0.016   0.000   0.017   0.001
   0.018   0.002   0.019   0.003   0.020   0.004   0.021   0.005   0.022   0.006
   0.023   0.007   0.024   0.008   0.025   0.009   0.026   0.011   0.028   0.012
   0.029   0.013   0.030   0.014   0.031   0.016   0.032   0.017   0.033   0.019
   0.034   0.020   0.034   0.022   0.035   0.024   0.036   0.026   0.036   0.028
   0.036   0.031   0.035   0.034   0.034   0.039   0.031   0.045   0.029   0.038
  -0.209   0.356   0.106  -1.370   0.737   0.662   0.014  -1.124  -1.001   1.069
  -0.097  -1.243   0.236  -0.880   0.749   0.971  -0.047  -0.211   0.184   0.777
   0.489  -0.662  -0.540   0.065   0.290  -0.122  -0.621   0.731  -1.450   0.734
   0.265   0.823   0.344   0.446  -1.110   0.081  -0.064   0.263  -0.233   0.136
   0.607  -0.039   0.721   0.127   0.014  -0.352   0.868   0.871   0.776   0.044
  -0.391   0.604   0.284  -1.211  -0.186   0.634   0.279  -0.202  -0.154  -0.395
  -0.630  -0.643  -0.209  -0.757   0.319  -0.869  -0.133   0.501  -1.153  -0.600
   0.570   0.192  -1.062   1.493  -0.168  -0.682  -0.133   0.481   0.039  -0.755
   0.526  -0.603   0.269  -0.337   0.926   0.773  -0.608  -0.845   0.468   0.124
   0.217   0.639   0.178  -0.439  -0.213  -0.110   0.221  -0.752   0.196   0.248
  -0.500   1.030  -0.276  -0.614   0.633  -0.251  -0.121   0.210   0.415  -0.685
   0.652   0.047   0.238  -0.947  -0.461   0.813  -0.399  -0.732  -0.715  -0.159
   1.390   0.140  -0.200  -0.666   0.664   0.141   0.158  -0.600   0.490  -1.652
  -0.591   0.256  -0.145  -0.739   0.761   1.097  -0.285  -0.282   0.431   0.600
   0.824   0.239   0.336   0.860  -0.666  -0.583  -0.725   0.416  -0.093  -0.029
  -0.318  -0.032   0.418   0.124  -0.247  -0.393   0.620  -0.136   0.162  -0.359
   0.365   0.714   0.510  -0.536  -0.833   0.130  -0.090  -0.845   0.223   0.186
  -0.485  -0.149  -0.134   0.437   0.116  -0.180  -0.385   0.061  -0.683   0.838
   0.692   0.190   0.540  -0.829   1.143   1.062   0.305  -0.134  -0.490  -0.745
   0.331  -0.326  -0.833  -0.644   0.380   0.067  -0.338  -1.227   0.211   0.249
  -0.057  -0.068   0.510  -0.229   0.263   0.592  -0.476  -0.986  -0.657   0.282
  -0.786   0.261  -1.120   0.361  -0.225  -0.005   0.503   0.356   0.328  -0.052
  -0.341   0.038  -0.082   0.555   0.276   0.028   1.283  -0.292  -0.440   0.542
   0.800   0.029   0.491  -0.333   0.020  -0.180  -0.137   0.705   0.078  -1.248
  -0.200  -0.416   1.128  -0.192  -0.377   0.420   0.696   0.133  -0.007  -0.152
  -0.504   0.721  -0.324  -0.018   1.792   0.383  -0.532   0.234   0.433   1.021
   0.913   0.290   0.610   0.015  -0.300  -0.043  -0.471   0.324   0.284  -0.403
   0.290  -0.227  -0.656   0.952  -0.233   0.070   0.590  -0.860  -1.314   0.788
   0.056  -0.557  -0.374   0.330   0.005   0.049   0.083   0.076  -0.126   0.429
  -0.629   0.700   0.081   0.201  -0.227   0.061  -0.554   0.386  -0.527   0.707
  -0.320  -0.007   0.611   0.206   0.234  -0.195  -0.782   0.244  -0.550  -0.968
   0.232  -1.557  -1.050  -0.099   0.722  -0.363   0.208  -1.068  -0.320   0.655
  -0.664  -0.579   0.170   0.313   0.507  -0.432   0.224  -0.097  -1.293  -0.199
  -0.749   0.050  -1.128   0.237   0.668   0.252  -0.910   0.220  -1.544   0.440
  -0.571   0.684   0.857   0.175   0.466   1.247  -0.871  -0.642   0.016  -0.860
   0.264   0.450  -0.487   0.174   0.758  -0.460   1.339  -0.114  -0.905   1.226
   0.017  -0.946  -0.078   0.326  -1.037   0.107   0.682  -1.538   0.500   0.817
  -0.709  -0.210   0.702   0.138   0.229  -0.408   1.178  -0.424   0.386   1.081
   0.029   0.114   0.083   0.189  -0.359  -0.427   0.457  -0.867   0.103   0.853
   0.728   0.437  -0.714   0.124  -0.394  -0.549   0.796   0.506   0.553   0.690
   0.240  -0.164  -0.056   0.666  -0.088   0.373  -0.054  -0.887   0.361  -0.970
   1.643   0.015   0.200   0.453  -0.408  -0.917   0.229   0.173  -0.038   1.811
  -0.597  -0.211  -0.433  -0.173   0.618   0.136  -0.486  -0.197  -0.873  -0.094
   0.001  -0.640   0.600  -0.578  -0.710  -0.201  -0.610   0.835   0.189  -0.182
  -0.102  -0.417   0.976   0.413   0.670  -0.057   1.055  -0.863  -1.522  -0.394
   0.590  -0.914   0.485  -0.255  -0.036  -1.443  -1.145  -0.363  -0.151   0.535
   0.902  -0.244   0.485   0.037  -0.122   0.242   0.468  -0.139   0.205   0.496
   0.096   0.082   0.359  -0.060  -0.247   0.357   0.595   0.785   0.427  -0.052
  -0.784  -0.442  -0.878   0.036   0.279   0.540   1.182   0.498   0.245   0.195
  -0.753   0.100  -0.451  -0.524  -1.377   1.104   0.648  -0.057  -0.677  -0.098
   0.730  -0.588   0.854  -0.546  -0.346  -0.101  -0.115   0.394  -0.287   0.442
  -0.409  -0.450  -0.543   0.394   0.360  -0.979  -0.022   0.810  -0.732  -0.804
   0.304   0.140  -0.332   0.031   0.624   0.295  -0.293   0.089   0.016  -0.296
   0.130   0.396   0.426  -0.800  -0.943   0.416  -0.226  -0.062   0.544  -0.769
   0.332   0.627  -0.315  -0.590  -1.057   0.818  -0.596  -1.129   0.518   1.029
   0.316   0.100  -0.031   0.848   0.666  -0.500   0.947   0.168  -0.130   0.662
   0.128   0.984   0.253  -0.065  -0.227   0.022  -0.484  -0.867  -0.108  -0.901
   0.417   0.448  -0.527  -0.308   0.091   0.246   0.479   0.228  -0.008   0.476
  -0.456  -0.328  -0.040   0.090  -0.376   1.138  -0.506  -0.668  -0.203   0.139
   0.739   0.074  -0.246  -0.015  -0.287   0.246  -0.644  -0.220  -0.620   0.387
  -0.404  -0.214   0.565   0.280   0.399  -0.129  -0.659  -0.508   0.101   0.527
  -0.413  -0.560   0.126  -0.044   0.194   0.486   0.801  -0.065   0.406   0.862
  -0.247   0.099   0.561   0.002   0.594   0.411   0.466  -0.841  -0.583  -0.489
  -0.354  -0.171  -0.808   0.211   0.425  -0.159  -0.239   0.585  -0.015   0.011
   0.561   0.128  -0.538  -0.391  -0.483   0.315  -0.263  -0.319  -0.157  -0.253
  -1.046   0.479  -0.266  -0.604   0.042   0.495   0.313   0.595  -0.144   1.452
  -0.726   0.091   0.507  -0.723  -0.396  -0.244  -0.097   1.328   0.560  -0.694
   0.064  -0.310  -0.064  -0.422   0.022  -0.158   0.328  -0.451   0.626  -0.867
  -0.569   0.302   0.007  -0.057   0.453   0.521  -0.779   0.425   0.021  -0.409
  -1.090   0.431   0.751  -0.897  -0.006  -0.427   1.146   1.305  -0.256  -0.663
  -0.589   0.538   0.257   0.040   0.444   1.663   0.268  -0.165  -0.376  -0.299
  -0.998  -0.226  -0.138  -0.138  -0.585  -0.327  -0.803   0.069   0.848  -0.333
  -0.620  -0.577  -0.635   0.502  -0.767  -0.263   0.065  -0.234   1.259  -0.768
   0.642   0.452   0.778  -0.265   0.657   0.161   0.779  -0.034  -0.373   0.524
   0.801   0.075  -0.240   0.385   0.123  -0.024  -0.084  -0.148   0.070   0.232
   0.367  -0.209   0.240   0.163  -0.195  -0.862   1.305   0.412  -0.466  -0.157
   0.222   0.534  -0.754  -0.100   0.488   0.332  -0.007  -0.266  -0.051  -0.207
  -1.367  -0.203   1.151  -0.438  -0.366  -0.379  -0.062  -0.252  -0.733   0.596
   0.348  -0.573  -0.294   0.431   0.389   0.579  -0.212  -0.492   0.454   0.100
   0.229  -0.297   0.213   1.101   0.051   0.031  -0.439  -0.021  -0.835  -0.220
  -0.639   0.076   1.218   0.254  -0.643  -0.860  -1.367  -0.730   0.427  -0.059
   0.022   0.145   0.309   0.219   0.347  -1.051   0.623   0.161  -0.298   0.242
  -0.105   0.755   0.638   0.199  -0.003  -0.199   0.435  -0.426   0.020  -0.309
  -0.272  -0.148  -0.467   0.758  -0.708   0.506  -0.321   0.183   0.117   0.396
   0.949   0.060   0.367  -0.443   0.219  -0.803  -0.171  -0.251   0.057   0.030
  -0.087   0.008   0.536  -0.343  -0.282   0.577   0.390   0.603   0.077   0.086
   0.218  -0.402   0.991  -0.121  -0.085   0.701  -0.203  -0.451   0.190   0.633
  -0.360  -0.848  -0.159  -0.042  -0.086   0.182  -0.164   1.027  -0.208  -0.771
  -0.129   0.549  -0.837   0.752   0.349  -0.138   0.262  -0.465   0.772   0.075
  -0.709   0.354   0.004  -0.089  -0.069   0.078  -0.740  -1.061  -0.751   0.026
   0.152  -0.372   1.016   0.114  -0.096  -0.181   0.693   0.009   0.578   0.571
   0.488   0.573  -0.030  -0.114  -0.649  -0.356  -0.435  -0.078   0.038   0.412
  -0.741  -0.511  -0.529  -0.111  -0.421  -0.146  -1.220  -1.000  -0.564  -0.238
   0.188   0.558  -0.056   0.081  -0.488  -0.036   0.199   0.357  -0.369   0.476
  -0.324   0.403  -0.163   0.430   0.462  -0.786   1.301   0.062  -0.400  -0.622
   0.104   0.847   0.873  -0.139  -0.542  -1.337   0.545   0.013   0.245   1.082
   0.021  -0.522   1.196  -0.089   0.216   0.056   0.666   0.161   0.329  -0.798
   0.067  -0.562   0.071   0.468  -1.001  -0.353   0.392   0.149   0.500  -0.396
  -0.347  -0.001  -0.454   0.323   1.190   1.223   0.046   0.225  -1.316   0.034
  -0.223   0.256   0.815   0.228   0.380   1.011  -0.824   0.355  -0.574  -1.041
  -0.095  -0.110   1.191   0.561   0.346   0.374  -0.079  -0.853  -0.037   0.586
  -0.607  -0.635   0.214   0.039  -0.798  -0.022   0.264   0.703  -0.020  -0.527
  -0.773  -0.839  -0.480  -0.453   0.521   0.077  -0.624   0.028   0.228   1.454
   0.397  -0.328  -0.732  -0.432  -0.154  -0.777  -1.194  -0.878   0.461  -0.412
  -0.003   0.121  -0.622   0.159  -1.312   0.115  -0.297  -0.716   1.207   0.395
   0.392  -0.375  -0.200   0.488   0.048   0.460   0.582   0.962   0.272   0.336
  -0.553   0.366  -1.524   0.051   0.138  -0.599  -0.280  -0.086   0.216   0.838
  -1.216  -0.508   0.135   0.031   0.832   0.344   0.783   0.598   0.588   0.525
  -0.182   0.017   0.719   0.159  -0.007  -0.052  -0.513  -0.912  -0.687  -0.297
   0.492   0.847   1.083  -1.064   0.161  -0.670  -1.210  -0.463   0.031   0.566
  -0.259  -0.331   0.278  -0.222   0.426   0.120   0.936   0.213   1.137   0.382
   0.215   0.447   0.812   0.518   0.573  -0.750   0.946  -0.919  -0.463   0.878
   1.594   0.022  -0.786   0.279  -1.157  -0.038   0.340  -0.231  -0.173  -0.368
   0.862  -0.431   0.423   0.799  -0.038  -0.637   0.044  -0.052  -0.186  -0.153
   0.094   0.112   0.163   0.892   0.999   0.238   0.582   0.544  -0.373   0.200
  -0.017  -0.962  -0.775  -0.169   0.501  -0.777  -0.246  -0.758  -0.002   0.317
  -1.182   0.177  -0.340   0.247  -0.673  -0.861   0.122  -0.583   0.003   0.108
   0.434   0.014   0.983   0.562   0.583   0.344  -0.207   0.033  -0.064   0.538
   0.212   0.277   0.321  -0.941  -1.117   0.158   0.467   0.505  -0.223  -0.900
  -0.103  -0.787  -0.266  -0.113  -0.754  -0.120  -0.530   0.099  -0.723  -0.535
   0.143   0.685   0.962   0.143   0.469  -0.036  -1.290   0.770   0.832  -1.107
  -0.574   0.123   0.274   0.605  -0.700  -1.467  -0.588  -0.348   1.129   0.250
  -0.761   0.325   0.041  -0.563   0.457   0.359  -0.088   0.251  -0.329   0.287
   0.267   0.464  -0.365  -0.594   0.121   0.332   0.281   0.699   0.403  -0.895
  -0.537   0.701  -0.698  -0.036   0.572  -1.145  -0.126  -0.151  -0.890   0.871
  -1.007   0.176  -1.148  -0.492  -0.207   0.120  -0.083   0.287  -0.809  -0.771
  -0.162   0.103  -0.291   0.417  -0.005  -1.473   0.383  -0.208   0.793  -0.307
   0.659   0.748   0.426   0.872  -0.442   1.249   0.445   0.009   0.955  -0.124
   0.281   0.004  -0.244   0.904   0.321  -0.746  -0.321   0.884   0.239  -0.289
   0.164  -0.696   0.300   0.419  -0.529  -0.354   0.439   0.533   0.476  -0.440
   0.445   0.899   1.893   0.121   0.299  -0.590  -0.291  -0.165   0.380  -0.591
   0.399   0.047   0.344   0.689   0.933  -0.163   0.296   0.303   0.249   0.541
  -0.427   0.466  -0.611  -0.306  -0.234  -0.817   0.014   0.237  -0.156  -0.678
   0.551  -0.154  -0.160   0.216  -0.896   0.598   0.388  -0.658   0.454  -0.328
  -0.039   0.036   0.290   0.976   1.016  -0.284   0.122  -1.084  -1.490  -0.008
  -0.713   0.699  -0.426  -0.577   0.294  -0.120   0.326   0.159   0.199   1.015
   0.995   0.435   0.062  -0.493   0.121   0.034  -0.518  -0.323  -0.758   0.280
  -0.533   0.535  -0.830  -1.010  -0.666  -0.264  -0.593  -0.237  -0.058  -0.625
  -0.435  -0.687  -0.288  -0.850  -0.326  -0.096  -0.889  -0.166   0.377   0.107
   0.463  -1.291   0.017   0.262   0.112   0.563  -0.212   0.568   0.864   0.263
  -0.101   0.449  -0.233  -0.295   0.053   0.130   0.648   1.160   0.503   0.256
   0.031   0.305  -0.228  -0.324  -0.203   0.001  -0.280   0.354  -0.429   0.421
  -0.119   0.081  -0.163   0.738   0.623   0.821  -0.467   0.033   0.078   0.209
   0.463  -0.474   0.310   0.285  -0.763  -0.691   0.815  -0.572  -0.379  -0.612
  -0.695   0.403  -0.871  -0.285  -0.074   0.241   0.276  -0.172  -0.543   0.209
  -0.059  -0.046  -0.050  -0.622  -0.337   0.540   0.290  -0.042   0.412  -0.229
   0.651   0.831  -0.263   0.300  -0.566  -0.279   0.280   0.083  -0.380   0.979
   1.079  -0.299  -0.092   0.321   0.715   0.470  -0.426  -1.000   0.366  -1.080
   0.867   0.220  -0.855   0.202  -0.434  -0.251  -0.196  -0.457  -0.193  -0.155
  -0.103  -0.491   0.084   0.615  -0.269   0.362  -0.689   0.400   1.581   0.556
   0.679  -0.128   0.216   0.842  -0.703   1.315   1.153  -0.222  -0.843   1.267
  -0.170  -0.060   0.734  -0.823   0.184   0.027  -0.333   0.204   0.941  -1.501
  -0.360   0.343  -0.651  -1.294   0.106   0.613  -0.697  -0.983   0.147   0.771
  -0.390  -0.800  -0.040  -0.617   0.226  -0.536   0.335   0.050  -0.969   1.076
   1.027   0.537  -0.216   0.091  -0.284   0.748  -0.201   0.530  -0.818  -0.406
  -0.151  -0.412   0.421  -0.630   0.487   0.384   1.134  -0.532  -0.428   0.797
  -0.395  -0.499   0.217  -1.607  -1.066   0.936  -0.419   0.543   0.314   0.609
  -0.018  -0.804   0.898   0.489   0.457  -0.778   0.552   0.691  -0.367   0.435
  -0.304  -0.242   0.756   0.024   0.336  -0.241  -1.304  -0.296  -0.254   0.834
  -1.015   0.344   0.705  -0.538   0.384   0.651   0.443   0.718  -0.671  -1.058
  -0.850   0.222  -0.723  -1.374   0.251  -0.693  -0.036   0.317  -0.824  -0.397
  -0.796  -0.304  -0.646   0.148   0.086   0.683  -0.024  -0.618  -0.073   0.103
   0.006   0.873   0.807  -0.888  -0.094  -0.128  -0.046  -0.362   0.068   0.241
   0.592   0.146   0.092  -0.239   0.261   0.349  -0.558   0.771   0.005   0.571
   0.285   0.616   0.516   0.171   0.343  -0.487   0.482   0.032  -0.233  -1.208
   0.722   0.166   0.393  -1.012  -0.091  -0.058  -0.076   0.690  -0.041   0.055
  -0.121   0.498   0.189   0.540   0.276   0.303  -0.151  -0.657   0.295   0.496
  -0.226  -0.437   1.820  -0.117   0.938  -0.245  -1.287   0.182   0.402   0.572
   0.999   0.198   0.114   0.333  -1.109  -0.103  -0.519   0.576  -0.051  -1.069
   0.306  -0.313  -0.478  -0.551   0.529  -1.184  -0.118  -0.146   0.160   0.778
   0.695   0.463   0.331  -0.932  -0.708  -0.598  -0.180   0.549  -1.212  -0.592
  -0.913   0.979   0.186   0.842   0.118   0.871  -0.762   0.092  -0.387  -0.706
   0.716  -0.414   0.480   0.645   0.704  -0.513   0.283  -0.422  -0.266   0.546
   0.800   0.400   0.955  -0.942   1.098   0.721  -0.486   0.389   0.321   0.199
  -0.601  -0.069   0.090  -0.731  -0.144   0.023   0.300  -0.313  -1.005   0.351
  -0.575  -0.538   0.302   0.736  -0.828  -0.381   0.554  -0.746   0.163   0.242
   0.478  -0.310   0.203   0.411  -0.346   0.076  -0.425   0.818  -0.108   0.928
   0.828  -0.138   0.529  -0.378   1.339  -0.838  -0.543   0.008  -0.970   0.220
   0.184   0.415  -0.571  -0.519  -0.463   0.171  -0.044  -0.884  -0.052  -0.832
  -0.423   0.584  -1.390  -0.352  -0.177  -0.635  -1.128   0.699  -0.425  -0.697
  -0.180  -0.182  -0.161   0.514  -0.364  -0.366  -0.215   0.157   0.258   0.005
  -0.041   0.510   0.093   0.824   0.174   0.498   0.266  -0.317   0.326  -0.349
  -0.611   0.352   0.256   0.066   0.138  -0.076  -0.655   0.466  -0.254  -0.703
   0.342   1.205   0.404  -0.073   0.787   0.244  -0.310   0.252   0.180   0.346
   0.360   0.946  -0.684   0.178  -0.823  -0.088  -0.192   0.190   0.315  -0.557
   0.497  -0.467   0.569  -0.232   0.430  -0.424   0.201  -0.141  -0.896   0.103
   1.025   0.304  -0.713   0.230  -0.371  -1.144  -0.495  -0.008   0.252  -0.083
  -0.097  -0.338   1.053  -0.004   0.138   0.643  -0.755   0.491   0.051  -0.665
   0.168  -0.333  -0.956  -0.320  -0.427  -1.384  -0.014  -0.371   0.156   0.924
  -0.304   0.208  -0.532   0.076  -0.746   0.654   0.476  -0.122   0.460  -0.377
  -0.430   0.745   0.525  -0.602  -0.178  -1.811   0.317   0.364  -0.006  -0.033
   0.608  -0.223   0.214  -0.389   0.178  -0.006   1.124   0.186   0.615   0.721
   0.097   0.276   0.490  -0.124   0.925   0.419   0.834  -0.344   0.533  -0.034
   0.633  -0.206   1.153   0.333  -0.449   0.482   0.910  -0.315   0.143   0.030
  -0.677  -0.188   1.087   0.970   0.005   0.054  -0.010  -0.498  -1.059   0.244
   0.328   1.021   0.016   0.047  -0.833   0.755   1.213   0.151   0.032   0.963
  -0.314  -1.427  -0.751  -0.125  -0.185   0.943   0.060   1.422  -0.259   0.155
   0.194   0.233  -0.411   0.479   0.123   0.182  -0.683   0.795  -0.049  -0.227
  -0.892  -0.932  -1.317  -0.330   0.088  -0.246   0.434   0.005  -0.078  -1.386
  -1.148   0.131  -0.850   0.728   2.507   3.417   2.655   3.703   1.525  -0.967
  -2.062  -3.976  -1.878  -3.916  -0.552  -0.212   1.098   0.409   1.904   0.714
