Corrected accelerogram 20160214_001343_WIGC_20 GNS Science
Site WIGC      42 42 04S  172 48 01E     Cusp file:  20160214_001400_WIGC
Waiau Gorge
Instrument Cusp_10411
Resolution: 18-bit   Instr Period: 0.0050 s   Damping: 0.700
Accelerogram 20160214_001343_WIGC_20                 Processed 2016 February 22
11 km east of CHRISTCHURCH
2016 February 14         00:13:43 UT
Epicentre  43 29 50S 172 45 18E  Bearing S02W  Dist   89km  Depth    8km M  5.70
Number of points  8192    Duration 163.82 sec
Instrument corrected data at 0.020 sec intervals
Band-pass filter transition bands are .10-.25 Hz and 24.50-25.50 Hz
Component N00E  Horizontal Axis 1
Acceleration:  peak    -40.9 mm/s/s at  53.64 sec     rms      4.3 mm/s/s
Velocity:      peak     5.23 mm/s   at  53.42 sec     rms     0.79 mm/s
Displacement:  peak   -1.812 mm     at  63.44 sec     rms    0.348 mm
    2016       2      14       0      13     430       0       0    2016       2
      43      29      50     172      45      18       8       0      14       0
      42      42       4     172      48       1       0       0     182      89
   34097     250     250    8192    8192    8192       0       0      13   20441
   200.0    0.70    0.00   0.000  0.0000   0.000   0.000   1.000     0.0    0.00
  42.701 172.800   43.50  172.76    5.70    0.00    0.00    0.00      0.      0.
  170.48    5.00    5.00  163.82  0.0050  0.0200      0.      0.      0.  9806.6
   -41.1   53.64     4.5   0.000      0.   -40.9   53.64     4.3    47.1   1.669
    5.23   53.42    0.79    5.70   0.339   -1.81   63.44    0.35    1.85   0.339
   0.100   0.150   0.250      0.      0.  24.500   1.000  25.500      0.      0.
  -0.003  -0.004  -0.002  -0.003  -0.002  -0.003  -0.002  -0.003  -0.001  -0.003
  -0.001  -0.002  -0.001  -0.002  -0.001  -0.002  -0.000  -0.001   0.000  -0.001
   0.001  -0.000   0.001   0.000   0.001   0.000   0.002   0.001   0.002   0.001
   0.003   0.002   0.003   0.002   0.004   0.003   0.004   0.003   0.005   0.004
   0.005   0.004   0.006   0.005   0.006   0.005   0.007   0.006   0.007   0.006
   0.008   0.007   0.008   0.007   0.009   0.008   0.009   0.009   0.010   0.009
   0.010   0.010   0.011   0.010   0.011   0.011   0.012   0.011   0.013   0.012
   0.013   0.012   0.014   0.013   0.014   0.013   0.014   0.014   0.015   0.014
   0.015   0.015   0.016   0.015   0.016   0.015   0.017   0.016   0.017   0.016
   0.017   0.016   0.017   0.017   0.018   0.017   0.018   0.017   0.018   0.017
   0.018   0.018   0.018   0.018   0.019   0.018   0.019   0.018   0.019   0.018
   0.019   0.018   0.019   0.018   0.018   0.018   0.018   0.018   0.018   0.017
   0.018   0.017   0.017   0.017   0.017   0.016   0.017   0.016   0.016   0.016
   0.016   0.015   0.015   0.014   0.014   0.014   0.014   0.013   0.013   0.012
   0.012   0.012   0.011   0.011   0.010   0.010   0.009   0.009   0.008   0.008
   0.007   0.006   0.006   0.005   0.005   0.004   0.003   0.003   0.002   0.001
   0.000  -0.000  -0.001  -0.002  -0.003  -0.003  -0.004  -0.005  -0.006  -0.007
  -0.008  -0.009  -0.010  -0.011  -0.012  -0.012  -0.014  -0.014  -0.016  -0.016
  -0.018  -0.019  -0.020  -0.021  -0.022  -0.023  -0.025  -0.025  -0.027  -0.027
  -0.030  -0.030  -0.032  -0.032  -0.035  -0.035  -0.038  -0.037  -0.040  -0.039
  -0.043  -0.042  -0.046  -0.044  -0.049  -0.047  -0.052  -0.049  -0.055  -0.052
  -0.059  -0.054  -0.062  -0.057  -0.065  -0.059  -0.069  -0.062  -0.072  -0.064
  -0.076  -0.066  -0.080  -0.069  -0.084  -0.071  -0.088  -0.073  -0.092  -0.075
  -0.097  -0.076  -0.101  -0.078  -0.106  -0.079  -0.111  -0.080  -0.117  -0.081
  -0.123  -0.081  -0.129  -0.080  -0.136  -0.079  -0.144  -0.077  -0.150  -0.083
  -0.121   0.095  -0.076   0.514  -0.237  -0.450   0.417   0.459   0.390   0.123
   0.070  -0.034  -0.065   0.229   0.026   0.070  -0.189   0.300   0.227   0.234
  -0.620  -0.446   0.374   0.668  -0.109  -0.091   0.050  -0.051   0.336  -0.218
  -0.348   0.075   0.413   0.116  -0.044  -0.360   0.403   0.107   0.073  -0.088
   0.443   0.210  -0.107  -0.042  -0.199   0.171   0.646   0.679   0.065   0.666
  -0.136  -0.443   0.087  -0.210  -0.222  -0.079  -0.145  -0.088  -0.169   0.071
  -0.115   0.082  -0.121  -0.204   0.511   0.079   0.040  -0.077   0.232   0.431
   0.021  -0.707  -0.456   0.147   0.696  -0.473   0.139   0.272   0.296   0.109
   0.164   0.238   0.358  -0.326   0.280   0.504  -0.005  -0.147  -0.571  -0.305
   0.064   0.166  -0.239   0.393   0.658  -0.865  -0.063  -0.252  -0.511  -0.550
   0.134  -0.033  -0.070   0.155  -0.287  -0.232   0.255   0.046   0.455   0.222
   0.238   0.266  -0.339   0.163   0.324   0.166   0.125   0.219  -0.091   0.040
  -0.114  -0.230  -0.449  -0.025  -0.435   0.328  -0.322   0.030   0.036   0.470
  -0.188  -0.173   0.158  -0.075   0.324   0.706   0.235  -0.556  -0.047   0.182
  -0.212   0.283   0.318   0.002   0.283   0.039   0.290   0.214   0.296   0.299
   0.039   0.224   0.296   0.220   0.229  -0.252  -0.167  -0.411   0.186  -0.037
  -0.265   0.221   0.042  -0.113  -0.107  -0.002   0.089  -0.267  -0.187   0.025
  -0.318   0.466  -0.211  -0.232  -0.262  -0.201  -0.493  -0.477   0.153   0.232
  -0.135  -0.637  -0.236   0.120  -0.192  -0.132  -0.027   0.318  -0.263  -0.795
  -0.513  -0.142   0.069  -0.398   0.104  -0.334  -0.256   0.003  -0.416  -0.185
  -0.302  -0.259  -0.045  -0.295   0.313   0.147   0.473  -0.138  -0.023  -0.681
  -0.145  -0.299   0.046  -0.100   0.118   0.460  -0.007   0.270  -0.546  -0.417
   0.058   0.414   0.372  -0.061  -0.236   0.305   0.023  -0.284   0.075   0.057
   0.242   0.025   0.051  -0.016   0.375   0.070   0.707   0.271   0.472  -0.135
  -0.341  -0.416   0.193   0.199   0.109   0.341  -0.117   0.209  -0.045  -0.086
  -0.886   0.193  -0.157   0.214  -0.206   0.132   0.186   0.094   0.604  -0.372
  -0.126   0.136   0.785  -0.586   0.029   0.167  -0.227   0.066  -0.317   0.243
   0.204  -0.119  -0.074  -0.122   0.278  -0.068   0.428   0.349   0.676  -0.279
   0.056   0.331  -0.050   0.526  -0.298  -0.173  -0.177  -0.182   0.015  -0.207
  -0.216   0.091  -0.161   0.008   0.088   0.241   0.406  -0.158  -0.087   0.034
  -0.061  -0.101  -0.497   0.116  -0.160  -0.143  -0.020   0.232  -0.105   0.417
   0.623   0.364   0.275   0.292   0.261   0.190  -0.015   0.422  -0.615  -0.057
   0.354   0.031  -0.107   0.020  -0.042  -0.302   0.305  -0.086  -0.434   0.065
   0.064  -0.366  -0.026  -0.141   0.186  -0.416   0.028  -0.643  -0.175   0.049
   0.144  -0.145  -0.424  -0.101  -0.161   0.152  -1.033   0.600  -0.010  -0.587
   0.117  -0.194   0.510   0.171   0.073   0.016   0.061   0.149   0.274  -0.280
  -0.230  -0.357  -0.030   0.541  -0.113  -0.144  -0.000   0.149   0.118   0.328
   0.039   0.320   0.542  -0.145   0.716  -0.307   0.487   0.068   0.431  -0.229
  -0.421   0.004   0.387   0.153   0.236  -0.201   0.040  -0.087  -0.285  -0.246
  -0.002   0.068   0.026   0.138  -0.246   0.000  -0.396  -0.339  -0.194   0.157
   0.615  -0.123  -0.293   0.003   0.235  -0.275  -0.236   0.069  -0.307   0.431
   0.117  -0.347  -0.077  -0.097  -0.356  -0.237  -0.051  -0.186   0.241  -0.253
  -0.166  -0.021   0.274  -0.031  -0.560   0.204  -0.764  -0.066  -0.540   0.051
  -0.138   0.123   0.629   0.310  -0.523   0.330  -0.361   0.004   0.263  -0.159
   0.352   0.107  -0.278  -0.128  -0.074   0.062   0.494   0.365  -0.356   0.233
   0.155   0.253   0.290  -0.431   0.078  -0.355  -0.070   0.068   0.448   0.229
   0.290   0.035  -0.264   0.256  -0.093   0.084   0.014  -0.072  -0.076  -0.103
   0.278  -0.161  -0.102   0.043  -0.239   0.269  -0.181   0.244  -0.132  -0.095
  -0.022  -0.147  -0.175   0.027   0.037   0.779   0.581   0.087   0.077  -0.404
  -0.712  -0.029   0.107   0.174   0.317  -0.191   0.408   0.287   0.016  -0.278
   0.070   0.265  -0.060   0.227   0.066   0.135   0.053   0.061   0.125  -0.058
   0.074   0.438   0.124   0.413  -0.183   0.495  -0.005   0.067   0.118  -0.059
  -0.036  -0.352  -0.438  -0.218  -0.018  -0.337  -0.065   0.219  -0.184   0.176
  -0.010   0.320  -0.375  -0.303  -0.005  -0.112   0.030   0.191  -0.340   0.023
  -0.031  -0.026   0.180   0.139   0.028  -0.112   0.217   0.421  -0.117  -0.738
   0.000  -0.165  -0.109   0.106  -0.612  -0.301   0.137  -0.118  -0.219   0.101
  -0.095   0.023  -0.115  -0.032  -0.313   0.298   0.084  -0.563  -0.042  -0.644
  -0.386  -0.156   0.139   0.169   0.350  -0.312   0.038  -0.121   0.046   0.487
   0.043   0.384  -0.063  -0.217  -0.503   0.461   0.428   0.186  -0.288  -0.081
   0.243  -0.101  -0.226  -0.116  -0.269   0.300  -0.682   0.219   0.048  -0.269
  -0.146  -0.230  -0.485   0.126   0.088  -0.172  -0.475  -0.361   0.371   0.375
   0.068   0.415  -0.201  -0.227   0.253  -0.106  -0.050  -0.415  -0.313  -0.357
   0.240   0.146   0.277   0.756  -0.096   0.324   0.428   0.525   0.446   0.059
  -0.018  -0.138  -0.216  -0.312   0.094   0.112  -0.183  -0.276   0.565   0.060
  -0.255   0.593   0.016  -0.303  -0.041   0.291   0.150   0.222  -0.017   0.240
   0.034   0.019   0.413   0.057  -0.289   0.101   0.053  -0.007   0.084   0.090
  -0.373   0.467   0.494  -0.310  -0.732   0.020   0.063   0.407   0.226  -0.355
  -0.088   0.458  -0.447   0.106   0.584  -0.598   0.122  -0.278  -0.406  -0.533
   0.439   0.073   0.154  -0.056  -0.210   0.403   0.221  -0.229   0.089  -0.233
   0.063  -0.108  -0.430   0.320  -0.258   0.344   0.261  -0.088   0.039  -0.035
  -0.027   0.123  -0.011  -0.171   0.417   0.225  -0.006  -0.592   0.153   0.531
   0.109   0.259   0.283   0.104   0.412   0.116  -0.360   0.098  -0.008  -0.171
   0.737  -0.401   0.546  -0.096  -0.360  -0.102  -0.320  -0.249  -0.320   0.168
  -0.338   0.198  -0.045   0.045  -0.226   0.310   0.209  -0.019   0.312   0.108
  -0.087  -0.146  -0.332  -0.189  -0.507   0.285  -0.029   0.502  -0.092   0.428
   0.043   0.575   0.352  -0.634   0.243  -0.235  -0.315  -0.212  -0.197   0.374
  -0.427  -0.313   0.057   0.059   0.196   0.242  -0.181  -0.208  -0.076  -0.419
  -0.417  -0.414  -0.064   0.025  -0.114   0.006   0.385   0.384  -0.299  -0.016
  -0.253  -0.208   0.119  -0.018  -0.350  -0.067   0.184   0.268   0.501   0.170
   0.498   0.035   0.151   0.105   0.006  -0.164  -0.352   0.123  -0.438  -0.154
  -0.067  -0.179  -0.585   0.446   0.002  -0.251   0.376  -0.350   0.410  -0.353
  -0.795  -0.345   0.162   0.511  -0.653  -0.206   0.260  -0.420   0.049   0.061
  -0.260  -0.096   0.241  -0.504   0.251   0.214  -0.532  -0.423   0.707  -0.631
  -0.374  -0.097   0.094   0.008   0.014  -0.150   0.328   0.274   0.183  -0.057
  -0.153  -0.205   0.074   0.140   0.105  -0.011  -0.256  -0.232   0.092  -0.385
   0.280  -0.010  -0.173   0.214  -0.043   0.528   0.484  -0.138   0.624  -0.009
   0.090   0.244  -0.137   0.026   0.220   0.554  -0.120   0.365  -0.481   0.608
   0.617  -0.000   0.280   0.268  -0.152  -0.444   0.378   0.335   0.052   0.028
   0.114   0.141   0.528   0.154  -0.189   0.744  -0.046  -0.616  -0.038  -0.050
  -0.139   0.146  -0.212  -0.502  -0.067   0.264  -0.064   0.108   0.092  -0.013
  -0.093  -0.084  -0.354   0.175   0.242  -0.062  -0.592  -0.245  -0.047  -0.285
  -0.168   0.032  -0.188   0.272   0.230  -0.321   0.081  -0.134   0.241   0.242
   0.197  -0.375   0.036   0.477   0.210  -0.086  -0.634   0.117   0.085  -0.257
   0.612   0.280  -0.300   0.340  -0.169  -0.256  -0.121   0.131  -0.502  -0.147
   0.038  -0.086   0.058   0.291  -0.417  -0.094  -0.371  -0.298  -0.113  -0.202
   0.202  -0.361  -0.247   0.132  -0.555   0.384  -0.041   0.220   0.433  -0.082
  -0.053   0.262   0.146   0.147  -0.023   0.048   0.081  -0.073  -0.063   0.087
   0.348   0.414  -0.116   0.288   0.359   0.007  -0.394  -0.328  -0.140   0.011
  -0.007  -0.044   0.404   0.323   0.239   0.243   0.129  -0.041  -0.064  -0.327
  -0.169  -0.317   0.152  -0.326  -0.182  -0.055   0.505   0.340   0.465  -0.150
  -0.157   0.011  -0.483   0.052  -0.023  -0.266  -0.576  -0.057   0.321   0.361
  -0.133  -0.110  -0.605   0.127   0.094  -0.182   0.032   0.145   0.084   0.137
   0.320  -0.162  -0.010   0.066  -0.196   0.277  -0.324   0.291   0.440   0.127
   0.393  -0.010  -0.154   0.249   0.146  -0.027  -0.333   0.134  -0.556  -0.272
  -0.107  -0.473  -0.355  -0.045  -0.016  -0.076   0.330  -0.258   0.230  -0.024
  -0.027   0.025   0.144   0.053  -0.119   0.007   0.134  -0.147  -0.242  -0.007
  -0.339   0.306   0.188  -0.556   0.248  -0.298  -0.217   0.074  -0.373   0.445
   0.118   0.207   0.139  -0.534   0.426   0.060  -0.028   0.490   0.437  -0.240
   0.151  -0.077  -0.287   0.095   0.007  -0.003  -0.140   0.474   0.296  -0.356
   0.162  -0.044   0.103   0.360   0.377  -0.286  -0.010   0.151  -0.335   0.281
  -0.090   0.271  -0.104  -0.201  -0.143  -0.050   0.175   0.325  -0.124   0.192
  -0.100  -0.222  -0.076  -0.591  -0.545   0.237  -0.167  -0.124  -0.513  -0.335
   0.142  -0.395  -0.427   0.433   0.110  -0.317   0.125  -0.212   0.103   0.194
  -0.020   0.497   0.430  -0.111   0.220  -0.224   0.599   0.364  -0.316   0.133
   0.036  -0.277  -0.263   0.013  -0.315   0.045  -0.280  -0.166  -0.162  -0.084
   0.192  -0.111   0.293   0.162   0.190   0.370  -0.255  -0.131   0.253  -0.095
   0.162   0.085   0.313  -0.117   0.010  -0.030  -0.515   0.235  -0.117   0.356
   0.373  -0.101   0.315  -0.119   0.104   0.128  -0.206  -0.357   0.120   0.074
   0.137  -0.319  -0.129  -0.055   0.505   0.406  -0.390   0.000   0.165  -0.065
   0.516   0.200   0.198   0.219   0.052  -0.212   0.540   0.353   0.355  -0.172
   0.003  -0.276   0.085   0.198   0.457  -0.433  -0.464  -0.177   0.261   0.197
   0.110  -0.522  -0.151  -0.368  -0.205  -0.239  -0.130  -0.202   0.161  -0.392
  -0.185   0.183  -0.159   0.333   0.033  -0.238   0.163  -0.025   0.189   0.196
  -0.373  -0.166   0.374  -0.183  -0.073   0.012   0.072   0.029   0.113   0.100
  -0.340  -0.277  -0.013   0.431   0.230   0.027  -0.155   0.399  -0.184  -0.303
  -0.311   0.263   0.534  -0.426  -0.140  -0.138   0.085   0.462  -0.304  -0.324
   0.371  -0.363  -0.119   0.169   0.450  -0.015  -0.064  -0.225  -0.034   0.381
   0.343  -0.250  -0.216  -0.114  -0.080  -0.145   0.349   0.419  -0.406   0.108
  -0.166   0.188   0.071  -0.305   0.010  -0.337  -0.349  -0.316  -0.515   0.055
  -0.316   0.267   0.325  -0.070  -0.007  -0.310   0.233  -0.383   0.047  -0.603
  -0.691  -0.327   0.329   0.204  -0.231   0.052  -0.054   0.331  -0.074   0.106
   0.168   0.503   0.051  -0.002   0.164   0.067   0.065   0.260  -0.105   0.406
  -0.253  -0.384  -0.094   0.303   0.216   0.020  -0.066   0.200   0.002   0.070
  -0.664   0.154  -0.241  -0.230  -0.233   0.227  -0.045  -0.274  -0.007   0.029
   0.508  -0.205  -0.106   0.139  -0.096  -0.179   0.171   0.097   0.411   0.129
  -0.209   0.086   0.224  -0.138   0.245   0.172   0.124   0.478  -0.427  -0.294
   0.224  -0.129  -0.374   0.474  -0.015  -0.362   0.145   0.003  -0.000  -0.161
   0.136   0.017  -0.335   0.054   0.305  -0.227  -0.058  -0.493  -0.074   0.509
  -0.038   0.128   0.304  -0.035  -0.540   0.298   0.215  -0.469   0.274   0.319
  -0.211  -0.341   0.433   0.021   0.121   0.084   0.482   0.118   0.306   0.036
   0.152  -0.296  -0.142  -0.222  -0.129   0.376  -0.172  -0.213   0.042   0.306
  -0.168   0.610   0.137   0.043   0.239   0.479   0.117  -0.093  -0.401   0.058
  -0.389  -0.216  -0.631  -0.099  -0.059   0.277   0.423  -0.081   0.182  -0.237
  -0.397   0.169   0.129  -0.028  -0.028  -0.202  -0.059  -0.065   0.374   0.088
  -0.256   0.131   0.013   0.240  -0.058   0.472   0.466   0.658  -0.087  -0.196
   0.390  -0.113  -0.129  -0.194   0.332   0.230   0.036   0.322   0.009   0.027
   0.274   0.162  -0.310   0.168   0.518  -0.187  -0.297   0.075   0.273  -0.110
   0.235   0.193  -0.117   0.305  -0.602  -0.285   0.080  -0.013   0.139   0.362
   0.027  -0.106   0.076  -0.143  -0.207   0.033  -0.212  -0.250   0.274  -0.257
  -0.183   0.045   0.013  -0.037  -0.495  -0.024   0.141  -0.281  -0.438  -0.576
  -0.058  -0.489  -0.420  -0.040   0.115  -0.100  -0.312  -0.203  -0.363  -0.114
   0.027   0.220   0.029  -0.027  -0.555   0.137  -0.163   0.070   0.082  -0.050
  -0.338  -0.175   0.057  -0.615  -0.186  -0.359  -0.028  -0.367   0.243   0.134
  -0.276  -0.097   0.078   0.167  -0.434   0.545   0.434  -0.125   0.470   0.228
  -0.071   0.324  -0.824   0.812   0.148   0.012  -0.509   0.358   0.134  -0.263
  -0.291   0.230  -0.256   0.083   0.501   0.233  -0.342  -0.016  -0.165   0.195
  -0.033  -0.288  -0.414   0.289   0.011  -0.102  -0.288  -0.352   0.319   0.015
  -0.340   0.479   0.195  -0.372   0.221  -0.126  -0.063  -0.201   0.164   0.005
  -0.125   0.542   0.182   0.009   0.521   0.086   0.701  -0.117  -0.298  -0.339
   0.526  -0.251  -0.092   0.060   0.531  -0.026   0.347   0.284  -0.364  -0.101
  -0.301   0.121  -0.381   0.101  -0.251  -0.436   0.608   0.324  -0.119  -0.275
   0.305   0.741  -0.291  -0.039   0.280  -0.017  -0.134  -0.125   0.420  -0.275
   0.177   0.038  -0.106   0.256   0.521   0.004  -0.502  -0.298   0.151   0.317
   0.043  -0.130  -0.311   0.201   0.025  -0.032   0.394   0.193   0.660   0.218
   0.199  -0.406   0.314   0.206   0.206  -0.160  -0.184  -0.186   0.064   0.222
  -0.291   0.069  -0.424   0.170  -0.027   0.253  -0.473   0.047  -0.010  -0.326
   0.087   0.133  -0.302  -0.276  -0.412  -0.177   0.306   0.067  -0.004   0.162
  -0.124   0.387  -0.373   0.101  -0.113   0.023   0.328  -0.486  -0.150   0.064
   0.195  -0.265   0.432   0.149   0.071  -0.353  -0.126  -0.091   0.212   0.077
   0.065   0.204   0.592  -0.110   0.411   0.104  -0.316   0.213  -0.178   0.439
  -0.217   0.216  -0.451   0.136   0.240   0.219  -0.001  -0.026  -0.043   0.124
  -0.130  -0.472   0.332  -0.397  -0.492   0.058  -0.065   0.220  -0.578   0.014
   0.017  -0.002   0.242  -0.138  -0.024  -0.295   0.019  -0.013   0.024   0.249
  -0.472  -0.056   0.210  -0.025   0.282   0.028   0.070   0.145  -0.218   0.462
   0.108  -0.282  -0.360   0.261   0.409  -0.173   0.197  -0.030  -0.175   0.068
  -0.103  -0.170  -0.296  -0.052  -0.618  -0.191  -0.133   0.391  -0.278   0.206
  -0.230  -0.226   0.020  -0.156  -0.331   0.222   0.014   0.002   0.396  -0.399
   0.037   0.104   0.215   0.040  -0.485   0.024   0.224   0.059  -0.066  -0.100
   0.313  -0.057   0.227   0.274   0.123  -0.136  -0.958  -0.185  -0.122   0.076
   0.006  -0.151   0.009   0.245   0.743   0.206   0.140   0.183  -0.193   0.085
  -0.466   0.037   0.136   0.207   0.118  -0.608  -0.377   0.230   0.137   0.420
  -0.305   0.243   0.182   0.050  -0.051   0.333  -0.346   0.193   0.404  -0.055
  -0.353   0.016  -0.234  -0.601  -0.278  -0.381   0.006   0.226   0.191   0.279
   0.259  -0.191   0.254  -0.839  -0.064  -0.165  -0.153  -0.119   0.139  -0.576
   0.187  -0.368  -0.038  -0.006  -0.226  -0.466   0.283  -0.266  -0.119  -0.099
   0.001   0.459  -0.179   0.708   0.170   0.098   0.033  -0.125  -0.044  -0.336
   0.126   0.392   0.457   0.023   0.113  -0.037  -0.071  -0.026   0.274  -0.054
  -0.012  -0.117   0.259  -0.185   0.157   0.124   0.443   0.456  -0.192  -0.216
   0.237   0.559  -0.243   0.253   0.355  -0.214   0.194   0.271  -0.071   0.070
   0.055   0.243   0.187  -0.074   0.158  -0.221  -0.191   0.538  -0.114  -0.170
   0.398  -0.119   0.199   0.294   0.093   0.015   0.036  -0.356  -0.268  -0.217
   0.144   0.622  -0.405   0.271  -0.168   0.407  -0.208   0.025  -0.060   0.017
   0.003   0.382   0.144   0.063   0.099   0.171  -0.404   0.005  -0.292   0.136
   0.230  -0.210  -0.153   0.392  -0.024  -0.049   0.113  -0.268  -0.004  -0.662
  -0.183  -0.323   0.210   0.448   0.012  -0.216   0.268   0.168  -0.164  -0.107
  -0.083  -0.484   0.222  -0.077  -0.114   0.103  -0.175   0.040  -0.029   0.120
   0.164  -0.118  -0.259   0.098   0.364  -0.265  -0.306   0.034   0.262   0.201
  -0.535   0.033  -0.474   0.036  -0.675  -0.074   0.204  -0.334   0.052  -0.699
   0.040  -0.404   0.132  -0.321  -0.945  -0.328  -1.053  -1.066  -0.479  -0.628
  -0.126   0.286   0.439   0.720   0.211   0.732   0.549   0.254  -0.719  -1.203
  -1.215  -1.270  -1.468  -0.097   0.239   1.641   1.655   1.424   1.224   0.826
