Corrected accelerogram 20160214_001343_WHFS_20 GNS Science
Site WHFS      43 15 40S  170 21 32E     Basalt file:  20160214_001419_WHFS
Whataroa Fire Station
Instrument Basalt_493
Resolution: 24-bit   Instr Period: 0.0050 s   Damping: 0.700
Accelerogram 20160214_001343_WHFS_20                 Processed 2016 February 22
11 km east of CHRISTCHURCH
2016 February 14         00:13:43 UT
Epicentre  43 29 50S 172 45 18E  Bearing S81E  Dist  196km  Depth    8km M  5.70
Number of points  8192    Duration 163.82 sec
Instrument corrected data at 0.020 sec intervals
Band-pass filter transition bands are .10-.25 Hz and 24.50-25.50 Hz
Component N00E  Horizontal Axis 1
Acceleration:  peak     13.1 mm/s/s at  91.86 sec     rms      2.1 mm/s/s
Velocity:      peak    -4.04 mm/s   at  91.40 sec     rms     0.65 mm/s
Displacement:  peak   -1.420 mm     at  91.88 sec     rms    0.242 mm
    2016       2      14       0      13     430       0       0    2016       2
      43      29      50     172      45      18       8       0      14       0
      43      15      40     170      21      32       0       0      99     196
   30800     250     250    8192    8192    8192       0       0      13   39000
   200.0    0.70    0.00   0.000  0.0000   0.000   0.000   1.000     0.0    0.00
  43.261 170.359   43.50  172.76    5.70    0.00    0.00    0.00      0.      0.
  154.00    5.00    5.00  163.82  0.0050  0.0200      0.      0.      0.  9806.6
    13.4   91.86     2.2   0.000      0.    13.1   91.86     2.1    13.1   0.449
   -4.04   91.40    0.65    4.04   0.449   -1.42   91.88    0.24    1.44   0.449
   0.100   0.150   0.250      0.      0.  24.500   1.000  25.500      0.      0.
   0.001   0.001   0.000   0.001   0.000   0.001   0.000   0.000   0.000   0.000
   0.000   0.000   0.000   0.000   0.000   0.000  -0.000   0.000  -0.000  -0.000
  -0.000  -0.000  -0.000  -0.000  -0.000  -0.000  -0.001  -0.000  -0.001  -0.000
  -0.001  -0.001  -0.001  -0.001  -0.001  -0.001  -0.001  -0.001  -0.001  -0.001
  -0.001  -0.001  -0.001  -0.001  -0.002  -0.001  -0.002  -0.001  -0.002  -0.002
  -0.002  -0.002  -0.002  -0.002  -0.002  -0.002  -0.002  -0.002  -0.002  -0.002
  -0.002  -0.002  -0.003  -0.002  -0.003  -0.003  -0.003  -0.003  -0.003  -0.003
  -0.003  -0.003  -0.003  -0.003  -0.003  -0.003  -0.003  -0.003  -0.003  -0.003
  -0.003  -0.003  -0.004  -0.003  -0.004  -0.004  -0.004  -0.004  -0.004  -0.004
  -0.004  -0.004  -0.004  -0.004  -0.004  -0.004  -0.004  -0.004  -0.004  -0.004
  -0.004  -0.004  -0.004  -0.004  -0.004  -0.004  -0.004  -0.004  -0.004  -0.004
  -0.004  -0.004  -0.004  -0.004  -0.004  -0.004  -0.004  -0.004  -0.004  -0.004
  -0.004  -0.004  -0.004  -0.004  -0.004  -0.003  -0.003  -0.003  -0.003  -0.003
  -0.003  -0.003  -0.003  -0.003  -0.003  -0.003  -0.003  -0.003  -0.003  -0.002
  -0.002  -0.002  -0.002  -0.002  -0.002  -0.002  -0.002  -0.001  -0.001  -0.001
  -0.001  -0.001  -0.001  -0.001  -0.001  -0.000  -0.000  -0.000   0.000   0.000
   0.000   0.001   0.001   0.001   0.001   0.001   0.002   0.002   0.002   0.002
   0.002   0.003   0.003   0.003   0.003   0.003   0.004   0.004   0.004   0.004
   0.005   0.005   0.005   0.005   0.006   0.006   0.006   0.006   0.007   0.007
   0.007   0.007   0.008   0.008   0.008   0.009   0.009   0.009   0.010   0.010
   0.010   0.010   0.011   0.011   0.011   0.012   0.012   0.012   0.013   0.013
   0.013   0.014   0.014   0.014   0.015   0.015   0.015   0.016   0.016   0.016
   0.017   0.017   0.017   0.018   0.018   0.019   0.019   0.019   0.019   0.020
   0.020   0.021   0.020   0.022   0.021   0.023   0.022   0.024   0.022   0.025
   0.022   0.026   0.023   0.028   0.022   0.029   0.022   0.032   0.019   0.038
  -0.023  -0.018  -0.050   0.004  -0.007  -0.021   0.008  -0.101  -0.025  -0.021
  -0.061  -0.022   0.020  -0.051  -0.067  -0.008   0.018  -0.084   0.008  -0.007
  -0.052  -0.018  -0.036  -0.016  -0.028   0.051  -0.080   0.015   0.009  -0.069
   0.000  -0.002  -0.041   0.012  -0.016   0.009  -0.065   0.003   0.003   0.016
  -0.066  -0.016  -0.006  -0.000   0.037  -0.079  -0.025   0.024  -0.003  -0.010
   0.015  -0.030   0.002   0.001  -0.022  -0.001   0.055  -0.029  -0.063  -0.007
   0.027  -0.016  -0.006  -0.041   0.041  -0.061  -0.005   0.010   0.008  -0.005
   0.007   0.003  -0.025  -0.018   0.026  -0.030   0.022  -0.037   0.005  -0.045
   0.031   0.022  -0.016  -0.004  -0.017  -0.007   0.002  -0.033  -0.014  -0.019
   0.044  -0.017   0.001  -0.031   0.008   0.052   0.002   0.075  -0.044   0.008
  -0.005   0.003   0.042  -0.009  -0.010   0.024   0.021  -0.011  -0.022   0.020
   0.014  -0.043   0.022   0.013  -0.050   0.028  -0.009   0.017  -0.015   0.009
   0.030   0.013  -0.002  -0.037   0.045  -0.005   0.018  -0.049   0.065  -0.004
  -0.018  -0.009  -0.002   0.014   0.033   0.007  -0.025  -0.008  -0.003   0.051
  -0.017   0.043  -0.054   0.066   0.018   0.008   0.019  -0.013   0.010   0.040
  -0.039   0.039   0.016  -0.044   0.023   0.019   0.002   0.040  -0.077   0.045
  -0.027   0.031   0.054  -0.056   0.024  -0.033   0.037  -0.010  -0.000  -0.011
  -0.028   0.009   0.026  -0.064   0.083  -0.120   0.083  -0.004  -0.041   0.033
  -0.046   0.059  -0.052   0.002  -0.022   0.047   0.000  -0.013   0.020  -0.021
   0.025  -0.006  -0.004  -0.045   0.024  -0.005   0.038   0.006  -0.044   0.010
  -0.023   0.044  -0.039  -0.002   0.060  -0.027  -0.005  -0.006  -0.049   0.020
  -0.040   0.005   0.063  -0.018  -0.049  -0.002   0.020   0.031  -0.038   0.021
   0.057  -0.012  -0.018  -0.000   0.011   0.034  -0.025   0.045   0.024  -0.034
  -0.042   0.001   0.034   0.091  -0.053  -0.017   0.089  -0.067   0.006   0.051
  -0.034  -0.002   0.021  -0.009   0.043   0.054  -0.051  -0.000   0.074  -0.044
  -0.003  -0.005  -0.020   0.009  -0.017   0.025   0.032  -0.060   0.017   0.003
   0.047  -0.025  -0.030   0.014  -0.033   0.016  -0.024   0.009   0.041  -0.045
  -0.008   0.018   0.004  -0.034   0.023   0.041  -0.060  -0.030   0.052   0.005
  -0.013   0.049  -0.002   0.007   0.008  -0.038   0.024  -0.009   0.015  -0.017
  -0.032   0.020  -0.023  -0.050   0.020  -0.007  -0.030   0.017   0.027  -0.024
   0.002   0.052  -0.010  -0.057   0.036  -0.019  -0.028   0.028   0.013  -0.017
  -0.021  -0.004  -0.023  -0.029   0.051  -0.070   0.066  -0.022  -0.033   0.061
   0.027  -0.019  -0.030  -0.004   0.024  -0.074  -0.012   0.036  -0.025  -0.015
   0.051  -0.033  -0.040   0.007  -0.019   0.019  -0.052   0.019  -0.024  -0.041
   0.064   0.020  -0.043   0.036   0.017  -0.032   0.006   0.069  -0.039   0.001
  -0.000   0.002  -0.032   0.004   0.040   0.016  -0.042  -0.032   0.038  -0.020
  -0.030   0.044  -0.031  -0.040   0.033   0.056  -0.027  -0.018   0.015   0.010
  -0.036   0.036  -0.021   0.003   0.024  -0.014  -0.015  -0.001   0.025  -0.005
   0.009  -0.049   0.025  -0.030  -0.014   0.038   0.033   0.009  -0.022  -0.030
  -0.021   0.029  -0.030   0.003   0.046  -0.036   0.021   0.028  -0.022   0.010
   0.036   0.002  -0.014   0.039  -0.040  -0.011   0.057   0.007  -0.055   0.016
   0.026  -0.043   0.014   0.065  -0.055   0.018  -0.010  -0.011   0.018  -0.003
   0.044   0.023  -0.047   0.030  -0.040   0.017  -0.019   0.006   0.003   0.034
  -0.000  -0.074   0.037  -0.007   0.008  -0.038   0.056  -0.002   0.019  -0.037
   0.012   0.020  -0.036  -0.044   0.052   0.052  -0.041  -0.033  -0.012   0.063
   0.005  -0.055   0.004   0.028   0.011  -0.036   0.029   0.002  -0.011  -0.025
  -0.024   0.064   0.025  -0.073   0.029   0.033  -0.037  -0.005  -0.069   0.042
  -0.013  -0.036   0.020   0.020  -0.038   0.017  -0.055   0.039   0.010  -0.043
   0.058   0.010   0.016   0.011  -0.036   0.088  -0.042  -0.003   0.054   0.017
   0.022  -0.011   0.021   0.037  -0.075   0.010  -0.000   0.006   0.059  -0.037
  -0.017   0.038  -0.025   0.000   0.010   0.002  -0.050   0.012  -0.012  -0.022
   0.004   0.026  -0.047   0.052  -0.047   0.008   0.066  -0.036   0.016   0.040
  -0.074   0.052   0.043  -0.011   0.014  -0.095   0.025   0.037  -0.034  -0.001
  -0.021   0.055  -0.099   0.040   0.010  -0.054   0.010  -0.042   0.053   0.008
  -0.093   0.067  -0.041  -0.024  -0.005   0.020  -0.008  -0.036  -0.015   0.043
  -0.054   0.022  -0.005  -0.014  -0.012  -0.024   0.030  -0.030   0.004  -0.027
  -0.028   0.040   0.014  -0.004   0.017  -0.020   0.003   0.002   0.033   0.043
  -0.031  -0.015   0.002   0.057  -0.040   0.025  -0.018   0.031  -0.026  -0.032
   0.014   0.001   0.011   0.001  -0.020  -0.029   0.063   0.016   0.001   0.020
   0.005  -0.009   0.020  -0.035   0.014  -0.003   0.023  -0.016  -0.002  -0.005
   0.005  -0.030  -0.020   0.054  -0.013   0.006   0.033   0.002  -0.057   0.035
  -0.048   0.021  -0.012   0.002   0.048  -0.004  -0.006   0.016   0.015   0.043
  -0.002  -0.023   0.053  -0.008   0.019  -0.032   0.045  -0.060   0.033  -0.005
   0.060  -0.054   0.042  -0.012  -0.016   0.008   0.018  -0.016  -0.026   0.039
  -0.009   0.049  -0.029   0.046  -0.083   0.034  -0.018   0.058  -0.051   0.055
  -0.046   0.020  -0.094   0.055  -0.009   0.023  -0.034   0.006   0.015   0.015
  -0.014  -0.039  -0.004  -0.010   0.041  -0.052   0.040  -0.029   0.028  -0.073
   0.059  -0.001   0.050  -0.062   0.060  -0.030   0.068  -0.026   0.056  -0.091
   0.030   0.032  -0.014  -0.090   0.056  -0.032   0.044  -0.041   0.026  -0.004
   0.018  -0.014  -0.029   0.010   0.034  -0.008  -0.024   0.003  -0.030   0.011
  -0.031   0.024  -0.041   0.048  -0.063   0.039  -0.060   0.049  -0.062   0.049
  -0.086   0.055  -0.051   0.075  -0.075   0.043  -0.050   0.027  -0.029   0.021
  -0.003   0.020  -0.001  -0.023   0.012  -0.007   0.055  -0.018   0.014  -0.059
   0.024   0.001   0.034  -0.060   0.038  -0.052   0.017  -0.031   0.025  -0.025
  -0.022   0.006   0.030   0.021  -0.044   0.047  -0.017   0.006   0.032  -0.024
   0.001  -0.026   0.004   0.048  -0.079  -0.022  -0.023   0.024   0.003  -0.016
  -0.037   0.036  -0.022  -0.025   0.040  -0.014  -0.015   0.009   0.043  -0.028
   0.014  -0.026   0.044   0.004   0.016   0.007   0.024   0.006  -0.028  -0.020
   0.053  -0.007   0.038   0.031  -0.016  -0.021  -0.033   0.035  -0.014   0.004
   0.024  -0.029  -0.004   0.063  -0.015   0.047  -0.000  -0.077   0.071   0.001
  -0.026   0.025   0.031  -0.023   0.004   0.035   0.011   0.003  -0.001  -0.003
  -0.032   0.034   0.020   0.049  -0.028  -0.039  -0.009  -0.017   0.047   0.008
  -0.060   0.008   0.035  -0.045  -0.016   0.029   0.006  -0.012  -0.004  -0.014
   0.045  -0.006  -0.013   0.049  -0.047  -0.028   0.050  -0.034   0.016  -0.023
   0.017  -0.033   0.016   0.024  -0.010   0.021  -0.010  -0.014   0.006  -0.000
  -0.059   0.016  -0.003  -0.023  -0.024   0.049  -0.015  -0.011  -0.011  -0.011
   0.033   0.027  -0.026   0.020  -0.016   0.011  -0.032   0.009   0.019  -0.009
   0.039  -0.011   0.013  -0.006  -0.046   0.079  -0.065  -0.017  -0.011   0.013
  -0.016   0.041  -0.063   0.013   0.013   0.003  -0.006   0.043  -0.028   0.040
  -0.018   0.018  -0.029  -0.009   0.064   0.033  -0.017  -0.017   0.048   0.015
  -0.059   0.025   0.012  -0.002  -0.029   0.028   0.020  -0.020   0.006  -0.086
   0.029   0.005  -0.020  -0.025   0.051  -0.045  -0.005   0.008  -0.067  -0.015
   0.031  -0.018  -0.029  -0.011  -0.019   0.045   0.006  -0.052   0.019   0.060
  -0.042  -0.036   0.002   0.020   0.025  -0.001   0.011  -0.005   0.006  -0.021
  -0.032  -0.005  -0.001  -0.013   0.021   0.015   0.046  -0.037  -0.026   0.014
   0.007   0.001  -0.028  -0.001   0.039  -0.047  -0.002   0.016   0.049  -0.037
   0.013   0.024   0.005  -0.028   0.024  -0.003  -0.037   0.017  -0.041   0.060
  -0.018   0.012  -0.049   0.028   0.005   0.019  -0.042   0.082  -0.043  -0.001
  -0.035   0.013   0.010   0.030   0.016   0.037  -0.006  -0.044   0.034   0.040
  -0.016  -0.016   0.024   0.020   0.000  -0.052   0.001   0.041  -0.020   0.018
  -0.013  -0.013   0.052  -0.010  -0.030  -0.012   0.029  -0.068   0.062  -0.009
  -0.024   0.025   0.012   0.026   0.007  -0.050  -0.050   0.041  -0.059   0.003
   0.026  -0.006   0.047   0.028  -0.028   0.005   0.002  -0.058   0.031  -0.010
   0.021   0.027  -0.017  -0.015   0.041   0.000  -0.033   0.034  -0.018  -0.004
   0.014  -0.029   0.021  -0.037   0.040   0.044  -0.077  -0.041  -0.001   0.008
  -0.000   0.024   0.020  -0.028   0.051  -0.054  -0.056   0.051  -0.017   0.063
  -0.039  -0.022   0.045   0.001  -0.016  -0.057   0.038   0.045   0.008   0.025
  -0.014   0.047  -0.009   0.011  -0.028   0.019   0.011  -0.041   0.028   0.013
   0.024  -0.049   0.039  -0.031  -0.006  -0.032   0.038   0.013  -0.045  -0.022
  -0.032   0.042   0.030  -0.066  -0.043   0.027  -0.009  -0.038   0.022   0.043
  -0.067  -0.066   0.038   0.048   0.040  -0.061   0.005   0.022  -0.068   0.018
   0.000  -0.038   0.027   0.022  -0.019   0.059   0.018  -0.043   0.051   0.006
  -0.000   0.025   0.021   0.009  -0.065   0.062  -0.054   0.051  -0.006  -0.018
  -0.017  -0.014   0.013   0.009  -0.057   0.084  -0.006  -0.051   0.018   0.040
  -0.039   0.058  -0.057   0.000   0.034   0.006  -0.040   0.019   0.020   0.019
  -0.007  -0.006  -0.017  -0.014   0.031  -0.039   0.054  -0.008  -0.007  -0.026
   0.059  -0.056  -0.014   0.050   0.007  -0.070   0.022   0.007  -0.040  -0.016
   0.002  -0.026   0.003   0.001   0.008  -0.026   0.009   0.010  -0.029   0.047
  -0.022   0.033  -0.033   0.020   0.005  -0.042  -0.004   0.015   0.013   0.018
  -0.007  -0.001  -0.019  -0.007  -0.005   0.041  -0.011   0.060   0.007  -0.012
   0.056  -0.103   0.100  -0.020   0.016   0.010  -0.025  -0.013  -0.007  -0.030
   0.076  -0.042   0.007   0.035  -0.004  -0.028   0.038  -0.014   0.002  -0.025
   0.032  -0.017   0.004  -0.046   0.022   0.035  -0.018   0.013   0.074  -0.093
   0.046   0.007  -0.002  -0.046  -0.019   0.091  -0.088   0.058  -0.096   0.093
  -0.153   0.129  -0.038   0.092  -0.093  -0.111   0.109  -0.093   0.187  -0.225
  -0.024   0.083  -0.006   0.034  -0.036  -0.017   0.024   0.034   0.000  -0.063
   0.060  -0.033  -0.057   0.030   0.005   0.059  -0.091  -0.036   0.083  -0.026
  -0.007   0.015   0.033  -0.057   0.021  -0.045   0.108  -0.060  -0.054   0.038
  -0.015   0.043  -0.009  -0.006   0.063  -0.039   0.012  -0.004   0.017   0.018
  -0.066   0.102  -0.066   0.073  -0.027  -0.017   0.017   0.081  -0.054  -0.056
   0.017   0.020  -0.058  -0.019   0.039   0.000   0.022  -0.027   0.023  -0.004
  -0.047   0.061   0.033  -0.061   0.019  -0.008  -0.046   0.049  -0.083   0.020
  -0.023   0.060  -0.017   0.077  -0.079   0.006   0.009  -0.022   0.040  -0.029
  -0.004   0.058  -0.000  -0.032   0.014  -0.034  -0.016  -0.018   0.042   0.018
   0.031  -0.076   0.027   0.015  -0.008   0.029  -0.051   0.044  -0.050   0.031
  -0.014  -0.015   0.032  -0.049   0.013   0.025   0.039   0.000  -0.013  -0.007
   0.015  -0.020   0.005   0.045  -0.068   0.013   0.042  -0.024   0.105   0.006
  -0.082   0.129  -0.035   0.002   0.010  -0.002   0.017   0.087  -0.059   0.020
   0.040  -0.090   0.124  -0.005  -0.075   0.053  -0.040   0.001   0.036  -0.069
  -0.029   0.057  -0.134   0.072  -0.005  -0.035   0.116  -0.147  -0.023   0.033
   0.039  -0.079   0.094  -0.051  -0.121   0.048   0.109  -0.174   0.127  -0.048
  -0.088   0.055   0.008   0.036  -0.036  -0.069   0.176  -0.175  -0.047   0.296
  -0.374   0.179   0.051  -0.258   0.104   0.093  -0.072  -0.050   0.072   0.041
  -0.073   0.026   0.016   0.011  -0.054   0.012   0.022  -0.011   0.008   0.034
  -0.055  -0.034   0.043  -0.010   0.008   0.006  -0.028   0.032   0.014  -0.021
   0.021  -0.018   0.012  -0.006  -0.013   0.037  -0.017   0.012  -0.058  -0.002
  -0.009   0.001   0.013   0.033   0.003   0.039  -0.013  -0.040   0.021   0.025
  -0.051   0.019  -0.038   0.013   0.011  -0.010   0.007  -0.014   0.061  -0.040
   0.022   0.007   0.014  -0.017   0.007   0.029   0.024   0.036  -0.013   0.010
   0.029  -0.021   0.009   0.030   0.006   0.027   0.001  -0.004   0.040  -0.054
   0.021  -0.013   0.002   0.024   0.036  -0.034   0.017  -0.003   0.003  -0.030
   0.011   0.015  -0.012   0.033   0.000   0.016  -0.028  -0.035   0.030  -0.025
  -0.009   0.047  -0.045   0.008  -0.011  -0.005   0.020   0.021   0.014  -0.081
   0.114  -0.058  -0.035   0.054  -0.052  -0.036   0.075  -0.056   0.002  -0.049
   0.050   0.012  -0.024   0.023   0.012  -0.055   0.015   0.036  -0.052   0.012
  -0.029   0.017   0.003  -0.021   0.023  -0.006  -0.031   0.028   0.016  -0.040
   0.053  -0.030  -0.037   0.038  -0.060   0.026  -0.001  -0.063   0.027   0.013
   0.025   0.012   0.002  -0.029   0.017  -0.014   0.040  -0.029  -0.140   0.117
  -0.070   0.032  -0.015   0.017  -0.022  -0.046   0.019   0.112  -0.090   0.042
   0.013  -0.052   0.048  -0.068   0.084  -0.060  -0.011   0.034   0.026  -0.055
   0.001   0.028   0.074  -0.061  -0.038   0.134  -0.007  -0.125  -0.075   0.121
  -0.010  -0.082   0.034   0.017  -0.062   0.188  -0.169  -0.047   0.108   0.007
  -0.006  -0.014  -0.008   0.018  -0.001   0.081  -0.144  -0.007   0.063   0.017
  -0.024  -0.011  -0.032   0.016   0.043  -0.038  -0.042   0.032  -0.001  -0.023
   0.070  -0.054  -0.022   0.063  -0.016   0.027   0.032  -0.025   0.029  -0.014
  -0.023  -0.033  -0.030   0.014   0.067   0.021  -0.104   0.014   0.033  -0.017
   0.013  -0.021  -0.001   0.026  -0.047   0.019  -0.089   0.068   0.019   0.008
  -0.035   0.003   0.033  -0.040   0.038   0.020  -0.026   0.016   0.034  -0.053
  -0.011   0.028   0.006  -0.008   0.039  -0.010   0.040  -0.009   0.007   0.028
   0.022   0.005  -0.015  -0.001   0.040  -0.009  -0.041   0.022   0.022   0.003
   0.011   0.003  -0.000   0.004   0.020  -0.006   0.008   0.060  -0.056  -0.036
  -0.000   0.046   0.014  -0.052   0.019   0.046  -0.030   0.000   0.018   0.024
   0.052  -0.098   0.022   0.003  -0.006   0.007   0.033   0.021  -0.056   0.017
  -0.010  -0.028   0.039   0.010   0.009  -0.014  -0.040   0.032  -0.012  -0.021
   0.024   0.002  -0.001   0.006   0.005  -0.023  -0.032   0.023   0.043  -0.031
   0.016   0.017  -0.052  -0.049   0.028  -0.001   0.045   0.016  -0.098  -0.033
   0.064  -0.027   0.022   0.023  -0.098  -0.005   0.063  -0.035  -0.066   0.053
  -0.018  -0.034   0.030   0.027   0.049  -0.041  -0.003   0.058   0.050  -0.113
   0.026   0.026  -0.011  -0.006   0.011  -0.022   0.019  -0.063   0.047   0.061
  -0.074   0.000   0.041   0.002   0.015  -0.010   0.039  -0.030  -0.055   0.048
  -0.014  -0.019   0.012   0.002   0.008  -0.029   0.010  -0.004   0.025  -0.022
  -0.032   0.039  -0.006  -0.068  -0.022  -0.002   0.027  -0.018  -0.048   0.044
   0.063  -0.078  -0.078   0.086   0.046  -0.039  -0.083   0.038   0.041   0.011
  -0.005   0.002  -0.091  -0.011   0.057  -0.010  -0.045  -0.049   0.048   0.025
  -0.143  -0.014   0.167  -0.032  -0.049   0.013  -0.022   0.027  -0.049  -0.006
   0.022   0.104  -0.012  -0.050   0.008   0.003  -0.005   0.049  -0.006   0.090
   0.008  -0.073  -0.014  -0.106   0.045  -0.042  -0.043   0.023   0.004   0.090
   0.056  -0.011  -0.032  -0.011   0.049  -0.006  -0.130  -0.033   0.092   0.070
  -0.146   0.011   0.129  -0.007  -0.005  -0.214  -0.056  -0.026   0.124  -0.054
   0.007  -0.006  -0.002   0.043  -0.085   0.028   0.214  -0.134  -0.276   0.103
   0.219   0.090  -0.088  -0.013   0.137   0.063   0.085   0.129  -0.098  -0.147
  -0.091   0.102   0.290  -0.079  -0.027   0.124  -0.040   0.087   0.266  -0.020
  -0.085  -0.063  -0.136   0.056   0.132   0.065   0.134   0.475   0.115  -0.208
  -0.045  -0.082   0.170  -0.133  -0.278  -0.234   0.159   0.009  -0.002   0.245
   0.167  -0.320  -0.337  -0.075  -0.066  -0.404  -0.377   0.145   0.193   0.199
   0.045   0.021   0.312   0.167  -0.199  -0.433   0.116   0.059  -0.033   0.044
   0.252   0.219  -0.027  -0.087  -0.048   0.107  -0.497  -0.456  -0.082  -0.035
   0.035   0.420   0.126   0.276  -0.040   0.027  -0.216  -0.506  -0.097   0.023
  -0.004  -0.050  -0.145   0.451   0.182  -0.296   0.198   0.205  -0.204  -0.951
  -0.497   0.025  -0.186   0.117   0.164   0.575   0.722   0.363  -0.733  -0.613
   0.210   0.077   0.132   0.533  -0.111   0.910   0.489  -0.115   0.149  -0.159
