Corrected accelerogram 20160214_001343_CECS_20 GNS Science
Site CECS      42 48 49S  173 16 30E     Basalt file:  20160214_001400_CECS
Cheviot Emergency Centre
Instrument Basalt_2428
Resolution: 24-bit   Instr Period: 0.0050 s   Damping: 0.700
Accelerogram 20160214_001343_CECS_20                 Processed 2016 February 22
11 km east of CHRISTCHURCH
2016 February 14         00:13:43 UT
Epicentre  43 29 50S 172 45 18E  Bearing S29W  Dist   87km  Depth    8km M  5.70
Number of points  7700    Duration 153.98 sec
Instrument corrected data at 0.020 sec intervals
Band-pass filter transition bands are .10-.25 Hz and 24.50-25.50 Hz
Component N00E  Horizontal Axis 1
Acceleration:  peak    -86.2 mm/s/s at  59.72 sec     rms     10.5 mm/s/s
Velocity:      peak     8.70 mm/s   at  57.36 sec     rms     1.40 mm/s
Displacement:  peak    2.461 mm     at  57.82 sec     rms    0.499 mm
    2016       2      14       0      13     430       0       0    2016       2
      43      29      50     172      45      18       8       0      14       0
      42      48      49     173      16      30       0       0     209      87
   28800     250     250    7700    7700    7700       0       0      13   20000
   200.0    0.70    0.00   0.000  0.0000   0.000   0.000   1.000     0.0    0.00
  42.813 173.275   43.50  172.76    5.70    0.00    0.00    0.00      0.      0.
  144.00    5.00    5.00  153.98  0.0050  0.0200      0.      0.      0.  9806.6
   -87.1   59.73    10.8   0.000      0.   -86.2   59.72    10.5   113.1   1.340
    8.70   57.36    1.40   13.09   0.446    2.46   57.82    0.50    3.08   0.217
   0.100   0.150   0.250      0.      0.  24.500   1.000  25.500      0.      0.
  -0.000   0.000  -0.000   0.000  -0.000   0.000  -0.000   0.000  -0.000   0.000
  -0.000   0.000  -0.000   0.000  -0.000   0.000  -0.000   0.000  -0.000   0.000
  -0.000   0.000  -0.000   0.000  -0.000   0.000  -0.000   0.000  -0.000   0.000
  -0.000   0.000  -0.000   0.000  -0.000   0.000  -0.000   0.000  -0.000   0.000
  -0.000   0.000  -0.000   0.000  -0.000   0.000  -0.000   0.000  -0.000   0.000
  -0.000   0.000  -0.000   0.000  -0.000   0.000  -0.000   0.000  -0.000   0.000
  -0.000   0.000  -0.000   0.000  -0.000   0.000  -0.000   0.000  -0.000   0.000
  -0.000   0.000  -0.000   0.000  -0.000   0.000  -0.000   0.000  -0.000   0.000
  -0.000   0.000  -0.000   0.000  -0.000   0.000  -0.000   0.000  -0.000   0.000
  -0.000   0.000  -0.000   0.000  -0.000   0.000  -0.000   0.000  -0.000   0.000
  -0.000   0.000  -0.000   0.000  -0.000   0.000  -0.000   0.000  -0.000   0.000
  -0.000   0.000  -0.000   0.000  -0.000   0.000  -0.000   0.000  -0.000   0.000
  -0.000   0.000  -0.000   0.000  -0.000   0.000  -0.000   0.000  -0.000   0.000
  -0.000   0.000  -0.000   0.000  -0.000   0.000  -0.000   0.000  -0.000   0.000
  -0.000   0.000  -0.000   0.000  -0.000   0.000  -0.000   0.000  -0.000   0.000
  -0.000   0.000  -0.000   0.000  -0.000   0.000  -0.000   0.000  -0.000  -0.000
  -0.000  -0.000  -0.000  -0.000  -0.000  -0.000  -0.000  -0.000  -0.000  -0.000
  -0.000  -0.000  -0.000  -0.000  -0.000  -0.000  -0.000  -0.000  -0.000  -0.000
  -0.000  -0.000  -0.000  -0.000  -0.000  -0.000  -0.000  -0.000  -0.000  -0.000
  -0.000  -0.000  -0.001  -0.000  -0.001  -0.000  -0.001  -0.000  -0.001  -0.000
  -0.001  -0.000  -0.001  -0.001  -0.001  -0.001  -0.001  -0.001  -0.001  -0.001
  -0.001  -0.001  -0.001  -0.001  -0.001  -0.001  -0.001  -0.001  -0.001  -0.001
  -0.001  -0.001  -0.001  -0.001  -0.001  -0.001  -0.001  -0.001  -0.001  -0.001
  -0.001  -0.001  -0.001  -0.001  -0.001  -0.001  -0.001  -0.001  -0.001  -0.001
  -0.001  -0.001  -0.001  -0.001  -0.001  -0.001  -0.000  -0.002  -0.000  -0.002
  -0.000  -0.002   0.000  -0.002   0.003   0.002   0.008  -0.005   0.016   0.046
   0.016  -0.005   0.004  -0.017  -0.013   0.003   0.000  -0.004  -0.023   0.011
  -0.011   0.020   0.031   0.019   0.012  -0.005   0.001  -0.002   0.003  -0.001
  -0.001   0.003   0.001  -0.025  -0.001   0.001  -0.000  -0.001  -0.001   0.001
  -0.014  -0.037   0.000  -0.001   0.002  -0.002   0.003  -0.007   0.006  -0.013
  -0.022   0.001   0.009   0.052   0.022  -0.015  -0.018  -0.028   0.018   0.016
  -0.007   0.009   0.039  -0.014  -0.001  -0.003  -0.024  -0.000   0.008   0.021
  -0.006   0.034   0.020  -0.007   0.011  -0.015  -0.015  -0.011   0.003   0.009
  -0.028   0.005  -0.039  -0.011  -0.003   0.007   0.002   0.006  -0.005   0.003
  -0.004   0.003  -0.002   0.002  -0.004   0.005  -0.000   0.031  -0.013  -0.048
  -0.050   0.037   0.029  -0.005   0.003  -0.002  -0.001  -0.000  -0.002   0.007
  -0.012  -0.018   0.005  -0.025   0.005   0.003   0.040   0.032   0.000  -0.001
   0.002   0.001  -0.001  -0.002  -0.026   0.001  -0.002  -0.000  -0.002  -0.001
   0.002   0.025  -0.004   0.002  -0.001  -0.003  -0.002  -0.000  -0.002   0.002
   0.003   0.001   0.030  -0.022  -0.002   0.025  -0.024  -0.009  -0.027   0.006
   0.023   0.001   0.039   0.028   0.005  -0.052  -0.028   0.002  -0.004   0.002
   0.014   0.024   0.030   0.029  -0.007  -0.018   0.000  -0.000  -0.016  -0.018
   0.006  -0.005   0.007   0.039   0.008  -0.005  -0.000  -0.048  -0.022  -0.005
   0.017   0.012  -0.004   0.041   0.003   0.001  -0.026  -0.004  -0.001  -0.002
  -0.003   0.000   0.021  -0.000  -0.005  -0.019   0.003  -0.003   0.004  -0.018
  -0.020   0.040   0.005  -0.021  -0.005  -0.028   0.006  -0.008   0.002  -0.003
   0.026  -0.010   0.016   0.007  -0.029  -0.026  -0.000  -0.002  -0.000  -0.001
   0.001  -0.006   0.020   0.005  -0.019  -0.025  -0.019  -0.004  -0.030  -0.020
   0.010   0.039  -0.006   0.014   0.011  -0.008  -0.001   0.001   0.003  -0.003
  -0.000   0.001  -0.035   0.022   0.035  -0.018   0.016   0.015  -0.003  -0.049
  -0.027  -0.006  -0.000  -0.007  -0.002  -0.004   0.026   0.041   0.020  -0.005
   0.003  -0.000  -0.003  -0.004  -0.004  -0.003  -0.004   0.013   0.017  -0.014
   0.005  -0.010   0.005  -0.013   0.053   0.027  -0.010  -0.000  -0.003  -0.004
   0.000  -0.012   0.028   0.066   0.005  -0.009   0.001  -0.012   0.012   0.011
  -0.004   0.012  -0.010   0.001  -0.010   0.019   0.002  -0.040  -0.015   0.015
   0.007  -0.004  -0.003  -0.007  -0.002  -0.006   0.004   0.015   0.007   0.017
  -0.006  -0.031  -0.012   0.001   0.004  -0.007  -0.002  -0.012   0.039   0.010
   0.004   0.063  -0.047  -0.110  -0.016   0.005  -0.052   0.017   0.068   0.006
  -0.010  -0.020  -0.037   0.038   0.011  -0.025  -0.011   0.047   0.004  -0.001
  -0.030   0.015   0.029  -0.013  -0.004  -0.007  -0.014  -0.002   0.018  -0.080
  -0.030  -0.001   0.026   0.073   0.025   0.011  -0.011   0.022  -0.001  -0.055
   0.001   0.042   0.058   0.004   0.000  -0.026  -0.037   0.004  -0.008  -0.002
  -0.009  -0.003  -0.006  -0.002  -0.009  -0.002  -0.010   0.001   0.017  -0.027
  -0.006  -0.004  -0.007  -0.003  -0.008  -0.002  -0.012   0.015   0.009  -0.004
  -0.001   0.000   0.019  -0.013   0.002  -0.007  -0.001  -0.011   0.005   0.017
  -0.005  -0.005  -0.020  -0.026  -0.015   0.004   0.047  -0.004   0.017   0.023
  -0.035   0.023  -0.035   0.024  -0.004   0.037   0.045  -0.014  -0.054   0.000
   0.028  -0.012  -0.022  -0.005  -0.031   0.006   0.074   0.011   0.000  -0.020
  -0.013   0.002  -0.008   0.003   0.051   0.001   0.018  -0.004   0.017   0.000
  -0.058  -0.002  -0.003   0.014   0.017  -0.040   0.021   0.010  -0.041   0.027
   0.030  -0.034   0.048   0.026  -0.013   0.002  -0.008   0.006   0.004  -0.032
  -0.005   0.065  -0.000   0.002  -0.009   0.032  -0.018  -0.063   0.063   0.012
  -0.058   0.010   0.040   0.005  -0.019  -0.007   0.004  -0.038   0.001  -0.006
   0.012  -0.017  -0.018  -0.006   0.013   0.014   0.009  -0.061  -0.012  -0.003
   0.013   0.071   0.006   0.001  -0.003   0.006  -0.001  -0.001   0.003  -0.004
   0.003  -0.014  -0.042  -0.021   0.007  -0.009   0.039   0.020  -0.011  -0.002
  -0.018  -0.017  -0.013   0.020  -0.001  -0.013   0.007   0.019  -0.000  -0.030
   0.010   0.027  -0.024  -0.047   0.004   0.023   0.047  -0.003  -0.010  -0.058
  -0.016   0.102  -0.012  -0.056  -0.030   0.023   0.028   0.071  -0.031  -0.007
  -0.017   0.066   0.054  -0.072  -0.090   0.090   0.031   0.023  -0.039  -0.149
   0.117   0.065  -0.065  -0.030  -0.050   0.005   0.052   0.017  -0.060   0.001
   0.008  -0.015   0.016   0.040  -0.022  -0.055   0.014   0.050  -0.060   0.001
   0.023  -0.009  -0.021   0.034   0.013  -0.064  -0.001   0.025  -0.052   0.020
   0.046   0.049  -0.050   0.029  -0.014  -0.047   0.075   0.003  -0.085   0.035
   0.030  -0.048   0.039   0.010  -0.010  -0.025   0.046  -0.003  -0.094   0.126
   0.053  -0.046  -0.058   0.007  -0.070  -0.013   0.055   0.038  -0.019   0.022
  -0.078   0.006   0.104  -0.021  -0.018   0.018  -0.035   0.015  -0.002   0.028
  -0.016   0.027  -0.056   0.005  -0.006  -0.020  -0.008   0.026   0.005   0.024
   0.077  -0.042   0.017   0.019  -0.024  -0.069   0.043   0.013  -0.083   0.011
   0.007  -0.003  -0.006   0.130  -0.097  -0.053   0.007   0.082  -0.008  -0.005
  -0.024  -0.010  -0.037   0.054  -0.014  -0.101   0.132  -0.065  -0.076   0.092
   0.063  -0.163   0.109   0.000  -0.028  -0.027   0.070  -0.111   0.085  -0.003
  -0.123   0.129   0.071  -0.247   0.153   0.055  -0.089   0.097  -0.029  -0.033
   0.055  -0.119   0.047  -0.013   0.036  -0.027   0.053  -0.008  -0.100   0.117
  -0.115   0.032   0.040  -0.032   0.056   0.039   0.001   0.045  -0.038  -0.008
  -0.036   0.044  -0.018   0.064   0.032  -0.106   0.070   0.002   0.012  -0.011
   0.079  -0.043   0.048  -0.044  -0.035  -0.008   0.033  -0.053   0.115  -0.072
   0.004  -0.026   0.031  -0.023   0.063  -0.084  -0.014   0.072  -0.051   0.036
   0.049  -0.092  -0.016  -0.007  -0.048   0.030   0.045   0.003  -0.026   0.023
  -0.085   0.088  -0.048  -0.072   0.035   0.025  -0.022   0.005  -0.004   0.022
  -0.054   0.062  -0.036   0.044   0.000   0.000   0.014   0.005   0.019  -0.035
   0.008  -0.057  -0.029   0.046   0.005   0.031  -0.015   0.046   0.002  -0.024
  -0.029  -0.003   0.048  -0.035   0.031   0.007   0.021  -0.046  -0.032   0.037
  -0.035  -0.006   0.076   0.002  -0.018  -0.018   0.065   0.010  -0.040  -0.005
  -0.043  -0.010   0.006   0.051   0.012  -0.030   0.099  -0.031  -0.009  -0.005
  -0.033  -0.027   0.018  -0.013   0.004  -0.037   0.009   0.039   0.027  -0.139
   0.005   0.057  -0.071  -0.076   0.216  -0.006  -0.088   0.021  -0.124   0.028
   0.120  -0.131   0.057   0.133  -0.134  -0.125   0.280  -0.043  -0.188   0.265
  -0.146  -0.213   0.184   0.036  -0.062   0.036   0.048  -0.186   0.167  -0.138
  -0.033   0.192   0.022  -0.240   0.109   0.031  -0.051   0.076   0.028  -0.127
  -0.083   0.065   0.075   0.037  -0.069  -0.002   0.086  -0.108  -0.037   0.050
  -0.054   0.141  -0.046   0.128  -0.280   0.164   0.088  -0.005  -0.081  -0.035
  -0.015   0.147  -0.051  -0.025  -0.128   0.223   0.000  -0.019  -0.031  -0.004
  -0.024  -0.026   0.041   0.004  -0.023  -0.028  -0.078   0.154   0.071  -0.151
   0.010   0.110  -0.103  -0.063   0.092  -0.004  -0.026   0.060  -0.036   0.036
   0.033  -0.073  -0.027   0.096  -0.077   0.034   0.012  -0.048   0.009   0.011
  -0.000   0.051   0.099   0.005  -0.089  -0.031   0.014  -0.016  -0.019   0.057
  -0.003   0.027   0.035   0.001   0.003  -0.031  -0.016   0.008  -0.004  -0.011
  -0.006   0.005   0.008   0.026  -0.020   0.033  -0.013  -0.020   0.008   0.047
  -0.039  -0.068   0.092   0.033  -0.035  -0.048   0.015   0.017  -0.081  -0.005
  -0.007   0.006   0.050   0.008  -0.031  -0.006   0.001  -0.013   0.017   0.020
  -0.002   0.027   0.002  -0.019   0.001   0.004  -0.001   0.006   0.003   0.011
  -0.048  -0.002   0.006   0.028  -0.018   0.031   0.027   0.001  -0.009  -0.046
  -0.013  -0.010  -0.012   0.013   0.012   0.040  -0.000  -0.009   0.003  -0.054
   0.000  -0.012  -0.018  -0.006   0.032  -0.023  -0.030   0.006  -0.004   0.005
  -0.024   0.009  -0.013  -0.025  -0.005   0.022   0.036  -0.024  -0.020   0.008
   0.046  -0.006   0.030  -0.011  -0.021  -0.045  -0.035   0.023  -0.022   0.059
   0.021  -0.021   0.009  -0.027   0.026   0.030   0.038  -0.021  -0.023  -0.015
   0.018  -0.027  -0.021   0.053   0.096  -0.023  -0.026   0.029  -0.072  -0.097
  -0.032   0.097   0.058  -0.060  -0.051   0.048   0.061  -0.035  -0.082  -0.085
  -0.029   0.010   0.046   0.091   0.035  -0.075  -0.061   0.011  -0.010   0.005
   0.021   0.049   0.028  -0.028   0.008   0.014   0.028  -0.009  -0.034   0.009
   0.025   0.030  -0.029  -0.014  -0.006   0.010  -0.010   0.004  -0.002   0.010
   0.011   0.001   0.009   0.001  -0.048   0.005   0.007   0.030   0.013   0.017
  -0.005  -0.021  -0.056  -0.016   0.047   0.060  -0.024   0.002   0.035   0.031
  -0.080  -0.014   0.098  -0.033  -0.122   0.040   0.106   0.030  -0.007   0.052
  -0.044  -0.089  -0.031   0.083  -0.006  -0.075  -0.045   0.043   0.087  -0.028
  -0.069  -0.021   0.013   0.001  -0.021  -0.010   0.002  -0.035  -0.026   0.094
   0.052  -0.081  -0.021   0.019  -0.010   0.020   0.039   0.063  -0.051  -0.060
   0.001  -0.002   0.024   0.030  -0.009   0.012   0.003   0.007  -0.016  -0.023
   0.041   0.021  -0.008   0.006  -0.008   0.000   0.002   0.052   0.025   0.001
  -0.007   0.000  -0.001   0.004   0.000   0.004   0.024   0.022  -0.031   0.003
   0.003   0.023  -0.003  -0.000   0.001  -0.009  -0.021   0.001   0.037   0.010
  -0.031  -0.011  -0.009   0.007  -0.032  -0.024  -0.001  -0.001  -0.001   0.026
  -0.005   0.002  -0.007   0.006  -0.017  -0.033  -0.005   0.025  -0.007   0.003
   0.021   0.024  -0.002  -0.003  -0.003  -0.001   0.000  -0.003   0.019   0.005
  -0.005   0.002  -0.006  -0.000  -0.002   0.005  -0.003  -0.014  -0.022   0.008
  -0.011   0.009  -0.011   0.010   0.015   0.015  -0.045  -0.019   0.003  -0.005
   0.001  -0.024  -0.010   0.004   0.024  -0.014  -0.019   0.005  -0.047  -0.002
   0.018   0.004  -0.010  -0.017  -0.015  -0.012  -0.002   0.018   0.009  -0.001
  -0.024  -0.006   0.004   0.005  -0.007   0.009  -0.031   0.003   0.021   0.028
   0.002  -0.005   0.002  -0.002   0.000   0.001   0.001   0.022  -0.002   0.001
  -0.002   0.001  -0.002   0.005  -0.000   0.001  -0.002   0.006  -0.006   0.026
   0.002  -0.025   0.001   0.004   0.003   0.004  -0.022  -0.002   0.001  -0.003
   0.003   0.024   0.002   0.001   0.008  -0.024   0.017   0.043  -0.008   0.009
   0.014  -0.001   0.019  -0.017  -0.018   0.013  -0.016  -0.013  -0.002   0.006
  -0.034   0.025   0.006  -0.020  -0.025   0.008   0.024  -0.002   0.001   0.025
   0.004   0.003  -0.001   0.004  -0.005   0.011  -0.029   0.029   0.056  -0.010
   0.007   0.024  -0.007  -0.021   0.011  -0.006   0.005  -0.005   0.019   0.021
  -0.010  -0.001   0.000   0.003  -0.028   0.020   0.018   0.034   0.011  -0.030
   0.006  -0.002  -0.004  -0.043  -0.006   0.026   0.003  -0.001   0.003  -0.001
   0.001   0.023  -0.001  -0.001   0.002  -0.001   0.001  -0.000   0.003   0.004
  -0.002  -0.004   0.002  -0.000  -0.027   0.001   0.001  -0.003   0.002  -0.027
  -0.032   0.013  -0.004   0.001  -0.005   0.001  -0.003   0.007   0.066   0.000
  -0.024  -0.001   0.001   0.004  -0.004   0.001  -0.028   0.003  -0.004  -0.005
  -0.004   0.005  -0.002  -0.000  -0.004   0.003   0.001   0.002  -0.005   0.001
  -0.034   0.018   0.010  -0.005  -0.002  -0.027  -0.018   0.016  -0.006   0.003
  -0.004   0.006  -0.022  -0.007   0.001  -0.004   0.002  -0.003  -0.027   0.001
  -0.005   0.016   0.016  -0.008   0.002  -0.008   0.006  -0.028  -0.023  -0.004
  -0.000  -0.005   0.012   0.018  -0.002  -0.001   0.020  -0.010  -0.009  -0.015
  -0.010   0.003   0.018   0.017  -0.010   0.013   0.049  -0.019  -0.021  -0.010
   0.005  -0.002   0.022   0.011   0.000   0.004  -0.001   0.001  -0.019   0.005
   0.018   0.010  -0.033   0.023   0.013  -0.003   0.011  -0.021  -0.005   0.007
   0.001   0.002   0.002   0.001   0.004  -0.003   0.021   0.017  -0.001   0.007
   0.022   0.008  -0.002  -0.025  -0.038  -0.040  -0.026   0.030  -0.007   0.010
  -0.003   0.008  -0.002   0.006  -0.024   0.011  -0.001  -0.014  -0.006   0.015
  -0.027   0.008  -0.025   0.009   0.029  -0.004   0.009  -0.013  -0.010   0.008
  -0.001   0.001   0.002   0.013   0.001   0.030   0.006   0.001   0.003   0.001
   0.005  -0.005  -0.020   0.019   0.002   0.003   0.020   0.012  -0.006   0.008
  -0.005   0.005  -0.002   0.014  -0.018  -0.006   0.004   0.003  -0.002   0.005
  -0.001   0.002  -0.002   0.002  -0.002   0.007  -0.002   0.002  -0.004   0.002
  -0.004   0.005  -0.006   0.004  -0.009   0.017   0.011  -0.004  -0.002  -0.002
  -0.000   0.041   0.008  -0.004  -0.001  -0.001  -0.005  -0.002  -0.004   0.002
  -0.006   0.024  -0.010   0.001  -0.012   0.023   0.001   0.002  -0.015  -0.022
  -0.003  -0.005  -0.007  -0.030  -0.005  -0.006  -0.004  -0.024  -0.014   0.001
  -0.015  -0.019  -0.034   0.001   0.013  -0.010  -0.003  -0.006  -0.009  -0.001
  -0.008  -0.004  -0.013   0.020  -0.003  -0.004  -0.014  -0.030  -0.002  -0.011
  -0.005  -0.009  -0.006  -0.006  -0.004  -0.008  -0.002  -0.007  -0.007  -0.007
  -0.007  -0.007  -0.005  -0.002  -0.005  -0.005  -0.008  -0.006  -0.006  -0.004
  -0.008  -0.004  -0.005  -0.006  -0.005  -0.000  -0.005  -0.005  -0.006  -0.005
  -0.005  -0.005  -0.004  -0.005  -0.003  -0.004   0.003  -0.014  -0.023  -0.009
  -0.027   0.004  -0.004   0.001   0.005   0.024  -0.009   0.006  -0.008   0.005
  -0.006   0.005  -0.007   0.008  -0.019  -0.009   0.002   0.002  -0.001   0.019
   0.029  -0.011  -0.018   0.008   0.001   0.003   0.020   0.022  -0.004   0.012
  -0.001   0.012  -0.000   0.012  -0.003   0.018  -0.013  -0.001   0.012   0.009
   0.007   0.011   0.006   0.013   0.005  -0.011   0.008   0.014  -0.020   0.037
   0.025   0.009   0.011   0.010   0.013   0.012   0.015  -0.007   0.012   0.045
  -0.013   0.008   0.011   0.043   0.044   0.013   0.021   0.001  -0.007   0.008
   0.043   0.014   0.017   0.016   0.023   0.045   0.014   0.019   0.015   0.019
   0.016   0.018   0.017   0.015   0.031   0.037   0.012   0.026   0.012   0.023
   0.012   0.025  -0.008   0.017   0.015   0.022   0.044   0.022   0.038   0.019
   0.012   0.024   0.006  -0.003   0.020   0.013   0.017   0.015   0.015   0.015
   0.015   0.017   0.013  -0.013   0.022   0.039   0.033   0.017   0.008   0.018
   0.008   0.012   0.008   0.014   0.009   0.011   0.007   0.016   0.035   0.011
   0.002   0.024   0.021  -0.001   0.011  -0.006  -0.017   0.009   0.003   0.009
   0.002   0.002   0.000   0.002  -0.001  -0.001  -0.001  -0.004  -0.002  -0.005
  -0.002  -0.008   0.002  -0.024  -0.021  -0.005  -0.007  -0.014  -0.032  -0.002
  -0.009   0.032  -0.004  -0.014  -0.014  -0.015  -0.010  -0.023  -0.034  -0.018
  -0.004  -0.004  -0.022  -0.021  -0.006  -0.019  -0.049  -0.007  -0.036  -0.013
  -0.033  -0.013  -0.054  -0.016  -0.023  -0.058  -0.019  -0.022  -0.033  -0.033
  -0.029  -0.051  -0.048  -0.029  -0.014  -0.023  -0.046  -0.036  -0.020  -0.027
  -0.047  -0.035  -0.046  -0.010  -0.047  -0.036  -0.050  -0.036  -0.056  -0.065
  -0.041  -0.047  -0.042  -0.067  -0.053  -0.047  -0.046  -0.054  -0.012   0.002
  -0.062  -0.045  -0.059  -0.042  -0.057  -0.046  -0.060  -0.046  -0.063  -0.073
  -0.031  -0.050  -0.057  -0.054  -0.054  -0.070  -0.071  -0.047  -0.063  -0.051
  -0.060  -0.051  -0.061  -0.054  -0.057  -0.065  -0.076  -0.039   0.004  -0.046
  -0.059  -0.048  -0.077  -0.070  -0.052  -0.063  -0.039  -0.045  -0.047  -0.033
  -0.067  -0.031  -0.009  -0.034  -0.064  -0.058  -0.081  -0.040  -0.040  -0.046
  -0.062  -0.045  -0.061  -0.043  -0.058  -0.043  -0.057  -0.045  -0.057  -0.043
  -0.057  -0.041  -0.058   0.008  -0.048  -0.040  -0.078  -0.024  -0.038  -0.043
  -0.047  -0.037  -0.046  -0.037  -0.049  -0.027  -0.021  -0.040  -0.040  -0.036
  -0.040  -0.034  -0.040  -0.036  -0.024   0.017  -0.045   0.000  -0.031  -0.021
  -0.044   0.019  -0.010  -0.020   0.040   0.023   0.023   0.010   0.043   0.083
   0.075   0.086   0.120   0.170   0.109   0.143   0.152   0.150   0.202   0.203
   0.272   0.318   0.281   0.221   0.159   0.145   0.138   0.210   0.334   0.486
   0.591   0.565   0.529   0.438   0.334   0.334   0.374   0.573   0.669   0.636
