Corrected accelerogram 20160214_001343_ASHS_20 GNS Science
Site ASHS      43 16 28S  172 35 45E     Cusp file:  20160214_001349_ASHS
Ashley School
Instrument Cusp_42220
Resolution: 18-bit   Instr Period: 0.0050 s   Damping: 0.700
Accelerogram 20160214_001343_ASHS_20                 Processed 2016 February 22
11 km east of CHRISTCHURCH
2016 February 14         00:13:43 UT
Epicentre  43 29 50S 172 45 18E  Bearing S27E  Dist   28km  Depth    8km M  5.70
Number of points  8192    Duration 163.82 sec
Instrument corrected data at 0.020 sec intervals
Band-pass filter transition bands are .10-.25 Hz and 24.50-25.50 Hz
Component N00E  Horizontal Axis 1
Acceleration:  peak   -334.1 mm/s/s at  44.60 sec     rms     18.5 mm/s/s
Velocity:      peak    31.24 mm/s   at  44.56 sec     rms     3.79 mm/s
Displacement:  peak   -9.836 mm     at  59.94 sec     rms    1.984 mm
    2016       2      14       0      13     430       0       0    2016       2
      43      29      50     172      45      18       8       0      14       0
      43      16      28     172      35      45       0       0     153      28
   34470     250     250    8192    8192    8192       0       0      13    9610
   200.0    0.70    0.00   0.000  0.0000   0.000   0.000   1.000     0.0    0.00
  43.274 172.596   43.50  172.76    5.70    0.00    0.00    0.00      0.      0.
  172.34    5.00    5.00  163.82  0.0050  0.0200      0.      0.      0.  9806.6
  -331.9   44.60    19.2   0.000      0.  -334.1   44.60    18.5   345.3   0.262
   31.24   44.56    3.79   34.22   0.262   -9.84   59.94    1.98   10.08   0.262
   0.100   0.150   0.250      0.      0.  24.500   1.000  25.500      0.      0.
     0.0     0.0     0.0     0.0     0.0     0.0     0.0     0.0     0.0     0.0
     0.0     0.0     0.0     0.0     0.0     0.0     0.0     0.0     0.0     0.0
     0.0     0.0     0.0     0.0     0.0     0.0     0.0     0.0     0.0     0.0
     0.0     0.0     0.0     0.0     0.0     0.0     0.0     0.0     0.0     0.0
     0.0     0.0     0.0     0.0     0.0    -0.0     0.0    -0.0     0.0    -0.0
     0.0    -0.0     0.0    -0.0     0.0    -0.0     0.0    -0.0     0.0    -0.0
     0.0    -0.0     0.0    -0.0     0.0    -0.0    -0.0    -0.0    -0.0    -0.0
    -0.0    -0.0    -0.0    -0.0    -0.0    -0.0    -0.0    -0.0    -0.0    -0.0
    -0.0    -0.0    -0.0    -0.0    -0.0    -0.0    -0.0    -0.0    -0.0    -0.0
    -0.0    -0.0    -0.0    -0.0    -0.0    -0.0    -0.0    -0.0    -0.0    -0.0
    -0.0    -0.0    -0.0    -0.0    -0.0    -0.0    -0.0    -0.0    -0.0    -0.0
    -0.0    -0.0    -0.0    -0.0    -0.0    -0.0    -0.0    -0.0    -0.0    -0.0
    -0.0    -0.0    -0.0    -0.0    -0.0    -0.0    -0.0    -0.0    -0.0    -0.0
    -0.0    -0.0    -0.0    -0.0    -0.0    -0.0    -0.0    -0.0    -0.0    -0.0
    -0.0    -0.0    -0.0    -0.0    -0.0    -0.0    -0.0    -0.0    -0.0    -0.0
    -0.0    -0.0    -0.0    -0.0    -0.0    -0.0    -0.0    -0.0    -0.0    -0.0
    -0.0    -0.0    -0.0    -0.0    -0.0    -0.0    -0.0    -0.0    -0.0    -0.0
    -0.0    -0.0    -0.0    -0.0    -0.0    -0.0    -0.0    -0.0    -0.0    -0.0
    -0.0    -0.0    -0.0    -0.0    -0.0    -0.0    -0.0    -0.0    -0.0    -0.0
    -0.0    -0.0    -0.0    -0.0    -0.0    -0.0    -0.0    -0.0     0.0    -0.0
     0.0    -0.0     0.0    -0.0     0.0    -0.0     0.0    -0.0     0.0    -0.0
     0.0     0.0     0.0     0.0     0.0     0.0     0.0     0.0     0.0     0.0
     0.0     0.0     0.0     0.0     0.0     0.0     0.0     0.0     0.0     0.0
     0.0     0.0     0.0     0.0     0.0     0.0     0.0     0.0     0.0     0.0
     0.0     0.0     0.0     0.0     0.0     0.0     0.0     0.0     0.0     0.0
    -0.0     0.0    -0.1    -0.1    -0.0    -0.0     0.0    -0.1    -0.1     0.0
     0.1    -0.0     0.1     0.0     0.0     0.1     0.0    -0.2     0.1     0.1
     0.0     0.0     0.0     0.1     0.2    -0.0    -0.1     0.1    -0.0    -0.0
    -0.0    -0.0     0.1     0.1    -0.1     0.0     0.1     0.0    -0.0     0.0
    -0.0    -0.0     0.1     0.0    -0.0    -0.1    -0.1     0.0    -0.0     0.0
     0.1     0.0     0.1    -0.0     0.1    -0.1    -0.0    -0.1    -0.0    -0.0
    -0.0    -0.1    -0.0    -0.1    -0.1    -0.0    -0.1     0.0    -0.0    -0.0
     0.0     0.1    -0.0     0.0    -0.0    -0.1     0.1    -0.0     0.0    -0.0
     0.0     0.0     0.0     0.1     0.0    -0.1     0.0    -0.1     0.1     0.1
     0.1     0.2     0.0     0.0     0.1    -0.0    -0.0     0.1     0.1     0.0
     0.1    -0.0     0.1     0.0     0.1     0.1     0.0    -0.0     0.1     0.2
    -0.0     0.1     0.0    -0.0     0.1     0.0    -0.0     0.0     0.0    -0.1
     0.0    -0.0    -0.0    -0.1    -0.1     0.0    -0.1    -0.1    -0.0    -0.0
    -0.1    -0.1    -0.0    -0.1    -0.1    -0.1     0.0     0.0     0.0    -0.0
    -0.0    -0.2    -0.1    -0.0     0.1     0.0     0.1    -0.1     0.0    -0.1
    -0.0    -0.1    -0.0    -0.0    -0.0    -0.1    -0.0    -0.0    -0.0     0.0
    -0.1     0.1    -0.0     0.0    -0.1    -0.1     0.1    -0.1    -0.1    -0.0
     0.0    -0.0    -0.1    -0.0    -0.1     0.1    -0.0    -0.0    -0.2    -0.0
     0.1    -0.0    -0.0    -0.0    -0.1    -0.0    -0.0    -0.1     0.1    -0.1
     0.0     0.1     0.2    -0.1     0.1     0.1    -0.1     0.1     0.0     0.0
    -0.2     0.1    -0.2    -0.0    -0.0     0.0     0.1    -0.1     0.1    -0.0
     0.0     0.0     0.0     0.0     0.0    -0.0     0.1     0.1    -0.0     0.0
     0.1    -0.2     0.1     0.0     0.1    -0.1     0.2     0.1    -0.1     0.0
    -0.0     0.1     0.0     0.1    -0.0    -0.1     0.0     0.1    -0.1     0.1
     0.0    -0.0    -0.0    -0.0    -0.2    -0.1    -0.1    -0.2    -0.0    -0.0
    -0.0     0.0    -0.1    -0.1     0.0    -0.1     0.0     0.0     0.1    -0.0
     0.2     0.0    -0.1     0.1     0.1     0.1     0.1    -0.1    -0.1    -0.1
     0.1    -0.1    -0.0     0.0    -0.1    -0.0    -0.0     0.0    -0.1    -0.1
    -0.0    -0.0    -0.1    -0.0     0.1    -0.0    -0.0    -0.0    -0.1     0.0
    -0.0     0.0     0.1    -0.1     0.0    -0.1     0.1     0.1    -0.1     0.1
    -0.0     0.1    -0.0     0.1     0.0    -0.0     0.0     0.1     0.0     0.1
     0.1     0.0     0.1     0.0     0.0     0.1     0.1    -0.0     0.1     0.1
    -0.0     0.2    -0.0     0.1     0.2    -0.2     0.3    -0.3     0.2    -0.2
     0.0     0.1    -0.2     0.1    -0.1    -0.0    -0.1     0.0     0.1     0.1
    -0.1     0.1    -0.0     0.1    -0.0    -0.1     0.1    -0.0     0.1     0.0
     0.1    -0.0     0.2     0.0     0.0    -0.1    -0.1    -0.0    -0.2    -0.1
    -0.0     0.0     0.1     0.0     0.0    -0.1     0.0    -0.0    -0.0     0.0
    -0.1    -0.1    -0.1     0.1    -0.1     0.0    -0.1     0.2    -0.1     0.2
     0.1     0.1     0.1    -0.1     0.1    -0.0     0.0    -0.1     0.1    -0.1
     0.1     0.1     0.2    -0.0     0.1    -0.1     0.1    -0.1     0.1    -0.0
    -0.0     0.0    -0.1    -0.0    -0.0    -0.1     0.1     0.1    -0.0     0.1
    -0.1     0.1    -0.2     0.2    -0.1     0.1    -0.1     0.2    -0.1    -0.1
    -0.1     0.2    -0.2     0.1    -0.1     0.1    -0.1    -0.1     0.1    -0.2
     0.2    -0.1     0.0    -0.1     0.0     0.0     0.0    -0.1     0.1     0.0
    -0.0     0.1    -0.1     0.1    -0.0    -0.1     0.0    -0.0     0.1     0.1
    -0.0    -0.0    -0.0     0.0     0.1     0.1     0.1     0.0    -0.0    -0.1
     0.0    -0.1    -0.1     0.0    -0.0    -0.1    -0.2     0.1    -0.2     0.1
    -0.0    -0.2     0.0    -0.2     0.1    -0.2    -0.0    -0.0    -0.2     0.2
    -0.1     0.2     0.0     0.0    -0.0    -0.0     0.1    -0.3     0.1    -0.1
    -0.1     0.1    -0.1     0.1     0.0     0.0    -0.1    -0.2     0.1    -0.1
     0.1    -0.1     0.0    -0.0    -0.1     0.0    -0.2    -0.1    -0.0    -0.0
     0.1    -0.0     0.0     0.1    -0.1    -0.1     0.0    -0.1    -0.1    -0.0
    -0.1    -0.0     0.0    -0.2     0.3    -0.1     0.0    -0.1    -0.0     0.1
    -0.2     0.2    -0.2     0.1    -0.0    -0.1    -0.1     0.0     0.1     0.0
    -0.0    -0.0     0.1    -0.0    -0.0    -0.1    -0.2     0.0    -0.1    -0.1
    -0.2    -0.3     0.1    -0.2     0.2    -0.2     0.1     0.1     0.1     0.1
     0.1     0.1     0.0     0.1    -0.0     0.1    -0.0     0.0     0.1    -0.1
     0.1    -0.1     0.1     0.1     0.1    -0.0    -0.0     0.1     0.1     0.0
    -0.1     0.0     0.1     0.0     0.1     0.1     0.2    -0.0     0.1     0.1
     0.2     0.1    -0.0     0.2    -0.0     0.0     0.2     0.0     0.1     0.1
     0.1    -0.0     0.0     0.0    -0.1     0.1    -0.1    -0.1     0.1     0.0
     0.0     0.0    -0.0    -0.0     0.0    -0.0     0.1     0.1     0.2     0.1
     0.1     0.0    -0.0    -0.0     0.1     0.1     0.1    -0.1     0.0    -0.1
     0.1     0.0    -0.0     0.1     0.0     0.1     0.1    -0.0     0.1    -0.1
     0.1    -0.1    -0.0     0.1    -0.1     0.1     0.1    -0.0    -0.0     0.1
    -0.2     0.1    -0.2    -0.0    -0.0    -0.1     0.0     0.1    -0.0    -0.1
     0.0    -0.2     0.1    -0.2    -0.1    -0.1    -0.1    -0.2    -0.0    -0.1
    -0.1    -0.1    -0.1    -0.1     0.0    -0.2     0.1    -0.2     0.1    -0.2
     0.1    -0.1    -0.1     0.0    -0.1     0.1    -0.2     0.3    -0.1     0.1
    -0.0     0.0     0.0    -0.1     0.1     0.0     0.1     0.0    -0.1    -0.0
     0.0    -0.1    -0.0    -0.1     0.0    -0.1    -0.0     0.0    -0.1     0.1
    -0.0    -0.2    -0.1    -0.0     0.1    -0.2     0.0    -0.1     0.0    -0.1
     0.0    -0.0     0.0     0.1    -0.0     0.1    -0.1     0.0     0.1    -0.2
     0.2    -0.0     0.2     0.1     0.2     0.1     0.0     0.1    -0.0     0.1
     0.0     0.1     0.1    -0.0    -0.0     0.1     0.1     0.0    -0.0    -0.0
    -0.0     0.0     0.2     0.0    -0.0    -0.0    -0.0    -0.1     0.0     0.0
     0.1    -0.1     0.0     0.0    -0.1     0.2    -0.2     0.0     0.1    -0.0
    -0.1    -0.0    -0.0    -0.2    -0.0    -0.1    -0.1     0.1     0.0     0.0
     0.0    -0.0     0.0    -0.1    -0.0    -0.0    -0.0    -0.1     0.1    -0.1
     0.0     0.1    -0.1     0.1    -0.0    -0.0     0.1    -0.0     0.0    -0.1
    -0.1     0.2    -0.1    -0.1    -0.1    -0.1     0.0    -0.1    -0.0     0.1
    -0.1    -0.0    -0.0     0.0     0.1     0.1    -0.2     0.1    -0.1     0.1
    -0.1     0.0    -0.1    -0.0    -0.1    -0.1    -0.1    -0.0     0.0    -0.0
     0.1    -0.2     0.2    -0.1     0.0    -0.0     0.1     0.1     0.0     0.0
     0.2    -0.0     0.0     0.1     0.0    -0.0    -0.0    -0.0    -0.1     0.1
    -0.0     0.0    -0.0    -0.1     0.1     0.1    -0.1    -0.1     0.1    -0.1
     0.2    -0.1    -0.1     0.1    -0.1     0.1     0.1    -0.2     0.1    -0.3
     0.2    -0.3     0.3    -0.3     0.3    -0.3     0.1    -0.1    -0.2     0.1
    -0.2     0.1     0.0     0.1    -0.0     0.0    -0.0     0.1    -0.1     0.0
    -0.0     0.1    -0.1     0.0     0.2     0.1     0.1     0.0     0.0    -0.1
     0.2     0.1    -0.1     0.0     0.0     0.1    -0.1     0.2    -0.1     0.2
    -0.1     0.2    -0.0     0.0    -0.0    -0.0    -0.0    -0.0     0.0    -0.1
     0.1    -0.2    -0.1    -0.0    -0.1     0.0     0.0     0.0     0.1    -0.1
     0.0     0.1     0.1     0.1     0.1    -0.1     0.1    -0.0    -0.0     0.1
    -0.0    -0.1     0.1     0.0     0.1     0.1     0.1    -0.0    -0.0    -0.0
     0.1    -0.0     0.1    -0.0     0.1    -0.0    -0.1     0.0     0.0    -0.1
     0.1    -0.0     0.0     0.0    -0.0     0.0     0.0     0.0    -0.0    -0.1
     0.0     0.0    -0.0    -0.1    -0.1    -0.0    -0.0    -0.0    -0.1    -0.0
    -0.1    -0.2    -0.0     0.0    -0.1     0.0    -0.0     0.0     0.0    -0.1
    -0.1    -0.1    -0.1    -0.1     0.0    -0.1     0.1    -0.0    -0.1    -0.0
     0.0    -0.0     0.1    -0.0     0.1     0.0     0.1     0.1    -0.0     0.0
     0.0     0.0     0.0    -0.1    -0.1     0.0     0.1    -0.0    -0.1     0.0
     0.0     0.1    -0.1    -0.0    -0.1    -0.0    -0.1    -0.1    -0.0    -0.0
    -0.1    -0.2    -0.1    -0.1    -0.0    -0.0    -0.1     0.0     0.0    -0.0
    -0.1    -0.1    -0.1    -0.2     0.0    -0.1    -0.1    -0.2     0.1    -0.0
    -0.1    -0.1     0.1    -0.0    -0.1    -0.1     0.0    -0.0    -0.1     0.0
     0.1    -0.1     0.1     0.0     0.0    -0.1     0.0     0.1    -0.0     0.1
    -0.0     0.0    -0.1    -0.0     0.1    -0.0    -0.0    -0.0    -0.1    -0.0
    -0.1    -0.0    -0.0    -0.0     0.1     0.1     0.2     0.1     0.1     0.1
     0.1     0.1     0.1    -0.0     0.0    -0.1     0.0     0.0     0.0     0.0
     0.0     0.1     0.1     0.1     0.1     0.1     0.1     0.0     0.1     0.1
     0.0    -0.1     0.1     0.3     0.0     0.1     0.1     0.0     0.0    -0.0
     0.0     0.0     0.1     0.1     0.2     0.0     0.1     0.1     0.1     0.0
     0.1     0.1     0.0     0.1    -0.0     0.1     0.2     0.1     0.2     0.0
     0.1     0.0     0.0    -0.1    -0.0     0.0    -0.0     0.1     0.1    -0.0
     0.1     0.1     0.1     0.0     0.0    -0.0     0.0     0.1     0.0     0.0
    -0.0     0.1     0.1     0.1     0.1     0.0     0.1     0.1     0.1    -0.1
     0.1     0.1     0.1    -0.0     0.0     0.0    -0.0    -0.1    -0.0    -0.0
     0.1    -0.1     0.1     0.0    -0.1    -0.1    -0.1     0.0     0.0    -0.1
    -0.2    -0.2    -0.2    -0.2    -0.1    -0.1    -0.0    -0.1    -0.1    -0.1
    -0.0    -0.1    -0.0    -0.0    -0.0    -0.1    -0.1    -0.1     0.1    -0.1
    -0.1     0.0    -0.1     0.0    -0.0    -0.1    -0.0    -0.1    -0.1    -0.1
    -0.1    -0.1    -0.0    -0.1    -0.1    -0.1    -0.1    -0.1    -0.2    -0.1
    -0.0    -0.1    -0.0    -0.2    -0.1    -0.1    -0.1    -0.0    -0.1     0.1
    -0.0    -0.0     0.0    -0.2    -0.1    -0.1    -0.1    -0.1     0.0    -0.1
     0.0    -0.1    -0.0    -0.0     0.1    -0.0     0.1    -0.0     0.1     0.0
    -0.1    -0.1     0.1    -0.1     0.1    -0.1    -0.0    -0.1    -0.0    -0.1
    -0.2    -0.0     0.0    -0.0     0.0    -0.0    -0.0     0.0     0.1    -0.1
     0.2     0.1     0.1     0.0     0.0     0.0     0.1     0.2     0.2     0.0
     0.1     0.0     0.1     0.1     0.2     0.0     0.0    -0.0     0.0    -0.1
     0.1    -0.0     0.1     0.1     0.0     0.1     0.1     0.1     0.0    -0.1
     0.0    -0.0     0.0     0.1     0.2     0.0     0.1     0.0     0.2    -0.0
    -0.0     0.1    -0.1     0.0     0.0    -0.0     0.1     0.1     0.1     0.2
     0.1    -0.1     0.1     0.0     0.0    -0.0    -0.0     0.1     0.1     0.0
     0.1    -0.0     0.1    -0.0    -0.0    -0.0    -0.0     0.1    -0.1    -0.0
    -0.0    -0.1    -0.0    -0.1     0.1     0.1     0.1     0.1    -0.0     0.1
    -0.0    -0.0    -0.1    -0.0    -0.0     0.0    -0.1    -0.1     0.0     0.0
     0.1    -0.0     0.1    -0.1     0.1     0.0     0.1     0.0     0.0     0.0
     0.1     0.1     0.0     0.1     0.1     0.0     0.0     0.1     0.1     0.1
     0.1    -0.1     0.1    -0.0    -0.0     0.0    -0.1    -0.1    -0.1     0.0
    -0.0    -0.1     0.1    -0.1    -0.1    -0.1    -0.0    -0.0     0.1    -0.1
    -0.0    -0.0    -0.1    -0.1    -0.1     0.0    -0.0    -0.0    -0.0    -0.0
     0.1    -0.0     0.1    -0.0    -0.0    -0.2    -0.1    -0.1    -0.1    -0.1
     0.0    -0.0    -0.0    -0.1    -0.0    -0.0     0.0     0.0     0.1    -0.0
    -0.0    -0.0    -0.0    -0.1    -0.1    -0.1    -0.2    -0.1    -0.1    -0.0
    -0.1    -0.2    -0.0    -0.1    -0.0    -0.0    -0.0    -0.1     0.1     0.0
     0.0    -0.1    -0.1    -0.1     0.0    -0.0    -0.1     0.1     0.0    -0.1
     0.0    -0.0     0.1    -0.1    -0.0     0.0     0.0    -0.1    -0.0    -0.1
    -0.0    -0.1    -0.1     0.0     0.0    -0.0    -0.0     0.0    -0.1    -0.1
     0.1    -0.0     0.1    -0.1    -0.1    -0.0     0.0     0.0     0.0    -0.1
     0.1     0.0    -0.0    -0.1     0.1     0.0     0.0     0.1     0.1     0.0
    -0.0     0.1     0.1     0.0     0.1     0.2    -0.0    -0.0     0.1     0.0
     0.0    -0.0    -0.1     0.0     0.2    -0.0    -0.0     0.0    -0.1     0.0
     0.0    -0.0     0.1     0.1     0.1    -0.0     0.0     0.1     0.1     0.2
     0.2     0.2     0.1     0.1     0.1    -0.0     0.0     0.1     0.0     0.1
     0.0     0.0     0.1    -0.0     0.1     0.1     0.0     0.1     0.1     0.1
     0.1    -0.0     0.1    -0.0     0.1    -0.0     0.1    -0.1     0.1    -0.1
     0.1    -0.0     0.0     0.0     0.2    -0.1     0.1    -0.1     0.0    -0.1
    -0.1    -0.1     0.0    -0.1     0.1    -0.0     0.1    -0.1     0.0    -0.0
    -0.1    -0.1    -0.1     0.0     0.1    -0.1    -0.0     0.0    -0.0    -0.1
     0.0     0.1     0.0    -0.0     0.2     0.0     0.1     0.1     0.1     0.0
     0.1    -0.1     0.1    -0.0    -0.0    -0.1     0.0     0.0     0.1     0.0
     0.0    -0.0     0.1     0.0     0.1    -0.1     0.0    -0.2    -0.0    -0.1
     0.1    -0.1     0.0    -0.0     0.0    -0.1     0.1    -0.0     0.2    -0.1
     0.0    -0.1     0.1     0.1     0.1    -0.0    -0.0    -0.0    -0.1     0.1
     0.1     0.0     0.1    -0.1     0.0    -0.0     0.1    -0.1     0.0    -0.1
    -0.2    -0.2    -0.0    -0.1     0.1    -0.1     0.1    -0.2     0.0    -0.1
     0.0    -0.1     0.0    -0.1    -0.1    -0.1     0.0    -0.1    -0.1    -0.0
     0.0    -0.0    -0.0    -0.1    -0.0    -0.1    -0.0    -0.1     0.1    -0.1
     0.1    -0.0    -0.0    -0.1    -0.1    -0.0    -0.0    -0.0    -0.1    -0.1
    -0.0    -0.1    -0.1    -0.1    -0.0    -0.1     0.1    -0.0    -0.0     0.0
     0.1     0.0     0.1    -0.0     0.0    -0.1    -0.1    -0.1    -0.1    -0.0
     0.0    -0.2    -0.0    -0.1     0.1    -0.1     0.0    -0.1     0.1     0.0
     0.1    -0.0     0.1    -0.1     0.0     0.0     0.1    -0.0    -0.0     0.1
     0.1    -0.0     0.1     0.0     0.1     0.0     0.0    -0.0     0.0    -0.0
     0.1    -0.0     0.1    -0.1     0.1     0.1     0.2     0.1     0.0    -0.1
     0.0     0.1     0.2     0.1     0.1     0.1     0.2     0.1    -0.0     0.1
     0.1    -0.0     0.0     0.0     0.1     0.0     0.2     0.0     0.1     0.1
     0.2     0.0     0.1     0.1     0.2     0.0     0.2    -0.0     0.1     0.1
     0.1    -0.0     0.1    -0.0     0.0    -0.1     0.2    -0.0     0.1    -0.1
     0.1    -0.0     0.0    -0.1    -0.0    -0.1     0.0    -0.0     0.1    -0.1
     0.0    -0.1     0.0    -0.1    -0.1    -0.1    -0.0    -0.0    -0.1    -0.2
    -0.1    -0.2    -0.0    -0.1    -0.0    -0.3    -0.1    -0.1    -0.1    -0.3
    -0.1    -0.2    -0.2    -0.3    -0.2    -0.2    -0.1    -0.3    -0.2    -0.3
    -0.1    -0.3    -0.2    -0.3    -0.3    -0.4    -0.1    -0.2    -0.2    -0.4
    -0.2    -0.4    -0.3    -0.4    -0.2    -0.4    -0.2    -0.3    -0.3    -0.3
    -0.3    -0.3    -0.2    -0.3    -0.3    -0.4    -0.1    -0.4    -0.4    -0.4
    -0.3    -0.3    -0.3    -0.4    -0.3    -0.3    -0.2    -0.4    -0.2    -0.3
    -0.2    -0.5    -0.1    -0.4    -0.2    -0.3    -0.1    -0.3    -0.2    -0.3
    -0.3    -0.2    -0.1    -0.3    -0.2    -0.2    -0.2    -0.3    -0.1    -0.2
    -0.1    -0.1    -0.1    -0.2    -0.1    -0.2    -0.0    -0.2    -0.1    -0.2
    -0.1    -0.3    -0.0    -0.1    -0.1    -0.1     0.0    -0.1     0.0    -0.0
     0.1     0.0     0.1     0.0     0.1     0.1     0.0    -0.1     0.1     0.0
     0.0     0.0     0.2    -0.0     0.1     0.1     0.2     0.2     0.3     0.3
     0.4     0.4     0.3     0.2     0.3     0.4     0.3     0.5     0.5     0.5
     0.5     0.5     0.5     0.6     0.5     0.7     0.5     0.7     0.5     0.7
     0.6     0.8     0.7     0.8     0.6     0.9     0.6     0.9     0.7     0.9
     0.7     1.0     0.7     1.0     0.7     1.1     0.7     1.2     0.8     1.1
     0.9     1.1     0.8     1.2     0.8     1.3     0.8     1.4     0.9     1.9
     1.8     2.5     3.2     0.2     0.6     2.5     1.0    10.3    -0.8    -0.6
    -2.1    -3.4     4.6     9.0    -2.3    -6.4     4.5    -7.7    13.7    -4.0
