Corrected accelerogram 20160214_001343_TPLC_20 GNS Science
Site TPLC      43 32 60S  172 28 19E     Cusp file:  20160214_001349_TPLC
Templeton School
Instrument Cusp_42008
Resolution: 18-bit   Instr Period: 0.0050 s   Damping: 0.700
Accelerogram 20160214_001343_TPLC_20                 Processed 2016 February 22
11 km east of CHRISTCHURCH
2016 February 14         00:13:43 UT
Epicentre  43 29 50S 172 45 18E  Bearing N76E  Dist   24km  Depth    8km M  5.70
Number of points  6691    Duration 133.80 sec
Instrument corrected data at 0.020 sec intervals
Band-pass filter transition bands are .10-.25 Hz and 24.50-25.50 Hz
Component N00E  Horizontal Axis 1
Acceleration:  peak    231.4 mm/s/s at  46.54 sec     rms     20.1 mm/s/s
Velocity:      peak    31.21 mm/s   at  55.08 sec     rms     4.43 mm/s
Displacement:  peak  -14.242 mm     at  54.08 sec     rms    2.676 mm
    2016       2      14       0      13     430       0       0    2016       2
      43      29      50     172      45      18       8       0      14       0
      43      32      60     172      28      19       0       0      76      24
   24765     250     250    6691    6691    6691       0       0      13    9099
   200.0    0.70    0.00   0.000  0.0000   0.000   0.000   1.000     0.0    0.00
  43.550 172.472   43.50  172.76    5.70    0.00    0.00    0.00      0.      0.
  123.82    5.00    5.00  133.80  0.0050  0.0200      0.      0.      0.  9806.6
   242.1   46.54    21.5   0.000      0.   231.4   46.54    20.1   274.0   0.845
   31.21   55.08    4.43   31.31   0.201  -14.24   54.08    2.68   14.56   0.198
   0.100   0.150   0.250      0.      0.  24.500   1.000  25.500      0.      0.
    -0.0    -0.0    -0.0    -0.0    -0.0    -0.0    -0.0    -0.0    -0.0    -0.0
    -0.0    -0.0    -0.0    -0.0    -0.0    -0.0    -0.0    -0.0    -0.0    -0.0
    -0.0     0.0    -0.0     0.0    -0.0     0.0    -0.0     0.0    -0.0     0.0
    -0.0     0.0     0.0     0.0     0.0     0.0     0.0     0.0     0.0     0.0
     0.0     0.0     0.0     0.0     0.0     0.0     0.0     0.0     0.0     0.0
     0.0     0.0     0.0     0.0     0.0     0.0     0.0     0.0     0.0     0.0
     0.0     0.0     0.0     0.0     0.0     0.0     0.0     0.0     0.0     0.0
     0.0     0.0     0.0     0.0     0.0     0.0     0.0     0.0     0.0     0.0
     0.0     0.0     0.0     0.0     0.0     0.0     0.0     0.0     0.0     0.0
     0.0     0.0     0.0     0.0     0.0     0.0     0.0     0.0     0.0     0.0
     0.0     0.0     0.0     0.0     0.0     0.0     0.0     0.0     0.0     0.0
     0.0     0.0     0.0     0.0     0.0     0.0     0.0     0.0     0.0     0.0
     0.0     0.0     0.0     0.0     0.0     0.0     0.0     0.0     0.0     0.0
     0.0     0.0     0.0     0.0     0.0     0.0     0.0     0.0     0.0     0.0
     0.0     0.0     0.0     0.0     0.0     0.0     0.0     0.0     0.0     0.0
     0.0    -0.0     0.0    -0.0    -0.0    -0.0    -0.0    -0.0    -0.0    -0.0
    -0.0    -0.0    -0.0    -0.0    -0.0    -0.0    -0.0    -0.0    -0.0    -0.0
    -0.0    -0.0    -0.0    -0.0    -0.0    -0.0    -0.0    -0.0    -0.0    -0.0
    -0.0    -0.0    -0.0    -0.0    -0.0    -0.0    -0.0    -0.0    -0.0    -0.0
    -0.0    -0.0    -0.0    -0.0    -0.0    -0.0    -0.0    -0.0    -0.0    -0.0
    -0.0    -0.0    -0.0    -0.0    -0.0    -0.0    -0.0    -0.0    -0.0    -0.0
    -0.0    -0.0    -0.0    -0.0    -0.0    -0.0    -0.0    -0.0    -0.0    -0.0
    -0.0    -0.0    -0.0    -0.0    -0.0    -0.0    -0.0    -0.0    -0.0    -0.0
    -0.0    -0.0    -0.0    -0.0    -0.0    -0.0    -0.0    -0.0    -0.0    -0.0
    -0.0    -0.0    -0.0    -0.0    -0.0    -0.0    -0.0    -0.0    -0.0     0.0
    -0.1    -0.0     0.2    -0.2     0.1     0.0    -0.1     0.1    -0.0    -0.0
     0.0    -0.1     0.2    -0.2    -0.1     0.2     0.1    -0.1    -0.0     0.0
     0.1    -0.2     0.1    -0.0    -0.0    -0.1    -0.1     0.2    -0.2     0.1
     0.1    -0.1     0.0     0.0     0.0    -0.0    -0.1     0.1    -0.0    -0.1
     0.1     0.0     0.1    -0.0     0.0     0.3    -0.1    -0.0     0.1    -0.1
     0.1     0.0    -0.0     0.1    -0.1     0.0     0.1    -0.1     0.0    -0.1
     0.1     0.0    -0.0    -0.0     0.1     0.1    -0.1     0.0    -0.0     0.1
    -0.1     0.1    -0.1     0.2    -0.1     0.1    -0.1    -0.0    -0.0     0.1
     0.0     0.1    -0.2     0.0     0.0     0.1    -0.1     0.1     0.0     0.0
     0.0     0.0     0.0    -0.1    -0.1     0.1    -0.1    -0.0     0.0     0.1
     0.1    -0.1     0.0     0.1    -0.0     0.1    -0.0    -0.0     0.0    -0.0
     0.0     0.0    -0.1     0.1    -0.1     0.0     0.0     0.0    -0.0     0.1
    -0.1     0.1    -0.2    -0.0     0.0     0.0     0.0    -0.0     0.1    -0.0
     0.1    -0.0     0.1     0.1    -0.0    -0.1     0.0    -0.1     0.1    -0.1
    -0.0    -0.0    -0.0    -0.0    -0.1    -0.0     0.1    -0.1     0.0    -0.1
    -0.0     0.0     0.0    -0.1     0.1     0.0    -0.0     0.0    -0.2     0.1
     0.1    -0.1     0.0    -0.0    -0.0    -0.1    -0.1     0.0    -0.0    -0.0
    -0.1     0.0    -0.0    -0.1    -0.0    -0.1    -0.0     0.0    -0.2     0.1
    -0.1    -0.1    -0.0    -0.1    -0.0     0.1    -0.1     0.2    -0.1     0.1
     0.0    -0.2     0.1    -0.0    -0.1     0.1    -0.1     0.1    -0.1     0.0
     0.0    -0.0    -0.1     0.1    -0.0     0.0    -0.0    -0.0     0.1     0.0
    -0.0     0.1    -0.1     0.1     0.1     0.0     0.1    -0.1    -0.1     0.2
    -0.1     0.1    -0.0    -0.0     0.1    -0.1     0.1     0.0    -0.0     0.0
    -0.1     0.0     0.1     0.0     0.0     0.0    -0.1     0.0    -0.0    -0.1
     0.1    -0.0    -0.0     0.0    -0.0     0.0     0.0     0.1     0.0    -0.0
     0.1     0.0    -0.0     0.0    -0.0     0.0     0.0     0.0     0.0     0.0
    -0.0     0.0    -0.1    -0.1    -0.0    -0.0    -0.0     0.0     0.0    -0.0
     0.0    -0.0     0.0     0.0    -0.1    -0.0     0.1    -0.1     0.1     0.0
     0.0     0.0     0.0    -0.1     0.1     0.0     0.1     0.1     0.0     0.1
    -0.0    -0.1     0.1     0.0     0.0     0.0     0.1    -0.0    -0.0     0.0
     0.1    -0.0     0.0    -0.0     0.1    -0.0     0.1    -0.1     0.2    -0.1
     0.2    -0.2     0.2    -0.0     0.0    -0.1    -0.0    -0.0     0.0     0.1
    -0.1     0.1    -0.0    -0.1     0.0    -0.1     0.1    -0.0    -0.0    -0.0
    -0.0     0.1    -0.0    -0.0    -0.0    -0.1    -0.0     0.1    -0.0    -0.1
    -0.1     0.0    -0.1    -0.1     0.1    -0.1    -0.0    -0.0    -0.1    -0.0
    -0.0     0.1    -0.3     0.1     0.0    -0.1     0.0    -0.1     0.0     0.1
    -0.1     0.1    -0.1     0.0    -0.1    -0.1    -0.0    -0.1    -0.0    -0.0
    -0.0    -0.0    -0.2    -0.0     0.1    -0.1    -0.1    -0.1    -0.1     0.0
    -0.1     0.1     0.0     0.0     0.0    -0.2     0.1    -0.0     0.0     0.1
    -0.1     0.0     0.1    -0.1    -0.1     0.0    -0.2     0.1    -0.1     0.2
    -0.2     0.1     0.1     0.0    -0.1     0.1     0.0    -0.0    -0.1     0.1
     0.1    -0.1     0.0     0.1     0.0    -0.1     0.1    -0.0     0.1    -0.1
     0.1     0.0    -0.0    -0.0     0.2    -0.1    -0.1     0.1     0.3    -0.1
     0.0     0.1    -0.1     0.1     0.1    -0.1    -0.0     0.2    -0.1    -0.1
     0.1    -0.1     0.1    -0.1    -0.0     0.0     0.1    -0.0    -0.1     0.1
    -0.0     0.1     0.0    -0.1     0.1    -0.0    -0.0     0.0    -0.1     0.0
    -0.0    -0.0    -0.0     0.1     0.0     0.0    -0.2     0.0     0.1    -0.0
     0.1    -0.0     0.0     0.0     0.0    -0.0    -0.1     0.1     0.0    -0.1
     0.1    -0.2     0.1    -0.0     0.0    -0.1     0.0     0.0    -0.1     0.0
     0.1    -0.0    -0.0    -0.0     0.0    -0.0     0.1    -0.1    -0.0    -0.0
    -0.1    -0.1     0.0    -0.0     0.1     0.0    -0.1    -0.0     0.1    -0.0
     0.0     0.0     0.1    -0.1    -0.0     0.0    -0.0     0.0     0.1    -0.0
    -0.1     0.1     0.1    -0.0     0.1    -0.1    -0.0     0.0    -0.0     0.1
    -0.1    -0.0    -0.0    -0.1     0.0    -0.1     0.1     0.0    -0.0     0.0
     0.0     0.0    -0.1    -0.0     0.1    -0.0    -0.0    -0.0     0.1     0.0
     0.0     0.2    -0.0     0.0    -0.0    -0.0    -0.0     0.1    -0.1    -0.0
    -0.0     0.0     0.1    -0.0     0.0     0.1     0.0    -0.0     0.1    -0.0
    -0.0     0.0    -0.0     0.0    -0.1    -0.1     0.0     0.0    -0.0    -0.1
    -0.1     0.0    -0.0    -0.1     0.1    -0.0    -0.0    -0.0     0.1    -0.0
    -0.1    -0.0     0.0    -0.0    -0.0    -0.0     0.0    -0.1     0.0    -0.0
    -0.1     0.0    -0.0    -0.1     0.1    -0.1     0.0     0.0     0.0    -0.1
     0.1     0.0     0.0     0.0     0.1    -0.1    -0.0     0.1    -0.0    -0.0
    -0.0    -0.0    -0.0    -0.0     0.0    -0.0    -0.1    -0.1    -0.1    -0.1
    -0.0     0.0    -0.1    -0.1     0.0    -0.0    -0.1    -0.0     0.0     0.0
    -0.0    -0.1    -0.0    -0.0    -0.1     0.0     0.0     0.0    -0.0     0.1
     0.0     0.0    -0.1     0.0     0.0    -0.0     0.0     0.1    -0.0    -0.0
    -0.0     0.0    -0.0     0.1    -0.0     0.1    -0.0     0.1     0.0    -0.0
    -0.0     0.0     0.0    -0.0     0.1    -0.0     0.0    -0.1     0.0     0.0
    -0.0     0.0    -0.0    -0.1     0.0    -0.0     0.1    -0.0    -0.0    -0.0
     0.1    -0.1     0.1     0.0     0.0    -0.1     0.0     0.1     0.1    -0.0
     0.1     0.0    -0.0    -0.1     0.1     0.1    -0.1     0.0     0.0     0.1
    -0.1    -0.0     0.1    -0.1    -0.1     0.2    -0.1    -0.0     0.0     0.1
    -0.1     0.1     0.1    -0.0     0.0     0.0     0.1    -0.1     0.1     0.0
     0.0    -0.2     0.1    -0.1    -0.0     0.1    -0.1    -0.1    -0.0     0.1
    -0.0    -0.1     0.0     0.1    -0.1     0.1    -0.0     0.0     0.0     0.0
    -0.1     0.1    -0.1     0.1    -0.0     0.1     0.0    -0.1    -0.0     0.0
     0.0    -0.0     0.0    -0.0     0.0     0.1     0.0    -0.1     0.1     0.0
    -0.0     0.1     0.0    -0.0    -0.0     0.0    -0.0     0.1    -0.1     0.1
    -0.1     0.0     0.0    -0.0     0.2    -0.1     0.0    -0.0     0.0    -0.0
     0.0    -0.1     0.1    -0.1     0.0     0.0    -0.1     0.1     0.0    -0.1
     0.1    -0.1    -0.1    -0.0     0.1    -0.0    -0.1    -0.0     0.2    -0.1
    -0.0    -0.0    -0.0    -0.0     0.1    -0.0    -0.1    -0.0    -0.0     0.1
     0.0    -0.0    -0.1    -0.0    -0.1     0.1    -0.0    -0.0     0.0    -0.1
    -0.1     0.1     0.1     0.0    -0.1     0.0     0.1    -0.1     0.0     0.1
    -0.1     0.0     0.1     0.1    -0.1    -0.1     0.1    -0.0    -0.0     0.1
    -0.1     0.1    -0.1     0.1     0.1     0.0     0.0     0.0     0.1    -0.1
    -0.0     0.1    -0.1     0.1     0.1    -0.1     0.0     0.0    -0.1     0.1
    -0.2     0.0     0.1    -0.1     0.0    -0.0    -0.0    -0.0     0.0    -0.1
     0.3    -0.2     0.0     0.2    -0.0    -0.2     0.1    -0.0     0.1    -0.1
    -0.1     0.1    -0.2     0.1    -0.0    -0.0    -0.0     0.0    -0.0    -0.0
    -0.1    -0.1     0.1     0.0     0.0    -0.0    -0.1     0.1    -0.1    -0.0
    -0.0    -0.0    -0.1     0.0    -0.1     0.1     0.0    -0.1     0.1     0.0
    -0.0     0.0    -0.0    -0.0    -0.1    -0.1     0.1     0.0     0.0     0.0
     0.1    -0.2     0.1    -0.1     0.0    -0.0    -0.0     0.1    -0.1    -0.0
    -0.0    -0.1    -0.0    -0.0    -0.0     0.0     0.0     0.0     0.0     0.1
     0.0     0.0    -0.0    -0.1     0.1     0.1    -0.1    -0.1     0.0    -0.0
     0.1    -0.2     0.2    -0.2     0.0    -0.1     0.1    -0.1     0.2    -0.1
     0.1    -0.0    -0.0     0.1    -0.0     0.0    -0.1     0.1    -0.2     0.2
    -0.1    -0.0    -0.2     0.1     0.1    -0.1     0.0    -0.0     0.1    -0.1
     0.0     0.0    -0.1    -0.0     0.0     0.1    -0.1    -0.0    -0.0     0.1
    -0.1     0.1     0.0    -0.0    -0.0    -0.0     0.1    -0.1     0.0     0.1
     0.0    -0.0     0.0    -0.1    -0.0     0.0     0.0     0.1    -0.1     0.0
     0.0    -0.0    -0.0     0.1     0.1    -0.0     0.0     0.0     0.1    -0.1
     0.1    -0.0     0.1     0.1    -0.1     0.1    -0.1     0.1    -0.1     0.0
    -0.0     0.0    -0.1     0.0    -0.0     0.0    -0.0     0.0     0.1    -0.1
     0.0    -0.0     0.1     0.0     0.1    -0.0     0.0    -0.1     0.1    -0.0
    -0.0    -0.0     0.1    -0.1    -0.1     0.1    -0.0    -0.1     0.0     0.0
     0.0    -0.1     0.0    -0.0     0.0    -0.0     0.0     0.0    -0.0    -0.0
     0.1    -0.1    -0.0     0.1    -0.0     0.0     0.0     0.1    -0.2     0.1
    -0.0    -0.0    -0.1    -0.0    -0.1     0.0     0.1    -0.0     0.0     0.0
    -0.0    -0.1    -0.0    -0.0    -0.1    -0.0    -0.0     0.0     0.0    -0.0
    -0.0     0.1    -0.0     0.1     0.0    -0.0    -0.0    -0.0     0.1     0.1
    -0.1     0.0    -0.1     0.0    -0.0     0.1     0.0    -0.2     0.1    -0.0
    -0.1    -0.0     0.0     0.0    -0.2     0.1    -0.1    -0.0    -0.1     0.0
     0.1     0.0    -0.0     0.0    -0.0     0.2    -0.1     0.0     0.0    -0.0
    -0.1     0.1     0.0    -0.0     0.0     0.0    -0.0     0.1    -0.0     0.0
     0.0     0.0     0.0    -0.1     0.1    -0.2     0.1    -0.1     0.1     0.0
    -0.1    -0.0    -0.0     0.1    -0.0    -0.1     0.1    -0.0     0.0    -0.1
     0.0     0.0     0.1     0.0     0.0     0.0    -0.0     0.0    -0.0    -0.1
     0.1    -0.0     0.1     0.1    -0.0     0.2    -0.0     0.1     0.0     0.1
    -0.1     0.1    -0.0     0.0     0.1    -0.1    -0.0     0.0    -0.0     0.1
    -0.1     0.1     0.1     0.0     0.1     0.1     0.0     0.1    -0.1     0.1
    -0.1     0.1    -0.0    -0.1     0.2    -0.1     0.0     0.1    -0.1     0.0
     0.1     0.0    -0.0     0.0     0.0    -0.0     0.1    -0.0    -0.1    -0.1
     0.0    -0.1     0.0    -0.0     0.1    -0.1     0.0     0.0     0.1    -0.1
     0.0    -0.1    -0.0     0.1    -0.0    -0.1     0.1    -0.1     0.0    -0.0
    -0.0    -0.0    -0.1    -0.0     0.0    -0.0     0.0    -0.1     0.0    -0.0
    -0.1     0.0    -0.0     0.0     0.0     0.1    -0.0     0.0     0.1    -0.0
     0.1    -0.1    -0.1     0.1    -0.0     0.0    -0.0     0.0     0.0    -0.1
     0.1     0.1    -0.0     0.1    -0.0     0.1     0.0     0.0    -0.0    -0.0
    -0.0     0.0     0.0     0.0    -0.1     0.0    -0.0     0.1    -0.0    -0.1
     0.0    -0.0    -0.1    -0.0    -0.0    -0.1    -0.0    -0.0    -0.0    -0.0
    -0.0    -0.1    -0.0    -0.1    -0.0    -0.0     0.1    -0.1     0.1    -0.0
    -0.1    -0.1    -0.0     0.1    -0.0    -0.0     0.0    -0.1    -0.0    -0.0
     0.0     0.0    -0.0    -0.1     0.1     0.0    -0.0     0.0     0.0    -0.1
    -0.0    -0.0     0.0     0.0    -0.0     0.1     0.1    -0.0     0.0    -0.0
    -0.0    -0.0     0.1    -0.1     0.0     0.1    -0.0     0.1    -0.1    -0.0
     0.1     0.0    -0.0     0.0     0.1    -0.0     0.0     0.1    -0.0     0.0
    -0.1     0.1    -0.2     0.0     0.2     0.0    -0.1    -0.0     0.0    -0.0
    -0.0    -0.0    -0.0     0.0     0.1     0.0     0.1    -0.0     0.0     0.0
    -0.0     0.0    -0.0     0.1    -0.0    -0.0     0.0     0.0    -0.0     0.0
    -0.0     0.0     0.0    -0.0     0.1     0.0     0.0     0.1     0.0    -0.0
    -0.0     0.0     0.0    -0.0    -0.1     0.0     0.0    -0.0     0.1     0.1
    -0.1    -0.1     0.1     0.0     0.0    -0.0     0.1     0.1     0.0    -0.0
     0.0     0.0     0.0    -0.0     0.0     0.1     0.1    -0.1     0.0    -0.1
    -0.0     0.0     0.0     0.0     0.0    -0.0     0.0     0.0    -0.0     0.1
     0.1     0.0     0.0    -0.1     0.0    -0.0    -0.0    -0.1     0.0    -0.1
    -0.0    -0.0    -0.0     0.1    -0.1    -0.0     0.1    -0.0    -0.1    -0.0
     0.1     0.1    -0.1     0.1    -0.1    -0.0     0.0     0.1    -0.0    -0.0
     0.0    -0.0    -0.1    -0.0     0.1    -0.0     0.0    -0.0     0.1    -0.1
     0.1    -0.0    -0.0     0.0    -0.0    -0.1    -0.0     0.0     0.0    -0.1
    -0.1     0.1    -0.1    -0.0     0.0     0.1    -0.1    -0.1    -0.0    -0.1
     0.1     0.0    -0.0     0.0     0.0     0.0    -0.0    -0.1     0.0    -0.0
    -0.0    -0.1     0.0    -0.0     0.0    -0.1     0.0    -0.1    -0.1     0.0
    -0.1    -0.1    -0.1     0.0     0.0    -0.1    -0.1    -0.1     0.1    -0.2
    -0.0    -0.1    -0.0    -0.1    -0.1    -0.1    -0.0    -0.2    -0.1     0.1
    -0.1    -0.1    -0.1    -0.1     0.0    -0.2     0.0    -0.1    -0.0    -0.1
    -0.1    -0.1    -0.1    -0.1     0.1    -0.0    -0.1    -0.1    -0.0    -0.0
    -0.1    -0.0    -0.1    -0.1    -0.0    -0.1     0.0     0.0    -0.1    -0.1
    -0.0    -0.0    -0.0    -0.0     0.1    -0.1    -0.0    -0.1     0.0    -0.0
    -0.0    -0.1    -0.0     0.0    -0.1     0.1    -0.0     0.0    -0.1     0.1
    -0.0     0.0     0.0    -0.1     0.0     0.1     0.0     0.0     0.0    -0.0
     0.1     0.0     0.1    -0.0     0.1    -0.0     0.1    -0.1    -0.0     0.1
     0.1     0.0     0.1     0.1     0.1    -0.0     0.2    -0.0     0.1     0.0
    -0.0     0.1    -0.0     0.1     0.0     0.2    -0.1     0.1    -0.0     0.0
     0.1    -0.1     0.2    -0.1     0.2    -0.1     0.1     0.1     0.0     0.1
    -0.0     0.1     0.1    -0.0     0.1    -0.0     0.2    -0.1     0.1    -0.0
     0.1     0.2    -0.0     0.0     0.1     0.1     0.1    -0.0     0.0     0.0
     0.1     0.0    -0.0     0.1    -0.0     0.0    -0.0     0.1     0.0    -0.1
     0.0     0.0     0.1    -0.1     0.0    -0.0     0.0    -0.0    -0.1     0.0
    -0.1     0.0    -0.0    -0.1    -0.0     0.1    -0.0     0.0    -0.0    -0.1
    -0.0     0.0    -0.2     0.1    -0.1     0.0    -0.1     0.1    -0.1     0.2
    -0.1    -0.1     0.1    -0.1    -0.0    -0.1    -0.0    -0.1     0.1    -0.1
    -0.1    -0.1    -0.1    -0.0    -0.1     0.0    -0.1    -0.0    -0.0    -0.1
     0.0    -0.2    -0.1    -0.1     0.0    -0.0     0.0    -0.1     0.1    -0.2
     0.1    -0.2    -0.0    -0.0    -0.1    -0.1    -0.1    -0.0    -0.0    -0.2
    -0.2    -0.0    -0.1    -0.1     0.1    -0.1    -0.1     0.0    -0.0    -0.1
     0.1    -0.1    -0.0    -0.0    -0.0    -0.0    -0.0    -0.1     0.1    -0.1
    -0.0     0.1    -0.1    -0.1     0.0    -0.1    -0.0     0.1    -0.0     0.1
     0.0     0.0     0.1    -0.1     0.1    -0.1     0.0    -0.0     0.2    -0.0
     0.1     0.1    -0.0     0.2     0.1     0.1     0.0     0.2     0.2     0.1
     0.3    -0.0     0.2     0.1     0.3     0.2     0.3     0.0     0.2     0.3
     0.2     0.3     0.3     0.3     0.2     0.2     0.4     0.1     0.4     0.1
     0.4     0.3     0.3     0.3     0.3     0.4     0.4     0.3     0.4     0.3
     0.5     0.3     0.4     0.4     0.4     0.5     0.3     0.5     0.4     0.5
     0.3     0.5     0.4     0.4     0.5     0.4     0.5     0.4     0.6     0.5
     0.5     0.5     0.6     0.4     0.6     0.4     0.5     0.4     0.5     0.5
     0.5     0.5     0.4     0.4     0.4     0.5     0.4     0.5     0.6     0.4
     0.4     0.4     0.4     0.4     0.4     0.4     0.4     0.4     0.4     0.6
     0.4     0.4     0.4     0.3     0.4     0.3     0.4     0.2     0.3     0.4
     0.2     0.2     0.2     0.4     0.2     0.2     0.3     0.2     0.1     0.2
     0.1     0.2     0.3    -0.0     0.3     0.0     0.3    -0.1     0.2    -0.1
     0.1    -0.1    -0.1    -0.0    -0.2     0.2    -0.5     0.2    -0.4     0.1
    -0.4    -0.2    -0.1    -0.3    -0.3    -0.5    -0.0    -0.7    -0.1    -0.7
    -0.3    -0.5    -0.4    -0.6    -0.5    -0.6    -0.5    -0.7    -0.6    -0.8
    -0.7    -0.9    -0.7    -0.8    -0.9    -1.0    -0.8    -0.9    -1.1    -0.9
    -1.0    -1.1    -1.0    -1.2    -1.0    -1.3    -1.0    -1.3    -1.4    -1.2
    -1.3    -1.6    -1.3    -1.6    -1.3    -1.7    -1.5    -1.6    -1.5    -1.7
    -1.6    -1.5    -1.8    -1.6    -1.5    -1.0    -0.9    -1.4    -2.2    -1.7
    -1.5    -3.6    -3.7     2.5     1.1    -4.3    -2.7    -0.9    -6.1    -8.6
     4.8     7.2    -0.0    -3.4    -6.6   -10.3    -9.2    -1.5     6.6     1.9
