Corrected accelerogram 20160214_001343_WSFC_20 GNS Science
Site WSFC      43 50 14S  171 36 40E     Cusp file:  20160214_001403_WSFC
Westerfield
Instrument Cusp_10449
Resolution: 18-bit   Instr Period: 0.0050 s   Damping: 0.700
Accelerogram 20160214_001343_WSFC_20                 Processed 2016 February 22
11 km east of CHRISTCHURCH
2016 February 14         00:13:43 UT
Epicentre  43 29 50S 172 45 18E  Bearing N68E  Dist  100km  Depth    8km M  5.70
Number of points  8192    Duration 163.82 sec
Instrument corrected data at 0.020 sec intervals
Band-pass filter transition bands are .10-.25 Hz and 24.50-25.50 Hz
Component N00E  Horizontal Axis 1
Acceleration:  peak    -59.4 mm/s/s at  55.38 sec     rms      4.4 mm/s/s
Velocity:      peak    -6.29 mm/s   at  55.46 sec     rms     0.87 mm/s
Displacement:  peak   -1.872 mm     at  67.34 sec     rms    0.513 mm
    2016       2      14       0      13     430       0       0    2016       2
      43      29      50     172      45      18       8       0      14       0
      43      50      14     171      36      40       0       0      68     100
   34936     250     250    8192    8192    8192       0       0      13   22943
   200.0    0.70    0.00   0.000  0.0000   0.000   0.000   1.000     0.0    0.00
  43.837 171.611   43.50  172.76    5.70    0.00    0.00    0.00      0.      0.
  174.68    5.00    5.00  163.82  0.0050  0.0200      0.      0.      0.  9806.6
   -58.3   55.38     4.7   0.000      0.   -59.4   55.38     4.4    61.2   0.198
   -6.29   55.46    0.87    6.58   0.198   -1.87   67.34    0.51    2.67   0.198
   0.100   0.150   0.250      0.      0.  24.500   1.000  25.500      0.      0.
  -0.016  -0.020  -0.015  -0.018  -0.013  -0.017  -0.012  -0.016  -0.010  -0.014
  -0.009  -0.012  -0.007  -0.011  -0.005  -0.009  -0.003  -0.007  -0.001  -0.005
   0.001  -0.003   0.003  -0.001   0.005   0.001   0.007   0.004   0.010   0.006
   0.012   0.009   0.014   0.011   0.017   0.014   0.020   0.016   0.022   0.019
   0.025   0.022   0.028   0.024   0.031   0.027   0.034   0.030   0.036   0.033
   0.039   0.036   0.042   0.039   0.045   0.042   0.048   0.045   0.051   0.048
   0.054   0.051   0.057   0.054   0.060   0.056   0.063   0.059   0.066   0.062
   0.069   0.065   0.072   0.068   0.075   0.071   0.077   0.073   0.080   0.076
   0.082   0.078   0.085   0.081   0.087   0.083   0.090   0.085   0.092   0.087
   0.094   0.089   0.096   0.091   0.098   0.093   0.099   0.095   0.101   0.096
   0.102   0.097   0.104   0.098   0.105   0.099   0.105   0.100   0.106   0.100
   0.106   0.100   0.107   0.100   0.106   0.100   0.106   0.100   0.106   0.099
   0.105   0.098   0.104   0.097   0.103   0.095   0.101   0.094   0.099   0.092
   0.097   0.089   0.095   0.087   0.092   0.084   0.089   0.080   0.085   0.077
   0.082   0.073   0.078   0.069   0.073   0.064   0.069   0.059   0.064   0.054
   0.058   0.048   0.052   0.042   0.046   0.036   0.040   0.029   0.033   0.022
   0.026   0.015   0.018   0.007   0.010  -0.001   0.002  -0.009  -0.006  -0.018
  -0.015  -0.027  -0.025  -0.037  -0.034  -0.047  -0.045  -0.057  -0.055  -0.068
  -0.066  -0.079  -0.077  -0.090  -0.088  -0.101  -0.100  -0.113  -0.112  -0.126
  -0.125  -0.138  -0.137  -0.151  -0.151  -0.165  -0.164  -0.178  -0.178  -0.192
  -0.192  -0.206  -0.206  -0.221  -0.220  -0.235  -0.235  -0.250  -0.250  -0.266
  -0.265  -0.281  -0.281  -0.297  -0.296  -0.313  -0.312  -0.329  -0.328  -0.346
  -0.344  -0.363  -0.360  -0.379  -0.377  -0.397  -0.393  -0.414  -0.410  -0.431
  -0.426  -0.449  -0.443  -0.467  -0.459  -0.485  -0.475  -0.504  -0.491  -0.523
  -0.507  -0.542  -0.522  -0.563  -0.535  -0.585  -0.546  -0.612  -0.548  -0.662
  -0.304  -0.118   0.192  -0.167   0.183   0.126   0.096   0.311  -0.200   0.406
   0.482   0.403   0.021  -0.062  -0.132  -0.216   0.232  -0.112   0.307  -0.111
   0.173   0.767   0.709   0.884   0.843   0.909   0.846   0.869   0.766   0.394
   0.604  -0.058   0.576   0.276   0.228  -0.144   0.465  -0.193   0.145   0.033
   0.073   0.438  -0.100  -0.120   0.240   0.452  -0.070   0.001   0.508   0.447
  -0.522   0.433  -0.158   0.425   0.531   0.548   0.787   0.336   0.501   0.346
   0.159   0.326   0.504   0.040   0.499   0.504   0.773  -0.158   0.042   0.166
   0.407   0.357  -0.422   0.489   0.090  -0.346   0.229   0.465   0.233   0.340
   0.504   0.346  -0.039  -0.114   0.082   0.428   0.014  -0.171  -0.257  -0.007
  -0.032  -0.130   0.011   0.073  -0.205  -0.403  -0.457   0.042   0.152  -0.099
   0.066   0.472  -0.014  -0.170   0.229   0.154  -0.112  -0.333   0.384  -0.029
   0.024   0.150  -0.275   0.233   0.227  -0.061  -0.135  -0.271   0.078   0.262
  -0.005  -0.181   0.576   0.039  -0.045  -0.064  -0.420   0.594   0.826   0.211
   0.970   0.095   0.408  -0.107  -0.250  -0.443  -0.435   0.478  -0.377  -0.435
  -0.626  -0.724  -0.745  -0.558  -0.191  -0.495  -0.199   0.307  -0.033   0.345
   0.040  -0.189  -0.369  -0.067   0.135   0.138  -0.048   0.522   0.176   0.158
   0.578   0.155   0.136   0.529   0.092   0.396  -0.056  -0.299   0.248   0.623
   0.715   0.143   0.209  -0.081   0.006   0.342  -0.032  -0.007  -0.458  -0.544
  -0.785  -0.470  -0.270  -0.755  -0.228  -0.179  -0.458  -0.326   0.010  -0.388
  -1.058  -0.815  -0.419  -0.386  -0.863  -0.788  -0.314  -0.908  -0.890  -0.790
  -0.813   0.101  -0.332  -0.648  -0.558  -0.749  -0.660  -0.439  -0.514  -0.217
  -0.629  -0.202  -0.038  -0.475   0.156   0.170   0.226  -0.027  -0.162  -0.403
  -0.015   0.393  -0.168  -0.124  -0.199  -0.011  -0.045   0.026   0.245  -0.348
  -0.377   0.122  -0.165   0.264   0.450   0.344   0.362   0.627   0.953   0.179
   0.354   0.777   0.496   0.777   0.495   0.548   0.859   0.862   1.042   0.728
   0.543   0.856   0.635   0.765   0.509   0.172   0.598   0.339   0.584   0.009
   0.143   0.017   0.152   0.301   0.155  -0.129   0.316   1.054   0.641   0.366
   0.401  -0.284   0.226   0.169  -0.335   0.315   0.206  -0.098  -0.381  -0.201
   0.157  -0.163  -0.173  -0.560  -0.049   0.129   0.296  -0.245  -0.246  -0.361
  -0.361   0.151  -0.005   0.017  -0.352  -0.035  -0.385  -0.003   0.039  -0.034
  -0.126   0.055   0.073  -0.284  -0.022  -0.462  -0.279  -0.453  -0.628  -0.306
  -0.029   0.142   0.286  -0.072  -0.653  -0.520  -0.135  -0.308  -0.458  -0.087
   0.092   0.242   0.232   0.105   0.135   0.360   0.031  -0.294  -0.464  -0.387
  -0.449  -0.598  -1.181  -0.671  -0.709  -0.299  -0.326  -0.784  -0.545  -0.469
  -0.577  -0.703  -1.118  -0.751  -0.634  -0.266  -0.521   0.302   0.071  -0.366
  -0.222   0.212  -0.063  -0.352   0.269   0.209   0.337   0.174   0.140  -0.228
  -0.171   0.043  -0.007  -0.022   0.315   0.343  -0.049   0.209   0.264  -0.006
   0.289   0.645   0.070   0.273   0.548   0.564   0.413   0.422   0.578   0.664
   0.435   0.325   0.455   0.437   0.550   0.586   1.330   0.611   0.412   0.899
   0.816   0.400   0.548   0.767   0.663   0.529   0.913   0.458   0.616   0.233
   0.191   0.078   0.202  -0.107  -0.384   0.431   0.272   0.148   0.176  -0.023
   0.006  -0.330  -0.949  -0.556  -0.328  -0.043   0.243  -0.011  -0.257  -0.402
  -0.067  -0.333  -0.082  -0.794  -0.616  -0.456  -0.601  -0.631  -0.943  -0.253
  -0.055  -0.857   0.153   0.166  -0.133  -0.154  -0.146   0.408  -0.157  -0.191
  -0.302  -0.494  -0.127  -0.228   0.275  -0.303   0.689  -0.152  -0.238   0.775
  -0.332  -0.252  -0.395  -0.199  -0.335   0.077  -0.156  -0.121  -0.179  -0.539
  -0.095  -0.492  -0.068   0.191  -0.259  -0.176   0.190  -0.116   0.193  -0.011
   0.061  -0.291  -0.292  -0.478  -0.169  -0.301  -0.109  -0.135  -0.233  -0.064
  -0.502   0.118  -0.060  -0.266   0.025   0.103  -0.116   0.318   0.011   0.322
  -0.273   0.355   0.390  -0.320   0.347   0.291   0.150   0.391   0.145   0.344
  -0.111   0.148   0.200  -0.103  -0.081   0.187   0.229  -0.273   0.021   0.260
   0.318   0.380   0.441  -0.052   0.058  -0.350  -0.114  -0.226  -0.008   0.148
  -0.039  -0.110   0.197   0.385   0.433  -0.002  -0.029   0.683   0.275   0.178
  -0.525   0.103   0.225  -0.309  -0.452   0.142   0.154  -0.085   0.193   0.050
  -0.076   0.236  -0.111  -0.067  -0.043   0.188  -0.090  -0.269  -0.130  -0.068
  -0.027   0.343   0.087   0.656   0.242   0.059   0.154   0.271   0.080  -0.112
   0.289   0.365   0.209   0.274  -0.107   0.720   0.368   0.200  -0.176  -0.422
   0.004   0.058   0.278   0.310   0.338   0.091  -0.377   0.347   0.324   0.144
   0.011  -0.246   0.231   0.323   0.372   0.449   0.368   0.746   0.123  -0.053
   0.385   0.450   0.181   0.094   0.178   0.028   0.261  -0.530  -0.162   0.004
   0.287   0.368   0.156   0.186   0.012  -0.259  -0.244   0.012   0.586  -0.091
  -0.159   0.220   0.085   0.445   0.171  -0.001   0.371   0.495   0.330   0.813
   0.210  -0.107  -0.143  -0.469   0.050  -0.164  -0.211  -0.109  -0.452  -0.053
  -0.225  -0.342  -0.273  -0.260  -0.267  -0.740  -0.383  -0.834  -0.770  -0.595
  -1.139  -0.559  -0.779  -0.782  -0.868  -0.402  -0.640  -0.391  -0.408  -0.625
  -0.759  -0.601  -0.399  -0.412  -0.066  -0.105  -0.667  -0.598  -0.922  -0.427
  -0.309  -0.820  -0.552  -0.434  -0.074   0.007   0.076  -0.299   0.186  -0.204
  -0.240  -0.440  -0.438  -0.502  -0.270   0.151  -0.187  -0.104   0.208  -0.242
   0.037   0.154  -0.455  -0.219  -0.158  -0.563  -0.123  -0.109  -0.200  -0.125
  -0.712   0.124   0.243   0.535   0.017   0.244   0.577   0.351   0.176   0.032
   0.145  -0.003   0.073  -0.112   0.600   0.485  -0.090   0.301  -0.185   0.101
   0.098   0.262   0.275  -0.096   0.271   0.201  -0.085   0.091   0.470   0.249
   0.511   0.150   0.311   0.304   0.264   0.748  -0.025   0.686   0.256   0.509
  -0.160   0.644   0.334   0.074   0.489   0.282   0.152   0.494   0.426   0.075
   0.002  -0.160  -0.100   0.323  -0.287  -0.022  -0.023  -0.432   0.175  -0.262
  -0.332   0.061   0.003   0.490   0.391  -0.261  -0.089   0.155   0.074   0.176
  -0.077   0.855  -0.048   0.282   0.684   0.525   0.770   0.404   0.436   0.093
   0.461   0.019   0.129   0.079  -0.149  -0.043   0.458   0.209   0.238   0.413
   0.508   0.292   0.633   0.571   0.357  -0.059   0.350   0.108  -0.169   0.449
   0.633   0.497   0.508   0.225  -0.030  -0.464   0.005  -0.003   0.189  -0.315
  -0.129   0.242   0.125   0.201   0.259   0.312  -0.097   0.161  -0.000   0.001
   0.490   0.732   0.223   0.129   0.085  -0.272   0.226  -0.008  -0.164  -0.480
  -0.432  -0.097   0.085  -0.125   0.112  -0.138   0.022  -0.089  -0.704   0.300
   0.187   0.003   0.122   0.079  -0.086  -0.193  -0.526  -0.388   0.281   0.192
   0.105   0.355   0.427  -0.039   0.068   0.101  -0.162  -0.151  -0.360  -0.241
   0.118  -0.475  -0.404  -0.471  -0.007  -0.403  -1.032  -0.587  -0.943  -0.411
   0.129  -0.453  -0.360   0.036  -0.125  -0.057  -0.046   0.176   0.095   0.165
   0.240   0.033  -0.186  -0.049   0.004  -0.207  -0.007  -0.411   0.014   0.119
   0.053  -0.459  -0.398  -0.164  -0.312  -0.325  -0.506  -0.159  -0.119  -0.079
  -0.229  -0.265  -0.687  -0.248  -0.489  -0.274  -0.195  -0.115  -0.344  -0.443
  -0.483  -0.058  -0.279  -0.692  -0.307   0.018  -0.755  -0.551  -0.618  -0.333
  -0.837  -0.706  -0.554  -0.893  -0.460  -0.451  -0.478  -0.490  -0.563  -0.063
  -0.168  -0.333  -0.149   0.203  -0.148   0.186   0.341  -0.000   0.452   0.130
   0.446   0.252  -0.420   0.334  -0.198   0.141  -0.097   0.001  -0.167  -0.071
   0.210   0.200   0.135  -0.216  -0.357  -0.256  -0.379   0.045   0.051  -0.318
  -0.146   0.252  -0.583  -0.197   0.066   0.022   0.130   0.108  -0.473  -0.060
   0.071  -0.083   0.499  -0.179   0.226  -0.227   0.192  -0.016   0.204   0.231
   0.610   0.148   0.160   0.710   0.492   0.135  -0.146   0.048   0.445   0.042
   0.060   0.291   0.702   0.358   0.375   0.667   0.276   0.421  -0.193   0.190
   0.052   0.123   0.219   0.281   0.001   0.082   0.238   0.349   0.135   0.196
   0.033   0.435   0.666   0.118   0.249   0.167   0.102   0.203   0.235   0.270
  -0.014   0.046  -0.076   0.188   0.307   0.288   0.111   0.574   0.265   0.558
   0.525   0.718   0.705   0.648   0.645   0.711   0.268   0.485   0.778   0.058
   0.216   0.339   0.511   0.598   0.335   0.577   0.871   0.178   0.482   0.671
   0.193  -0.179   0.230   0.343  -0.043   0.308  -0.028   0.596   0.617   0.056
   0.435   0.134  -0.171  -0.129   0.185   0.182   0.082  -0.254   0.192   0.003
  -0.032   0.036   0.327  -0.140  -0.248  -0.298  -0.498   0.150   0.389   0.068
  -0.301  -0.122  -0.244   0.271   0.055  -0.225  -0.393  -0.270  -0.509  -0.362
   0.002   0.200   0.024   0.305  -0.286   0.162   0.087   0.093  -0.202  -0.360
  -0.292  -0.454  -0.338  -0.011  -0.035  -0.665  -0.287  -0.861  -0.692  -0.592
  -0.477  -0.450  -0.629  -0.810  -0.665  -0.366  -0.418  -0.898  -0.646  -0.946
  -0.776  -0.020  -0.387  -0.530  -0.314  -0.488   0.245   0.021  -0.362  -0.155
  -0.680  -0.586  -0.599  -0.637  -0.327  -0.050  -0.258   0.028  -0.236  -0.241
  -0.098   0.107   0.476   0.774   0.403  -0.068   0.455   0.222   0.221   0.121
   0.198  -0.160   0.213   0.213   0.732   0.336   0.178   0.698   0.245  -0.015
  -0.018   0.642   0.157   0.272   0.230   1.064   0.319   0.070   0.680   0.285
   0.267  -0.152  -0.572  -0.178  -0.069  -0.107  -0.211   0.388  -0.304   0.252
   0.226   0.468  -0.333  -0.205  -0.505  -0.774  -0.159  -0.082  -0.384  -0.119
  -0.003  -0.248  -0.582  -0.263  -0.323  -0.524  -0.601  -0.457  -0.268  -0.611
  -0.431  -0.077  -0.403  -0.197  -0.388  -0.476  -0.471  -0.142  -0.401  -0.801
  -0.239  -0.655  -0.526  -0.505  -0.171  -1.223  -0.650  -0.323   0.169   0.288
  -0.357   0.081  -0.513  -0.192  -0.012  -0.097  -0.433   0.278   0.561  -0.098
   0.344   0.574   0.229   0.332   0.253  -0.154   0.224   0.480   0.770   0.388
   0.155   0.690   0.185   0.139   0.082   0.043  -0.099   0.597   0.577   0.523
   0.190   0.201  -0.031  -0.015   0.400   0.020   0.579   0.364  -0.455  -0.375
  -0.180   0.095   0.225   0.592  -0.064  -0.122   0.391   0.245   0.479   0.293
   0.170   0.362   0.360  -0.134   0.332   0.079  -0.018  -0.260   0.164   0.155
  -0.141   0.215   0.659   0.074   0.463  -0.047   0.196  -0.094  -0.142  -0.445
   0.343  -0.071   0.339   0.631   0.054   0.507  -0.069  -0.157   0.235   0.003
  -0.048  -0.311   0.016   0.712  -0.276  -0.065   0.521  -0.035  -0.253   0.100
  -0.186   0.194   0.160   0.445  -0.195   0.043   0.479   0.795   0.407   0.380
  -0.007  -0.020   0.271   0.244   0.220   0.301  -0.047   0.121   0.396   0.291
   0.214   0.242   0.017   0.180   0.305  -0.279  -0.008  -0.003   0.085   0.017
   0.460  -0.134   0.456   0.019   0.304   0.324  -0.004   0.419   0.794   0.086
   0.225  -0.386   0.172   0.401   0.058  -0.455  -0.142  -0.125  -0.317  -0.335
  -0.342   0.462   0.202  -0.345  -0.276  -0.296  -0.653  -0.795  -0.329  -0.856
  -0.452  -0.080  -0.340  -0.542  -0.909  -0.564  -0.658  -0.206  -0.257  -0.308
  -0.370  -0.190   0.048  -0.554   0.118   0.141   0.191  -0.473  -0.223  -0.000
  -0.179  -0.021  -0.098  -0.226   0.078  -0.548  -0.263  -0.022   0.006  -0.127
  -0.155  -0.400  -0.147  -0.428  -0.155  -0.249  -0.626  -0.079  -0.660   0.022
   0.130  -0.167  -0.338   0.415   0.224   0.016  -0.647  -0.381  -0.065  -0.226
  -0.285  -0.278  -0.105   0.247   0.193   0.195   0.141  -0.293   0.023   0.057
  -0.428  -0.469   0.280   0.181   0.349   0.228   0.106   0.494   0.026   0.334
   0.079  -0.066   0.184   0.354  -0.053   0.240   0.514   0.352  -0.063  -0.031
  -0.425  -0.170  -0.109  -0.022   0.181  -0.073   0.347   0.435   0.211  -0.018
   0.148  -0.013   0.051   0.013  -0.332  -0.337  -0.202   0.089  -0.187  -0.083
   0.201  -0.366  -0.174   0.098   0.206   0.450   0.479  -0.025   0.340   0.234
   0.289   0.417   0.521  -0.399   0.132   0.136  -0.218   0.230  -0.047   0.607
   0.657  -0.034   0.317   0.348   0.337   0.427   0.286   0.022   0.247   0.281
   0.272  -0.013   0.619   0.576   0.411   0.404   0.485   0.432   0.237   0.285
   0.506   0.027   0.479   0.280   0.362   0.545   0.213   0.137   0.177  -0.022
   0.162   0.073   0.245  -0.077  -0.215  -0.376   0.032  -0.055  -0.651   0.106
   0.048   0.034  -0.012   0.140   0.559   0.069  -0.244  -0.174   0.059   0.117
  -0.132  -0.428  -0.334   0.359  -0.228  -0.218  -0.663  -0.376  -0.731  -0.611
  -0.589  -0.591  -0.633  -0.599  -0.264  -0.557  -0.469  -1.035  -0.875  -0.353
  -0.717  -0.690  -0.510  -0.258  -0.477  -0.373  -0.623  -0.366  -0.491  -0.462
  -0.640   0.241   0.335   0.229   0.242  -0.206  -0.155   0.193   0.212   0.357
   0.051   0.239  -0.070  -0.051  -0.245  -0.146   0.056   0.040   0.034  -0.149
   0.370   0.197  -0.103   0.488   0.187   0.551   0.080   0.171   0.305   0.335
   0.684   0.351   0.685   0.029  -0.047   0.400   0.229  -0.198  -0.236  -0.102
   0.029   0.293  -0.301  -0.322  -0.133   0.008  -0.196   0.165   0.127  -0.183
   0.350  -0.108  -0.015  -0.049   0.136   0.467   0.089   0.350   0.298   0.296
  -0.176  -0.272  -0.238   0.377   0.057  -0.102  -0.011   0.138  -0.094  -0.474
  -0.652  -0.762  -0.635  -0.517  -0.081  -0.438  -0.087  -0.200  -0.232  -0.324
  -0.142  -0.284  -0.492  -0.044  -0.466  -0.285   0.237  -0.115   0.026   0.488
  -0.062   0.490   0.188   0.044   0.386  -0.387  -0.065  -0.315   0.067   0.217
   0.135   0.031  -0.131   0.543   0.112  -0.005   0.170   0.003   0.124  -0.217
   0.021   0.414   0.089   0.223  -0.373   0.542   0.237   0.136   0.421   0.379
  -0.060   0.029   0.460   0.159  -0.102   0.057   0.698   0.252   0.035   0.061
   0.085  -0.005   0.146   0.076   0.413  -0.213   0.119  -0.075   0.158   0.468
   0.248   0.162  -0.286   0.009   0.015   0.387   0.201   0.141   0.335   0.719
   0.557   0.373   0.069   0.109   0.296  -0.046  -0.063  -0.107  -0.071  -0.247
  -0.041   0.017   0.253   0.235   0.093   0.055   0.185   0.107   0.058   0.185
   0.006   0.363  -0.486  -0.117  -0.117   0.357  -0.101  -0.051  -0.109   0.133
   0.590   0.293   0.050  -0.270   0.081   0.085   0.451   0.004   0.017   0.036
  -0.102   0.128  -0.531  -0.202   0.140  -0.234  -0.128   0.167  -0.207   0.196
   0.268   0.263   0.178   0.157   0.021  -0.131  -0.583  -0.174  -0.169  -0.060
  -0.379  -0.275   0.069   0.329   0.345   0.038  -0.236  -0.461  -0.049  -0.211
  -0.101  -0.277  -0.233  -0.155  -0.295  -0.790  -0.497  -0.199  -0.387   0.150
   0.187  -0.155  -0.477   0.049  -0.346  -0.210  -0.160  -0.563  -0.423  -0.261
  -0.375  -0.247  -0.353  -0.452  -0.497  -0.199  -0.451  -0.164  -0.409  -0.175
  -0.389  -0.039  -0.308   0.055  -0.233  -0.084   0.059  -0.128  -0.622  -0.111
  -0.001   0.299   0.048   0.092  -0.663   0.082   0.220   0.057   0.275   0.195
   0.441  -0.023   0.167  -0.180   0.418  -0.241  -0.016  -0.164   0.373  -0.098
  -0.068  -0.250  -0.793  -0.549  -0.165  -0.005  -0.010   0.226   0.065   0.037
  -0.104   0.274  -0.332   0.235  -0.410  -0.227  -0.093   0.027   0.342   0.359
   0.209  -0.446   0.112  -0.543  -0.173   0.207  -0.124  -0.379  -0.425   0.370
  -0.318  -0.070   0.035   0.343   0.263  -0.103   0.481   0.183   0.334   0.684
   0.327  -0.058  -0.027  -0.021   0.394  -0.480   0.282   0.228   0.393   0.215
   0.422   0.164  -0.286  -0.411   0.021   0.777   0.311   0.063   0.332   0.443
   0.193   0.311   0.861   0.586   0.576   0.657   0.511   0.607   0.080   0.372
   0.646   0.406   0.086   0.018   0.465   0.454   0.202   0.335  -0.048   0.718
   0.097  -0.053   0.490   0.111   0.446   0.638  -0.050   0.804   0.584   0.303
   0.484   0.205   0.165   0.293   0.054   0.062   0.074   0.348  -0.853  -0.166
  -0.303   0.618   0.311  -0.023   0.169  -0.271  -0.102   0.172   0.372   0.074
  -0.687  -0.691   0.026   0.323  -0.246  -0.407   0.583   0.599  -0.092  -0.129
  -0.520  -0.335  -0.261  -0.444  -0.263  -0.375  -0.129   0.546   0.007  -0.453
  -0.237  -0.381  -0.273  -0.740  -0.535   0.541  -0.078  -0.264   0.717  -0.409
   0.050   0.870   0.109  -0.101   1.286  -0.112  -1.788  -0.122  -0.104  -1.327
  -0.657  -0.328  -0.000  -0.132  -0.136   0.214  -0.250  -1.494  -0.647  -0.541
  -1.922  -2.577  -0.953  -1.470   0.093   1.490   0.107   1.913   0.335   0.496
