Corrected accelerogram 20160214_001343_KIKS_20 GNS Science
Site KIKS      42 25 33S  173 40 56E     Basalt file:  20160214_001408_KIKS
Kaikoura
Instrument Basalt_2420
Resolution: 24-bit   Instr Period: 0.0050 s   Damping: 0.700
Accelerogram 20160214_001343_KIKS_20                 Processed 2016 February 22
11 km east of CHRISTCHURCH
2016 February 14         00:13:43 UT
Epicentre  43 29 50S 172 45 18E  Bearing S32W  Dist  141km  Depth    8km M  5.70
Number of points  8192    Duration 163.82 sec
Instrument corrected data at 0.020 sec intervals
Band-pass filter transition bands are .10-.25 Hz and 24.50-25.50 Hz
Component N00E  Horizontal Axis 1
Acceleration:  peak     13.6 mm/s/s at  75.84 sec     rms      2.3 mm/s/s
Velocity:      peak     3.16 mm/s   at  76.18 sec     rms     0.61 mm/s
Displacement:  peak   -1.243 mm     at  75.80 sec     rms    0.291 mm
    2016       2      14       0      13     430       0       0    2016       2
      43      29      50     172      45      18       8       0      14       0
      42      25      33     173      40      56       0       0     212     141
   31800     250     250    8192    8192    8192       0       0      13   28000
   200.0    0.70    0.00   0.000  0.0000   0.000   0.000   1.000     0.0    0.00
  42.426 173.682   43.50  172.76    5.70    0.00    0.00    0.00      0.      0.
  159.00    5.00    5.00  163.82  0.0050  0.0200      0.      0.      0.  9806.6
    13.5   75.85     2.4   0.000      0.    13.6   75.84     2.3    13.7   0.467
    3.16   76.18    0.61    3.47   0.250   -1.24   75.80    0.29    1.33   0.250
   0.100   0.150   0.250      0.      0.  24.500   1.000  25.500      0.      0.
  -0.000  -0.000  -0.000  -0.000  -0.000  -0.000  -0.000  -0.000  -0.000  -0.000
  -0.000   0.000  -0.000   0.000  -0.000   0.000  -0.000   0.000  -0.000   0.000
  -0.000   0.000  -0.000   0.000  -0.000   0.000  -0.000   0.000  -0.000   0.000
   0.000   0.000   0.000   0.000   0.000   0.000   0.000   0.000   0.000   0.000
   0.000   0.000   0.000   0.000   0.000   0.000   0.000   0.000   0.000   0.001
   0.000   0.001   0.000   0.001   0.000   0.001   0.000   0.001   0.000   0.001
   0.000   0.001   0.001   0.001   0.001   0.001   0.001   0.001   0.001   0.001
   0.001   0.001   0.001   0.001   0.001   0.001   0.001   0.001   0.001   0.001
   0.001   0.001   0.001   0.001   0.001   0.001   0.001   0.001   0.001   0.001
   0.001   0.001   0.001   0.001   0.001   0.001   0.001   0.001   0.001   0.001
   0.001   0.001   0.001   0.001   0.001   0.001   0.001   0.001   0.001   0.001
   0.001   0.001   0.001   0.001   0.001   0.001   0.001   0.001   0.001   0.001
   0.001   0.001   0.001   0.001   0.001   0.001   0.001   0.001   0.001   0.001
   0.001   0.001   0.001   0.001   0.001   0.001   0.001   0.001   0.001   0.001
   0.001   0.001   0.001   0.001   0.001   0.001   0.001   0.001   0.001   0.001
   0.001   0.001   0.000   0.001   0.000   0.001   0.000   0.000   0.000   0.000
   0.000   0.000   0.000   0.000  -0.000   0.000  -0.000  -0.000  -0.000  -0.000
  -0.000  -0.000  -0.001  -0.000  -0.001  -0.001  -0.001  -0.001  -0.001  -0.001
  -0.001  -0.001  -0.001  -0.001  -0.001  -0.001  -0.001  -0.002  -0.002  -0.002
  -0.002  -0.002  -0.002  -0.002  -0.002  -0.002  -0.002  -0.003  -0.002  -0.003
  -0.002  -0.003  -0.003  -0.003  -0.003  -0.004  -0.003  -0.004  -0.003  -0.004
  -0.003  -0.004  -0.003  -0.005  -0.003  -0.005  -0.003  -0.005  -0.004  -0.006
  -0.004  -0.006  -0.004  -0.006  -0.004  -0.007  -0.004  -0.007  -0.004  -0.008
  -0.004  -0.008  -0.004  -0.009  -0.004  -0.009  -0.004  -0.010  -0.004  -0.011
  -0.004  -0.011  -0.003  -0.012  -0.003  -0.014  -0.001  -0.016   0.001  -0.022
   0.033   0.021  -0.017  -0.001   0.031   0.002   0.013   0.037  -0.005  -0.006
   0.015   0.013   0.031  -0.000   0.018  -0.011   0.018   0.006   0.016  -0.012
   0.028   0.012   0.017  -0.037   0.042  -0.061   0.104  -0.036  -0.118   0.093
  -0.081   0.048  -0.035   0.070  -0.016   0.013  -0.043   0.043   0.002   0.132
  -0.037  -0.009  -0.027   0.004  -0.014   0.002  -0.001  -0.006  -0.033  -0.005
  -0.014   0.029   0.003   0.004  -0.027   0.001  -0.029   0.047  -0.027   0.044
  -0.006  -0.002  -0.035   0.095  -0.002  -0.065   0.046  -0.059   0.057  -0.001
  -0.002  -0.049  -0.035   0.014   0.013   0.021  -0.019   0.004  -0.002  -0.000
   0.011  -0.016   0.022  -0.010   0.020  -0.028   0.025   0.005   0.000  -0.033
   0.066  -0.022  -0.004  -0.003  -0.002   0.010  -0.003  -0.009   0.014   0.001
   0.006  -0.002   0.001  -0.011   0.021  -0.008  -0.031  -0.001  -0.007  -0.021
   0.000   0.010  -0.018  -0.011  -0.020  -0.028  -0.017  -0.006  -0.020   0.006
   0.003  -0.000   0.014   0.023  -0.025  -0.019  -0.016   0.004   0.019  -0.003
   0.001   0.005   0.031   0.010  -0.005   0.000   0.013   0.006   0.001   0.013
   0.002  -0.020  -0.002  -0.002  -0.006  -0.027  -0.007  -0.000  -0.001   0.014
  -0.005   0.015  -0.022  -0.017   0.008   0.017   0.004  -0.002  -0.007   0.003
   0.024  -0.006   0.001   0.014   0.012  -0.010   0.086   0.022   0.013   0.028
  -0.090   0.071  -0.018   0.066  -0.047  -0.010   0.018   0.016   0.006   0.018
  -0.060   0.027  -0.067   0.124   0.011  -0.288   0.249  -0.077   0.077  -0.025
   0.038  -0.036   0.018  -0.032  -0.006  -0.052   0.029  -0.022  -0.002  -0.006
   0.033  -0.024   0.007  -0.011   0.017  -0.008  -0.001   0.000  -0.031  -0.021
   0.018   0.003  -0.003  -0.002  -0.024   0.012   0.009   0.006  -0.003   0.005
   0.019  -0.000   0.024  -0.003   0.034  -0.018  -0.013   0.024  -0.004   0.003
   0.019   0.016   0.012   0.004   0.009  -0.002   0.029   0.005  -0.038  -0.021
  -0.004  -0.008   0.016  -0.013   0.001  -0.024  -0.008   0.016  -0.000  -0.012
  -0.006  -0.013   0.012  -0.004  -0.021  -0.000  -0.016  -0.007  -0.019   0.005
  -0.005   0.012  -0.013  -0.015   0.008   0.014  -0.029   0.023  -0.031  -0.024
  -0.025   0.025  -0.014   0.001   0.001   0.010   0.010  -0.037  -0.008   0.002
   0.021  -0.024   0.001  -0.002   0.002  -0.003   0.022  -0.007  -0.000   0.012
   0.013  -0.023  -0.025   0.003   0.008   0.017   0.024   0.003  -0.031   0.023
   0.004   0.011   0.003  -0.001   0.001  -0.015  -0.036   0.016   0.008  -0.043
   0.042  -0.062   0.042  -0.017   0.001  -0.009  -0.021   0.020   0.002   0.001
   0.041  -0.020  -0.001  -0.017   0.035   0.021   0.018   0.009   0.020   0.018
  -0.003  -0.019  -0.030   0.021  -0.016  -0.005  -0.032  -0.003   0.012  -0.006
   0.034   0.009  -0.015   0.015   0.025   0.028  -0.009  -0.032  -0.021   0.002
  -0.012   0.002   0.005   0.009   0.020   0.010  -0.001   0.034  -0.011   0.009
  -0.015  -0.000  -0.005  -0.027   0.008  -0.013   0.032  -0.007  -0.012  -0.001
  -0.007   0.003  -0.016  -0.010  -0.017  -0.022  -0.012   0.010  -0.003  -0.014
   0.004   0.012  -0.003   0.015  -0.003  -0.014   0.013   0.015  -0.007   0.018
  -0.007   0.064  -0.014   0.041  -0.017   0.002  -0.029  -0.015   0.003   0.004
  -0.017   0.015  -0.028  -0.005   0.002   0.004   0.013   0.001  -0.018   0.021
  -0.003   0.025   0.007  -0.003   0.029  -0.003  -0.022  -0.010   0.005  -0.004
   0.015   0.029  -0.031   0.017  -0.008   0.029  -0.022  -0.007  -0.025  -0.010
  -0.025   0.038   0.016   0.001  -0.005   0.045  -0.005  -0.038  -0.001   0.013
   0.009   0.009   0.012  -0.011   0.012  -0.007   0.032  -0.022  -0.017  -0.007
   0.016  -0.003  -0.001   0.002  -0.030  -0.004  -0.010   0.035   0.008   0.005
  -0.008   0.020  -0.043  -0.007  -0.012   0.004  -0.018   0.040  -0.019   0.020
  -0.002   0.016  -0.033   0.018  -0.031   0.070  -0.025  -0.004  -0.036   0.030
  -0.033   0.032  -0.074   0.008   0.066  -0.113   0.018   0.123   0.012  -0.040
   0.045  -0.041   0.060  -0.038   0.016  -0.031   0.019  -0.026  -0.002  -0.020
   0.002  -0.031  -0.023   0.016   0.009  -0.016   0.005  -0.011   0.000  -0.014
  -0.019  -0.001  -0.021   0.006   0.010  -0.041  -0.064   0.080  -0.023   0.001
   0.007  -0.007   0.031  -0.001   0.015  -0.017   0.003   0.008   0.012  -0.018
   0.038  -0.004   0.018  -0.048   0.200  -0.493   0.580  -0.304   0.121  -0.190
   0.195  -0.099   0.038   0.028  -0.026   0.028  -0.003   0.074  -0.035  -0.017
   0.049   0.002  -0.001   0.025  -0.034  -0.009  -0.009   0.029  -0.021   0.019
  -0.015   0.014   0.000   0.021   0.007   0.026   0.012  -0.010  -0.021   0.005
  -0.022   0.010  -0.014   0.018  -0.050   0.042  -0.038   0.065  -0.077   0.031
  -0.060  -0.002   0.119  -0.165   0.175  -0.219   0.119   0.092  -0.177   0.099
   0.002  -0.074   0.103  -0.072   0.045   0.020  -0.068   0.077  -0.029   0.033
  -0.011  -0.037   0.002  -0.013  -0.005  -0.015  -0.006  -0.020   0.002   0.019
   0.016   0.003   0.020  -0.009  -0.003  -0.006   0.004   0.007  -0.035   0.003
  -0.018  -0.011   0.004  -0.029  -0.009  -0.002  -0.007  -0.012   0.001   0.021
   0.014  -0.014  -0.025  -0.021  -0.005  -0.029   0.024   0.029   0.020  -0.032
  -0.008   0.042   0.031  -0.020  -0.014  -0.031   0.033   0.008   0.029   0.013
  -0.002   0.003  -0.021   0.029  -0.023   0.028   0.006   0.006   0.040  -0.013
   0.013  -0.008   0.020  -0.002  -0.020   0.011  -0.004  -0.012  -0.004   0.008
  -0.007  -0.029   0.048  -0.010  -0.081  -0.010   0.008   0.008  -0.024   0.017
  -0.003   0.002   0.002  -0.010  -0.004   0.006  -0.031  -0.012   0.003   0.001
  -0.012   0.000   0.012  -0.041   0.003   0.006   0.018   0.043  -0.033  -0.017
  -0.002   0.040   0.006  -0.006   0.021   0.012   0.009  -0.014  -0.004   0.008
  -0.016   0.001  -0.013   0.013   0.023   0.007   0.004   0.013   0.008  -0.019
  -0.017  -0.001   0.015   0.032   0.009  -0.016  -0.017   0.007  -0.012  -0.000
   0.021  -0.001  -0.005   0.024   0.020   0.003   0.016   0.005   0.012  -0.003
   0.005  -0.007  -0.021  -0.008  -0.004   0.015  -0.006  -0.011   0.013   0.014
  -0.004  -0.000  -0.017  -0.017   0.018   0.001  -0.005   0.001  -0.001   0.001
   0.014   0.021   0.002  -0.003  -0.003  -0.004   0.006  -0.023  -0.013  -0.008
   0.007  -0.023  -0.029   0.001   0.013  -0.008  -0.018  -0.003  -0.005   0.010
   0.002   0.004  -0.007   0.023   0.003  -0.011  -0.009   0.003   0.022  -0.003
  -0.014   0.002  -0.012   0.001   0.006   0.011  -0.005  -0.022   0.031   0.009
  -0.017   0.021   0.017  -0.005   0.021  -0.007  -0.010  -0.016  -0.000  -0.018
   0.012   0.002   0.002  -0.016  -0.010   0.010  -0.023  -0.008  -0.039   0.013
  -0.013   0.002   0.009   0.012   0.022  -0.011  -0.005  -0.010   0.024   0.004
   0.015   0.012   0.019   0.009  -0.022  -0.007   0.003  -0.000   0.013   0.004
  -0.017   0.001   0.003  -0.010   0.004  -0.002  -0.010  -0.007   0.015   0.011
  -0.017   0.017   0.003   0.014  -0.001   0.002   0.000  -0.002   0.010   0.004
  -0.021  -0.003   0.015  -0.010  -0.003  -0.003   0.038  -0.003  -0.005  -0.028
   0.028   0.028   0.004  -0.009  -0.008  -0.012  -0.012   0.006  -0.018  -0.008
  -0.013   0.016   0.021  -0.014  -0.005  -0.004   0.023  -0.001   0.003  -0.016
  -0.017   0.004   0.012  -0.029   0.019  -0.024  -0.004  -0.012  -0.028  -0.001
   0.006  -0.002   0.019  -0.005   0.020  -0.018  -0.011  -0.023   0.025  -0.012
  -0.014  -0.014   0.016  -0.014   0.008   0.044  -0.030   0.003  -0.018   0.002
   0.014  -0.004   0.019   0.000  -0.017  -0.002  -0.023   0.013   0.020  -0.006
   0.019  -0.000   0.014   0.030   0.005   0.017  -0.001   0.016   0.002   0.004
   0.017  -0.011   0.026   0.007  -0.009  -0.006  -0.020   0.016  -0.007   0.013
  -0.004  -0.011  -0.007   0.036   0.012  -0.021  -0.005  -0.019  -0.015  -0.020
   0.024   0.023   0.012  -0.018  -0.003  -0.006   0.003  -0.012  -0.024   0.002
   0.004  -0.025   0.027  -0.010  -0.010  -0.005  -0.002   0.006   0.004   0.010
  -0.008   0.011   0.024  -0.011   0.023   0.009  -0.028  -0.014  -0.007   0.020
   0.005  -0.012  -0.003   0.016  -0.006   0.005   0.002  -0.014  -0.003  -0.000
  -0.035  -0.019  -0.006   0.017   0.003  -0.007  -0.038   0.032   0.003   0.001
   0.001   0.001  -0.002  -0.001  -0.009   0.018  -0.024  -0.030   0.028   0.009
   0.006  -0.004  -0.012  -0.008  -0.011  -0.026   0.014   0.009   0.033  -0.002
  -0.003  -0.020   0.007  -0.010   0.004  -0.011   0.008  -0.010  -0.016   0.039
  -0.043   0.008   0.010  -0.034  -0.025   0.004   0.005   0.005   0.024   0.004
   0.002  -0.027   0.010  -0.019   0.014   0.116  -0.063   0.021   0.057  -0.003
  -0.007   0.030   0.036  -0.022  -0.028  -0.012   0.029  -0.023   0.014  -0.031
   0.010  -0.039   0.030  -0.007  -0.003   0.003  -0.002   0.020  -0.024   0.003
   0.033   0.003   0.030   0.005  -0.015   0.015  -0.010   0.013  -0.014  -0.029
  -0.010  -0.004  -0.001  -0.011  -0.001   0.008  -0.020  -0.021  -0.003  -0.009
   0.009   0.020   0.028   0.021  -0.012   0.003  -0.028   0.017  -0.012   0.019
   0.026   0.009   0.018   0.023  -0.004   0.012  -0.008   0.026   0.004  -0.004
  -0.011  -0.000  -0.001  -0.009  -0.005  -0.008  -0.005  -0.004  -0.014  -0.013
  -0.022   0.018  -0.011   0.004   0.021   0.006   0.015   0.003  -0.023  -0.003
   0.004  -0.007  -0.024   0.012   0.028  -0.085   0.125  -0.079   0.024   0.047
  -0.022  -0.021   0.023  -0.004   0.009  -0.024  -0.005  -0.001  -0.022   0.032
   0.011  -0.020  -0.002  -0.017   0.013  -0.010   0.039  -0.025  -0.000   0.012
   0.026   0.009   0.004  -0.007   0.004  -0.002  -0.011   0.013  -0.003  -0.012
  -0.025   0.009   0.015  -0.014   0.006  -0.015  -0.005  -0.029  -0.036  -0.002
   0.002  -0.029   0.008   0.018   0.006  -0.017  -0.008  -0.048  -0.020  -0.012
   0.003  -0.001  -0.019  -0.001   0.021   0.011   0.013  -0.001   0.018  -0.002
  -0.021  -0.023   0.039   0.020  -0.028  -0.006   0.018  -0.033   0.010  -0.009
  -0.018  -0.005   0.034  -0.017  -0.023   0.022  -0.028  -0.000  -0.006   0.001
  -0.023   0.024   0.023  -0.006   0.009   0.011  -0.009  -0.019   0.021   0.011
  -0.004   0.007   0.000  -0.007   0.012   0.012  -0.012   0.013  -0.039   0.014
  -0.003   0.022  -0.005  -0.003   0.007   0.018   0.006   0.012  -0.012   0.003
  -0.006   0.014  -0.029  -0.016   0.018  -0.031   0.041   0.021  -0.034  -0.007
   0.023   0.007   0.006   0.016  -0.031   0.020   0.014   0.024  -0.010   0.023
  -0.022   0.025  -0.015   0.013  -0.009   0.034  -0.007  -0.012   0.031   0.005
   0.017  -0.013  -0.001  -0.000   0.031  -0.004  -0.008  -0.012  -0.010  -0.013
   0.021  -0.012   0.018   0.006  -0.015  -0.012   0.016  -0.020   0.018   0.007
   0.016  -0.005  -0.012  -0.019  -0.018  -0.008  -0.011  -0.030  -0.003  -0.015
   0.028  -0.020  -0.009   0.015   0.016   0.015   0.017  -0.021  -0.008   0.007
   0.006  -0.001  -0.002  -0.040  -0.010  -0.001   0.002  -0.045  -0.014   0.015
   0.007   0.036   0.005  -0.014  -0.009   0.036   0.028  -0.016  -0.010  -0.001
   0.034  -0.000   0.006  -0.029   0.008  -0.014  -0.010  -0.008   0.031  -0.001
  -0.027  -0.022   0.001   0.035   0.009   0.026  -0.007   0.009   0.017   0.009
   0.037  -0.020  -0.006  -0.024   0.010   0.011   0.008  -0.008   0.010   0.004
   0.012   0.028  -0.002  -0.002   0.000   0.033  -0.003   0.019  -0.011  -0.015
   0.007  -0.026  -0.005  -0.002  -0.008  -0.011  -0.003  -0.017  -0.001  -0.014
   0.014   0.014  -0.001  -0.016  -0.003  -0.018  -0.011  -0.026   0.009   0.011
  -0.016  -0.005  -0.006  -0.011   0.014   0.024  -0.003   0.011  -0.009  -0.003
   0.008   0.014  -0.035   0.026   0.010  -0.017   0.009  -0.003   0.004   0.014
   0.002  -0.015  -0.006   0.004  -0.013  -0.001   0.011   0.018   0.012   0.002
   0.008  -0.017   0.016  -0.000  -0.009  -0.006   0.025  -0.023   0.018  -0.003
  -0.001  -0.009   0.019   0.003  -0.042   0.007  -0.006  -0.014  -0.019  -0.007
  -0.015   0.003  -0.017   0.006  -0.003  -0.013  -0.031  -0.018  -0.002   0.003
  -0.021   0.041  -0.014   0.034  -0.028   0.008   0.019  -0.013  -0.001   0.007
   0.009  -0.034   0.021  -0.033   0.014   0.011   0.016  -0.007  -0.015   0.004
   0.003  -0.025   0.007   0.009  -0.002  -0.029   0.008  -0.003  -0.000   0.003
  -0.010   0.012   0.001   0.014  -0.014   0.026   0.012   0.005   0.015   0.010
   0.003   0.017  -0.001   0.012   0.035  -0.002  -0.001   0.009   0.001  -0.002
   0.004  -0.006   0.029  -0.020  -0.010   0.003  -0.007   0.001  -0.004   0.014
  -0.024   0.007  -0.031  -0.001   0.021   0.012   0.009  -0.014  -0.000  -0.038
  -0.004   0.008  -0.004  -0.016  -0.008  -0.016   0.004   0.020  -0.027  -0.014
   0.015   0.007  -0.022   0.007  -0.018   0.000   0.008   0.035  -0.020  -0.009
   0.001   0.010   0.003   0.003   0.015  -0.003   0.020   0.018   0.027   0.004
   0.030  -0.026  -0.000   0.022   0.027  -0.002   0.007   0.007  -0.020  -0.017
   0.029  -0.030   0.016  -0.005   0.001  -0.012   0.027   0.002   0.024  -0.026
   0.023   0.002  -0.002  -0.017   0.011  -0.008   0.023   0.008  -0.003  -0.024
  -0.020   0.038   0.003  -0.020   0.018  -0.012   0.012  -0.009  -0.006  -0.040
  -0.003  -0.035  -0.003  -0.002   0.017   0.036  -0.022  -0.033  -0.016   0.007
   0.021   0.019  -0.004  -0.035  -0.007   0.027   0.031  -0.015   0.004  -0.015
  -0.005   0.014  -0.009   0.001   0.000  -0.001  -0.030  -0.012  -0.017   0.004
  -0.028   0.010  -0.026  -0.027   0.007   0.001  -0.007   0.007   0.004   0.010
   0.008  -0.033   0.009   0.011   0.012   0.018  -0.008   0.001   0.005  -0.029
   0.015  -0.027  -0.007   0.027  -0.005   0.007  -0.016   0.023  -0.001  -0.013
  -0.008   0.001  -0.005  -0.006  -0.018  -0.001  -0.030  -0.007  -0.009  -0.010
   0.007  -0.004   0.047  -0.012   0.005   0.008   0.008  -0.017   0.021  -0.004
  -0.011   0.014   0.000   0.008   0.020  -0.004  -0.003   0.001   0.038  -0.010
   0.005   0.026   0.008   0.015   0.012  -0.021   0.043   0.013   0.009  -0.014
   0.005   0.013  -0.008  -0.024  -0.006   0.015   0.039  -0.011   0.010  -0.028
   0.015   0.041  -0.000   0.042  -0.012   0.018  -0.035   0.006   0.000  -0.012
   0.051  -0.021   0.013   0.005   0.004   0.015   0.019  -0.007  -0.001   0.006
   0.044  -0.010   0.018  -0.002  -0.000  -0.007  -0.003   0.032  -0.018   0.001
   0.007   0.011  -0.011   0.038  -0.025   0.010   0.005   0.004  -0.036   0.001
  -0.029   0.012   0.026  -0.041   0.086  -0.075   0.002   0.028   0.013  -0.029
   0.001  -0.002  -0.021   0.040   0.010   0.033   0.011   0.010   0.042  -0.018
  -0.025  -0.006  -0.005   0.013  -0.013   0.049  -0.012  -0.001  -0.013  -0.011
   0.010  -0.045   0.023  -0.012   0.004  -0.025  -0.016   0.026  -0.019   0.032
  -0.008  -0.010   0.002  -0.001  -0.011  -0.002  -0.005   0.015  -0.044  -0.022
  -0.013  -0.018   0.000   0.006  -0.008   0.005  -0.030  -0.012  -0.032   0.007
   0.021   0.028  -0.031  -0.002  -0.021  -0.005  -0.010  -0.019   0.018  -0.000
   0.009   0.009  -0.024  -0.032  -0.005  -0.007  -0.006  -0.031  -0.005  -0.012
  -0.018  -0.021  -0.039  -0.009   0.003  -0.013  -0.024  -0.023  -0.016  -0.021
  -0.000   0.006  -0.042  -0.037  -0.001   0.017  -0.018  -0.017  -0.023  -0.017
  -0.055  -0.029   0.011  -0.024  -0.013  -0.059  -0.001  -0.038  -0.062  -0.044
  -0.022  -0.019  -0.048  -0.031  -0.013  -0.020  -0.021  -0.043  -0.059  -0.042
   0.031  -0.010  -0.036   0.003  -0.045  -0.026  -0.050  -0.008  -0.058  -0.028
  -0.018  -0.065  -0.014  -0.041   0.007  -0.076   0.020  -0.053   0.026   0.007
  -0.040  -0.080   0.074  -0.196   0.190   0.030  -0.150   0.025  -0.041   0.026
  -0.057   0.002  -0.051   0.002  -0.010  -0.016  -0.015   0.014   0.005  -0.014
   0.007   0.006   0.026   0.027   0.021   0.039   0.025   0.004   0.018   0.029
   0.030   0.058   0.022   0.032   0.060   0.021   0.027   0.015   0.064   0.024
   0.097  -0.011  -0.003   0.133   0.012   0.090   0.056   0.107   0.079   0.059
   0.067   0.032   0.036   0.049   0.072   0.045  -0.010  -0.036   0.010   0.012
   0.123   0.138   0.129   0.073   0.056  -0.008  -0.133  -0.041   0.081   0.386
   0.527   0.593   0.619   0.545   0.202  -0.130  -0.488  -0.336   0.135   0.343
   0.158  -0.060  -0.101   0.100   0.032  -0.077  -0.149   0.135   0.398   0.417
   0.357   0.506   0.722   0.408  -0.170  -0.622  -0.605  -0.603  -0.410   0.067
   0.343   0.630   0.577   0.124   0.035   0.109   0.168  -0.015  -0.133   0.076
