Corrected accelerogram 20160214_001343_NLMS_20 GNS Science
Site NLMS      41 15 59S  173 16 37E     Cusp file:  20160214_001424_NLMS
Nelson Nelmac
Instrument Cusp_42041
Resolution: 18-bit   Instr Period: 0.0050 s   Damping: 0.700
Accelerogram 20160214_001343_NLMS_20                 Processed 2016 February 22
11 km east of CHRISTCHURCH
2016 February 14         00:13:43 UT
Epicentre  43 29 50S 172 45 18E  Bearing S10W  Dist  252km  Depth    8km M  5.70
Number of points  8192    Duration 163.82 sec
Instrument corrected data at 0.020 sec intervals
Band-pass filter transition bands are .10-.25 Hz and 24.50-25.50 Hz
Component N00E  Horizontal Axis 1
Acceleration:  peak      6.2 mm/s/s at  82.18 sec     rms      1.1 mm/s/s
Velocity:      peak    -1.57 mm/s   at  92.82 sec     rms     0.29 mm/s
Displacement:  peak   -0.731 mm     at  93.42 sec     rms    0.136 mm
    2016       2      14       0      13     430       0       0    2016       2
      43      29      50     172      45      18       8       0      14       0
      41      15      59     173      16      37       0       0     190     252
   34777     250     250    8192    8192    8192       0       0      13   44355
   200.0    0.70    0.00   0.000  0.0000   0.000   0.000   1.000     0.0    0.00
  41.267 173.277   43.50  172.76    5.70    0.00    0.00    0.00      0.      0.
  173.88    5.00    5.00  163.82  0.0050  0.0200      0.      0.      0.  9806.6
     6.4   82.19     1.1   0.000      0.     6.2   82.18     1.1     8.3   0.348
   -1.57   92.82    0.29    1.98   0.348   -0.73   93.42    0.14    0.83   0.348
   0.100   0.150   0.250      0.      0.  24.500   1.000  25.500      0.      0.
  -0.000   0.000  -0.000   0.000  -0.000   0.001   0.000   0.001   0.000   0.001
   0.000   0.001   0.000   0.001   0.000   0.001   0.001   0.001   0.001   0.001
   0.001   0.001   0.001   0.001   0.001   0.002   0.001   0.002   0.001   0.002
   0.001   0.002   0.001   0.002   0.001   0.002   0.002   0.002   0.002   0.002
   0.002   0.002   0.002   0.002   0.002   0.003   0.002   0.003   0.002   0.003
   0.002   0.003   0.002   0.003   0.002   0.003   0.003   0.003   0.003   0.003
   0.003   0.003   0.003   0.003   0.003   0.003   0.003   0.004   0.003   0.004
   0.003   0.004   0.003   0.004   0.003   0.004   0.003   0.004   0.003   0.004
   0.003   0.004   0.003   0.004   0.003   0.004   0.003   0.004   0.003   0.004
   0.003   0.004   0.003   0.004   0.003   0.004   0.003   0.004   0.003   0.004
   0.003   0.003   0.003   0.003   0.003   0.003   0.003   0.003   0.003   0.003
   0.002   0.003   0.002   0.003   0.002   0.003   0.002   0.002   0.002   0.002
   0.002   0.002   0.001   0.002   0.001   0.002   0.001   0.002   0.001   0.001
   0.001   0.001   0.000   0.001   0.000   0.001  -0.000   0.000  -0.000   0.000
  -0.001  -0.000  -0.001  -0.001  -0.001  -0.001  -0.002  -0.001  -0.002  -0.002
  -0.002  -0.002  -0.003  -0.002  -0.003  -0.003  -0.003  -0.003  -0.004  -0.003
  -0.004  -0.004  -0.005  -0.004  -0.005  -0.005  -0.005  -0.005  -0.006  -0.005
  -0.006  -0.006  -0.007  -0.006  -0.007  -0.007  -0.008  -0.007  -0.008  -0.008
  -0.009  -0.008  -0.009  -0.008  -0.010  -0.009  -0.010  -0.009  -0.011  -0.010
  -0.011  -0.010  -0.011  -0.011  -0.012  -0.011  -0.012  -0.012  -0.013  -0.012
  -0.013  -0.013  -0.014  -0.013  -0.014  -0.014  -0.015  -0.014  -0.015  -0.015
  -0.016  -0.015  -0.016  -0.016  -0.017  -0.017  -0.017  -0.017  -0.018  -0.018
  -0.018  -0.018  -0.019  -0.019  -0.019  -0.019  -0.020  -0.020  -0.020  -0.020
  -0.020  -0.021  -0.021  -0.021  -0.021  -0.022  -0.022  -0.022  -0.022  -0.022
  -0.023  -0.023  -0.023  -0.023  -0.024  -0.023  -0.025  -0.022  -0.028  -0.017
  -0.020   0.055   0.141  -0.029  -0.061  -0.099   0.074   0.089   0.115   0.067
  -0.031  -0.027   0.155   0.248   0.136   0.004   0.077   0.082   0.150  -0.031
   0.150   0.112  -0.011   0.065  -0.159   0.007   0.120   0.011  -0.032   0.049
   0.043  -0.023  -0.147   0.105  -0.009  -0.164   0.004   0.226  -0.166   0.160
   0.164  -0.165  -0.069   0.065   0.020  -0.209  -0.145   0.227   0.110  -0.034
  -0.119   0.018   0.156   0.085  -0.211  -0.060   0.092  -0.030   0.041  -0.019
   0.077   0.139   0.046  -0.016  -0.090   0.033  -0.023  -0.085   0.102   0.005
  -0.027   0.007  -0.116  -0.128   0.182   0.111  -0.072  -0.011   0.005   0.025
   0.134   0.074  -0.061  -0.053   0.030  -0.067   0.070   0.048  -0.019   0.217
   0.085  -0.088   0.068  -0.033  -0.028   0.026   0.163   0.009  -0.050   0.089
   0.067  -0.017  -0.009   0.024  -0.111  -0.056  -0.070  -0.169  -0.066  -0.084
   0.024   0.066   0.047  -0.064  -0.107  -0.158   0.009  -0.090  -0.152  -0.056
   0.014   0.277   0.140  -0.031  -0.039  -0.143  -0.157   0.020   0.011  -0.015
   0.022   0.080   0.047   0.027   0.140  -0.124  -0.064  -0.076  -0.068  -0.021
   0.022   0.016  -0.005   0.105  -0.105  -0.062  -0.017   0.013  -0.003  -0.095
  -0.168  -0.084  -0.034  -0.049  -0.021   0.142  -0.035  -0.119  -0.224   0.015
   0.058   0.076  -0.057  -0.092   0.000  -0.038   0.058  -0.054  -0.010   0.061
   0.106  -0.031   0.001  -0.036  -0.019  -0.092  -0.086   0.261  -0.014  -0.102
  -0.023   0.084  -0.011  -0.023  -0.020  -0.010   0.009   0.038   0.012   0.072
   0.011  -0.157   0.069  -0.124   0.012   0.054  -0.024  -0.014   0.131   0.112
  -0.099  -0.111  -0.096  -0.075   0.050   0.038   0.011   0.090   0.009  -0.012
   0.093   0.056  -0.018  -0.039   0.094   0.110  -0.127   0.036  -0.106  -0.157
   0.011   0.207  -0.061   0.068   0.046  -0.062  -0.049  -0.084   0.011  -0.047
   0.072   0.072   0.117  -0.062   0.010  -0.118   0.057   0.076   0.060  -0.002
   0.056  -0.014   0.101  -0.014   0.005  -0.094  -0.052   0.080   0.060   0.083
   0.032   0.106   0.053  -0.032   0.098   0.048   0.065  -0.016   0.013   0.078
   0.045   0.230   0.123   0.054  -0.013  -0.083  -0.021   0.050   0.099   0.129
  -0.020  -0.054   0.024  -0.047   0.020   0.003  -0.007  -0.094  -0.069   0.019
  -0.069  -0.104   0.078  -0.007  -0.123   0.155  -0.036  -0.115  -0.060   0.039
   0.005   0.007   0.095   0.067  -0.027   0.011  -0.082  -0.161  -0.127  -0.018
   0.016  -0.009  -0.025   0.036  -0.072   0.017  -0.003   0.034  -0.025  -0.082
  -0.010  -0.088  -0.017   0.075   0.015   0.006   0.040   0.085   0.006  -0.118
   0.116  -0.060  -0.026   0.021   0.045   0.047  -0.081   0.142   0.051   0.047
  -0.067   0.059  -0.105  -0.133  -0.015   0.020   0.051   0.032  -0.126  -0.023
  -0.021  -0.027   0.028   0.016  -0.112  -0.100  -0.052   0.027  -0.022   0.025
  -0.066  -0.012   0.111  -0.019   0.040   0.049  -0.075   0.020  -0.012  -0.049
   0.071  -0.048  -0.006   0.072  -0.129  -0.087  -0.061   0.011   0.078   0.045
   0.077  -0.056   0.053  -0.153  -0.052   0.097   0.076  -0.232  -0.136   0.157
   0.096  -0.049   0.151   0.111  -0.124  -0.198   0.019   0.100  -0.032   0.038
   0.027  -0.078  -0.079   0.199  -0.204  -0.148   0.052  -0.051   0.048   0.048
  -0.003  -0.088   0.122   0.035   0.016  -0.005   0.090   0.008   0.034   0.095
  -0.019  -0.096  -0.039   0.011  -0.151  -0.053   0.124   0.072   0.089   0.008
  -0.082  -0.009  -0.089  -0.065   0.066   0.023   0.021  -0.000  -0.015   0.075
   0.009  -0.096   0.012   0.099   0.073  -0.020  -0.139  -0.003  -0.100  -0.038
   0.071   0.112   0.088   0.038  -0.024   0.012   0.031  -0.045  -0.039  -0.071
   0.069  -0.019  -0.015  -0.040   0.045   0.124   0.045  -0.041  -0.078  -0.028
   0.063   0.051   0.033   0.039  -0.015  -0.038   0.035   0.129   0.091  -0.000
   0.098  -0.059  -0.024   0.102   0.137   0.059   0.012   0.046   0.148   0.081
  -0.029   0.121   0.209  -0.138   0.075  -0.029  -0.089   0.065   0.179   0.101
  -0.100  -0.194  -0.089  -0.001   0.034  -0.127   0.049   0.006  -0.084   0.049
  -0.178   0.069   0.017  -0.148  -0.071  -0.078   0.004   0.023   0.101  -0.004
  -0.003   0.045  -0.246  -0.099   0.041   0.204  -0.021  -0.098  -0.034   0.020
  -0.076   0.080  -0.010  -0.062  -0.111  -0.219  -0.221   0.065   0.251  -0.027
  -0.232  -0.106   0.183   0.132  -0.077  -0.019  -0.141  -0.077   0.378   0.042
  -0.160  -0.077   0.070  -0.001  -0.055   0.039  -0.041  -0.012   0.038   0.011
   0.012  -0.132  -0.043  -0.068   0.054   0.139   0.004   0.023  -0.026  -0.149
   0.113  -0.076   0.077  -0.052  -0.115  -0.024   0.089   0.099  -0.086   0.054
  -0.067  -0.195   0.069   0.029  -0.017   0.114   0.085   0.039   0.037  -0.098
  -0.065   0.081  -0.118  -0.164   0.036  -0.065   0.007   0.134   0.148   0.038
   0.109  -0.149  -0.079  -0.131  -0.047   0.099   0.124   0.115  -0.005  -0.061
  -0.043   0.007   0.075   0.042  -0.057  -0.084  -0.054   0.116   0.126   0.037
  -0.019  -0.075   0.043   0.006  -0.101   0.075   0.080   0.033   0.136   0.050
   0.047  -0.170  -0.092   0.124   0.124  -0.026   0.043  -0.051  -0.095   0.070
   0.165  -0.058  -0.391   0.165   0.250  -0.085   0.059   0.129  -0.264  -0.221
   0.009   0.149   0.007  -0.002   0.169   0.047  -0.016  -0.013   0.015  -0.161
  -0.151   0.030   0.055  -0.138  -0.027   0.093  -0.055   0.054   0.099  -0.053
  -0.080  -0.071  -0.008   0.067   0.134  -0.027  -0.108   0.014   0.157   0.156
   0.016  -0.109  -0.151   0.108   0.059   0.093   0.032  -0.030  -0.035  -0.014
   0.038   0.125   0.062  -0.075   0.010  -0.167   0.069   0.120   0.118  -0.139
  -0.039   0.062   0.132  -0.028  -0.151  -0.207  -0.009  -0.037   0.021   0.013
   0.126  -0.145  -0.295   0.164   0.205  -0.123  -0.126  -0.073   0.023   0.097
   0.047  -0.049   0.075  -0.031  -0.088   0.065  -0.035  -0.155   0.039  -0.002
  -0.166   0.169   0.078  -0.102  -0.119   0.073  -0.078   0.048   0.004  -0.125
  -0.002   0.101   0.003   0.023   0.026  -0.119   0.078  -0.012   0.015   0.115
  -0.036  -0.003  -0.112  -0.013  -0.027   0.091   0.014  -0.024   0.004   0.063
  -0.017   0.043  -0.018  -0.107  -0.048   0.045   0.066  -0.100   0.017   0.009
  -0.042  -0.049   0.073  -0.037  -0.045   0.026  -0.047  -0.039   0.085   0.117
   0.091   0.041  -0.050  -0.052   0.085  -0.036   0.066   0.049   0.180   0.140
   0.006  -0.072  -0.056   0.067  -0.025   0.039   0.022  -0.082  -0.124   0.120
   0.021   0.047   0.122   0.011   0.139   0.074  -0.183  -0.094   0.140   0.076
  -0.047  -0.024   0.057   0.010  -0.050   0.009   0.007  -0.057  -0.053   0.001
  -0.006   0.037   0.021  -0.078  -0.115  -0.066   0.023   0.109  -0.002  -0.029
   0.185  -0.101  -0.056   0.043   0.023  -0.054   0.013  -0.021  -0.006   0.021
  -0.120  -0.024   0.112  -0.018   0.005   0.016  -0.041  -0.073  -0.083   0.055
  -0.019  -0.121  -0.049  -0.041  -0.023   0.056  -0.111  -0.066  -0.108  -0.123
  -0.018   0.087  -0.048  -0.023   0.029  -0.010   0.007   0.014   0.033  -0.004
  -0.007  -0.043  -0.017   0.038   0.003  -0.009  -0.021  -0.025   0.036   0.070
   0.156  -0.000   0.009  -0.018  -0.136  -0.162   0.117   0.082  -0.021  -0.036
   0.045  -0.037   0.015   0.002   0.006   0.010   0.002   0.009   0.080  -0.058
  -0.085  -0.057   0.052   0.111   0.089   0.032  -0.094   0.034   0.085   0.043
  -0.015   0.029  -0.099  -0.048   0.011   0.063   0.033   0.088   0.089   0.017
   0.058   0.073  -0.033   0.096   0.064   0.055   0.038   0.074   0.005  -0.025
   0.089   0.024  -0.007  -0.069   0.005   0.006  -0.046   0.076  -0.004   0.020
  -0.001   0.038   0.018   0.015  -0.098   0.072  -0.074  -0.027  -0.009   0.020
  -0.058  -0.144  -0.015   0.003  -0.052  -0.012   0.078  -0.021   0.007   0.072
  -0.031   0.019   0.020   0.020   0.039   0.023  -0.021   0.027   0.066  -0.071
  -0.011  -0.038  -0.066  -0.067   0.105   0.072  -0.087  -0.003  -0.011  -0.003
  -0.042  -0.036   0.060  -0.051  -0.034   0.042   0.010  -0.039   0.142   0.027
  -0.054  -0.039  -0.179  -0.126   0.047   0.022  -0.012   0.071   0.061   0.019
  -0.134  -0.090  -0.010  -0.028   0.013   0.009  -0.030  -0.004   0.027  -0.034
  -0.037   0.052  -0.020   0.079   0.078   0.023   0.025  -0.089  -0.118  -0.098
  -0.100   0.017   0.014   0.000   0.044  -0.127   0.039  -0.057  -0.044  -0.026
   0.019   0.056   0.024  -0.089  -0.020   0.044   0.035  -0.005  -0.020   0.027
   0.056   0.033  -0.081   0.117   0.008   0.075   0.047   0.033   0.122  -0.032
  -0.049   0.015  -0.036  -0.127  -0.016  -0.056  -0.007   0.020   0.014   0.041
   0.006  -0.046  -0.038  -0.053  -0.013   0.090   0.089  -0.029  -0.096  -0.054
  -0.001   0.023  -0.072  -0.056   0.048   0.021   0.138  -0.029  -0.013   0.082
   0.001  -0.020   0.089  -0.028   0.037   0.017   0.083   0.015  -0.049   0.029
  -0.040   0.008  -0.126   0.032   0.047   0.061   0.089  -0.092  -0.003  -0.069
  -0.080  -0.078   0.008   0.046   0.084   0.024  -0.011  -0.043  -0.112  -0.118
   0.014   0.008  -0.055   0.100  -0.013  -0.043   0.033  -0.096  -0.031  -0.092
   0.086  -0.024  -0.061   0.076   0.021  -0.022  -0.019   0.084  -0.089   0.021
   0.141   0.039   0.049  -0.062  -0.080  -0.004   0.051   0.046  -0.061  -0.023
  -0.060   0.035  -0.001   0.042   0.085   0.012  -0.111   0.053  -0.042  -0.027
   0.104  -0.074  -0.185   0.054   0.160  -0.042  -0.070   0.055  -0.047   0.064
   0.214  -0.078  -0.196   0.055   0.059  -0.004   0.055  -0.059  -0.016   0.048
   0.011   0.021   0.069   0.014   0.027  -0.136  -0.000   0.120   0.026  -0.012
   0.033  -0.039   0.018   0.134   0.031   0.006   0.078   0.015  -0.081  -0.087
  -0.050   0.106   0.109   0.092   0.089   0.017  -0.001  -0.004  -0.059  -0.064
   0.090   0.077   0.026  -0.008   0.047   0.062   0.081  -0.086   0.018  -0.101
  -0.013   0.014   0.020   0.060   0.033   0.051   0.047  -0.005  -0.077   0.032
   0.050   0.009   0.037   0.011  -0.052   0.082  -0.060   0.043  -0.021  -0.035
   0.020  -0.010  -0.034   0.033  -0.032   0.088   0.090  -0.088   0.057  -0.037
  -0.038  -0.010  -0.055  -0.009   0.040  -0.096   0.005  -0.039  -0.032   0.141
  -0.001   0.081  -0.049   0.036  -0.023  -0.106  -0.032  -0.023   0.091   0.038
   0.114  -0.012   0.008  -0.026  -0.009   0.028  -0.064  -0.002  -0.013   0.075
  -0.003  -0.084  -0.043   0.111  -0.153  -0.065  -0.088  -0.048   0.062   0.053
   0.104  -0.151   0.056   0.010  -0.128  -0.026   0.027  -0.033  -0.057  -0.027
  -0.119  -0.125  -0.044   0.041  -0.045   0.000  -0.093  -0.056  -0.076  -0.048
  -0.005  -0.069  -0.016  -0.113   0.123  -0.077  -0.100  -0.004   0.114   0.088
  -0.034   0.055  -0.080  -0.037  -0.138  -0.049   0.056   0.303  -0.183   0.002
   0.182  -0.198  -0.102  -0.044  -0.015  -0.055   0.034  -0.019  -0.040   0.095
   0.049  -0.059  -0.029  -0.019  -0.057   0.030   0.089  -0.007   0.040   0.037
   0.020   0.056   0.005   0.089  -0.112   0.034   0.015   0.047   0.086   0.053
   0.028  -0.112  -0.047  -0.085  -0.018   0.029   0.016   0.066   0.078  -0.041
  -0.123  -0.000   0.051  -0.038  -0.018   0.058  -0.006  -0.068  -0.119  -0.069
   0.020   0.106   0.163   0.104   0.011  -0.128  -0.026  -0.135   0.004   0.182
   0.166   0.003   0.044  -0.064  -0.052  -0.001   0.021   0.012   0.000   0.069
   0.007   0.065  -0.043   0.211  -0.018   0.043   0.075   0.046   0.073  -0.024
  -0.048   0.028  -0.041   0.045   0.057  -0.054   0.083   0.031   0.019   0.036
   0.084   0.017  -0.045   0.034  -0.041  -0.010  -0.048  -0.104  -0.020   0.047
   0.002  -0.125  -0.040  -0.076  -0.126   0.001  -0.055  -0.001   0.104  -0.023
  -0.169  -0.037  -0.112  -0.036   0.032   0.003   0.118  -0.049  -0.053  -0.077
  -0.027  -0.099   0.028  -0.006   0.120   0.140  -0.017   0.096  -0.049   0.024
  -0.024  -0.064   0.022   0.056  -0.008   0.004   0.181   0.020  -0.003  -0.044
  -0.150  -0.122   0.089   0.168   0.003  -0.011  -0.157  -0.001  -0.121   0.029
   0.016  -0.003  -0.032   0.014   0.004  -0.109   0.089   0.091  -0.043  -0.055
   0.041   0.046  -0.038  -0.013   0.073  -0.043   0.128  -0.141   0.073  -0.044
  -0.194   0.014   0.098   0.044   0.105   0.018  -0.050   0.167   0.038  -0.035
   0.088   0.122   0.048  -0.054  -0.060   0.043   0.040   0.036  -0.002   0.060
   0.049  -0.038   0.082   0.038  -0.111   0.020   0.182   0.052   0.041  -0.029
  -0.013   0.046   0.040   0.029   0.043   0.034  -0.012   0.096  -0.172   0.097
  -0.054   0.012   0.059  -0.183  -0.039  -0.085   0.003   0.030  -0.041  -0.040
  -0.057   0.010  -0.048   0.055  -0.007  -0.025   0.048   0.013   0.061   0.049
  -0.024   0.048   0.029   0.019   0.059  -0.042  -0.020   0.025   0.117   0.031
   0.029  -0.119  -0.013   0.101  -0.060  -0.046  -0.088   0.008   0.089  -0.021
  -0.074  -0.139   0.131   0.057  -0.102  -0.039  -0.056  -0.170  -0.032  -0.086
  -0.034   0.034   0.016   0.038  -0.087   0.023  -0.028  -0.059  -0.075  -0.044
  -0.060  -0.047   0.092   0.101  -0.038  -0.152  -0.105  -0.077   0.109  -0.020
  -0.072  -0.077   0.073   0.117  -0.052  -0.031  -0.115  -0.191   0.011   0.163
  -0.008  -0.095  -0.106   0.117   0.050   0.014   0.011   0.025  -0.113   0.083
  -0.029  -0.004   0.082  -0.001  -0.017  -0.115   0.052   0.071  -0.016   0.003
   0.033   0.038   0.070  -0.049  -0.003   0.045   0.020   0.164  -0.041  -0.045
   0.125   0.111   0.031   0.051   0.124   0.025  -0.053   0.036  -0.025   0.052
   0.022  -0.012  -0.046   0.083   0.113  -0.031  -0.048  -0.031   0.110   0.029
  -0.057   0.032  -0.048   0.045   0.063  -0.000   0.047   0.016  -0.006   0.024
  -0.015  -0.026   0.010  -0.019  -0.003  -0.019   0.079   0.097  -0.049  -0.093
   0.017   0.026  -0.064  -0.025   0.009   0.035  -0.013  -0.044  -0.060   0.062
   0.002   0.022  -0.147  -0.052  -0.042   0.093  -0.044  -0.102   0.016  -0.026
  -0.082   0.082   0.096  -0.084  -0.131  -0.018   0.002  -0.097   0.035   0.059
  -0.205   0.047   0.050  -0.179  -0.136   0.043  -0.002  -0.130  -0.069   0.086
   0.006  -0.014   0.022  -0.081  -0.033  -0.075   0.083   0.005  -0.033   0.078
  -0.001  -0.013   0.003  -0.002   0.003   0.076  -0.007  -0.043  -0.001  -0.031
  -0.036   0.024   0.011   0.145  -0.082  -0.053   0.017   0.028  -0.004  -0.004
  -0.005   0.056   0.001  -0.010  -0.046   0.021   0.010  -0.043   0.075   0.101
   0.001  -0.063  -0.053   0.020   0.000   0.023  -0.009   0.029  -0.043  -0.106
   0.119  -0.039  -0.027  -0.049   0.005   0.037  -0.049  -0.050   0.018   0.132
   0.045   0.006  -0.048  -0.018  -0.066   0.106   0.042  -0.006   0.083   0.011
   0.006  -0.048  -0.048   0.022   0.023   0.101  -0.103  -0.143   0.015  -0.052
  -0.071   0.174  -0.023  -0.139   0.013  -0.007   0.031   0.040   0.073  -0.017
   0.077   0.006  -0.021  -0.058  -0.079  -0.080   0.008  -0.010   0.035  -0.054
  -0.024  -0.054   0.055   0.116  -0.051   0.062   0.076   0.018   0.077   0.109
  -0.032  -0.029  -0.006   0.013   0.031   0.026   0.049  -0.039   0.004   0.073
  -0.009   0.016   0.134   0.091   0.197   0.078   0.010  -0.080   0.074  -0.037
  -0.017  -0.065   0.006  -0.074   0.084   0.105   0.052  -0.018  -0.109  -0.007
   0.070   0.061  -0.040   0.125   0.111   0.058   0.092   0.044   0.035   0.138
  -0.073   0.061   0.126   0.092   0.063   0.001  -0.114  -0.077  -0.069  -0.012
  -0.042   0.003  -0.080  -0.226  -0.208  -0.208  -0.240  -0.105   0.006   0.015
   0.086   0.174   0.183  -0.046  -0.009   0.002   0.030   0.144   0.161   0.238
   0.249   0.429   0.296   0.205   0.076   0.022  -0.099   0.021   0.012   0.068
   0.052   0.085  -0.039  -0.197  -0.348  -0.533  -0.298  -0.017  -0.022   0.126
   0.127   0.077  -0.142  -0.352  -0.355  -0.248   0.048   0.134   0.327   0.251
   0.133   0.235   0.248   0.433   0.301   0.132  -0.010   0.110   0.198   0.449
   0.370   0.087  -0.089  -0.190  -0.265  -0.352  -0.606  -0.566  -0.293   0.179
   0.032  -0.398  -0.435  -0.387  -0.118   0.109  -0.134  -0.176  -0.321  -0.559
  -0.522  -0.490  -0.367  -0.382  -0.385  -0.180  -0.020  -0.039  -0.283  -0.265
   0.436   0.647   0.732   0.616   0.539   0.462   0.552   0.379   0.229  -0.003
  -0.173  -0.321  -0.354  -0.271  -0.142   0.067   0.307   0.271  -0.031  -0.220
  -0.248  -0.385  -0.431  -0.612  -0.625  -0.290  -0.355  -0.757  -1.025  -1.104
  -0.725  -0.420  -0.171   0.093   0.155   0.818   1.466   2.072   1.977   1.376
   0.763   0.427   0.675   0.856   0.565  -0.131  -0.809  -1.127  -0.767  -0.049
