Corrected accelerogram 20160214_001343_MTHS_20 GNS Science
Site MTHS      43 33 47S  171 39 59E     Basalt file:  20160214_001400_MTHS
Methven North
Instrument Basalt_2409
Resolution: 24-bit   Instr Period: 0.0050 s   Damping: 0.700
Accelerogram 20160214_001343_MTHS_20                 Processed 2016 February 22
11 km east of CHRISTCHURCH
2016 February 14         00:13:43 UT
Epicentre  43 29 50S 172 45 18E  Bearing N86E  Dist   88km  Depth    8km M  5.70
Number of points  7350    Duration 146.98 sec
Instrument corrected data at 0.020 sec intervals
Band-pass filter transition bands are .10-.25 Hz and 24.50-25.50 Hz
Component N00E  Horizontal Axis 1
Acceleration:  peak   -100.8 mm/s/s at  55.48 sec     rms      8.7 mm/s/s
Velocity:      peak   -19.60 mm/s   at  60.22 sec     rms     3.17 mm/s
Displacement:  peak  -10.353 mm     at  60.90 sec     rms    1.707 mm
    2016       2      14       0      13     430       0       0    2016       2
      43      29      50     172      45      18       8       0      14       0
      43      33      47     171      39      59       0       0      86      88
   27400     250     250    7350    7350    7350       0       0      13   20000
   200.0    0.70    0.00   0.000  0.0000   0.000   0.000   1.000     0.0    0.00
  43.563 171.666   43.50  172.76    5.70    0.00    0.00    0.00      0.      0.
  137.00    5.00    5.00  146.98  0.0050  0.0200      0.      0.      0.  9806.6
   -99.6   55.48     9.0   0.000      0.  -100.8   55.48     8.7   102.9   0.281
  -19.60   60.22    3.17   21.60   0.250  -10.35   60.90    1.71   10.66   0.250
   0.100   0.150   0.250      0.      0.  24.500   1.000  25.500      0.      0.
    -0.0     0.0    -0.0     0.0    -0.0     0.0    -0.0     0.0    -0.0     0.0
    -0.0     0.0    -0.0     0.0    -0.0     0.0    -0.0     0.0    -0.0     0.0
    -0.0     0.0    -0.0     0.0    -0.0     0.0     0.0     0.0     0.0     0.0
     0.0     0.0     0.0     0.0     0.0     0.0     0.0     0.0     0.0     0.0
     0.0     0.0     0.0     0.0     0.0     0.0     0.0     0.0     0.0     0.0
     0.0     0.0     0.0     0.0     0.0     0.0     0.0     0.0     0.0     0.0
     0.0     0.0     0.0     0.0     0.0     0.0     0.0     0.0     0.0     0.0
     0.0     0.0     0.0     0.0     0.0     0.0     0.0     0.0     0.0     0.0
     0.0     0.0     0.0     0.0     0.0     0.0     0.0     0.0     0.0     0.0
     0.0     0.0     0.0     0.0     0.0     0.0     0.0     0.0     0.0     0.0
     0.0     0.0     0.0     0.0     0.0     0.0     0.0     0.0     0.0     0.0
     0.0     0.0     0.0     0.0     0.0     0.0     0.0     0.0     0.0     0.0
     0.0     0.0     0.0     0.0     0.0     0.0     0.0     0.0     0.0     0.0
     0.0     0.0    -0.0     0.0    -0.0     0.0    -0.0     0.0    -0.0     0.0
    -0.0     0.0    -0.0     0.0    -0.0     0.0    -0.0     0.0    -0.0     0.0
    -0.0     0.0    -0.0    -0.0    -0.0    -0.0    -0.0    -0.0    -0.0    -0.0
    -0.0    -0.0    -0.0    -0.0    -0.0    -0.0    -0.0    -0.0    -0.0    -0.0
    -0.0    -0.0    -0.0    -0.0    -0.0    -0.0    -0.0    -0.0    -0.0    -0.0
    -0.0    -0.0    -0.0    -0.0    -0.0    -0.0    -0.0    -0.0    -0.0    -0.0
    -0.0    -0.0    -0.0    -0.0    -0.0    -0.0    -0.0    -0.0    -0.0    -0.0
    -0.0    -0.0    -0.0    -0.0    -0.0    -0.0    -0.0    -0.0    -0.0    -0.0
    -0.0    -0.0    -0.0    -0.0    -0.0    -0.0    -0.0    -0.0    -0.0    -0.0
    -0.0    -0.0    -0.0    -0.0    -0.0    -0.0    -0.0    -0.0    -0.0    -0.0
    -0.0    -0.0    -0.0    -0.0    -0.0    -0.0    -0.0    -0.0    -0.0    -0.0
    -0.0    -0.0    -0.0    -0.0    -0.0    -0.0    -0.0    -0.0    -0.0    -0.0
    -0.0     0.0    -0.0     0.0     0.0     0.0    -0.0     0.0     0.0     0.0
     0.0    -0.0    -0.0     0.0     0.0     0.0     0.0     0.0     0.0     0.0
     0.0     0.0     0.0    -0.0    -0.0     0.0     0.0    -0.0     0.0     0.0
     0.0    -0.0     0.0     0.0     0.0    -0.0     0.0     0.0     0.0     0.0
     0.0     0.0     0.0    -0.0     0.0    -0.0     0.0     0.0    -0.0    -0.0
     0.0     0.0     0.0    -0.0    -0.0     0.0    -0.0    -0.0     0.0    -0.0
     0.0    -0.0    -0.0    -0.0     0.0    -0.0     0.0     0.0     0.0    -0.0
    -0.0    -0.0     0.0     0.0    -0.0    -0.0    -0.0     0.0    -0.0    -0.0
    -0.0     0.0    -0.0     0.0    -0.0     0.0    -0.0     0.0    -0.0     0.0
    -0.0     0.0    -0.0     0.1    -0.0     0.0    -0.0     0.0    -0.0     0.0
    -0.0     0.1    -0.0    -0.0     0.0     0.0    -0.0     0.0     0.0    -0.0
    -0.0     0.0     0.0     0.0    -0.0    -0.0     0.0    -0.0     0.0    -0.0
     0.0     0.0    -0.0     0.0     0.0    -0.0     0.0    -0.0     0.0    -0.0
     0.0    -0.0     0.0    -0.0     0.0    -0.0     0.0    -0.0    -0.0    -0.0
     0.0    -0.0     0.0     0.0    -0.0    -0.0     0.0    -0.0     0.0     0.0
     0.0    -0.0     0.0    -0.0     0.0    -0.0     0.0    -0.0    -0.0    -0.0
     0.0    -0.0     0.0     0.0    -0.0     0.0     0.0     0.0     0.0     0.0
    -0.0     0.0    -0.1     0.0    -0.0    -0.0     0.0    -0.0    -0.0     0.0
    -0.0     0.0     0.0    -0.0    -0.0     0.0    -0.0    -0.0    -0.0    -0.0
     0.0    -0.0    -0.0     0.0     0.0     0.0     0.0    -0.0     0.0    -0.0
     0.0     0.0    -0.0    -0.0     0.0    -0.0     0.0     0.0     0.0     0.0
    -0.0     0.0     0.0    -0.0     0.0    -0.0    -0.0    -0.0    -0.0    -0.0
     0.0    -0.0     0.0     0.0    -0.0     0.0     0.0    -0.0     0.0    -0.0
    -0.0    -0.0    -0.0    -0.0    -0.0    -0.0     0.0    -0.0    -0.0     0.0
    -0.0     0.0     0.0     0.0     0.0     0.0    -0.0     0.0    -0.0    -0.0
     0.0     0.0    -0.0    -0.0     0.0     0.0    -0.0     0.0     0.0     0.0
    -0.0     0.0    -0.0     0.0    -0.0    -0.0    -0.0     0.0    -0.0     0.0
    -0.0     0.0    -0.0     0.0    -0.0     0.0    -0.1     0.0     0.0    -0.0
    -0.0     0.0    -0.0     0.0    -0.0    -0.0     0.1     0.0     0.0     0.0
    -0.0    -0.1     0.0    -0.0     0.0    -0.0    -0.0     0.0    -0.0    -0.0
     0.0    -0.0     0.0    -0.0    -0.0    -0.0     0.0    -0.0     0.0    -0.0
     0.0    -0.0    -0.0    -0.0     0.0    -0.0     0.0    -0.0     0.0    -0.0
     0.0    -0.0     0.0    -0.0     0.0    -0.0    -0.0     0.0     0.0    -0.0
     0.0    -0.0     0.0    -0.0     0.0     0.0     0.0     0.0    -0.0     0.0
     0.0     0.0    -0.0     0.0     0.0     0.0    -0.0     0.0    -0.0     0.0
    -0.0     0.0     0.0     0.0    -0.0     0.0    -0.1     0.0    -0.0    -0.0
     0.0    -0.0    -0.0     0.1    -0.0     0.0    -0.0    -0.0     0.0     0.0
    -0.1     0.1    -0.0    -0.0     0.0     0.0     0.0     0.0     0.0    -0.0
     0.0    -0.0     0.0    -0.0    -0.0    -0.0    -0.0     0.0    -0.0    -0.0
     0.1    -0.0    -0.0    -0.0     0.0    -0.0     0.0    -0.0     0.0     0.0
    -0.0    -0.0    -0.0    -0.0     0.0    -0.0     0.0    -0.0    -0.0    -0.0
     0.0    -0.0    -0.0    -0.0    -0.0    -0.0    -0.0    -0.0    -0.0     0.0
     0.0     0.0    -0.0     0.0    -0.0    -0.0     0.0     0.0    -0.0     0.0
    -0.0     0.0    -0.0     0.0    -0.0     0.0    -0.0     0.0    -0.0     0.0
    -0.0     0.0    -0.0     0.1    -0.1     0.0     0.0    -0.0     0.0     0.0
    -0.1     0.0    -0.0    -0.0     0.0    -0.0     0.0    -0.0    -0.0     0.0
    -0.0    -0.0     0.0     0.0    -0.0     0.0    -0.0     0.0    -0.0    -0.0
     0.1    -0.0     0.0    -0.0    -0.0    -0.0     0.0    -0.0     0.1    -0.0
     0.0    -0.0    -0.0    -0.0     0.0    -0.0     0.0    -0.0    -0.0    -0.0
     0.0    -0.0     0.0    -0.0     0.1     0.0     0.0    -0.0    -0.0    -0.0
     0.0    -0.0     0.0     0.0    -0.0    -0.0     0.0    -0.0     0.0     0.0
    -0.0    -0.0    -0.0    -0.0     0.0    -0.0    -0.0     0.0    -0.0     0.0
     0.0     0.0    -0.0     0.0    -0.0     0.0    -0.0    -0.0     0.0     0.0
    -0.0     0.0    -0.0    -0.0     0.0     0.0    -0.0     0.0     0.0     0.0
    -0.0     0.0     0.0    -0.0    -0.0    -0.0    -0.0     0.1    -0.0    -0.0
    -0.0     0.0     0.0     0.0    -0.0    -0.0    -0.0    -0.0     0.0     0.0
    -0.0    -0.0     0.0    -0.0     0.0     0.0     0.0    -0.0    -0.0     0.0
     0.0     0.0     0.0    -0.0     0.0    -0.0     0.0     0.0     0.0    -0.0
     0.0    -0.0     0.0     0.0    -0.0    -0.0    -0.0    -0.0    -0.0    -0.0
    -0.0     0.0    -0.0    -0.0     0.0    -0.0     0.0     0.0    -0.0     0.0
     0.0    -0.0    -0.0     0.0    -0.0    -0.0    -0.0     0.0     0.0    -0.0
    -0.0     0.0    -0.0     0.0    -0.0     0.0     0.0    -0.0    -0.0     0.0
    -0.0     0.0    -0.0    -0.0    -0.0     0.0    -0.0     0.0    -0.0     0.0
     0.0     0.0    -0.0     0.0    -0.0     0.0     0.0     0.0     0.0    -0.0
    -0.0    -0.0     0.0    -0.0     0.0    -0.0     0.0     0.0    -0.0     0.0
     0.0    -0.0     0.0    -0.0     0.0    -0.0    -0.0    -0.0     0.0    -0.0
    -0.0    -0.0    -0.0    -0.0    -0.0    -0.0     0.0    -0.0     0.0    -0.0
    -0.0     0.0     0.0     0.0     0.0    -0.0     0.0     0.0    -0.0     0.0
     0.0    -0.0     0.0    -0.0     0.0     0.0    -0.0     0.0    -0.0    -0.0
    -0.0    -0.0    -0.0     0.1    -0.0     0.0    -0.0     0.0    -0.0    -0.0
    -0.0     0.0    -0.0    -0.0     0.0    -0.0    -0.0     0.0    -0.0     0.0
     0.0    -0.0    -0.0     0.0    -0.0     0.0    -0.0     0.0    -0.0     0.0
     0.0     0.0     0.0    -0.0    -0.0    -0.0     0.0    -0.0     0.0     0.0
    -0.0    -0.0     0.0    -0.0     0.0    -0.0    -0.0     0.0    -0.0    -0.0
     0.0    -0.1     0.0    -0.0    -0.0     0.0     0.0     0.0     0.0    -0.0
     0.0    -0.0    -0.0    -0.0    -0.0    -0.0    -0.0    -0.0     0.0     0.0
    -0.0    -0.0     0.0    -0.0     0.0     0.0    -0.0    -0.0     0.0    -0.0
     0.0     0.0    -0.0     0.0    -0.0     0.0    -0.0    -0.0     0.0     0.0
    -0.0     0.0    -0.0    -0.0     0.0    -0.0    -0.0     0.0    -0.0     0.0
     0.0     0.0    -0.0    -0.0    -0.0     0.0    -0.0     0.0     0.0    -0.0
    -0.0    -0.0     0.0     0.0    -0.0    -0.0     0.0     0.0     0.0    -0.0
    -0.0     0.0     0.0    -0.1     0.1    -0.1     0.0    -0.0    -0.0     0.0
     0.0    -0.0     0.0    -0.0    -0.0     0.0    -0.0    -0.0     0.0    -0.0
     0.0     0.0     0.0    -0.0    -0.0    -0.0     0.0    -0.0     0.0     0.0
     0.0    -0.0     0.0    -0.0     0.0     0.0     0.0     0.0    -0.0     0.0
     0.0    -0.0     0.0     0.0    -0.0     0.0    -0.0    -0.0     0.0    -0.0
    -0.0     0.0    -0.0     0.0    -0.0     0.0    -0.0     0.0    -0.1     0.0
    -0.0     0.0    -0.0     0.0    -0.0     0.0    -0.0     0.0    -0.0     0.0
     0.0    -0.0    -0.1     0.0    -0.0     0.1    -0.0     0.0     0.0     0.0
    -0.0     0.0     0.0    -0.0     0.0    -0.0    -0.0     0.0    -0.0    -0.0
    -0.0    -0.0     0.0    -0.0    -0.0    -0.0     0.0    -0.0     0.0    -0.1
     0.1    -0.1     0.0    -0.0     0.0    -0.0     0.1    -0.1     0.0    -0.0
    -0.0    -0.0     0.0    -0.0     0.0    -0.0     0.0    -0.0    -0.0     0.0
    -0.0    -0.0     0.0    -0.0     0.0     0.0    -0.0     0.0     0.0    -0.0
     0.0    -0.0    -0.0     0.0    -0.0     0.0    -0.0    -0.0     0.0    -0.0
    -0.1     0.0    -0.0     0.0     0.0    -0.0    -0.0    -0.0    -0.1     0.1
    -0.0     0.0    -0.0    -0.0    -0.1     0.0    -0.0     0.0    -0.0     0.0
     0.0     0.0    -0.0     0.0    -0.0    -0.0     0.0     0.0    -0.0     0.0
    -0.0    -0.0     0.0     0.0     0.0     0.0    -0.0     0.0    -0.0    -0.0
     0.0    -0.0     0.0     0.0    -0.0     0.0     0.0    -0.0     0.0    -0.0
     0.0    -0.0     0.0     0.0     0.0    -0.0     0.0    -0.0    -0.0     0.0
     0.0     0.0     0.0    -0.0     0.0    -0.0     0.0     0.0     0.0    -0.0
     0.0    -0.0     0.0    -0.0     0.0    -0.0     0.0    -0.0     0.0     0.0
    -0.0     0.0    -0.0    -0.0    -0.0     0.0     0.0     0.0    -0.0     0.0
    -0.0    -0.0     0.0    -0.0    -0.0     0.0    -0.1     0.0    -0.0    -0.0
    -0.0     0.0    -0.0     0.1    -0.0     0.0    -0.0     0.0     0.0     0.0
     0.0     0.0    -0.0     0.0     0.0    -0.0     0.0     0.0    -0.1     0.0
     0.0    -0.0     0.0    -0.0    -0.0     0.0     0.0     0.0     0.0    -0.0
    -0.0     0.0    -0.0    -0.0    -0.0    -0.0     0.0    -0.0     0.0     0.0
    -0.0     0.0     0.0    -0.0     0.0    -0.0     0.0     0.0    -0.0     0.0
     0.0    -0.1     0.0    -0.0    -0.0    -0.0     0.0    -0.0     0.0    -0.1
     0.0    -0.0    -0.0     0.0    -0.0    -0.1     0.1    -0.0     0.0     0.0
    -0.0    -0.0     0.0    -0.1     0.0     0.0    -0.0     0.1    -0.0     0.0
    -0.0    -0.0     0.0     0.0    -0.0     0.0    -0.0     0.0    -0.0     0.0
    -0.0     0.0    -0.1     0.0    -0.0    -0.0    -0.0     0.0    -0.1     0.0
    -0.0    -0.0     0.0     0.0     0.0     0.0    -0.0    -0.0     0.0    -0.0
     0.0     0.0     0.0     0.1    -0.1     0.1    -0.0    -0.0    -0.0     0.0
    -0.0     0.0    -0.0     0.0     0.0    -0.0     0.0     0.0    -0.0     0.0
     0.0    -0.0     0.1    -0.1     0.0    -0.0     0.0    -0.0     0.0    -0.0
     0.0    -0.0    -0.0     0.0     0.0    -0.0     0.0    -0.0     0.0    -0.0
    -0.0    -0.0     0.0    -0.0     0.0    -0.0     0.0     0.0    -0.0    -0.0
     0.0    -0.0     0.0    -0.0     0.0     0.0    -0.0     0.0    -0.0    -0.0
    -0.0     0.0    -0.1     0.1    -0.0    -0.0    -0.0    -0.0    -0.0     0.1
    -0.0     0.0    -0.0     0.0     0.0    -0.0     0.0     0.0    -0.0     0.0
    -0.0     0.0     0.0     0.0    -0.0     0.0    -0.0     0.0     0.0     0.0
    -0.0     0.0    -0.0     0.0     0.0    -0.0     0.0    -0.1     0.0    -0.0
    -0.0    -0.0     0.0    -0.0     0.0     0.0     0.0     0.0     0.0     0.0
    -0.0     0.0     0.0     0.0    -0.0    -0.0     0.0    -0.0     0.0     0.0
     0.0     0.0    -0.0    -0.0     0.0    -0.0     0.1    -0.0    -0.0     0.0
    -0.0    -0.0     0.0    -0.0     0.0     0.0    -0.0     0.0    -0.0    -0.1
     0.0    -0.0     0.0     0.0    -0.0     0.0    -0.0    -0.0     0.1    -0.0
    -0.0     0.0     0.0     0.0     0.0    -0.0     0.0     0.0    -0.1     0.0
    -0.0     0.0    -0.0     0.0    -0.0    -0.0    -0.0     0.0    -0.0     0.0
     0.0    -0.0    -0.0     0.0    -0.0     0.0    -0.0    -0.0    -0.0     0.0
    -0.0     0.0    -0.0     0.0    -0.0    -0.0     0.0     0.0    -0.0     0.0
    -0.0    -0.0    -0.0    -0.0    -0.0     0.0    -0.0    -0.0     0.0    -0.0
     0.0    -0.0    -0.0     0.0    -0.0    -0.0     0.0    -0.0    -0.0     0.0
    -0.0     0.0     0.0    -0.0     0.0    -0.0     0.0    -0.0     0.0    -0.0
     0.0    -0.0     0.0    -0.0     0.0     0.0     0.0    -0.0     0.0    -0.0
     0.0    -0.0    -0.0     0.0     0.0    -0.0     0.0    -0.0     0.0     0.0
    -0.0     0.0     0.0    -0.0     0.0    -0.0     0.0     0.0    -0.0     0.0
    -0.0    -0.0     0.0     0.0    -0.0     0.0    -0.1     0.0     0.0     0.0
     0.0     0.0    -0.0     0.0    -0.0     0.0     0.0     0.0    -0.0     0.0
    -0.1     0.0    -0.0     0.0     0.0     0.0    -0.0     0.1    -0.0     0.0
    -0.0     0.0    -0.0     0.0    -0.1     0.0    -0.0    -0.0     0.0     0.0
    -0.0     0.0    -0.0    -0.0     0.0    -0.0    -0.0     0.0    -0.0     0.0
    -0.0     0.0     0.0    -0.0     0.0    -0.0     0.0    -0.0     0.0    -0.0
     0.0    -0.0     0.0     0.0    -0.0    -0.0     0.0    -0.0     0.0    -0.0
     0.0    -0.0     0.0    -0.0     0.0    -0.0     0.0    -0.0     0.0    -0.0
     0.0    -0.0     0.0    -0.1     0.1    -0.0    -0.0    -0.0    -0.0    -0.0
     0.0    -0.0     0.0     0.0    -0.0    -0.0    -0.0    -0.0     0.0     0.0
    -0.0     0.0    -0.0    -0.0     0.0     0.0    -0.0     0.0    -0.1     0.0
    -0.0     0.0    -0.0     0.0    -0.0     0.0    -0.1    -0.0    -0.0     0.0
     0.0     0.1    -0.0     0.0    -0.0     0.0    -0.0     0.0    -0.0     0.0
    -0.0     0.0     0.0    -0.0    -0.0     0.0    -0.0     0.0    -0.0    -0.0
     0.0    -0.0     0.0     0.0     0.0    -0.0     0.0    -0.0     0.1    -0.0
     0.0     0.0     0.0     0.0     0.0    -0.0     0.0    -0.0     0.0     0.0
     0.0    -0.0     0.0    -0.0     0.0    -0.0    -0.0     0.0    -0.0    -0.0
     0.0    -0.0     0.0    -0.0     0.0    -0.0     0.0    -0.0     0.0    -0.0
     0.0     0.0    -0.0     0.0     0.0    -0.0     0.0    -0.0     0.0     0.0
    -0.0     0.0     0.0    -0.0     0.0     0.0    -0.1     0.0    -0.0     0.0
     0.0     0.0    -0.0     0.0    -0.0     0.0    -0.0     0.0    -0.0     0.0
    -0.1     0.1    -0.0     0.0    -0.0     0.0     0.0     0.0    -0.0     0.0
    -0.0     0.0     0.0    -0.0     0.0     0.0    -0.0     0.0     0.0    -0.0
     0.0     0.0    -0.0     0.0    -0.0    -0.0     0.0    -0.0     0.0     0.0
     0.0     0.0    -0.0    -0.0     0.0    -0.1     0.0    -0.0    -0.0    -0.0
     0.0    -0.1     0.0    -0.0     0.0    -0.0     0.0    -0.0     0.1    -0.1
     0.0    -0.0    -0.0     0.0     0.0    -0.0     0.0    -0.0    -0.0     0.0
    -0.0     0.0    -0.0    -0.0     0.0    -0.0    -0.0     0.0    -0.0    -0.0
    -0.0     0.0    -0.0    -0.0    -0.0     0.0    -0.0    -0.0     0.0    -0.0
     0.0     0.0    -0.1     0.0    -0.0    -0.0     0.0    -0.0    -0.0     0.0
    -0.1     0.0     0.0    -0.0    -0.0     0.0    -0.0     0.0     0.0    -0.0
     0.0    -0.0    -0.0     0.0    -0.0     0.0    -0.0    -0.0     0.0    -0.0
    -0.0     0.0     0.0    -0.0     0.0    -0.0    -0.0     0.0    -0.0    -0.0
    -0.0    -0.0     0.0    -0.0    -0.0     0.0     0.0     0.0     0.0    -0.0
     0.0    -0.0    -0.0     0.0    -0.0     0.0     0.1    -0.0     0.0     0.0
    -0.0     0.0     0.0     0.0     0.0    -0.0    -0.0    -0.0    -0.0     0.0
    -0.0    -0.0     0.1    -0.0     0.0     0.0    -0.0     0.0     0.0    -0.0
     0.0     0.0    -0.0     0.1     0.0     0.0     0.0     0.0    -0.0     0.0
     0.0     0.0     0.0     0.0     0.0     0.0    -0.0     0.0     0.0     0.0
     0.0     0.0     0.0     0.0    -0.0     0.0     0.0     0.0     0.0     0.0
     0.0     0.0     0.0    -0.0     0.1    -0.0     0.1     0.0     0.0     0.0
     0.0    -0.0     0.1    -0.0     0.0     0.0     0.0     0.1     0.0    -0.0
     0.1     0.0     0.0     0.0     0.0     0.0     0.0    -0.0     0.1     0.0
     0.0     0.0     0.0    -0.0     0.0     0.0     0.0    -0.0    -0.0     0.0
     0.0    -0.0     0.0    -0.0    -0.0     0.0    -0.0    -0.0     0.0    -0.0
     0.0     0.0    -0.0     0.0    -0.0     0.1    -0.0     0.0    -0.0     0.0
    -0.0     0.0    -0.0     0.0    -0.0     0.0    -0.0     0.0    -0.0    -0.0
    -0.0    -0.0    -0.0     0.0    -0.0     0.0    -0.0    -0.0    -0.0    -0.0
    -0.0     0.0    -0.1    -0.0    -0.0    -0.1    -0.0    -0.0    -0.0    -0.0
    -0.0    -0.0    -0.0    -0.1    -0.0    -0.0    -0.0    -0.0    -0.0    -0.0
     0.0    -0.1    -0.0    -0.0    -0.1    -0.1    -0.0    -0.1    -0.0    -0.0
    -0.0    -0.0    -0.1    -0.1     0.0    -0.1    -0.0    -0.0    -0.0    -0.0
    -0.1    -0.1    -0.0    -0.1    -0.0    -0.0    -0.1    -0.0    -0.0    -0.0
    -0.0    -0.0    -0.1    -0.0    -0.1    -0.0    -0.1    -0.0    -0.0    -0.0
    -0.1    -0.0    -0.1    -0.0    -0.1    -0.0    -0.1    -0.0    -0.1    -0.0
    -0.1    -0.0    -0.1    -0.0    -0.1    -0.0    -0.1    -0.1    -0.0    -0.1
    -0.0    -0.0    -0.1    -0.0    -0.1    -0.0    -0.0    -0.1    -0.1    -0.0
    -0.1    -0.0    -0.0    -0.0     0.0    -0.0     0.0     0.0     0.0     0.0
     0.1     0.0     0.0    -0.1    -0.0     0.0     0.0    -0.0     0.1    -0.0
     0.0    -0.1    -0.2    -0.0     0.1    -0.1     0.1    -0.1    -0.3    -0.2
