Corrected accelerogram 20160214_001343_GOVS_20 GNS Science
Site GOVS      43 39 09S  172 38 09E     Basalt file:  20160214_001348_GOVS
Living Springs Camp Governors Bay
Instrument Basalt_558
Resolution: 24-bit   Instr Period: 0.0050 s   Damping: 0.700
Accelerogram 20160214_001343_GOVS_20                 Processed 2016 February 22
11 km east of CHRISTCHURCH
2016 February 14         00:13:43 UT
Epicentre  43 29 50S 172 45 18E  Bearing N29E  Dist   20km  Depth    8km M  5.70
Number of points  8192    Duration 163.82 sec
Instrument corrected data at 0.020 sec intervals
Band-pass filter transition bands are .10-.25 Hz and 24.50-25.50 Hz
Component N00E  Horizontal Axis 1
Acceleration:  peak    973.5 mm/s/s at  44.70 sec     rms     61.6 mm/s/s
Velocity:      peak   -39.41 mm/s   at  44.62 sec     rms     2.53 mm/s
Displacement:  peak    5.402 mm     at  46.94 sec     rms    0.573 mm
    2016       2      14       0      13     430       0       0    2016       2
      43      29      50     172      45      18       8       0      14       0
      43      39       9     172      38       9       0       0      29      20
   35200     250     250    8192    8192    8192       0       0      13    8000
   200.0    0.70    0.00   0.000  0.0000   0.000   0.000   1.000     0.0    0.00
  43.652 172.636   43.50  172.76    5.70    0.00    0.00    0.00      0.      0.
  176.00    5.00    5.00  163.82  0.0050  0.0200      0.      0.      0.  9806.6
  1033.5   44.69    63.7   0.000      0.   973.5   44.70    61.6  1449.1   3.772
  -39.41   44.62    2.53   65.80   0.275    5.40   46.94    0.57    5.49   0.275
   0.100   0.150   0.250      0.      0.  24.500   1.000  25.500      0.      0.
     0.0    -0.0     0.0    -0.0     0.0    -0.0     0.0    -0.0     0.0    -0.0
     0.0    -0.0     0.0    -0.0     0.0    -0.0     0.0    -0.0     0.0    -0.0
     0.0    -0.0     0.0    -0.0     0.0    -0.0     0.0    -0.0     0.0    -0.0
     0.0    -0.0     0.0    -0.0     0.0    -0.0     0.0    -0.0     0.0    -0.0
     0.0    -0.0     0.0    -0.0     0.0    -0.0     0.0    -0.0     0.0    -0.0
     0.0    -0.0     0.0    -0.0     0.0    -0.0     0.0    -0.0     0.0    -0.0
     0.0    -0.0     0.0    -0.0     0.0    -0.0     0.0    -0.0     0.0    -0.0
     0.0    -0.0     0.0    -0.0     0.0    -0.0     0.0    -0.0     0.0    -0.0
     0.0    -0.0     0.0    -0.0     0.0    -0.0     0.0    -0.0     0.0    -0.0
     0.0    -0.0     0.0    -0.0     0.0    -0.0     0.0    -0.0     0.0    -0.0
     0.0    -0.0     0.0    -0.0     0.0    -0.0     0.0    -0.0     0.0    -0.0
     0.0    -0.0     0.0    -0.0     0.0    -0.0     0.0    -0.0     0.0    -0.0
     0.0    -0.0     0.0    -0.0     0.0    -0.0     0.0    -0.0     0.0    -0.0
     0.0    -0.0     0.0    -0.0     0.0    -0.0     0.0    -0.0     0.0    -0.0
     0.0    -0.0     0.0    -0.0     0.0    -0.0     0.0    -0.0     0.0    -0.0
     0.0    -0.0     0.0    -0.0     0.0    -0.0     0.0    -0.0     0.0    -0.0
     0.0    -0.0     0.0    -0.0     0.0    -0.0     0.0    -0.0     0.0    -0.0
     0.0    -0.0     0.0    -0.0     0.0    -0.0     0.0    -0.0     0.0    -0.0
     0.0    -0.0     0.0    -0.0     0.0    -0.0     0.0    -0.0     0.0    -0.0
     0.0    -0.0     0.0    -0.0     0.0    -0.0     0.0    -0.0     0.0    -0.0
     0.0    -0.0    -0.0    -0.0    -0.0    -0.0    -0.0    -0.0    -0.0    -0.0
    -0.0    -0.0    -0.0    -0.0    -0.0    -0.0    -0.0    -0.0    -0.0    -0.0
    -0.0    -0.0    -0.0    -0.0    -0.0    -0.0    -0.0    -0.0    -0.0    -0.0
    -0.0    -0.0    -0.0    -0.0    -0.0    -0.1    -0.0    -0.1    -0.0    -0.1
    -0.0    -0.1    -0.0    -0.1    -0.0    -0.1    -0.0    -0.1    -0.0    -0.1
     0.0     0.0     0.1    -0.0     0.0     0.0     0.1    -0.1     0.2    -0.1
     0.1    -0.1     0.1     0.1    -0.1     0.2    -0.1     0.1    -0.0     0.1
    -0.0    -0.0     0.1    -0.0     0.0     0.0     0.1    -0.0     0.1     0.0
    -0.0     0.0     0.0     0.0     0.0     0.0     0.0    -0.0     0.0     0.0
     0.0     0.0     0.0     0.0     0.0     0.0     0.0    -0.0     0.0     0.0
     0.0    -0.0     0.0     0.0    -0.0     0.0     0.0    -0.0     0.0     0.0
     0.0    -0.0     0.0    -0.0    -0.0    -0.0     0.0    -0.0     0.0    -0.0
     0.0    -0.0     0.0     0.0     0.0    -0.0     0.0    -0.0     0.0     0.0
     0.0    -0.0     0.0     0.0     0.0    -0.0     0.0    -0.0    -0.0     0.0
     0.0    -0.0     0.0     0.0     0.0    -0.0     0.0    -0.0    -0.0    -0.0
     0.1    -0.0    -0.0     0.0     0.0    -0.0     0.0    -0.0    -0.0    -0.0
     0.0    -0.0     0.0     0.0     0.0    -0.1     0.0    -0.0     0.0    -0.0
     0.0    -0.0     0.0    -0.0     0.0    -0.1    -0.0    -0.0     0.0    -0.1
     0.0    -0.0    -0.0     0.0     0.0    -0.0     0.0    -0.0     0.0    -0.0
     0.0    -0.0     0.0     0.0     0.0    -0.0     0.0    -0.0     0.0    -0.0
     0.0    -0.0    -0.0    -0.0     0.0    -0.0    -0.0     0.0     0.0    -0.0
     0.0    -0.0    -0.0    -0.1     0.0    -0.0    -0.0    -0.0     0.0    -0.0
     0.0    -0.0     0.0    -0.0     0.0    -0.0    -0.0    -0.0     0.0    -0.0
     0.0    -0.0     0.0    -0.1     0.0     0.0    -0.0    -0.0     0.0    -0.0
     0.0     0.0    -0.0    -0.0     0.0    -0.0    -0.0    -0.0     0.0     0.0
    -0.0     0.0     0.0    -0.0     0.0     0.0    -0.0    -0.0     0.0    -0.0
    -0.0     0.0     0.0    -0.0     0.0     0.0     0.0    -0.0     0.0    -0.0
     0.0    -0.0     0.0    -0.0     0.0     0.0    -0.0    -0.1     0.1    -0.0
    -0.0    -0.0     0.0    -0.0     0.0    -0.0     0.0    -0.0     0.0     0.0
    -0.0    -0.0     0.0    -0.0    -0.0    -0.0     0.0    -0.0     0.0     0.0
    -0.0     0.0     0.0    -0.0     0.0     0.0     0.0    -0.0     0.0     0.0
    -0.0    -0.1     0.0    -0.0    -0.0     0.0     0.0    -0.0    -0.0    -0.0
     0.0    -0.0     0.0    -0.0     0.0    -0.0     0.0    -0.0     0.0    -0.0
     0.0    -0.0     0.0    -0.0    -0.0    -0.0     0.0    -0.0     0.0    -0.0
     0.0    -0.0     0.0    -0.0     0.0    -0.0     0.0    -0.0     0.0     0.0
     0.0    -0.0     0.0    -0.0     0.0     0.0     0.0    -0.0     0.0     0.0
     0.0    -0.0     0.0    -0.0     0.0     0.0     0.0    -0.0    -0.0    -0.0
     0.0    -0.0     0.0    -0.0     0.0    -0.0     0.0    -0.0    -0.0    -0.0
     0.0    -0.0     0.0     0.0     0.0    -0.1     0.0    -0.0     0.0    -0.0
     0.1    -0.0    -0.0     0.0     0.0    -0.0     0.0     0.0    -0.0    -0.0
     0.0    -0.0     0.0    -0.0     0.0    -0.0     0.0     0.0     0.0     0.0
     0.0    -0.0    -0.0    -0.0     0.0    -0.0     0.0     0.0    -0.0    -0.0
     0.0    -0.0    -0.0     0.0     0.0    -0.0     0.0     0.0     0.0    -0.0
     0.0    -0.0     0.0    -0.0     0.0    -0.0     0.0    -0.0     0.0    -0.0
     0.0    -0.0     0.0    -0.0    -0.0     0.0    -0.0    -0.0     0.0    -0.0
     0.0     0.0     0.0    -0.1     0.0    -0.0    -0.0    -0.0     0.0    -0.0
     0.0    -0.0     0.0    -0.0     0.0    -0.0     0.0    -0.0     0.0    -0.0
     0.0    -0.0     0.0    -0.0     0.0    -0.0     0.0    -0.0     0.1    -0.0
    -0.0     0.0     0.0    -0.0     0.0    -0.0     0.0    -0.0     0.0    -0.0
    -0.0    -0.0     0.0    -0.0     0.0     0.0     0.0    -0.0     0.0    -0.0
    -0.0    -0.0     0.0    -0.0     0.0    -0.0     0.0    -0.0     0.0     0.0
     0.0    -0.0     0.0    -0.0     0.0     0.0     0.0    -0.0     0.0    -0.0
     0.0    -0.0     0.0    -0.0     0.0    -0.0     0.0    -0.0     0.0     0.0
    -0.0    -0.0     0.0    -0.0     0.0    -0.0     0.0    -0.0    -0.0    -0.0
     0.0    -0.0     0.0    -0.0     0.0    -0.0     0.0    -0.0     0.0     0.0
     0.0    -0.0     0.0     0.0    -0.0    -0.0     0.0    -0.0    -0.0    -0.0
     0.0    -0.0     0.0    -0.0    -0.0    -0.0     0.0    -0.0     0.0    -0.0
     0.0    -0.0    -0.0    -0.0     0.0    -0.0     0.0    -0.0     0.0    -0.0
     0.0    -0.0    -0.0    -0.0     0.0    -0.0     0.0    -0.0    -0.0    -0.0
     0.0    -0.0     0.0    -0.0     0.0    -0.0     0.0     0.0     0.0    -0.0
     0.0    -0.0     0.0     0.0     0.0    -0.0     0.0     0.0     0.0    -0.0
     0.0    -0.0    -0.0    -0.0     0.0    -0.0     0.0    -0.0     0.0    -0.0
     0.0     0.0     0.0     0.0     0.0    -0.0     0.0    -0.0     0.0    -0.0
     0.0    -0.0    -0.0    -0.0     0.0    -0.0     0.0    -0.0     0.0    -0.0
     0.0     0.0    -0.0    -0.0     0.0    -0.0     0.0    -0.0    -0.0    -0.0
     0.0     0.0     0.0    -0.0     0.1     0.0    -0.0     0.0     0.0    -0.0
     0.0     0.0    -0.0    -0.0     0.0    -0.0    -0.0    -0.0     0.0    -0.0
     0.0    -0.0     0.0    -0.0     0.0     0.0     0.0    -0.0     0.0    -0.0
    -0.0    -0.0     0.0    -0.0    -0.0    -0.0     0.0    -0.0     0.0    -0.0
     0.0    -0.0     0.0    -0.0     0.0    -0.0     0.0    -0.0     0.0     0.0
     0.0    -0.0     0.0    -0.0     0.0    -0.0     0.0    -0.0     0.0    -0.0
     0.0    -0.0     0.0    -0.0     0.0    -0.0     0.0    -0.0     0.0     0.0
    -0.0    -0.0     0.0    -0.0     0.0     0.0     0.0    -0.0     0.0    -0.0
    -0.0    -0.0     0.0    -0.0    -0.0     0.0     0.0    -0.0    -0.0    -0.0
     0.0    -0.0     0.0    -0.0     0.0     0.0     0.0    -0.0     0.0    -0.0
     0.0    -0.0     0.0    -0.0     0.0    -0.0     0.0    -0.0     0.0     0.0
     0.0    -0.0    -0.0    -0.0    -0.0    -0.0     0.0    -0.0    -0.0    -0.0
     0.0    -0.0     0.0    -0.0    -0.0    -0.0     0.0    -0.0    -0.0    -0.0
     0.0    -0.0     0.0    -0.0     0.0    -0.0     0.0    -0.0     0.0    -0.0
     0.0    -0.0     0.0    -0.0     0.0    -0.0     0.0    -0.0     0.0    -0.0
     0.0    -0.0     0.0    -0.0     0.0    -0.0    -0.0     0.0     0.0    -0.0
     0.0     0.0     0.0    -0.0     0.0    -0.0     0.0     0.0     0.0    -0.0
     0.0    -0.0    -0.0    -0.0     0.0    -0.0    -0.0     0.0     0.0    -0.0
     0.0    -0.0     0.0    -0.0     0.0    -0.0    -0.0    -0.0     0.0    -0.0
    -0.0     0.0    -0.0    -0.0     0.0     0.0    -0.0     0.0     0.0    -0.0
     0.0    -0.0     0.0    -0.0     0.0    -0.0     0.0    -0.0     0.0    -0.0
    -0.0     0.0     0.0    -0.0     0.0    -0.0    -0.0    -0.0     0.0    -0.0
     0.0    -0.0     0.0    -0.0     0.0    -0.0    -0.0    -0.0     0.0    -0.0
    -0.0    -0.0     0.0    -0.0     0.0     0.0    -0.0    -0.0     0.0    -0.0
    -0.0     0.0     0.0    -0.0     0.0     0.0     0.0    -0.0    -0.0     0.0
    -0.0    -0.0     0.0    -0.0    -0.0    -0.0     0.0    -0.0     0.0    -0.0
     0.0    -0.0     0.0    -0.0    -0.0     0.0     0.0    -0.0    -0.0     0.0
    -0.0    -0.0     0.0    -0.0    -0.0     0.0     0.0    -0.0    -0.0    -0.0
     0.0    -0.1     0.0     0.0    -0.0    -0.0     0.0    -0.0    -0.0     0.0
    -0.0    -0.1     0.0     0.0     0.0    -0.0     0.0    -0.0    -0.0     0.0
     0.0    -0.0    -0.0    -0.0     0.0    -0.0     0.0    -0.0    -0.0    -0.0
     0.0    -0.0     0.0     0.0    -0.0    -0.0     0.0    -0.0     0.0    -0.0
     0.0    -0.0    -0.0     0.0     0.0    -0.0     0.0    -0.0     0.0    -0.0
     0.0    -0.0     0.0    -0.0     0.0    -0.0     0.0    -0.0     0.0    -0.0
     0.0    -0.0    -0.0     0.0     0.0    -0.0     0.0    -0.0     0.0    -0.0
     0.0    -0.0     0.0    -0.0     0.0    -0.0     0.0     0.0     0.0    -0.0
     0.0     0.0    -0.0     0.0     0.0    -0.0     0.0     0.0     0.0    -0.0
     0.0    -0.0     0.0    -0.0     0.0    -0.0    -0.0     0.0     0.0    -0.0
     0.0    -0.0     0.0    -0.0     0.0    -0.0    -0.0     0.0     0.0    -0.0
     0.0    -0.0    -0.0    -0.0     0.0     0.0     0.0    -0.0     0.0    -0.0
     0.0     0.0     0.0    -0.0     0.0    -0.0     0.0    -0.0     0.0    -0.0
    -0.0     0.0     0.0    -0.0     0.0     0.0     0.0    -0.0     0.0    -0.0
    -0.0     0.0     0.0    -0.0     0.0     0.0     0.0     0.0     0.0    -0.0
    -0.0     0.0     0.0    -0.0    -0.0     0.0    -0.0    -0.0     0.0    -0.0
    -0.0     0.0     0.0    -0.0     0.0     0.0    -0.0    -0.0     0.0    -0.0
    -0.0    -0.0     0.0    -0.0    -0.0     0.0     0.0     0.0     0.0     0.0
    -0.0    -0.0     0.0    -0.0    -0.0     0.0     0.0    -0.1     0.0     0.0
    -0.0    -0.0     0.0     0.0    -0.0    -0.0     0.0    -0.0     0.0     0.0
    -0.0    -0.0     0.0     0.0    -0.0     0.0     0.0    -0.0    -0.0     0.0
    -0.0    -0.0     0.0     0.0    -0.0    -0.0     0.0    -0.1    -0.0     0.0
    -0.0     0.0    -0.0     0.0    -0.1    -0.0     0.0     0.0    -0.0    -0.0
     0.0    -0.1     0.0     0.0    -0.0    -0.0     0.0     0.0    -0.0     0.0
     0.0    -0.1     0.0     0.0    -0.0    -0.0     0.0    -0.0    -0.0     0.0
     0.0    -0.0    -0.0     0.0    -0.0     0.0     0.0     0.0    -0.0    -0.0
     0.0    -0.0    -0.0     0.0     0.0    -0.0     0.0     0.0    -0.0     0.0
     0.0     0.0     0.0    -0.0     0.0    -0.0    -0.0     0.0    -0.0    -0.0
     0.0     0.0    -0.0     0.0     0.0    -0.0    -0.0     0.0    -0.0    -0.0
     0.0     0.0     0.0     0.0     0.0     0.0     0.0     0.0     0.0    -0.0
     0.0     0.0     0.0    -0.0     0.0     0.0    -0.0     0.0    -0.0    -0.0
    -0.0     0.0    -0.0    -0.0     0.0     0.0     0.0     0.0     0.0    -0.0
    -0.0     0.0     0.0    -0.0     0.0     0.0    -0.0     0.0     0.0    -0.0
    -0.0     0.0    -0.0    -0.0     0.0     0.0    -0.0    -0.0     0.0    -0.0
    -0.0     0.0     0.0    -0.0     0.0     0.0    -0.0    -0.0     0.0     0.0
    -0.0     0.0     0.0    -0.0    -0.0     0.0    -0.0    -0.0     0.0    -0.0
    -0.0     0.0     0.0    -0.0     0.0     0.0     0.0    -0.0     0.0    -0.0
    -0.0     0.0     0.0     0.0     0.0     0.0    -0.0    -0.0     0.0    -0.0
    -0.0    -0.0     0.0    -0.0    -0.0     0.0    -0.0    -0.0     0.0     0.0
    -0.0     0.0     0.0    -0.0    -0.0     0.0     0.0    -0.1    -0.0     0.0
    -0.0     0.0    -0.0     0.0    -0.0    -0.0     0.0    -0.0    -0.0     0.0
    -0.0     0.0     0.0     0.0    -0.0     0.0    -0.0     0.0    -0.0     0.0
    -0.0    -0.0    -0.0     0.0    -0.0     0.0     0.0    -0.0    -0.0     0.0
     0.0    -0.0    -0.0     0.0    -0.0    -0.0    -0.0    -0.0    -0.0     0.0
     0.0    -0.0    -0.0     0.0    -0.0    -0.0     0.0     0.0    -0.0     0.0
     0.0     0.0    -0.0     0.0    -0.0    -0.0     0.0     0.0    -0.1    -0.0
     0.0    -0.0    -0.1    -0.0     0.0    -0.0     0.0     0.0    -0.0    -0.0
     0.0     0.0    -0.0     0.0     0.0     0.0    -0.0     0.0    -0.0     0.0
    -0.0    -0.0    -0.0     0.0     0.0    -0.0    -0.0     0.0    -0.0    -0.0
    -0.0     0.0    -0.1    -0.0     0.0    -0.0    -0.0     0.0     0.0    -0.0
     0.0     0.0    -0.0    -0.0     0.0     0.0    -0.0     0.0     0.0    -0.0
    -0.1     0.0    -0.0     0.0    -0.0     0.0    -0.0     0.0     0.0    -0.0
    -0.0     0.0    -0.0    -0.0    -0.0     0.0    -0.0     0.0     0.0    -0.0
    -0.0     0.0    -0.0     0.0    -0.0     0.0    -0.0    -0.0     0.0     0.0
    -0.0     0.0     0.0    -0.0    -0.0    -0.0    -0.0     0.0     0.0     0.0
    -0.0     0.0     0.0     0.0    -0.0     0.0    -0.0    -0.0    -0.0     0.0
    -0.0     0.0    -0.0     0.0    -0.0     0.0    -0.0     0.0    -0.0     0.0
    -0.0     0.0     0.0     0.0    -0.0     0.0     0.0    -0.0    -0.0     0.0
    -0.0     0.0    -0.0     0.0    -0.1     0.0    -0.0     0.0    -0.1     0.0
    -0.0    -0.0    -0.0     0.0    -0.0     0.0    -0.0    -0.0    -0.1     0.0
    -0.0     0.0    -0.0     0.0    -0.1     0.0     0.0     0.0    -0.1     0.0
    -0.0    -0.0    -0.0     0.0    -0.0     0.0    -0.0    -0.0    -0.1     0.0
    -0.0     0.0    -0.0     0.1    -0.1     0.0    -0.0     0.0    -0.0    -0.0
     0.0     0.0    -0.1     0.0    -0.0    -0.0    -0.0     0.0    -0.0     0.0
    -0.0     0.0    -0.1     0.0    -0.0    -0.0    -0.0     0.0    -0.0     0.0
     0.0    -0.0    -0.1     0.0    -0.0     0.0    -0.0     0.1    -0.0     0.0
    -0.0     0.0    -0.1     0.1     0.0    -0.0    -0.0     0.1    -0.0     0.0
    -0.0     0.0    -0.0     0.0     0.0     0.0    -0.0     0.1    -0.0     0.0
    -0.0     0.1    -0.0     0.0     0.0     0.0    -0.1     0.0     0.0     0.0
    -0.0     0.1    -0.0     0.1     0.0     0.1    -0.0     0.1     0.0     0.0
    -0.0     0.1    -0.0     0.1     0.0     0.1    -0.0     0.1    -0.0     0.0
    -0.0     0.1    -0.0     0.1     0.0     0.1    -0.0     0.1     0.0     0.1
    -0.0     0.1    -0.0     0.0    -0.0     0.1    -0.0     0.1     0.0     0.1
    -0.0     0.1     0.0     0.0    -0.0     0.1    -0.0     0.1    -0.0     0.1
    -0.1     0.1     0.0     0.0     0.0     0.1    -0.0     0.0     0.0     0.1
    -0.1     0.1    -0.0     0.1    -0.0     0.1    -0.0     0.0    -0.0     0.1
    -0.0     0.1     0.0     0.1    -0.0     0.1    -0.0     0.0    -0.0     0.1
    -0.1     0.1     0.0     0.1    -0.0     0.1    -0.0     0.0    -0.0     0.1
    -0.0     0.1    -0.0     0.1    -0.1     0.1    -0.0     0.1    -0.0     0.1
    -0.0     0.0    -0.1     0.1    -0.1     0.1     0.0     0.1    -0.1     0.1
    -0.0     0.0    -0.1     0.1    -0.1     0.1    -0.0     0.1    -0.1     0.1
    -0.0     0.0    -0.0     0.1    -0.0     0.1    -0.0     0.1    -0.1     0.1
    -0.0     0.0    -0.0     0.1    -0.1     0.1    -0.0     0.1    -0.1     0.1
    -0.1     0.0    -0.0     0.1    -0.0     0.1    -0.0     0.1    -0.1     0.1
    -0.0     0.1    -0.1     0.1    -0.1     0.1    -0.1     0.1    -0.1     0.1
    -0.0     0.1    -0.1     0.1    -0.1     0.1    -0.1     0.1    -0.1     0.1
    -0.1     0.1    -0.1     0.1    -0.1     0.1    -0.1     0.1    -0.1     0.1
    -0.1     0.1    -0.1     0.1    -0.1     0.1    -0.1     0.1    -0.1     0.1
    -0.1     0.1    -0.1     0.1    -0.1     0.1    -0.1     0.1    -0.1     0.0
    -0.1     0.1    -0.1     0.1    -0.1     0.1    -0.1     0.1    -0.1     0.1
    -0.1     0.1    -0.2     0.1    -0.1     0.0    -0.2     0.1    -0.1     0.0
    -0.2     0.1    -0.2     0.1    -0.1     0.1    -0.2     0.1    -0.2     0.0
    -0.2     0.1    -0.2     0.0    -0.2     0.0    -0.3     0.1    -0.2     0.0
    -0.2     0.1    -0.2    -0.0    -0.2     0.0    -0.3     0.0    -0.3    -0.0
    -0.3     0.0    -0.3    -0.0    -0.3     0.0    -0.3    -0.0    -0.3    -0.0
    -0.4     0.0    -0.3    -0.1    -0.4    -0.0    -0.4    -0.1    -0.3    -0.1
    -0.4    -0.1    -0.4    -0.1    -0.4    -0.0    -0.4    -0.1    -0.4    -0.1
    -0.5    -0.1    -0.4    -0.1    -0.5    -0.1    -0.5    -0.1    -0.5    -0.1
    -0.5    -0.1    -0.4    -0.1    -0.5    -0.1    -0.5    -0.1    -0.5    -0.0
    -0.6    -0.1    -0.5    -0.1    -0.5    -0.1    -0.5    -0.1    -0.5    -0.1
    -0.5    -0.1    -0.5    -0.1    -0.5    -0.1    -0.5    -0.1    -0.5     0.0
    -0.5    -0.0    -0.5    -0.0    -0.5     0.0    -0.5    -0.0    -0.5     0.1
    -0.5     0.0    -0.4     0.1    -0.5     0.1    -0.4     0.1    -0.5     0.2
    -0.4     0.1    -0.4     0.2    -0.5     0.2    -0.4     0.2    -0.4     0.4
    -0.4     0.3    -0.3     0.4    -0.4     0.4    -0.3     0.4    -0.3     0.4
    -0.2     0.4    -0.2     0.5    -0.2     0.6    -0.1     0.6    -0.2     0.7
    -0.1     0.7    -0.1     0.8    -0.0     0.8     0.0     0.8    -0.0     0.9
     0.1     0.9     0.1     1.0     0.1     1.0     0.2     1.1     0.2     1.2
     0.3     1.2     0.2     1.3     0.3     1.3     0.3     1.4     0.4     1.4
     0.4     1.5     0.4     1.6     0.5     1.6     0.5     1.8     0.5     1.8
     0.6     1.9     0.5     2.0     0.6     2.0     0.6     2.2     0.6     2.2
     0.7     2.4     0.6     2.4     0.6     2.5     0.6     2.7     0.6     2.8
