Corrected accelerogram 20160214_001343_WBCS_20 GNS Science
Site WBCS      41 45 20S  171 35 59E     Cusp file:  20160214_001418_WBCS
Westport Buller District Council
Instrument Cusp_42270
Resolution: 18-bit   Instr Period: 0.0050 s   Damping: 0.700
Accelerogram 20160214_001343_WBCS_20                 Processed 2016 February 22
11 km east of CHRISTCHURCH
2016 February 14         00:13:43 UT
Epicentre  43 29 50S 172 45 18E  Bearing S26E  Dist  216km  Depth    8km M  5.70
Number of points  8192    Duration 163.82 sec
Instrument corrected data at 0.020 sec intervals
Band-pass filter transition bands are .10-.25 Hz and 24.50-25.50 Hz
Component N00E  Horizontal Axis 1
Acceleration:  peak    -23.5 mm/s/s at  73.40 sec     rms      2.9 mm/s/s
Velocity:      peak    -2.10 mm/s   at  86.88 sec     rms     0.46 mm/s
Displacement:  peak    0.720 mm     at 100.52 sec     rms    0.173 mm
    2016       2      14       0      13     430       0       0    2016       2
      43      29      50     172      45      18       8       0      14       0
      41      45      20     171      35      59       0       0     154     216
   34687     250     250    8192    8192    8192       0       0      13   38861
   200.0    0.70    0.00   0.000  0.0000   0.000   0.000   1.000     0.0    0.00
  41.756 171.600   43.50  172.76    5.70    0.00    0.00    0.00      0.      0.
  173.43    5.00    5.00  163.82  0.0050  0.0200      0.      0.      0.  9806.6
   -23.6   73.40     3.0   0.000      0.   -23.5   73.40     2.9    24.3   1.379
   -2.10   86.88    0.46    3.00   0.317    0.72  100.52    0.17    0.95   0.259
   0.100   0.150   0.250      0.      0.  24.500   1.000  25.500      0.      0.
   0.000   0.000   0.000   0.000  -0.000   0.000  -0.000  -0.000  -0.000  -0.000
  -0.000  -0.000  -0.000  -0.000  -0.000  -0.000  -0.000  -0.000  -0.000  -0.000
  -0.000  -0.000  -0.000  -0.000  -0.000  -0.000  -0.000  -0.000  -0.000  -0.000
  -0.000  -0.000  -0.001  -0.000  -0.001  -0.000  -0.001  -0.001  -0.001  -0.001
  -0.001  -0.001  -0.001  -0.001  -0.001  -0.001  -0.001  -0.001  -0.001  -0.001
  -0.001  -0.001  -0.001  -0.001  -0.001  -0.001  -0.001  -0.001  -0.001  -0.001
  -0.001  -0.001  -0.001  -0.001  -0.001  -0.001  -0.001  -0.001  -0.001  -0.001
  -0.001  -0.001  -0.001  -0.001  -0.001  -0.001  -0.001  -0.001  -0.001  -0.001
  -0.001  -0.001  -0.001  -0.001  -0.001  -0.001  -0.001  -0.001  -0.001  -0.001
  -0.001  -0.001  -0.001  -0.001  -0.001  -0.001  -0.001  -0.001  -0.001  -0.001
  -0.001  -0.001  -0.001  -0.001  -0.001  -0.001  -0.001  -0.001  -0.001  -0.001
  -0.001  -0.001  -0.001  -0.001  -0.001  -0.001  -0.001  -0.001  -0.001  -0.001
  -0.001  -0.001  -0.001  -0.001  -0.001  -0.000  -0.001  -0.000  -0.001  -0.000
  -0.001  -0.000  -0.001  -0.000  -0.001  -0.000  -0.001  -0.000  -0.001   0.000
  -0.000   0.000  -0.000   0.000  -0.000   0.000  -0.000   0.000  -0.000   0.001
  -0.000   0.001   0.000   0.001   0.000   0.001   0.000   0.001   0.000   0.001
   0.000   0.001   0.001   0.001   0.001   0.002   0.001   0.002   0.001   0.002
   0.001   0.002   0.001   0.002   0.001   0.002   0.001   0.002   0.001   0.003
   0.002   0.003   0.002   0.003   0.002   0.003   0.002   0.003   0.002   0.003
   0.002   0.004   0.002   0.004   0.002   0.004   0.002   0.004   0.002   0.004
   0.002   0.005   0.002   0.005   0.002   0.005   0.003   0.005   0.003   0.006
   0.003   0.006   0.003   0.006   0.003   0.006   0.003   0.007   0.003   0.007
   0.002   0.007   0.002   0.008   0.002   0.008   0.002   0.008   0.002   0.009
   0.002   0.009   0.002   0.010   0.001   0.010   0.001   0.011   0.000   0.012
  -0.000   0.013  -0.001   0.014  -0.003   0.016  -0.005   0.018  -0.008   0.022
   0.003   0.053  -0.093   0.045   0.123  -0.007   0.063  -0.061  -0.041  -0.058
   0.069  -0.043  -0.002   0.126   0.046  -0.115   0.091   0.059  -0.152   0.048
  -0.014  -0.048  -0.266   0.027   0.096   0.024   0.105   0.033   0.050  -0.094
  -0.225  -0.160   0.151  -0.056  -0.075  -0.060   0.007  -0.013   0.047   0.048
   0.026   0.006  -0.078  -0.012  -0.130   0.060   0.123  -0.024   0.083  -0.057
  -0.041   0.029   0.028   0.031  -0.010  -0.071  -0.173  -0.045   0.026  -0.013
  -0.050  -0.142  -0.022  -0.073   0.059  -0.035  -0.058   0.011  -0.035  -0.052
  -0.105   0.033   0.007   0.009   0.111  -0.173   0.049   0.008   0.040   0.203
   0.067   0.073  -0.130   0.030   0.135   0.035   0.037  -0.035   0.129   0.173
   0.009  -0.048   0.068   0.027  -0.032  -0.112  -0.019  -0.038   0.030  -0.004
  -0.118  -0.037   0.011   0.036   0.086   0.032  -0.128  -0.047   0.033  -0.003
   0.044  -0.017   0.000   0.097   0.035   0.011   0.085  -0.092  -0.026   0.088
  -0.129  -0.074   0.117  -0.133   0.063   0.087   0.001  -0.064   0.007   0.038
   0.016  -0.113  -0.149   0.132   0.207  -0.096   0.027   0.002  -0.089   0.159
  -0.154   0.054  -0.064  -0.052   0.035  -0.000   0.041  -0.146   0.220   0.079
  -0.177  -0.039   0.074   0.039  -0.010  -0.074   0.211  -0.041  -0.072   0.201
   0.014   0.027   0.071   0.013  -0.035   0.186   0.070  -0.062  -0.012   0.064
   0.147  -0.104  -0.048   0.060   0.060  -0.202   0.048   0.024  -0.076  -0.067
  -0.038  -0.175  -0.062   0.126  -0.049  -0.077   0.011   0.056   0.004   0.034
  -0.084  -0.060   0.105  -0.130  -0.073  -0.016   0.009  -0.042  -0.089   0.073
  -0.050  -0.071   0.042  -0.028   0.138  -0.008  -0.087   0.196   0.071  -0.013
   0.004   0.099   0.019  -0.054   0.087   0.060  -0.026  -0.014  -0.018   0.073
  -0.024   0.055  -0.082  -0.034  -0.072   0.062  -0.033  -0.048   0.040  -0.063
  -0.027   0.090  -0.082   0.005   0.041  -0.080  -0.036   0.025  -0.038   0.150
   0.040  -0.093   0.143   0.081   0.073   0.004   0.071  -0.061   0.005  -0.006
  -0.075  -0.032  -0.106  -0.135   0.020   0.024  -0.033  -0.018   0.042  -0.059
  -0.187  -0.010   0.243   0.082  -0.066  -0.089   0.083   0.105  -0.033  -0.037
   0.020  -0.132  -0.144   0.150  -0.124  -0.103   0.028  -0.114   0.087  -0.001
  -0.202  -0.088   0.058   0.072  -0.118   0.310  -0.006  -0.047   0.107  -0.065
  -0.020  -0.126   0.130  -0.038   0.154  -0.169   0.185   0.162  -0.272   0.129
   0.152  -0.102  -0.100   0.196  -0.199   0.184  -0.223   0.190   0.183  -0.215
   0.010   0.179  -0.015   0.010  -0.047  -0.134   0.093  -0.002   0.073   0.035
  -0.064  -0.101  -0.045   0.027   0.010   0.024  -0.066  -0.031  -0.063  -0.025
  -0.019  -0.012   0.064  -0.074   0.011   0.040   0.010  -0.115   0.011   0.064
  -0.075   0.121  -0.028  -0.003   0.039  -0.007   0.027   0.029  -0.069  -0.001
  -0.109   0.079  -0.008  -0.081   0.050   0.024   0.108   0.033   0.058  -0.049
   0.020  -0.086  -0.079  -0.068   0.072   0.063  -0.065   0.080  -0.025   0.017
  -0.010   0.052  -0.109  -0.060  -0.043   0.129   0.076   0.037  -0.035   0.041
   0.097  -0.049  -0.055   0.098   0.139   0.090   0.051   0.095   0.097   0.005
  -0.096  -0.112  -0.061  -0.067   0.070   0.065  -0.119   0.088   0.025   0.071
   0.017  -0.050  -0.131  -0.043  -0.096  -0.017  -0.089   0.073  -0.083  -0.219
   0.027  -0.024  -0.001   0.037   0.050  -0.116  -0.001   0.031  -0.005   0.050
   0.121   0.006   0.065   0.015  -0.007  -0.020   0.057   0.037  -0.033   0.127
  -0.028  -0.038  -0.054  -0.020   0.008   0.015  -0.073  -0.051   0.040  -0.018
  -0.115  -0.016  -0.061  -0.001  -0.050  -0.151  -0.083  -0.033   0.020   0.040
  -0.044  -0.010   0.030   0.049   0.105   0.096   0.047  -0.064  -0.053   0.029
  -0.030  -0.080   0.190   0.054  -0.089  -0.023   0.054  -0.062  -0.166  -0.062
  -0.040  -0.041   0.049  -0.010  -0.030   0.058  -0.046   0.099  -0.059   0.016
  -0.037  -0.070   0.151   0.033   0.047   0.044   0.054  -0.070   0.020   0.095
  -0.012   0.031   0.153   0.122   0.046  -0.057  -0.027   0.077   0.122   0.088
  -0.081  -0.026   0.011  -0.104  -0.027   0.113   0.061   0.038   0.126   0.003
   0.099   0.061  -0.022  -0.045   0.158   0.034   0.022  -0.036   0.068  -0.046
   0.047   0.074   0.041  -0.083   0.089  -0.028  -0.141  -0.088  -0.102  -0.109
  -0.000   0.030  -0.141  -0.032   0.008   0.002   0.005  -0.104   0.116   0.155
  -0.018   0.004  -0.023  -0.026  -0.038  -0.047  -0.045   0.106   0.016  -0.092
  -0.062  -0.060   0.116  -0.070  -0.013  -0.062  -0.071   0.089  -0.063   0.051
   0.040   0.048  -0.036   0.102  -0.018   0.064  -0.002   0.110  -0.080   0.002
   0.070   0.043  -0.140  -0.115  -0.029   0.107  -0.059  -0.259   0.027  -0.114
   0.174  -0.129  -0.020   0.100   0.147   0.069  -0.058  -0.041  -0.012   0.000
   0.053  -0.040   0.089   0.040  -0.032   0.022  -0.086  -0.041  -0.034  -0.072
  -0.198  -0.027   0.014  -0.015  -0.028   0.119  -0.179  -0.047   0.019   0.053
  -0.076  -0.079   0.104  -0.079  -0.050   0.156   0.002  -0.148   0.049   0.120
  -0.077   0.057  -0.109  -0.029  -0.116   0.112   0.059  -0.092   0.098  -0.046
  -0.048  -0.052   0.035  -0.049   0.025   0.075   0.077   0.006   0.088   0.214
   0.143   0.073   0.017   0.009   0.084   0.064  -0.007  -0.049  -0.051  -0.050
   0.052  -0.079  -0.161  -0.056  -0.006  -0.057  -0.110  -0.304   0.041   0.078
  -0.101  -0.180   0.035  -0.065  -0.142   0.082   0.003   0.145  -0.051  -0.047
   0.022   0.109  -0.005  -0.032   0.003   0.116   0.012   0.055  -0.100   0.045
   0.130  -0.019  -0.026   0.193   0.016   0.035   0.025  -0.011   0.149   0.013
  -0.146  -0.039   0.090   0.005   0.137   0.077  -0.042  -0.114   0.065  -0.017
  -0.033   0.024  -0.067  -0.112   0.152  -0.072   0.111  -0.041  -0.084   0.055
   0.037  -0.128  -0.125  -0.067   0.020   0.146   0.015  -0.139   0.064   0.072
   0.113   0.024  -0.032   0.105  -0.005   0.044  -0.063   0.040  -0.122   0.037
   0.004  -0.002  -0.149  -0.066   0.290  -0.103  -0.051   0.077  -0.077   0.101
  -0.005   0.081   0.174  -0.010  -0.009  -0.004  -0.022   0.033  -0.115   0.062
   0.076  -0.154   0.145   0.015   0.045  -0.075  -0.091  -0.037   0.042   0.043
  -0.044   0.011   0.042   0.019  -0.007  -0.102  -0.035   0.193  -0.245  -0.057
   0.020   0.066  -0.087   0.023   0.091   0.011  -0.006  -0.069  -0.199   0.161
  -0.033  -0.095   0.201  -0.077  -0.123  -0.020  -0.007  -0.007  -0.003   0.036
   0.038  -0.050   0.090  -0.073   0.069  -0.066  -0.041   0.167   0.119  -0.046
  -0.024   0.067   0.016  -0.209   0.011  -0.010   0.102   0.123  -0.089   0.020
   0.110  -0.092   0.073   0.105   0.001  -0.095  -0.014   0.036  -0.004   0.115
   0.010   0.024   0.038  -0.010   0.018  -0.107  -0.041   0.084  -0.019   0.019
   0.106   0.005  -0.013  -0.051   0.152  -0.085   0.037   0.042  -0.051   0.053
   0.073  -0.119  -0.085  -0.036  -0.044   0.047   0.058   0.025  -0.041  -0.032
   0.149  -0.088  -0.094   0.101  -0.012  -0.004  -0.066  -0.012   0.031   0.150
   0.033  -0.066  -0.099   0.102   0.004  -0.018  -0.102  -0.057   0.057   0.006
  -0.071   0.000  -0.172   0.003   0.141  -0.086  -0.042   0.118  -0.191   0.007
   0.091   0.035  -0.073  -0.107  -0.188   0.095  -0.028  -0.131  -0.020   0.006
  -0.065   0.049   0.025  -0.076   0.009  -0.032   0.137  -0.109   0.041   0.026
   0.022   0.006   0.139   0.024  -0.168   0.005   0.106  -0.110   0.014   0.039
  -0.157  -0.110   0.038  -0.042  -0.018   0.222   0.133  -0.120  -0.107   0.095
  -0.121  -0.140   0.141  -0.142  -0.069   0.027   0.090   0.025   0.017  -0.004
   0.034  -0.027   0.031  -0.045   0.009  -0.056   0.029  -0.010  -0.057   0.032
  -0.065  -0.040   0.074  -0.211  -0.096   0.029   0.020  -0.101   0.001   0.026
   0.114  -0.044   0.021   0.184  -0.101   0.007   0.077  -0.053  -0.073  -0.065
   0.142   0.077  -0.067   0.014  -0.038  -0.100   0.081   0.059  -0.185  -0.121
  -0.098   0.163  -0.097   0.095   0.082  -0.023   0.134   0.116  -0.053  -0.044
   0.391   0.124  -0.067   0.025  -0.001   0.067   0.179   0.019   0.037   0.053
   0.107  -0.047  -0.019   0.028   0.066   0.071  -0.042   0.129   0.028   0.025
  -0.025   0.026  -0.032   0.024  -0.046  -0.059   0.059   0.017  -0.004  -0.057
   0.020   0.082  -0.071   0.272  -0.036   0.074   0.010   0.027  -0.008   0.080
  -0.126  -0.019   0.074  -0.055  -0.074  -0.039   0.090   0.047   0.067   0.063
  -0.141  -0.001  -0.037  -0.004   0.019  -0.081   0.049  -0.040  -0.048   0.072
  -0.073   0.003   0.208  -0.156  -0.212   0.023  -0.103  -0.073   0.002  -0.020
  -0.118  -0.133  -0.026  -0.148   0.054   0.062  -0.116  -0.030  -0.048   0.015
  -0.065   0.064  -0.057   0.017   0.000  -0.130  -0.025   0.091  -0.064  -0.093
   0.022   0.055  -0.028  -0.006  -0.111  -0.100  -0.027  -0.088   0.021  -0.054
  -0.072   0.040   0.032  -0.106   0.066  -0.037  -0.014  -0.109   0.041  -0.079
  -0.052   0.116  -0.019   0.114   0.080  -0.055   0.084  -0.007   0.033   0.088
   0.019  -0.089  -0.103   0.060  -0.119   0.115   0.188   0.186  -0.219   0.056
   0.190  -0.009   0.085   0.125   0.010  -0.302   0.295   0.179  -0.258   0.131
  -0.036  -0.072  -0.053   0.027   0.059  -0.149   0.232   0.118  -0.440   0.365
   0.096  -0.039   0.067  -0.079   0.016  -0.164   0.266  -0.053  -0.197   0.181
   0.156  -0.151   0.217  -0.006  -0.057  -0.116   0.027  -0.090  -0.042   0.140
  -0.069   0.009   0.097  -0.101   0.154   0.212  -0.123   0.018   0.328   0.018
  -0.205   0.097   0.068  -0.068   0.100   0.020  -0.024   0.038   0.137  -0.140
  -0.094   0.010   0.067  -0.036  -0.063   0.136  -0.049  -0.087   0.032  -0.010
  -0.018  -0.059  -0.045  -0.098  -0.087   0.157  -0.011   0.074   0.009  -0.040
  -0.006  -0.055  -0.035   0.007  -0.062   0.052  -0.055   0.031  -0.017  -0.153
  -0.140   0.050  -0.137  -0.052  -0.152  -0.067   0.117  -0.185  -0.101   0.199
   0.101  -0.150   0.023   0.082  -0.165   0.072   0.018  -0.036  -0.120   0.132
   0.078  -0.111   0.156   0.187  -0.156  -0.018   0.127  -0.195   0.059   0.055
   0.038  -0.007  -0.119   0.083   0.021   0.004   0.070   0.012  -0.050  -0.038
   0.082  -0.064   0.059   0.131  -0.098   0.082   0.187  -0.058  -0.136  -0.004
   0.027   0.038  -0.021   0.172   0.049   0.019   0.065  -0.019  -0.013  -0.046
  -0.059  -0.199   0.092  -0.048  -0.087   0.006   0.026   0.006  -0.079  -0.081
  -0.010   0.001  -0.072   0.057  -0.017  -0.098  -0.024  -0.105   0.073  -0.011
   0.027  -0.011  -0.053   0.037  -0.057  -0.043   0.058  -0.109  -0.115  -0.027
  -0.064  -0.153  -0.068   0.038   0.035  -0.035   0.006  -0.040  -0.080   0.049
  -0.059  -0.073   0.021   0.058   0.060   0.128   0.118  -0.032   0.110  -0.088
  -0.011   0.105   0.054  -0.036  -0.039   0.137  -0.024   0.001  -0.073  -0.039
   0.000  -0.044   0.015   0.079   0.194  -0.077   0.036   0.010   0.079   0.066
  -0.027   0.131   0.010  -0.034  -0.039   0.035   0.075  -0.146   0.008  -0.054
  -0.113  -0.040   0.061   0.102   0.008   0.050   0.097   0.010   0.004  -0.003
  -0.043   0.058  -0.034  -0.005  -0.060  -0.115   0.001   0.084  -0.041  -0.166
  -0.015   0.063  -0.002  -0.058   0.100   0.015   0.077   0.113   0.011   0.178
  -0.038   0.045   0.059  -0.036   0.141  -0.046   0.008   0.053   0.119  -0.001
  -0.002  -0.149  -0.083  -0.004   0.048  -0.130  -0.052   0.109   0.142  -0.038
  -0.020   0.097  -0.140   0.017  -0.106  -0.098   0.008   0.122  -0.054   0.111
   0.010   0.078  -0.012   0.105   0.006   0.075  -0.071   0.037  -0.020   0.015
   0.088   0.064  -0.056   0.094  -0.081  -0.132   0.054   0.058  -0.089  -0.030
  -0.007  -0.001  -0.071  -0.071   0.076   0.107   0.024  -0.015  -0.001   0.011
   0.078  -0.002  -0.154   0.080  -0.037  -0.058   0.218  -0.045  -0.048   0.124
  -0.063   0.065   0.207  -0.335   0.130   0.225  -0.413   0.057   0.095  -0.115
   0.123   0.028  -0.180   0.332  -0.002  -0.304   0.299  -0.184  -0.098   0.248
  -0.084   0.035   0.199  -0.202   0.113  -0.031  -0.090   0.091   0.141  -0.170
   0.039  -0.071   0.069  -0.077  -0.077  -0.037  -0.061  -0.101   0.037   0.031
  -0.049  -0.023  -0.142  -0.063  -0.065   0.032  -0.111   0.021  -0.010  -0.076
  -0.048  -0.050  -0.024  -0.095  -0.075  -0.052   0.047  -0.080  -0.100  -0.114
  -0.059  -0.054   0.025   0.012  -0.023   0.141  -0.054  -0.169   0.012   0.137
  -0.078   0.017  -0.002   0.050  -0.023  -0.039  -0.083  -0.070   0.009  -0.096
   0.101   0.068  -0.129  -0.098   0.032  -0.078  -0.013  -0.067  -0.002   0.030
   0.020  -0.168  -0.008   0.011  -0.067   0.087   0.100   0.076   0.046   0.104
   0.014   0.088  -0.044   0.016   0.033  -0.016  -0.009  -0.060   0.011  -0.060
  -0.031  -0.017   0.139  -0.002   0.073  -0.019   0.044   0.042   0.071  -0.019
  -0.006   0.004   0.080  -0.011   0.077   0.003  -0.115   0.031  -0.110  -0.025
   0.128   0.170   0.041   0.015   0.026  -0.038  -0.031   0.113  -0.088   0.057
   0.120   0.065  -0.125  -0.001   0.148   0.028  -0.143   0.114  -0.008  -0.085
   0.009   0.053   0.018   0.021   0.101  -0.030  -0.006   0.094  -0.054   0.034
   0.049  -0.001   0.156   0.094  -0.148   0.178   0.010  -0.044  -0.126   0.136
  -0.052   0.059   0.042  -0.000  -0.106   0.004   0.090  -0.072   0.002  -0.006
   0.149   0.005   0.003   0.148  -0.277   0.069  -0.021  -0.018   0.016   0.159
   0.140  -0.015   0.087   0.099   0.038  -0.003  -0.029  -0.039   0.045   0.052
   0.161  -0.078   0.101  -0.064   0.110   0.123  -0.080  -0.083  -0.047  -0.017
   0.039   0.020  -0.001  -0.028   0.000   0.002   0.079  -0.060  -0.032   0.029
   0.019   0.036  -0.022  -0.066  -0.234   0.043   0.007  -0.026   0.054   0.064
  -0.144  -0.079   0.126  -0.036  -0.040   0.026   0.036  -0.045  -0.088  -0.042
  -0.060  -0.005  -0.202  -0.015   0.007   0.098   0.067  -0.126   0.122  -0.065
  -0.004  -0.128  -0.033  -0.205   0.013  -0.001  -0.047   0.021  -0.038   0.012
   0.050  -0.057  -0.057   0.018   0.065  -0.027   0.098  -0.112   0.061  -0.021
   0.087   0.005   0.021   0.018  -0.169   0.055   0.158  -0.061   0.036  -0.040
  -0.024   0.003  -0.075  -0.046  -0.096   0.024  -0.012  -0.026   0.050  -0.086
   0.007  -0.068  -0.043   0.065  -0.003  -0.145   0.074  -0.158  -0.122   0.112
  -0.066   0.002  -0.024  -0.037   0.114   0.132  -0.071   0.071   0.079   0.115
  -0.015   0.028  -0.055  -0.156   0.086  -0.007  -0.101  -0.139  -0.111  -0.040
  -0.002   0.020  -0.188  -0.103  -0.069  -0.058   0.162  -0.187  -0.139  -0.029
  -0.114   0.015  -0.014   0.032  -0.071  -0.074   0.056  -0.009  -0.013   0.029
   0.191  -0.030  -0.054   0.128  -0.083  -0.013  -0.081  -0.119   0.038   0.017
   0.021   0.011   0.014   0.089   0.098   0.021   0.148  -0.078  -0.086   0.057
   0.146   0.032   0.094   0.011   0.111  -0.008   0.210   0.011   0.015   0.030
  -0.004   0.047  -0.101   0.047   0.089   0.003   0.086   0.022  -0.097   0.059
  -0.013  -0.171  -0.064  -0.067   0.055  -0.109  -0.045   0.046   0.039   0.003
   0.008  -0.001  -0.004  -0.013   0.071  -0.078  -0.028   0.079  -0.037  -0.015
   0.100   0.174   0.072  -0.048   0.078  -0.161   0.011   0.010   0.096  -0.002
  -0.041  -0.190   0.117   0.099  -0.141  -0.022  -0.003   0.036  -0.053  -0.056
  -0.137  -0.026  -0.083  -0.213   0.054   0.015  -0.140   0.039   0.141   0.224
  -0.040   0.056   0.037   0.014  -0.066   0.032   0.070   0.199   0.002   0.058
   0.279   0.150   0.109   0.124   0.061  -0.065   0.109   0.052   0.164   0.041
   0.134   0.100   0.028   0.022   0.064   0.325   0.026   0.066  -0.021   0.039
   0.120   0.151   0.022   0.187  -0.100   0.126   0.004   0.004   0.039   0.193
  -0.180   0.096   0.044  -0.075  -0.094  -0.136  -0.131   0.035  -0.119  -0.255
  -0.197   0.031  -0.161  -0.175   0.005  -0.054  -0.019   0.198   0.462   0.271
   0.057   0.253   0.161  -0.160  -0.283  -0.188  -0.251  -0.265  -0.222   0.105
   0.148   0.132  -0.037  -0.018   0.418   0.157   0.294   0.437   0.235  -0.092
   0.105  -0.084  -0.249  -0.371  -0.252  -0.075  -0.640  -0.156   0.228  -0.131
  -0.146   0.030  -0.478  -0.467   0.415   0.440   0.258   0.522   0.839   0.555
   0.129  -0.185   0.101  -0.445  -0.744  -0.597  -0.099   0.033  -0.026  -0.127
  -0.179   0.061  -0.561  -0.555  -0.160   0.041  -0.207  -0.207   0.136   0.155
  -0.367  -0.004   0.242  -0.484  -0.458   0.296  -0.110   0.084   0.399   0.112
