Corrected accelerogram 20160214_001343_HVSC_20 GNS Science
Site HVSC      43 34 47S  172 42 34E     Cusp file:  20160214_001347_HVSC
Heathcote Valley Primary School
Instrument Cusp_326
Resolution: 18-bit   Instr Period: 0.0050 s   Damping: 0.700
Accelerogram 20160214_001343_HVSC_20                 Processed 2016 February 22
11 km east of CHRISTCHURCH
2016 February 14         00:13:43 UT
Epicentre  43 29 50S 172 45 18E  Bearing N22E  Dist   10km  Depth    8km M  5.70
Number of points  3369    Duration  67.36 sec
Instrument corrected data at 0.020 sec intervals
Band-pass filter transition bands are .10-.25 Hz and 24.50-25.50 Hz
Component N00E  Horizontal Axis 1
Acceleration:  peak   1157.5 mm/s/s at  23.08 sec     rms    131.7 mm/s/s
Velocity:      peak   -57.88 mm/s   at  22.04 sec     rms     8.33 mm/s
Displacement:  peak  -24.206 mm     at  22.46 sec     rms    3.614 mm
    2016       2      14       0      13     430       0       0    2016       2
      43      29      50     172      45      18       8       0      14       0
      43      34      47     172      42      34       0       0      22      10
   11478     250     250    3369    3369    3369       0       0      13   27067
   200.0    0.70    0.00   0.000  0.0000   0.000   0.000   1.000     0.0    0.00
  43.580 172.709   43.50  172.76    5.70    0.00    0.00    0.00      0.      0.
   57.38    5.00    5.00   67.36  0.0050  0.0200      0.      0.      0.  9806.6
  1255.1   23.07   142.9   0.000      0.  1157.5   23.08   131.7  1898.1   3.271
  -57.88   22.04    8.33   93.68   0.262  -24.21   22.46    3.61   24.28   0.208
   0.100   0.150   0.250      0.      0.  24.500   1.000  25.500      0.      0.
     0.0    -0.0     0.0    -0.0     0.0    -0.0     0.0    -0.0     0.0    -0.0
     0.0    -0.0     0.0    -0.0     0.0    -0.0     0.0    -0.0     0.0    -0.0
     0.0    -0.0     0.0    -0.0     0.0    -0.0     0.0    -0.0     0.0    -0.0
     0.0    -0.0     0.0    -0.0     0.0    -0.0     0.0    -0.0     0.0    -0.0
     0.0    -0.0     0.0    -0.0     0.0    -0.0     0.0    -0.0     0.0    -0.0
     0.0    -0.0     0.0    -0.0     0.0    -0.0     0.0    -0.0     0.0    -0.0
     0.0    -0.0     0.0    -0.0     0.0    -0.0     0.0    -0.0     0.0    -0.0
     0.0    -0.0     0.0    -0.0     0.0    -0.0     0.0    -0.0     0.0    -0.0
     0.0    -0.0     0.0    -0.0     0.0    -0.0     0.0    -0.0     0.0    -0.0
     0.0    -0.0     0.0    -0.0     0.0    -0.0     0.0    -0.0     0.0    -0.0
     0.0    -0.0     0.0    -0.0     0.0    -0.0     0.0    -0.0     0.0    -0.0
     0.0    -0.0     0.0    -0.0     0.0    -0.0     0.0    -0.0     0.0    -0.0
     0.0    -0.0     0.0    -0.0     0.0    -0.0     0.0    -0.0     0.0    -0.0
     0.0    -0.0     0.0    -0.0     0.0    -0.0     0.0    -0.0     0.0    -0.0
     0.0    -0.0     0.0    -0.0     0.0    -0.0     0.0    -0.0     0.0    -0.0
     0.0    -0.0     0.0    -0.0     0.0    -0.1     0.0    -0.1     0.0    -0.1
     0.0    -0.1     0.0    -0.1     0.0    -0.1     0.0    -0.1     0.0    -0.1
     0.0    -0.1     0.0    -0.1     0.0    -0.1    -0.0    -0.1    -0.0    -0.1
    -0.0    -0.1    -0.0    -0.1    -0.0    -0.1    -0.0    -0.1    -0.0    -0.1
    -0.0    -0.1    -0.0    -0.1    -0.0    -0.1    -0.0    -0.1    -0.0    -0.1
    -0.0    -0.2    -0.0    -0.2    -0.0    -0.2    -0.0    -0.2    -0.0    -0.2
    -0.0    -0.2    -0.0    -0.2    -0.0    -0.2    -0.1    -0.2    -0.1    -0.2
    -0.1    -0.2    -0.1    -0.2    -0.1    -0.2    -0.1    -0.2    -0.1    -0.2
    -0.1    -0.2    -0.1    -0.2    -0.1    -0.2    -0.1    -0.2    -0.1    -0.2
    -0.1    -0.2    -0.2    -0.1    -0.2    -0.1    -0.3    -0.0    -0.4     0.2
    -2.9     5.9     2.5    -0.0     4.7    -1.6     2.0    -0.0     2.7    -2.3
     3.2     6.4     1.3    -0.9    -4.3     1.1    -6.8    -5.6    -1.2    -2.0
    -3.1    -4.4    -0.8     0.6    -3.2     0.1     2.0     5.0    -1.1     4.2
    -1.2    -0.1    -1.4    -0.1     0.5    -5.5    -0.5     2.5     2.9     3.5
     2.4    -1.8     0.1     3.8     3.7     5.0    -0.8     4.7    -3.2     4.0
     1.1     0.1     1.8     3.1     7.5    -1.7    -1.8    -1.2     5.5    -5.1
    -0.1    -1.1     1.8    -2.6    -1.2    -8.9    -0.5     0.9     2.4    -3.7
    -2.0    -3.6    -2.7    -1.4     2.8    -0.7    -1.1     0.1    -2.6    -1.6
    -0.1    -1.8    -1.1    -3.4    -2.7     5.7     1.2     2.6    -2.7     2.3
     2.5     1.5    -1.7     3.0     2.3    -0.7    -1.7     2.1     4.1     1.3
    -2.6    -5.6    -2.3     0.3     3.2    -2.3     3.2    -1.9     3.6     3.3
     2.6    -0.1    -6.8     2.0    -0.2     0.5     2.3    -1.5     1.1    -8.0
     3.4    -2.0     0.1     0.5     2.2     2.0     4.6    -3.2    -6.1    -0.6
    -4.4     0.4    -3.2    -5.9     1.5     4.4     4.0    -4.5     0.0     5.5
     0.4     4.7     0.7    -0.5    -4.5     3.7    -4.4     2.2     1.7    -2.0
     0.5     0.1     2.8    -1.6    -1.8     2.7     4.7     2.4    -2.3     3.8
    -3.9    -3.6    -0.5    -3.7     4.1     6.8     5.0    -2.2    -2.4     1.2
     3.2    -2.5    -0.6    -2.4    -0.2     6.7    -2.4     1.1    -4.0     5.7
    -3.9    -0.8    -1.2     3.1    -3.1     2.5     4.5    -2.0    -2.7    -3.0
    -4.3    -1.8    -5.2    -2.0    -4.7    -4.3    -5.3    -6.3     1.9     4.9
     3.3     2.2     0.8     1.7    -2.2     0.7     3.5     1.8    -2.5    -0.5
    -4.4    -2.6     1.1    -3.2     2.7     2.8     1.5    -2.1     2.4     1.8
    -1.7    -3.8    -4.9    -2.0     1.9     4.7     1.4    -0.6     3.5     0.2
    -2.0    -1.8     3.6    -7.0    -5.0     3.7     2.5    -0.7     4.4     3.2
     0.5     2.4     5.8    -0.6     1.2     6.7     4.8     5.2    -0.8     1.8
     1.0    -5.8    -5.7     3.4     3.6    -7.3    -3.7    -3.4    -0.5     1.2
     0.0     3.4    -6.1    -0.1     2.4     5.6    -2.1    -1.3     4.6    -1.5
    -1.6    -1.6     1.7    -2.3     1.1     3.4    -3.0    -1.9     0.7     2.6
    -6.4    -1.5     1.1     2.4    -3.3    -2.1     0.6    -2.5     3.6     3.0
     0.7    -2.5    -1.1    -2.4     3.2     4.1     0.4    -1.1    -2.4     0.6
     0.3    -0.6    -2.4    -2.6     4.1    -2.4     0.5     1.3    -2.3    -1.4
     2.7     6.7     2.5     0.0    -6.9    -1.8     1.4     0.7     1.4     2.5
     0.1    -5.8    -0.4    -1.0    -0.8    -2.1    -0.1    -1.7    -4.2    -3.5
    -5.2    -0.0    -2.5     0.1     5.8    -3.6    -0.2     1.7     2.4     2.2
     0.3    -0.5     2.0    -0.6     5.0     1.8     2.8     4.3    -0.6    -0.6
     0.4    -3.4    -5.9     2.3    -2.4     0.6    -2.5     2.1     0.9     4.5
     2.9    -1.6    -3.6    -3.1    -2.9     0.6    -0.9     2.9     3.1     1.4
    -2.7     7.1    -3.6    -2.2     0.9     1.6    -6.4     4.4     0.4    -2.7
     3.1     4.2     3.2     0.5     2.7    -0.7    -0.6    -0.7     0.6     5.4
    -0.2    -2.5    -0.3     2.5    -1.8    -1.5     5.3    -1.3     9.1    -2.1
     2.3     3.9    -0.2     3.0     1.9    -2.7     5.5     1.1    -3.7     1.2
    -1.6    -1.4    -7.5     1.9     2.3    -2.1    -0.4     3.3     0.4    -6.8
     1.3    -1.4     1.2    -1.6    -2.9    -4.1     2.8     4.5    -3.0    -4.6
    -0.5    -1.8     2.1    -1.6    -1.6     3.0    -0.6    -0.5     1.3     0.7
     1.0     1.9     2.3    -0.2     4.2    -0.2    -3.9    -1.4    -2.6    -3.5
     1.1    -3.0     1.8    -1.2    -4.0     0.3    -5.9    -5.9     4.9     3.1
    -8.3    -0.0    -3.2    -0.0     7.9    -5.4    -0.8     3.6     1.2     0.4
    -5.1    -0.3    -0.3     0.0     5.4     5.6     2.1    -0.7    -4.4    -2.8
    -2.0     6.2     1.6     3.4    -4.2    -1.6     5.1     3.4    -1.2    -0.6
    -4.5    -1.9    -3.2     0.3    -2.7     0.5     4.2     3.0    -1.4    -1.1
    -6.1     2.4    -3.6     1.1    -0.9    -0.4     1.1    -3.9    -2.7    -2.7
    -4.9     3.1     3.2     2.7     4.6    -1.9    -0.6     4.0     2.7     1.5
     0.8     2.5    -4.1     0.1     3.7    -1.9    -1.0     0.9    -1.5    -1.6
     2.9     1.1     3.7     3.7    -2.3    -1.2    -2.0    -1.0    -0.3     2.7
    -2.5    -0.3    -1.4     4.6    -2.1     3.8     4.5    -1.3    -1.0    -1.0
     0.1     0.4     3.3    -4.7    -3.9    -1.0    -3.3    -5.7     1.1    -4.2
     0.7     4.8     1.1    -3.2     2.5    -0.8     0.7    -5.9     2.0    -6.3
     1.2    -0.3    -4.8    -2.6     1.3     2.3     0.9     1.2    -0.7     2.5
    -2.8    -1.1    -1.1     1.6     3.3    -4.2     2.2    -0.3     2.0    -0.1
    -0.5    -1.5     2.7    -1.3    -4.7    -1.3     5.9    -3.0     4.1     1.8
     1.7     4.8    -1.3    -1.1     3.7     0.9     0.9     1.0     4.6     0.3
     0.4    -0.1    -3.6     5.0     5.3    -1.1    -3.3     3.7    -6.1    -0.0
    -0.7    -2.1    -7.8     3.3     0.5     4.0    -2.5     1.7     3.1     5.1
    -2.5     0.6     4.7     0.1     5.0     3.0     5.9    -3.3     1.6     7.9
     5.6     0.9     0.0    -1.7    -2.4    -1.6     2.9     2.0     4.2     4.6
     4.0    -4.6     2.1     1.6    -0.7     0.0    -5.8    -0.8    -2.0    -0.6
     2.2    -2.7     1.1    -1.7     3.2     4.6     1.3     1.7    -4.9     1.6
    -4.3     5.3    -1.4     0.9     3.2    -2.0     3.0     1.8    -1.2    -1.2
    -1.1     2.1     2.1    -0.8    -5.2    -3.3    -2.2     0.7     2.6    -0.5
     3.1    -4.6    -1.3     1.2    -1.2    -1.4     1.0    -7.4     4.2    -4.5
    -2.0    -0.0     2.3    -1.4     0.3    -4.7     2.0    -6.1     2.0    -2.5
     1.4    -2.1    -3.3     4.3     3.4    -1.7     1.3     4.1    -4.7     0.1
     1.9     0.4    -1.6    -8.7    -3.5     0.1    -1.5    -4.4    -2.4    -6.4
     3.0    -2.0     6.2     0.3     4.0     4.1    -2.9    -1.2     0.4    -0.3
    -0.8     1.4     1.0    -4.0    -1.8     9.7     1.5     4.5    -3.5    -0.2
     2.2    -1.0    -0.2    -2.9     4.9     1.4     1.9     1.8    -4.8     1.3
    -1.2    -8.3    -0.3    -0.1    -3.0     2.9     2.7    -1.8     1.2    -2.9
     1.9     0.8    -6.2    -0.1    -4.3     0.2    -5.9    -0.8    -4.8    -8.8
    -2.0     0.0    -4.3    -3.2    -2.8    -2.9     2.0    -3.7    -2.0     0.1
    -2.9     4.9    -9.0     3.3    -3.2    -6.2    -2.7    -6.3    -2.6    -9.5
    -5.0     2.5    -0.7     3.6    -5.7    -1.8    -2.2    -4.3    -3.2    -3.8
    -6.3     1.9     0.4     1.1    -0.2    -1.2    -2.9    -1.5    -3.2    -1.0
    -0.5    -1.9     0.2    -5.8    -4.8    -2.9    -0.2    -0.1     6.3    -5.0
     5.9     4.5    -7.9    -2.3    -1.4    -3.8    -0.8    -3.8     0.1    -5.2
    -2.8    -4.0    -3.3    -0.6     1.4     1.4    -0.9     2.4    -5.0     1.9
    -0.2     1.4     0.9     4.4    -4.3    -6.8    -1.9     8.1     2.2    -4.7
     0.5     0.8     0.7    -0.1    -2.0     5.0     0.7    -1.3     2.6     1.3
    -2.9    -1.0     1.7     1.4     2.3     5.7     5.6     2.2     6.7     1.1
     3.4    -0.9     3.2     1.1     4.8     5.2     3.8     5.8     0.3    -2.5
     5.3     6.2    -0.8     5.5     5.1    -0.4     3.7     2.9    -1.0     4.2
     4.0     7.0     3.6     3.7     0.1     6.2     7.1     7.5     5.9     1.1
    10.3     6.3     4.9     7.7    13.7     1.4     8.2    10.0     6.0    10.4
    11.7     3.8     5.6    -1.1     9.4     3.9     6.6     9.1     3.5     4.2
    12.0     7.1     4.2     8.7    16.3    11.9     8.0    13.0     6.1     7.9
     9.4     7.8    13.7     8.2    11.0     9.8    10.4    10.4     0.4     3.8
     8.0    11.9     5.7    11.7     2.2    14.9     6.3    12.2    12.0     9.5
     5.9     6.1     8.1     9.9    12.0    11.4     6.4     4.9     4.1     5.0
     8.0    11.3     9.0    13.1    10.9     7.9     7.7     5.6    12.2    10.4
     6.1     6.4     8.8     7.8     7.1     3.3   -16.0   -13.5     4.2   -17.6
   -46.2   -20.1   -31.6   -55.4   -25.1    15.8    25.8    -8.9   102.5    85.1
    53.2    79.1    44.3    16.3   -21.4    88.1   -29.5  -110.9   -72.8   -93.5
  -119.3   -77.0   -13.6   -89.1    23.0   116.7   -16.6  -121.5   -14.0     4.8
  -102.1   -62.2   -38.3  -128.4   -10.1     2.3   -49.1  -156.9    -2.5   171.3
   214.8   149.3    30.9   -43.7    25.4   -51.9  -186.1  -138.5   -91.0  -139.7
   -14.9     0.1  -130.8  -286.3  -166.4   -43.7   -89.5   -36.5   -69.8    98.2
   203.1    55.4    76.1   174.1   209.9   209.4   134.7   -35.0  -185.9   -70.1
  -203.3  -162.3  -200.9  -123.1  -176.9    64.1   242.2    79.4  -190.9   -97.7
    -1.2     4.9   -33.4    23.3  -105.6  -282.9     8.6   -78.7    39.0    63.0
   182.9    30.8   -31.2   176.6   183.7   149.3   411.3   305.8   -62.1  -257.2
  -393.0  -361.8   -55.0    10.6   296.4    -8.3  -416.2  -359.1  -335.7  -243.7
  -341.9  -292.5    25.2   383.4   329.9   472.3   543.5   117.7  -183.4   110.7
  -189.8  -185.8  -169.6   -16.6   380.1   507.1  -295.1  -663.3    33.9   139.3
   305.3   549.0   527.7   235.9   431.6   795.3   564.9   115.3  -262.0  -842.5
 -1070.9  -556.7   369.7   757.0   799.7   515.9   324.8   -69.6   -10.7   218.9
   -29.0   188.3   497.7  -184.6  -748.1  -460.2   -15.5   113.8  -329.3  -269.0
  -219.8  -651.7  -419.1   731.7  1157.5    71.2  -694.4  -602.7  -163.9   396.9
   479.5    16.8  -327.9    12.3  -153.8  -241.4   322.1   449.8   172.9   231.4
   250.9  -155.8    89.3   747.4   389.9  -338.8  -678.9  -970.4 -1034.7  -716.8
    83.0   308.4   415.1   839.4   620.0   -24.0  -468.7  -353.2  -250.8     7.9
    78.0   447.0   545.7   119.7  -110.4  -185.3   -28.0   354.8   322.3   363.6
   309.9  -335.4  -233.9     2.4  -140.8  -101.3   130.0   104.4  -370.6  -875.4
  -861.0  -269.7   455.2   331.7   -91.9  -160.7    78.4   380.5   428.8   207.5
  -377.6  -650.6  -488.8  -360.4  -303.0   -57.8  -153.1  -168.5   107.3   435.2
   527.8   496.3   417.8    35.2  -469.5  -544.7  -437.0  -602.7  -627.6  -386.2
   121.2   699.2   674.1   170.9  -405.2  -323.6   385.0   838.0   745.4   324.8
   -17.1  -203.8  -112.9  -313.1  -500.3  -420.1  -310.6  -420.3  -361.2   -76.9
  -121.9   -16.4   340.5   498.5   608.4   730.5   633.0   414.8   206.9  -240.2
  -331.6  -237.6  -385.7  -381.4  -318.9  -201.3   -12.3   370.9   488.4   355.9
   203.2  -236.1  -438.3  -355.5  -302.2  -455.8  -517.7  -364.8  -271.6  -190.0
   -31.2   258.7   564.5   743.6   655.6   138.9  -606.8  -906.7  -665.4  -129.5
   343.0   690.8   630.7   278.6   102.7   127.3   184.6   176.2   -18.0  -368.5
  -544.5  -642.7  -433.3   204.3   730.8   833.2   688.8   467.6   306.4    23.0
  -125.7  -158.2  -401.3  -436.5  -207.7  -195.2  -214.9   -74.9   131.9   257.7
   320.0   357.7   302.0   115.6  -110.0  -135.5   -32.6   113.3   165.1    51.4
  -204.0  -483.0  -584.2  -417.3  -121.4   183.7   408.3   463.3   459.7   355.9
   250.5   152.0   104.0    82.7    39.6   -39.4  -297.2  -614.3  -735.2  -691.5
  -462.7  -188.4   -25.9   153.6   330.0   422.8   408.1   247.5   186.5   208.6
   137.8   -23.7  -243.6  -359.7  -216.8   -70.6    10.3    92.8    97.1    96.5
    46.1    -9.3    -9.6   -16.4   -81.0  -169.0  -205.3  -209.9  -122.8    28.5
   149.8   152.6    70.8    89.3   185.4   220.3   177.5    51.7  -113.4  -269.6
  -184.2   132.6   298.3   191.0   -67.3  -256.1  -237.7  -119.7  -100.3   -74.1
     0.3    97.3   194.9   241.3   258.5   245.1   123.3   139.1   160.6   114.2
   -23.9  -203.7  -412.4  -576.6  -598.8  -476.6  -267.8   -41.8   146.4   323.3
   434.9   330.6   168.0    99.8    41.1   112.6   115.0    -2.0    25.7    17.3
  -117.7  -120.3    11.1   110.7    94.1    45.8    41.5    -0.3   -66.2  -180.0
  -251.1  -185.3   -20.8    71.8    50.6   -44.2   -88.4  -103.1   -15.8    23.8
   -71.8  -119.1     3.4    85.6    93.3   104.3   152.1    80.6  -120.2  -180.6
   -62.3    42.8    55.2    83.4    36.3   -87.2   -63.3    -7.7    -6.4    63.0
   191.6   203.3    99.2   -29.1  -211.1  -331.3  -234.2   -23.0   112.9   250.5
   378.2   285.8   139.0   115.6    52.7   -18.1   -30.8   -48.0  -129.8  -172.1
  -226.1  -323.7  -360.7  -242.8   -32.6   202.6   397.4   513.1   417.9   213.2
    19.2  -220.7  -376.9  -368.7  -265.6  -189.1  -101.4    -6.7   -11.6    -3.9
    61.1   135.7    90.7    45.3     7.4   -41.5    -3.0   -20.5   -91.3   -69.2
   -44.0    -5.9    72.0   128.8   143.4   147.3   148.8    57.1    13.7    72.5
    68.2    41.7   -16.7   -79.6  -123.2   -75.6   -20.6   -13.8    -4.8    71.3
   120.1     3.7   -27.4   -65.0  -122.4   -97.3   -33.3   -22.9    -7.0    27.7
    -0.1    36.5    66.7    10.1   -59.1   -63.0     3.5   127.5   229.1   243.2
   128.9   -10.6  -110.3  -145.7  -132.3  -134.8  -129.3  -193.3  -256.6  -174.5
   -50.8    57.4   203.4   271.2   188.2    23.5   -60.0   -55.9   -41.0   -10.2
    15.7   -10.2   -40.3   -80.1   -91.3   -82.2   -38.5    -1.1    88.9   214.6
   236.6   164.6    18.0  -109.7  -227.0  -300.9  -237.1   -92.2    23.0   -20.8
   -53.4    21.5    95.8   167.8   231.0   190.4    77.8    19.9   -53.7   -86.0
   -84.0   -38.8    25.7    33.3    -4.3    -6.1    -4.8    -0.8    84.5   166.5
   136.2    54.4   -29.8  -130.3  -208.9  -208.3  -126.7    -8.6    59.9    42.7
    78.7   100.5    63.6    90.3   109.3    39.9    37.1    86.9   130.4    79.0
   -94.7  -151.8  -140.5  -126.4   -14.6    47.9    44.3    23.6   -21.8   -90.1
  -126.9   -61.2   -24.2     1.9    11.5    12.3    32.2    79.8    99.6   112.9
   114.0   107.2    68.5     9.1   -31.8     6.3    -4.4   -30.6    22.0   101.1
    87.0     4.8   -48.7  -138.8  -163.5  -132.6   -95.9   -46.3   -14.0   -18.7
   -47.4   -50.5    23.9   128.4   147.5   103.0     9.6   -69.5   -50.1   -18.2
    26.9    60.9    73.4    63.6    50.4    34.7    15.8    42.6    64.8    25.3
   -20.2  -121.4  -175.3  -149.7  -104.2  -106.7  -130.9  -144.7  -110.2   -68.2
   -19.1    64.9   101.0    81.5    98.1   100.6   113.9    95.3    31.1     2.4
   -16.1   -19.9    55.6    96.4    63.9    21.4   -16.2   -47.0   -65.1   -81.1
   -95.1   -83.6   -72.5  -100.4  -101.7   -52.4     3.2    59.8   113.9   113.5
    82.7   117.8   111.7    30.6   -84.7  -106.9   -39.5    17.4    36.7    44.8
    60.8    54.1    59.0    83.1    80.8    57.7    27.6   -30.3  -133.0  -204.3
  -205.9  -164.5  -141.1  -111.8   -72.7    27.8   121.5   142.4   162.0   133.0
    76.5    -6.2   -75.1   -94.6   -61.6   -53.0   -52.8     6.2    76.2    94.5
   107.8   121.8   114.2    58.7    -8.8   -89.7  -141.1  -140.3   -94.1   -53.6
   -49.3   -37.5    -2.0     5.1    44.7    66.4    75.0    99.7    80.2    14.5
   -74.8   -95.1   -32.9    22.6    26.2    16.5     6.5   -41.2   -37.8     7.0
    32.4    57.5    52.9    27.5   -23.7   -39.3   -19.5    -7.7   -10.4   -34.1
   -65.7   -77.4   -46.4   -22.8    10.6    81.7   102.0    76.3    36.7    -1.0
   -32.1   -39.7     2.8     5.3   -59.1   -62.1     2.6    27.2    64.0    52.8
    25.6    20.9    30.6    34.1     9.1    -9.9   -16.2   -40.2   -40.1     0.4
    21.1    16.1   -18.5    -8.7   -12.7    -6.6    18.9    25.6    12.1   -13.2
   -55.3   -81.6   -69.5     4.2    74.2    79.7    72.2    41.2   -15.7   -49.6
   -42.3   -18.3    15.2    40.3    47.3    28.9     3.1    -7.3   -14.8    12.2
    16.8    51.9    48.3    41.1    13.4   -11.9    23.5    20.6     8.4   -38.6
   -72.6   -85.6   -95.0  -103.7   -85.0   -77.7    -9.5    63.7    80.1    54.7
    73.2    81.0    28.0   -12.8   -48.2   -56.5   -51.9   -46.4   -25.6   -12.4
    37.0    91.9    90.9    68.1    25.9   -26.9   -45.0   -46.1   -51.2   -39.6
   -28.5   -14.4    10.7    -2.1   -24.7     0.4     7.9     3.3    10.2    29.1
    40.7    22.4     0.3    -5.6     1.0   -19.0     9.3    27.9    50.4    35.7
    10.4     7.0   -11.0   -12.4     9.4    33.1    13.6   -17.8   -20.5   -16.4
    19.0    64.4    52.8    16.3   -25.4   -40.5   -37.1   -29.0   -30.1   -50.9
   -68.5   -56.9   -56.4   -41.5     5.0    41.7    51.2    40.8    20.7     4.6
   -12.5   -35.1   -11.6    -5.3   -13.4    -6.9   -14.2   -16.8     6.5    27.1
    28.1     2.9    -8.6    -7.9   -15.6   -24.3    -1.9    27.7    27.4     2.5
   -14.6    -6.2    15.6    17.5    16.5     6.0   -29.9   -31.5    15.3    29.7
