Corrected accelerogram 20160214_001343_LINC_20 GNS Science
Site LINC      43 37 23S  172 28 05E     Cusp file:  20160214_001349_LINC
Lincoln Crop and Food Research
Instrument Cusp_10459
Resolution: 18-bit   Instr Period: 0.0050 s   Damping: 0.700
Accelerogram 20160214_001343_LINC_20                 Processed 2016 February 22
11 km east of CHRISTCHURCH
2016 February 14         00:13:43 UT
Epicentre  43 29 50S 172 45 18E  Bearing N59E  Dist   27km  Depth    8km M  5.70
Number of points  8192    Duration 163.82 sec
Instrument corrected data at 0.020 sec intervals
Band-pass filter transition bands are .10-.25 Hz and 24.50-25.50 Hz
Component N00E  Horizontal Axis 1
Acceleration:  peak   -261.4 mm/s/s at  46.72 sec     rms     23.4 mm/s/s
Velocity:      peak    37.51 mm/s   at  48.54 sec     rms     4.40 mm/s
Displacement:  peak  -14.366 mm     at  47.82 sec     rms    2.108 mm
    2016       2      14       0      13     430       0       0    2016       2
      43      29      50     172      45      18       8       0      14       0
      43      37      23     172      28       5       0       0      59      27
   35040     250     250    8192    8192    8192       0       0      13    9792
   200.0    0.70    0.00   0.000  0.0000   0.000   0.000   1.000     0.0    0.00
  43.623 172.468   43.50  172.76    5.70    0.00    0.00    0.00      0.      0.
  175.19    5.00    5.00  163.82  0.0050  0.0200      0.      0.      0.  9806.6
  -267.5   46.72    24.2   0.000      0.  -261.4   46.72    23.4   380.6   1.321
   37.51   48.54    4.40   46.73   0.284  -14.37   47.82    2.11   16.12   0.284
   0.100   0.150   0.250      0.      0.  24.500   1.000  25.500      0.      0.
    -0.0     0.0    -0.0     0.0    -0.0     0.0    -0.0     0.0    -0.0     0.0
    -0.0     0.0    -0.0     0.0    -0.0     0.0    -0.0     0.0    -0.0     0.0
    -0.0     0.0    -0.0     0.0    -0.0     0.0    -0.0     0.0    -0.0     0.0
    -0.0     0.0    -0.0     0.0    -0.0     0.0    -0.0     0.0    -0.0     0.0
    -0.0     0.0    -0.0     0.0    -0.0     0.0    -0.0     0.0    -0.0     0.0
    -0.0     0.0    -0.0     0.0    -0.0     0.0    -0.0     0.0    -0.0     0.0
    -0.0     0.0    -0.0     0.0    -0.0     0.0    -0.0     0.0    -0.0     0.0
    -0.0     0.0    -0.0     0.0    -0.0     0.0    -0.0     0.0    -0.0     0.0
    -0.0     0.0    -0.0     0.0    -0.0     0.0    -0.0     0.0    -0.0     0.0
    -0.0     0.0    -0.0     0.0    -0.0     0.0    -0.0     0.0    -0.0     0.0
    -0.0     0.0    -0.0     0.0    -0.0     0.0    -0.0     0.0    -0.0     0.0
    -0.0     0.0    -0.0     0.0    -0.0     0.0    -0.0     0.0    -0.0     0.0
    -0.0     0.0    -0.0     0.0    -0.0     0.0    -0.0     0.0    -0.0     0.0
    -0.0     0.0    -0.0     0.0    -0.0     0.0    -0.0     0.0    -0.0     0.0
    -0.0     0.0    -0.0     0.0    -0.0     0.0    -0.0     0.0    -0.0     0.0
    -0.0     0.0    -0.0     0.0    -0.0     0.0    -0.0     0.0    -0.0     0.0
    -0.0     0.0    -0.0     0.0    -0.0     0.0    -0.0     0.0    -0.0     0.0
    -0.0     0.0    -0.0     0.0    -0.0     0.0    -0.0     0.0    -0.0     0.0
    -0.0     0.0    -0.0     0.0    -0.0     0.0    -0.0     0.0    -0.0     0.0
    -0.0     0.0    -0.0     0.0    -0.0     0.0    -0.0     0.0    -0.0     0.0
    -0.0     0.0    -0.0     0.0    -0.0     0.0    -0.0     0.0    -0.0     0.0
    -0.0     0.0    -0.0     0.0    -0.0     0.0    -0.0     0.0    -0.0     0.0
    -0.0     0.0    -0.0     0.0    -0.0     0.0    -0.0     0.0    -0.1     0.0
    -0.1     0.0    -0.1     0.0    -0.1     0.0    -0.1     0.0    -0.1     0.0
    -0.1     0.0    -0.1     0.0    -0.1     0.0    -0.1     0.1    -0.1     0.1
    -0.3     0.4     0.2     0.3     0.3     0.1     0.2    -0.4     0.6    -0.4
     0.5    -0.4     0.4    -0.4     0.1    -0.5     0.1    -0.2    -0.0     0.0
     0.1     0.2     0.2     0.4    -0.3     1.0    -0.3    -0.1    -0.7     0.7
    -0.2     0.3     0.0     0.3     0.2     0.2     0.1     0.0     0.2    -0.3
     0.2     0.2    -0.1    -0.1     0.6    -0.6    -0.1    -0.1     0.0    -0.2
    -0.2     0.1    -0.2    -0.0     0.3     0.0    -0.1     0.1    -0.0    -0.0
    -0.3     0.0    -0.0     0.2    -0.1     0.3    -0.0     0.1     0.0     0.0
    -0.2     0.5     0.3     0.3    -0.1     0.5    -0.1     0.2     0.3    -0.3
    -0.2     0.2    -0.2    -0.0    -0.4    -0.3    -0.2    -0.1    -0.1    -0.6
     0.1    -0.5     0.1     0.3    -0.3    -0.2     0.1    -0.4     0.0    -0.0
    -0.3    -0.5     0.6     0.1     0.1     0.0    -0.4    -0.0    -0.4     0.0
    -0.1     0.2     0.0     0.1     0.1     0.0     0.2    -0.1     0.1     0.2
    -0.4     0.1     0.0     0.1     0.2    -0.1    -0.2    -0.1     0.0    -0.0
     0.1    -0.1     0.0     0.1     0.3    -0.2    -0.2     0.2     0.2    -0.0
    -0.1    -0.2    -0.0     0.4     0.2    -0.2     0.2    -0.0     0.3    -0.1
     0.0    -0.1    -0.0     0.4    -0.0     0.2     0.2    -0.0     0.0    -0.3
    -0.1    -0.2     0.0     0.6     0.2    -0.0    -0.0     0.1    -0.1     0.2
     0.5     0.6    -0.2     0.2     0.1    -0.0    -0.3    -0.1    -0.4    -0.2
    -0.2     0.2    -0.0     0.1    -0.5     0.1     0.1     0.2     0.3     0.2
    -0.2     0.2    -0.6     0.2    -0.2     0.0    -0.3    -0.1    -0.4     0.0
    -0.1    -0.0     0.3     0.0    -0.0     0.2    -0.0     0.6    -0.2    -0.1
     0.1    -0.5     0.1    -0.3    -0.4    -0.3    -0.4     0.0     0.0    -0.1
    -0.0    -0.1    -0.1     0.2    -0.1     0.1    -0.3    -0.3    -0.1     0.1
    -0.4    -0.2     0.2    -0.4    -0.2    -0.3    -0.2    -0.3     0.0     0.2
    -0.3    -0.2     0.4     0.1     0.2     0.4    -0.1    -0.2    -0.1     0.4
    -0.1    -0.2    -0.1    -0.2     0.0     0.1     0.1    -0.3    -0.2     0.3
     0.2     0.2     0.3     0.3     0.2     0.0     0.2     0.2     0.3    -0.3
     0.0     0.1     0.1    -0.2    -0.2     0.1     0.2     0.1     0.2     0.2
     0.2     0.2     0.1     0.0     0.1     0.0    -0.1    -0.1    -0.0    -0.1
     0.1     0.0    -0.1     0.4     0.2     0.3    -0.0     0.4    -0.0    -0.2
    -0.1    -0.1    -0.0    -0.2    -0.1    -0.1     0.0    -0.2    -0.1    -0.3
     0.1     0.1     0.1    -0.1    -0.1     0.4     0.2     0.4    -0.1    -0.0
    -0.0     0.2     0.1     0.1    -0.2    -0.0     0.1    -0.1     0.3    -0.0
    -0.3    -0.0    -0.2    -0.2    -0.3     0.6     0.2    -0.3     0.4     0.2
     0.1     0.2    -0.0    -0.5     0.2     0.4    -0.2     0.1    -0.2     0.3
    -0.0    -0.0    -0.2     0.2    -0.1    -0.2    -0.1    -0.1    -0.0     0.0
     0.1     0.3     0.0    -0.2     0.3    -0.4    -0.1     0.1    -0.0     0.0
    -0.2    -0.2     0.3     0.3    -0.2     0.3     0.0     0.4    -0.5    -0.6
     0.2    -0.1    -0.1     0.4     0.1    -0.1    -0.1    -0.0     0.2    -0.2
     0.1    -0.1     0.2    -0.0     0.1    -0.1     0.3    -0.0     0.2     0.1
    -0.0    -0.0    -0.0     0.1    -0.1     0.3     0.1    -0.0     0.1     0.2
    -0.2    -0.2    -0.0    -0.1     0.2     0.3     0.3    -0.0     0.0    -0.4
    -0.3    -0.2    -0.2     0.0    -0.3     0.1    -0.2    -0.1    -0.2    -0.3
     0.4    -0.1    -0.2     0.1    -0.1     0.1     0.2     0.3     0.0    -0.7
    -0.1    -0.1    -0.1    -0.3    -0.1     0.0    -0.2     0.4    -0.1    -0.3
     0.2     0.4    -0.1     0.2    -0.1    -0.0    -0.5     0.1    -0.3    -0.1
     0.2     0.4     0.1    -0.1     0.4     0.0     0.2     0.2    -0.1     0.1
     0.2     0.0    -0.2     0.0    -0.2    -0.1    -0.1    -0.1    -0.1     0.4
    -0.1    -0.1    -0.1     0.3     0.3    -0.4    -0.0    -0.1     0.4    -0.1
    -0.3    -0.2    -0.0     0.4     0.1     0.2     0.4     0.4    -0.1     0.2
    -0.2    -0.0     0.0     0.4    -0.2     0.1    -0.2    -0.1     0.2    -0.6
     0.2    -0.1    -0.1    -0.1    -0.4    -0.0    -0.2     0.2    -0.2     0.3
    -0.0    -0.1    -0.1     0.1    -0.4     0.2    -0.6     0.3    -0.3    -0.4
    -0.1    -0.1     0.3    -0.0     0.2    -0.2    -0.4    -0.1     0.0    -0.1
     0.3    -0.2     0.2     0.1    -0.1     0.0     0.1     0.2     0.3    -0.0
     0.5     0.2     0.2    -0.1     0.2    -0.3    -0.2     0.3    -0.1     0.2
    -0.1     0.1    -0.2     0.1     0.2     0.2    -0.5    -0.3     0.0    -0.1
     0.1    -0.1    -0.1    -0.3    -0.1    -0.1     0.1    -0.1    -0.0     0.1
    -0.1     0.2     0.0     0.2    -0.0    -0.0     0.0     0.2     0.3    -0.1
    -0.0     0.3    -0.2    -0.2     0.0    -0.2    -0.0     0.2    -0.0     0.1
    -0.2     0.3     0.3    -0.2     0.2    -0.1     0.0    -0.5     0.1    -0.1
    -0.2    -0.0    -0.4     0.2    -0.2    -0.3     0.1    -0.1     0.4    -0.3
    -0.4     0.1     0.3     0.0    -0.2    -0.1     0.1    -0.1     0.2    -0.0
    -0.1     0.1    -0.0     0.1     0.4     0.2    -0.1    -0.0    -0.0     0.0
    -0.2     0.1     0.0    -0.1     0.3     0.0    -0.1     0.1    -0.1     0.2
    -0.0    -0.2     0.1    -0.1    -0.5     0.1     0.1     0.1    -0.2     0.2
    -0.2     0.0     0.0     0.1    -0.0     0.5     0.2     0.2     0.1    -0.0
    -0.2    -0.0     0.2     0.1    -0.2    -0.1     0.1     0.4     0.3     0.0
     0.2    -0.2    -0.1     0.2     0.2     0.2    -0.1     0.2     0.1     0.2
     0.1    -0.0     0.1    -0.2    -0.1     0.5    -0.1     0.2    -0.1    -0.1
    -0.2     0.3     0.0    -0.2    -0.1    -0.2    -0.3     0.3    -0.4     0.1
    -0.3    -0.4    -0.3     0.1     0.4    -0.4    -0.2    -0.1    -0.0    -0.0
    -0.1     0.2    -0.0     0.1     0.2     0.1    -0.4    -0.1    -0.4    -0.0
     0.3    -0.1     0.3     0.2     0.1    -0.1    -0.6    -0.0    -0.1     0.1
     0.0    -0.1     0.1     0.3     0.3     0.2     0.2     0.3     0.2     0.2
    -0.1     0.4    -0.2    -0.3    -0.2    -0.0     0.1    -0.2    -0.1    -0.0
    -0.1     0.3     0.1    -0.4    -0.0    -0.3     0.4     0.0     0.3    -0.0
    -0.2    -0.1     0.4    -0.3     0.3    -0.1     0.1     0.2    -0.1     0.2
    -0.3    -0.3    -0.1     0.5     0.1     0.1    -0.2     0.3    -0.0    -0.3
    -0.2     0.2    -0.1     0.2    -0.0    -0.3    -0.3     0.1    -0.5     0.2
     0.0    -0.1    -0.3     0.0    -0.1     0.2     0.2     0.3     0.3    -0.4
    -0.1     0.0     0.2    -0.0     0.4    -0.4     0.1    -0.3     0.5    -0.2
     0.4    -0.2    -0.2     0.4    -0.0     0.3    -0.4    -0.4    -0.2    -0.3
    -0.3    -0.1    -0.3     0.2    -0.5     0.4    -0.3    -0.3    -0.0     0.1
    -0.0    -0.6     0.4     0.1     0.6     0.0     0.3    -0.3     0.1    -0.0
     0.1     0.3    -0.1    -0.2    -0.2     0.2    -0.6     0.0    -0.2     0.3
    -0.1     0.2    -0.5    -0.2     0.0     0.3    -0.0     0.1    -0.5    -0.2
    -0.2    -0.2     0.2    -0.3    -0.3     0.2    -0.2    -0.1     0.1     0.1
     0.4    -0.1     0.4     0.0     0.1    -0.1    -0.0     0.3    -0.1     0.2
     0.3    -0.2     0.3     0.2    -0.1     0.0    -0.1     0.2    -0.1     0.1
    -0.1    -0.0    -0.1     0.1     0.4    -0.1     0.0    -0.1     0.2    -0.2
    -0.1    -0.2     0.0    -0.2    -0.1    -0.2     0.6    -0.1     0.2     0.1
     0.2     0.1     0.2    -0.0     0.2     0.1    -0.1    -0.1    -0.0     0.5
     0.1     0.3    -0.0     0.2     0.0     0.2    -0.3     0.1    -0.1     0.0
    -0.1     0.1    -0.0     0.2    -0.2     0.4    -0.3     0.4    -0.1    -0.1
     0.2    -0.1     0.4    -0.1     0.2    -0.2    -0.0    -0.1    -0.1    -0.1
     0.3     0.3     0.0    -0.0    -0.3    -0.1    -0.2     0.7     0.1    -0.1
    -0.4     0.2     0.2     0.1     0.1     0.4    -0.2     0.1    -0.0     0.0
    -0.2    -0.4    -0.1     0.1     0.0    -0.3    -0.1    -0.1     0.1     0.0
    -0.3    -0.3    -0.1    -0.1     0.2    -0.1    -0.5     0.2    -0.1    -0.2
    -0.1    -0.3    -0.0     0.3     0.2     0.0     0.1     0.1    -0.2    -0.1
    -0.4    -0.1    -0.1    -0.2     0.2    -0.1    -0.5    -0.2     0.2    -0.6
    -0.0     0.4     0.1    -0.2    -0.2    -0.3     0.1     0.2    -0.0     0.5
    -0.0    -0.1    -0.1     0.1     0.0     0.1     0.2    -0.3    -0.3    -0.3
    -0.1     0.1     0.3    -0.1     0.2    -0.1     0.1    -0.3     0.1     0.0
    -0.2     0.1     0.1    -0.5    -0.1    -0.2     0.2    -0.2     0.0     0.2
    -0.0     0.1    -0.0    -0.1     0.1     0.3    -0.1     0.5    -0.3     0.3
     0.0     0.1    -0.4     0.3    -0.4    -0.1     0.3     0.3     0.1     0.1
     0.2    -0.4    -0.4     0.0     0.2     0.0     0.2    -0.1    -0.0     0.0
    -0.5     0.4     0.1    -0.1    -0.2     0.1    -0.2     0.2     0.1     0.0
     0.1     0.1     0.3     0.3     0.2     0.2     0.1     0.3     0.0     0.2
    -0.1     0.2     0.0     0.1     0.1     0.1    -0.0     0.1    -0.3    -0.2
    -0.2     0.1    -0.2     0.3    -0.1     0.2     0.1     0.2    -0.0    -0.3
     0.0    -0.1     0.3    -0.1     0.1     0.0    -0.2     0.3    -0.1     0.5
     0.3     0.4     0.1     0.1    -0.1     0.1    -0.2    -0.2    -0.2     0.2
    -0.0     0.1     0.3     0.2    -0.0     0.0    -0.1     0.2     0.2    -0.0
    -0.3     0.3    -0.2     0.1    -0.1    -0.3    -0.2    -0.2    -0.1    -0.6
    -0.1     0.4     0.1    -0.4    -0.5    -0.0     0.0    -0.4    -0.1    -0.0
    -0.1    -0.5     0.1     0.0     0.1    -0.3    -0.2     0.3     0.0    -0.2
     0.1     0.2    -0.3     0.0     0.3     0.2    -0.2     0.1     0.4    -0.0
     0.1    -0.1     0.1     0.4     0.0     0.3     0.3     0.4    -0.1    -0.1
     0.1    -0.2    -0.1     0.1     0.1     0.1    -0.4     0.1     0.1     0.4
     0.3     0.0     0.2     0.0    -0.3     0.0    -0.6     0.3    -0.1    -0.2
    -0.4    -0.3    -0.3    -0.1    -0.4    -0.2    -0.0    -0.3    -0.3     0.3
     0.2    -0.2    -0.2    -0.1    -0.1    -0.1     0.2     0.4     0.1    -0.1
     0.1     0.0    -0.4    -0.2    -0.2    -0.2    -0.3    -0.1     0.2     0.3
    -0.1    -0.2    -0.3     0.4     0.1    -0.0    -0.3    -0.1    -0.4     0.4
    -0.0    -0.1    -0.3     0.3     0.3    -0.3    -0.2    -0.0    -0.1     0.4
     0.3     0.4    -0.4     0.3     0.1    -0.1     0.3     0.3     0.0     0.1
    -0.1    -0.3     0.0    -0.0     0.2    -0.3     0.0     0.4     0.1     0.2
    -0.2     0.1    -0.1     0.1     0.1     0.5     0.2     0.2     0.0     0.3
     0.2     0.0     0.1     0.3    -0.2     0.2    -0.3    -0.1     0.6     0.5
    -0.1     0.1     0.2     0.2    -0.2    -0.2    -0.3    -0.2    -0.4    -0.7
    -0.1     0.1    -0.2    -0.2     0.2    -0.0     0.2    -0.6     0.2     0.1
    -0.2     0.1    -0.4    -0.3    -0.5    -0.0     0.0    -0.0     0.4    -0.1
    -0.2     0.1    -0.1     0.0    -0.2    -0.3     0.1     0.3    -0.1    -0.2
     0.2    -0.1     0.1     0.5     0.0     0.1     0.3     0.1    -0.2     0.0
     0.2    -0.3    -0.2    -0.1     0.1    -0.1    -0.3     0.5     0.1     0.2
     0.2     0.1     0.1    -0.1     0.2     0.4    -0.0    -0.1    -0.2     0.1
    -0.1    -0.1     0.1     0.1    -0.0    -0.2     0.3    -0.2    -0.1    -0.3
     0.2    -0.1     0.3     0.0     0.1     0.1     0.1     0.1    -0.2     0.2
    -0.4     0.3    -0.4     0.4    -0.2     0.5    -0.3    -0.1    -0.5    -0.2
    -0.1     0.5    -0.7     0.0     0.0     0.2     0.3     0.1    -0.1    -0.2
     0.3    -0.4    -0.0    -0.1    -0.0    -0.1     0.1     0.3    -0.4     0.1
    -0.1     0.2     0.1    -0.2    -0.3     0.2     0.0     0.2    -0.3     0.1
    -0.2     0.4     0.1    -0.1    -0.3    -0.3    -0.4     0.2    -0.1     0.6
    -0.6     0.1    -0.5     0.4    -0.1     0.2     0.2     0.0    -0.2     0.1
    -0.3     0.3     0.0     0.2     0.2    -0.1     0.2    -0.3    -0.1     0.0
     0.4    -0.4     0.1    -0.0     0.4    -0.0    -0.4    -0.0    -0.0     0.0
    -0.1     0.3     0.3     0.1     0.1    -0.5     0.1     0.0    -0.1    -0.1
     0.2    -0.2     0.1    -0.3    -0.3     0.2    -0.0    -0.1    -0.0    -0.2
    -0.1    -0.1    -0.2     0.1     0.1     0.3     0.5     0.2     0.1    -0.1
     0.2     0.2     0.2     0.2     0.1    -0.1     0.0     0.1    -0.3     0.1
     0.1     0.1    -0.3     0.4    -0.1     0.0    -0.4     0.1    -0.6    -0.1
    -0.1     0.5     0.2     0.3    -0.2     0.2    -0.1     0.0    -0.4     0.2
    -0.3    -0.0    -0.6    -0.0    -0.1    -0.2    -0.5    -0.3     0.0     0.0
     0.1    -0.1    -0.1     0.1     0.1     0.1     0.2     0.4    -0.0     0.3
     0.1     0.5    -0.5     0.4     0.3    -0.2     0.3    -0.0    -0.1     0.1
     0.2     0.2     0.1     0.2     0.4     0.2     0.1    -0.0    -0.1    -0.0
    -0.1     0.1    -0.1    -0.2     0.0     0.1    -0.2    -0.2    -0.1    -0.2
    -0.1     0.1     0.0    -0.0    -0.2    -0.3     0.3     0.2    -0.2    -0.3
     0.2    -0.0    -0.1    -0.1     0.4     0.3    -0.0     0.3    -0.2    -0.1
     0.2    -0.2    -0.2    -0.1    -0.3    -0.2    -0.2    -0.0    -0.1    -0.3
    -0.2     0.1    -0.3    -0.1    -0.4    -0.1     0.2     0.4    -0.3     0.2
    -0.2     0.2     0.1    -0.0     0.4     0.4    -0.1    -0.0     0.2     0.1
    -0.4     0.1    -0.2    -0.1     0.3     0.2     0.2     0.2    -0.3    -0.0
    -0.1     0.1    -0.3    -0.3    -0.0     0.2    -0.0     0.0     0.1    -0.1
    -0.4     0.1    -0.2     0.4    -0.2     0.5    -0.2     0.2    -0.1    -0.0
    -0.3     0.1     0.2     0.1    -0.1    -0.1    -0.2     0.1    -0.3     0.1
    -0.1     0.1     0.2     0.4    -0.2    -0.0    -0.0    -0.1     0.0    -0.1
    -0.1    -0.3     0.1    -0.1    -0.1    -0.0    -0.1    -0.1    -0.4    -0.0
     0.1    -0.0     0.0    -0.1     0.2     0.1    -0.4     0.4    -0.3     0.8
    -0.4     0.1    -0.0     0.1    -0.0     0.1    -0.0     0.3     0.2     0.3
    -0.5     0.6    -0.1     0.1    -0.3    -0.0    -0.2     0.0     0.2     0.2
     0.0     0.4    -0.3     0.4    -0.5    -0.4     0.5     0.2     0.1    -0.3
    -0.1     0.0     0.0     0.1     0.1     0.5     0.3     0.3     0.1    -0.0
    -0.0     0.3    -0.1     0.1    -0.1     0.2    -0.2     0.4     0.1     0.2
     0.0     0.1     0.1     0.4     0.2     0.1    -0.1     0.1     0.1     0.2
     0.3     0.0     0.0     0.5     0.1     0.4    -0.4    -0.0     0.2     0.1
     0.1     0.1     0.1    -0.0    -0.1     0.0     0.0     0.1     0.2     0.0
     0.3     0.2     0.2    -0.1    -0.1     0.5     0.1     0.0    -0.2     0.1
     0.1    -0.0     0.3    -0.0    -0.4     0.3     0.1     0.2    -0.2     0.7
    -0.2     0.1    -0.1    -0.1    -0.2     0.1    -0.2     0.0     0.1    -0.2
    -0.1     0.5    -0.1     0.1    -0.1    -0.1    -0.1     0.1     0.1    -0.6
    -0.3    -0.4    -0.5    -0.1    -0.2     0.2    -0.1     0.3    -0.1    -0.2
    -0.4    -0.5    -0.1    -0.7    -0.5    -0.0    -0.7    -0.3    -0.5    -0.0
    -0.7    -0.0    -0.5    -0.2    -0.4    -0.3    -0.3    -0.3    -0.5    -0.1
    -0.3    -0.3    -0.4    -0.2    -0.2    -0.1    -0.6    -0.4    -0.2    -0.2
    -0.9    -0.0    -0.4    -0.1    -0.3    -0.1    -0.4    -0.4     0.0    -0.1
    -0.1    -0.1    -0.4    -0.3    -0.3     0.1    -0.2    -0.0    -0.4    -0.4
    -0.1    -0.1    -0.2     0.1    -0.0    -0.2    -0.3    -0.1    -0.7    -0.2
    -0.2     0.4    -0.5     0.2    -0.2    -0.3    -0.6    -0.2    -0.1    -0.1
    -0.4    -0.1    -0.1     0.1    -0.5    -0.0    -0.1    -0.0    -0.2     0.3
     0.0    -0.0     0.1    -0.1    -0.6     0.5    -0.2    -0.3    -0.1     0.3
    -0.4    -0.1    -0.2     0.1     0.2    -0.1     0.1     0.3     0.1     0.3
    -0.2     0.4     0.1     0.3    -0.1     0.3     0.3     0.3     0.2     0.5
     0.2     0.4     0.2     0.3     0.1     0.5     0.2     0.1    -0.2    -0.1
    -0.2    -0.1    -0.0     0.4     0.1     0.1     0.3     0.7     0.6     0.7
     1.3     1.7     0.7     0.6     1.2     0.8     0.2    -0.4     3.2     1.4
     0.9     0.2    -2.8     0.2     2.1     3.6     3.2    -0.0    -1.5    -3.1
