Corrected accelerogram 20160214_001343_CSHS_20 GNS Science
Site CSHS      43 13 36S  171 43 25E     Basalt file:  20160214_001400_CSHS
Castle Hill Station
Instrument Basalt_2429
Resolution: 24-bit   Instr Period: 0.0050 s   Damping: 0.700
Accelerogram 20160214_001343_CSHS_20                 Processed 2016 February 22
11 km east of CHRISTCHURCH
2016 February 14         00:13:43 UT
Epicentre  43 29 50S 172 45 18E  Bearing S70E  Dist   89km  Depth    8km M  5.70
Number of points  7150    Duration 142.98 sec
Instrument corrected data at 0.020 sec intervals
Band-pass filter transition bands are .10-.25 Hz and 24.50-25.50 Hz
Component N00E  Horizontal Axis 1
Acceleration:  peak    -72.7 mm/s/s at  52.90 sec     rms      7.2 mm/s/s
Velocity:      peak     7.97 mm/s   at  58.26 sec     rms     1.21 mm/s
Displacement:  peak   -2.121 mm     at  61.48 sec     rms    0.522 mm
    2016       2      14       0      13     430       0       0    2016       2
      43      29      50     172      45      18       8       0      14       0
      43      13      36     171      43      25       0       0     110      89
   26600     250     250    7150    7150    7150       0       0      13   20000
   200.0    0.70    0.00   0.000  0.0000   0.000   0.000   1.000     0.0    0.00
  43.227 171.724   43.50  172.76    5.70    0.00    0.00    0.00      0.      0.
  133.00    5.00    5.00  142.98  0.0050  0.0200      0.      0.      0.  9806.6
   -73.4   52.90     7.5   0.000      0.   -72.7   52.90     7.2    91.6   1.486
    7.97   58.26    1.21    8.73   0.302   -2.12   61.48    0.52    2.59   0.204
   0.100   0.150   0.250      0.      0.  24.500   1.000  25.500      0.      0.
  -0.000   0.000  -0.000   0.000  -0.000   0.000  -0.000   0.000  -0.000   0.000
  -0.000   0.000  -0.000   0.000  -0.000   0.000  -0.000   0.000  -0.000   0.000
  -0.000   0.000  -0.000   0.000  -0.000   0.000  -0.000   0.000  -0.000   0.000
  -0.000   0.000  -0.000   0.000  -0.000   0.000  -0.000   0.000  -0.000   0.000
  -0.000   0.000  -0.000   0.000  -0.000   0.000  -0.000   0.000  -0.000   0.000
  -0.000   0.000  -0.000   0.000  -0.000   0.000  -0.000   0.000  -0.000   0.000
  -0.000   0.000  -0.000   0.000  -0.000   0.000  -0.000   0.000  -0.000   0.000
  -0.000   0.000  -0.000   0.001  -0.000   0.001  -0.000   0.001  -0.000   0.001
  -0.000   0.001  -0.000   0.001  -0.000   0.001  -0.000   0.001  -0.000   0.001
  -0.000   0.001  -0.000   0.001  -0.000   0.001  -0.000   0.001  -0.000   0.001
  -0.000   0.001  -0.000   0.001  -0.000   0.001  -0.000   0.001  -0.000   0.001
  -0.000   0.001  -0.000   0.001  -0.000   0.001  -0.000   0.001  -0.000   0.001
  -0.000   0.001  -0.000   0.001  -0.000   0.001  -0.000   0.001  -0.000   0.001
  -0.000   0.001  -0.000   0.001  -0.000   0.001  -0.000   0.001  -0.000   0.001
  -0.000   0.001  -0.000   0.001  -0.000   0.001  -0.000   0.001  -0.000   0.001
  -0.000   0.001  -0.000   0.001  -0.000   0.001  -0.000   0.001  -0.000   0.001
  -0.000   0.001  -0.000   0.001  -0.000   0.001  -0.000   0.001  -0.000   0.001
  -0.000   0.000  -0.000   0.000  -0.000   0.000  -0.000   0.000  -0.000   0.000
  -0.000   0.000  -0.000   0.000  -0.000   0.000  -0.000   0.000  -0.000   0.000
  -0.001   0.000  -0.001   0.000  -0.001   0.000  -0.001   0.000  -0.001   0.000
  -0.001   0.000  -0.001   0.000  -0.001   0.000  -0.001   0.000  -0.001   0.000
  -0.001   0.000  -0.001   0.000  -0.001   0.000  -0.001   0.000  -0.001   0.000
  -0.001  -0.000  -0.001  -0.000  -0.001  -0.000  -0.001  -0.000  -0.001  -0.000
  -0.001  -0.000  -0.001  -0.000  -0.001  -0.000  -0.001  -0.000  -0.001  -0.000
  -0.001  -0.000  -0.001  -0.000  -0.001  -0.000  -0.001  -0.001  -0.001  -0.001
   0.001   0.005  -0.002  -0.000   0.000   0.005  -0.003   0.002  -0.004  -0.023
   0.005  -0.000   0.004  -0.001  -0.001  -0.000  -0.001  -0.001  -0.026   0.002
  -0.003   0.008  -0.005   0.005  -0.019  -0.011   0.009   0.000   0.000  -0.002
   0.000  -0.002   0.000  -0.002   0.001  -0.003   0.006   0.022  -0.010   0.013
   0.023  -0.006   0.001  -0.003   0.000  -0.002  -0.000  -0.003  -0.025   0.001
  -0.002   0.000  -0.002   0.030   0.005  -0.004   0.001  -0.002   0.000  -0.002
   0.000  -0.003   0.005  -0.001  -0.001  -0.002   0.001   0.004  -0.002  -0.001
  -0.001  -0.001   0.007   0.004  -0.002  -0.000  -0.001  -0.001  -0.001  -0.001
  -0.001  -0.001  -0.001  -0.001  -0.001  -0.001  -0.001  -0.000   0.006  -0.006
   0.012   0.023  -0.007   0.003  -0.004   0.002  -0.003   0.001  -0.001   0.007
  -0.006   0.009   0.022  -0.000  -0.002  -0.023   0.005  -0.010   0.012  -0.006
  -0.022   0.005  -0.004   0.002  -0.003   0.007  -0.003   0.002  -0.004   0.008
   0.002   0.010   0.026  -0.008   0.005  -0.008   0.021   0.014  -0.011   0.033
  -0.004   0.025   0.002   0.003  -0.015  -0.006   0.008  -0.005   0.004  -0.004
   0.006  -0.018  -0.012   0.011  -0.006   0.005  -0.006   0.008  -0.020  -0.007
   0.006   0.000  -0.006  -0.023   0.007  -0.004   0.004  -0.003   0.011   0.001
  -0.021   0.030  -0.025   0.003  -0.001   0.002  -0.000   0.002  -0.005  -0.000
   0.002  -0.000   0.003  -0.020  -0.007   0.006  -0.004   0.008  -0.026   0.000
  -0.004   0.029  -0.019   0.017   0.017  -0.006   0.007  -0.003   0.006  -0.003
   0.006  -0.004   0.009  -0.018  -0.008  -0.009  -0.017   0.012  -0.008   0.013
  -0.024   0.008   0.016   0.004   0.034  -0.010   0.012  -0.012  -0.015   0.003
   0.003  -0.001  -0.020   0.026  -0.024   0.004   0.000   0.003  -0.000   0.011
   0.006   0.003   0.009  -0.047   0.005   0.002   0.003   0.001   0.005   0.006
   0.004   0.006  -0.000   0.004  -0.000   0.005  -0.003   0.013   0.016  -0.026
   0.013  -0.032   0.013  -0.020  -0.005  -0.004  -0.014   0.007   0.000   0.008
  -0.023   0.004   0.001   0.002   0.002   0.002   0.011  -0.027  -0.022   0.002
   0.016   0.030  -0.006   0.007  -0.002   0.005   0.000   0.010  -0.003   0.011
  -0.000   0.005  -0.002   0.006  -0.003  -0.024  -0.002  -0.015   0.001   0.010
  -0.020  -0.004   0.004   0.000   0.002   0.001   0.002   0.000   0.007   0.002
   0.001   0.001   0.003  -0.019  -0.000  -0.001  -0.003   0.004  -0.002   0.004
  -0.002   0.005  -0.003   0.007  -0.010  -0.012   0.003   0.002  -0.002   0.008
  -0.005  -0.021   0.005   0.005  -0.004  -0.001   0.002  -0.001   0.002  -0.001
   0.001  -0.000   0.001  -0.000   0.001  -0.000   0.001  -0.000   0.000   0.000
   0.006  -0.000  -0.000   0.000  -0.002   0.006   0.024  -0.010  -0.018  -0.001
   0.012   0.014   0.015   0.025  -0.008   0.006   0.001   0.000   0.003   0.002
  -0.003   0.000   0.001   0.005  -0.004   0.002  -0.004   0.002  -0.004   0.003
  -0.007  -0.001   0.005  -0.003   0.000  -0.002   0.000  -0.004   0.021   0.006
  -0.005   0.001  -0.029   0.004  -0.006   0.004  -0.009   0.014  -0.028  -0.012
   0.000   0.002   0.001  -0.027   0.000  -0.003   0.004   0.025  -0.016   0.026
   0.019   0.004  -0.009  -0.006  -0.000  -0.000   0.020   0.007   0.013  -0.045
   0.024  -0.012   0.006  -0.009   0.006   0.021  -0.017   0.026  -0.022   0.000
  -0.003  -0.002  -0.002  -0.002  -0.002  -0.003  -0.001   0.003  -0.002  -0.002
  -0.002  -0.002  -0.002  -0.002  -0.002  -0.002  -0.002  -0.002  -0.002  -0.002
  -0.003  -0.001  -0.003   0.000  -0.006   0.013   0.033  -0.013   0.011   0.015
  -0.000   0.001  -0.004   0.009  -0.033   0.021   0.002  -0.001   0.003  -0.005
  -0.001   0.001   0.043   0.002   0.001  -0.011  -0.023   0.003  -0.005   0.002
   0.002   0.002  -0.003  -0.002  -0.002  -0.003  -0.000  -0.006   0.020   0.013
  -0.025  -0.018   0.017   0.005  -0.002   0.002  -0.002   0.008  -0.017  -0.011
  -0.004   0.016   0.017  -0.011   0.013  -0.007   0.004  -0.004  -0.000  -0.003
  -0.001  -0.003  -0.001  -0.003   0.000   0.003  -0.002   0.006  -0.008   0.023
   0.001   0.004   0.022  -0.009   0.003  -0.005   0.010  -0.014  -0.013  -0.001
   0.002   0.000  -0.027   0.006  -0.003   0.000  -0.006  -0.021   0.004  -0.004
   0.009  -0.022  -0.011  -0.002   0.020   0.005  -0.004   0.000  -0.003  -0.001
  -0.002  -0.001  -0.001   0.004  -0.001  -0.002  -0.000  -0.003   0.001  -0.004
   0.003  -0.009   0.020  -0.004  -0.021   0.007  -0.007   0.003  -0.005   0.002
  -0.005   0.006  -0.002   0.000  -0.003   0.000  -0.002   0.000  -0.002   0.000
  -0.002  -0.000  -0.002  -0.000  -0.002  -0.001   0.003   0.001  -0.003   0.001
  -0.004   0.006   0.024  -0.029   0.002   0.001  -0.001  -0.001   0.001  -0.004
   0.009   0.026  -0.008   0.004  -0.005   0.008  -0.002   0.001  -0.002   0.001
  -0.003   0.002   0.022  -0.000  -0.001   0.003  -0.022   0.001  -0.002   0.002
   0.004  -0.001   0.002   0.005  -0.002   0.001   0.004   0.002   0.029  -0.002
   0.001  -0.001   0.000  -0.001   0.001  -0.002  -0.021   0.005  -0.002   0.002
  -0.002   0.006   0.001   0.000   0.000   0.000   0.000  -0.000   0.001  -0.001
  -0.011   0.002  -0.030   0.005  -0.001   0.008  -0.006   0.012   0.020   0.009
  -0.014  -0.013   0.004  -0.027   0.004  -0.002   0.002  -0.001   0.002  -0.001
   0.002  -0.001   0.004   0.004   0.001  -0.000   0.002  -0.003   0.023   0.006
  -0.002   0.002  -0.001   0.002  -0.000   0.001   0.000   0.001   0.000   0.001
   0.000   0.001   0.001   0.001   0.001   0.001   0.001   0.001   0.001   0.001
   0.001   0.001   0.001   0.000   0.001   0.000   0.002  -0.000   0.002   0.005
   0.002  -0.001   0.005  -0.008  -0.020   0.006   0.004   0.006   0.003  -0.001
   0.005  -0.016  -0.014   0.006  -0.002   0.003   0.002   0.006  -0.002   0.003
  -0.001   0.003  -0.001   0.002  -0.001   0.002  -0.001   0.002  -0.000   0.002
   0.000   0.000   0.005   0.003  -0.002   0.005  -0.004   0.010  -0.006  -0.020
   0.005  -0.002   0.002  -0.001   0.001   0.000   0.001   0.002  -0.017  -0.004
   0.005   0.002   0.006  -0.029  -0.003   0.006  -0.007   0.005   0.004  -0.001
   0.006   0.001   0.001  -0.002   0.023   0.006  -0.002   0.002   0.000  -0.002
   0.014   0.022  -0.007   0.008  -0.026  -0.002   0.000   0.001  -0.001   0.002
  -0.001   0.002  -0.002   0.002  -0.002   0.003  -0.003   0.004  -0.047   0.005
  -0.017  -0.014   0.005  -0.003   0.002  -0.001   0.001  -0.001   0.001  -0.001
   0.001  -0.002   0.005   0.010   0.001   0.005  -0.017  -0.008   0.004  -0.003
   0.002  -0.002   0.001  -0.002   0.001  -0.002   0.001  -0.002   0.001  -0.004
  -0.004  -0.000  -0.000  -0.001   0.005   0.007  -0.004   0.015   0.021  -0.009
   0.007  -0.008   0.014  -0.031   0.002   0.011  -0.019   0.037  -0.018   0.034
  -0.017  -0.014   0.003  -0.003   0.001  -0.003   0.001   0.003   0.005  -0.001
   0.001  -0.004   0.008  -0.009  -0.023   0.004  -0.005   0.006  -0.001   0.005
  -0.002   0.000  -0.007  -0.027   0.012  -0.027   0.013   0.019  -0.009   0.003
  -0.002   0.005  -0.006   0.002  -0.005   0.008  -0.006   0.010   0.001   0.000
   0.003  -0.003  -0.000  -0.004   0.012   0.020  -0.008   0.002  -0.003   0.033
  -0.029   0.008  -0.032   0.023   0.005  -0.004  -0.001  -0.000   0.003  -0.003
  -0.002  -0.002  -0.002  -0.001   0.003  -0.000  -0.005   0.020   0.011   0.000
  -0.001  -0.002  -0.002  -0.002  -0.002  -0.001   0.004  -0.006   0.017   0.039
   0.001  -0.004  -0.026   0.005  -0.003  -0.001  -0.002  -0.002  -0.002  -0.003
   0.001  -0.023   0.017   0.007  -0.007   0.003  -0.006   0.003  -0.008   0.009
   0.017  -0.005  -0.001   0.004  -0.003  -0.001  -0.003  -0.001  -0.001   0.008
  -0.003  -0.021   0.002  -0.002  -0.001  -0.001  -0.002  -0.001  -0.002  -0.001
  -0.002  -0.000  -0.003   0.001   0.023   0.008  -0.001  -0.003   0.018   0.011
  -0.004   0.004  -0.012  -0.020   0.003  -0.002  -0.000  -0.001  -0.001   0.004
   0.001  -0.002   0.002  -0.022  -0.008   0.005   0.020  -0.030   0.000  -0.000
   0.002   0.005  -0.004   0.003  -0.005   0.009   0.023  -0.000   0.001   0.025
  -0.002   0.003  -0.003   0.006  -0.017  -0.014   0.011   0.004   0.003  -0.004
  -0.017   0.005  -0.002   0.003  -0.001   0.003  -0.000  -0.001  -0.039  -0.005
  -0.000   0.009  -0.000   0.006  -0.010  -0.024   0.007  -0.001   0.004   0.000
   0.003   0.001   0.002   0.001   0.002   0.001   0.006   0.006   0.000   0.004
   0.001   0.004   0.001  -0.010   0.016   0.001   0.002   0.003   0.001   0.004
   0.000   0.006  -0.002   0.010  -0.020   0.015  -0.009  -0.014   0.036  -0.005
   0.012   0.001   0.006  -0.001   0.008  -0.008  -0.016   0.007   0.001   0.004
   0.002   0.006  -0.019  -0.004   0.007  -0.000   0.007  -0.001   0.006  -0.027
   0.005  -0.021   0.000   0.001  -0.018  -0.006  -0.011   0.032  -0.007   0.011
  -0.006   0.018   0.014  -0.023   0.012  -0.004   0.012  -0.025   0.005  -0.009
  -0.003   0.024  -0.029   0.016  -0.008   0.013  -0.008   0.021   0.004  -0.015
  -0.008  -0.012   0.018  -0.019  -0.007   0.005   0.002   0.003   0.003   0.001
  -0.020   0.034  -0.000   0.004   0.001   0.003   0.001   0.004  -0.001  -0.002
   0.005  -0.005   0.004  -0.006  -0.020   0.008  -0.001   0.010   0.001   0.008
  -0.008   0.007  -0.004   0.010  -0.004  -0.003   0.010  -0.003   0.007  -0.016
  -0.011  -0.014  -0.036   0.015  -0.029   0.029  -0.000   0.009  -0.020  -0.005
   0.011  -0.012   0.011  -0.029   0.030   0.002   0.010  -0.003   0.004  -0.003
   0.005  -0.005  -0.018  -0.010  -0.025   0.007  -0.003   0.003  -0.003  -0.022
  -0.000   0.006   0.001   0.006  -0.001   0.001  -0.001   0.001  -0.001   0.001
  -0.001   0.002  -0.029   0.024   0.013  -0.004   0.002  -0.002   0.001  -0.002
   0.001  -0.002   0.004   0.002  -0.001  -0.000  -0.000  -0.000  -0.000  -0.001
   0.001   0.024  -0.003   0.005   0.001  -0.001   0.000  -0.000   0.008  -0.016
  -0.009   0.003  -0.002   0.028  -0.004   0.001  -0.002   0.002  -0.004   0.002
  -0.002   0.001  -0.002   0.001  -0.002   0.007  -0.002   0.007   0.003   0.001
  -0.002   0.001  -0.003   0.002  -0.003   0.002  -0.003   0.002  -0.003   0.008
  -0.004   0.003   0.014   0.006  -0.012  -0.020   0.020   0.013  -0.001   0.006
   0.028   0.000  -0.006   0.022   0.004  -0.017   0.008  -0.002   0.032  -0.028
   0.003  -0.029   0.024   0.007  -0.003  -0.000   0.003   0.003  -0.001  -0.001
   0.002   0.001   0.014   0.016  -0.031   0.017  -0.011   0.022   0.009   0.003
   0.001  -0.001   0.004   0.003  -0.003   0.002   0.014   0.028  -0.006  -0.012
   0.006  -0.004   0.003  -0.003   0.003   0.003  -0.001  -0.001  -0.000  -0.001
   0.000  -0.001   0.000  -0.001   0.001   0.029  -0.003   0.003   0.003  -0.003
   0.002  -0.003   0.004  -0.025  -0.002  -0.021  -0.008   0.003  -0.003   0.002
   0.023  -0.002   0.007   0.030   0.000  -0.014  -0.018   0.009  -0.020  -0.018
   0.002  -0.001  -0.000  -0.001   0.000  -0.032  -0.022   0.005  -0.004   0.003
  -0.003   0.002  -0.003   0.002  -0.003   0.005   0.007  -0.032   0.002  -0.002
   0.002  -0.022  -0.008  -0.021  -0.002   0.001   0.000   0.002  -0.006   0.006
  -0.025  -0.004   0.001  -0.001   0.002  -0.021  -0.008   0.007   0.000   0.001
  -0.001   0.001   0.000   0.002  -0.005   0.004  -0.004   0.004  -0.002   0.011
  -0.021  -0.009  -0.000  -0.022  -0.008  -0.016   0.002  -0.031  -0.001  -0.000
   0.001  -0.000   0.001   0.006   0.001   0.000   0.000   0.004   0.004  -0.025
  -0.023   0.001   0.001  -0.000   0.002  -0.000   0.004  -0.010  -0.013   0.003
   0.015   0.030   0.014   0.002   0.000   0.002   0.000   0.002   0.001   0.001
   0.004  -0.020  -0.006   0.011   0.025   0.002   0.009   0.023   0.005  -0.001
  -0.022   0.015  -0.004   0.007  -0.003   0.009  -0.000   0.007   0.030  -0.007
   0.010  -0.011  -0.010  -0.002   0.022   0.001   0.027   0.012  -0.004   0.007
  -0.003   0.012  -0.001   0.009  -0.016  -0.010   0.006   0.003   0.008  -0.002
   0.008  -0.022  -0.002   0.003   0.002   0.001  -0.022   0.004   0.002   0.003
   0.001   0.022   0.012  -0.002   0.032  -0.019   0.009   0.026   0.001   0.005
   0.001   0.028  -0.001   0.004   0.001   0.009   0.001   0.002   0.002   0.001
   0.003   0.000   0.004  -0.002   0.013  -0.012  -0.008  -0.007  -0.014   0.032
  -0.036   0.012  -0.007   0.009  -0.006   0.034   0.000   0.007   0.001  -0.024
   0.010  -0.014  -0.016   0.010  -0.012  -0.035  -0.007   0.005  -0.004   0.019
  -0.028  -0.006   0.005  -0.001   0.000   0.003   0.004  -0.033  -0.015   0.005
   0.006   0.001   0.013   0.041  -0.011   0.012  -0.025   0.001  -0.019  -0.007
  -0.009  -0.019   0.007  -0.007   0.004  -0.010   0.002   0.002  -0.000  -0.003
  -0.025  -0.001   0.003   0.001  -0.003   0.002  -0.024  -0.007   0.001  -0.024
   0.006  -0.008   0.024   0.008  -0.002  -0.004   0.014   0.016   0.008   0.020
  -0.032  -0.002  -0.005   0.040   0.016  -0.004  -0.001  -0.001   0.005  -0.004
   0.002  -0.006  -0.021  -0.010  -0.020  -0.005  -0.032   0.010  -0.011   0.014
   0.023   0.001   0.005  -0.001  -0.007   0.003   0.005  -0.007  -0.003   0.001
   0.001   0.010  -0.002   0.001  -0.000   0.007  -0.003   0.003  -0.003   0.005
   0.003   0.002  -0.001   0.003  -0.002   0.004  -0.003   0.006  -0.023  -0.003
   0.002   0.028  -0.005   0.019   0.015  -0.003   0.005  -0.001   0.005   0.004
   0.010   0.018  -0.003   0.006   0.005   0.005  -0.000   0.006  -0.001   0.007
  -0.004   0.033   0.008   0.009   0.000   0.011  -0.008  -0.007   0.008   0.001
   0.005   0.002   0.004  -0.022   0.006   0.002   0.005   0.001  -0.016   0.018
   0.026  -0.005   0.016   0.022   0.001   0.004   0.005  -0.002  -0.004   0.006
   0.003   0.004   0.007   0.007   0.002   0.004   0.003   0.000   0.001   0.003
   0.001   0.005   0.005  -0.004   0.009   0.023  -0.003   0.007   0.005   0.005
   0.005   0.004  -0.003   0.006   0.001   0.006  -0.025  -0.019  -0.006   0.004
  -0.002   0.003   0.007   0.003  -0.002   0.003   0.004  -0.002  -0.000  -0.002
   0.002   0.002  -0.003   0.003  -0.000  -0.005   0.003   0.029  -0.010  -0.004
   0.005  -0.000  -0.006  -0.008  -0.007  -0.006   0.018   0.013  -0.014  -0.001
  -0.011  -0.003  -0.011  -0.004  -0.011  -0.001  -0.009  -0.008  -0.010  -0.009
  -0.008  -0.013   0.014   0.009  -0.019  -0.009  -0.018  -0.005  -0.017  -0.006
  -0.018  -0.006  -0.022   0.009  -0.007  -0.025   0.034  -0.016  -0.011  -0.020
   0.002  -0.002  -0.018   0.018  -0.023  -0.010  -0.022  -0.010  -0.029  -0.035
  -0.015  -0.016   0.005  -0.016  -0.011  -0.022  -0.013  -0.035  -0.033  -0.013
  -0.023  -0.015  -0.022   0.016  -0.046  -0.018  -0.035  -0.033   0.011  -0.026
  -0.011  -0.020  -0.016  -0.026  -0.026  -0.005  -0.024  -0.017  -0.020   0.006
  -0.020  -0.014  -0.027  -0.014  -0.029  -0.002   0.018  -0.037  -0.017  -0.043
  -0.018  -0.017  -0.016  -0.021  -0.027   0.003  -0.028   0.019  -0.039  -0.016
  -0.011  -0.019  -0.016  -0.016   0.009  -0.004  -0.009  -0.007  -0.014  -0.010
  -0.010   0.014  -0.034   0.023  -0.037  -0.004  -0.010  -0.005  -0.007  -0.005
  -0.005  -0.034   0.022  -0.014  -0.019   0.007  -0.002   0.001  -0.031   0.018
  -0.027   0.036   0.014   0.002   0.002   0.014   0.027   0.006   0.013   0.004
   0.014  -0.014  -0.000   0.011   0.008   0.020   0.014   0.008  -0.008   0.024
   0.012   0.022   0.015  -0.002   0.020   0.024   0.028   0.017   0.025   0.015
   0.044   0.035  -0.002   0.040  -0.007   0.054   0.034   0.038   0.032   0.024
   0.010   0.039   0.039   0.015   0.038   0.041   0.046   0.039   0.045   0.036
   0.048   0.043   0.028   0.047   0.021   0.061   0.036   0.055   0.052   0.058
   0.045   0.054   0.077   0.051   0.065   0.043   0.041   0.066   0.028   0.085
   0.081   0.077   0.046   0.071   0.046   0.082   0.071   0.053   0.067   0.071
   0.062   0.069   0.064   0.070   0.066   0.076   0.064   0.073   0.065   0.074
   0.070   0.082   0.065   0.085   0.090   0.070   0.078   0.067   0.080   0.051
   0.056   0.078   0.096   0.081   0.069   0.077   0.074   0.080   0.069   0.107
   0.055   0.062   0.074   0.076   0.075   0.070   0.087   0.071   0.074   0.091
   0.085   0.046   0.023   0.034   0.047   0.011   0.026   0.037   0.031   0.023
  -0.020  -0.038  -0.063  -0.125  -0.006   0.070   0.084  -0.032  -0.181  -0.071
  -0.245  -0.343  -0.305  -0.172   0.044   0.317   0.364   0.376   0.106   0.119
   0.381  -0.529  -1.012  -0.540   0.337   0.047  -0.799  -0.147  -0.186  -1.108
