Corrected accelerogram 20160214_001343_LPCC_20 GNS Science
Site LPCC      43 36 28S  172 43 29E     Cusp file:  20160214_001346_LPCC
Lyttelton Port Company
Instrument Cusp_318
Resolution: 18-bit   Instr Period: 0.0050 s   Damping: 0.700
Accelerogram 20160214_001343_LPCC_20                 Processed 2016 February 22
11 km east of CHRISTCHURCH
2016 February 14         00:13:43 UT
Epicentre  43 29 50S 172 45 18E  Bearing N11E  Dist   13km  Depth    8km M  5.70
Number of points  7153    Duration 143.04 sec
Instrument corrected data at 0.020 sec intervals
Band-pass filter transition bands are .10-.25 Hz and 24.50-25.50 Hz
Component N00E  Horizontal Axis 1
Acceleration:  peak   1130.4 mm/s/s at  22.84 sec     rms     59.6 mm/s/s
Velocity:      peak   -66.45 mm/s   at  22.00 sec     rms     4.69 mm/s
Displacement:  peak  -19.650 mm     at  22.30 sec     rms    2.064 mm
    2016       2      14       0      13     430       0       0    2016       2
      43      29      50     172      45      18       8       0      14       0
      43      36      28     172      43      29       0       0      11      13
   26614     250     250    7153    7153    7153       0       0      13   27852
   200.0    0.70    0.00   0.000  0.0000   0.000   0.000   1.000     0.0    0.00
  43.608 172.725   43.50  172.76    5.70    0.00    0.00    0.00      0.      0.
  133.06    5.00    5.00  143.04  0.0050  0.0200      0.      0.      0.  9806.6
  1327.5   22.85    62.3   0.000      0.  1130.4   22.84    59.6  1971.0   5.057
  -66.45   22.00    4.69   72.03   0.259  -19.65   22.30    2.06   19.72   0.201
   0.100   0.150   0.250      0.      0.  24.500   1.000  25.500      0.      0.
     0.1    -0.1     0.1    -0.1     0.1    -0.1     0.1    -0.1     0.1    -0.1
     0.1    -0.1     0.1    -0.1     0.1    -0.1     0.1    -0.1     0.1    -0.1
     0.1    -0.1     0.1    -0.1     0.1    -0.1     0.1    -0.1     0.1    -0.1
     0.1    -0.1     0.1    -0.1     0.1    -0.1     0.1    -0.1     0.1    -0.1
     0.1    -0.1     0.1    -0.1     0.1    -0.1     0.1    -0.1     0.1    -0.1
     0.1    -0.1     0.1    -0.1     0.1    -0.1     0.1    -0.1     0.1    -0.1
     0.1    -0.1     0.1    -0.1     0.1    -0.1     0.1    -0.1     0.1    -0.1
     0.1    -0.1     0.1    -0.1     0.1    -0.1     0.1    -0.1     0.1    -0.1
     0.1    -0.1     0.1    -0.1     0.1    -0.1     0.1    -0.1     0.1    -0.1
     0.1    -0.1     0.1    -0.1     0.1    -0.1     0.1    -0.1     0.1    -0.1
     0.1    -0.1     0.1    -0.1     0.1    -0.1     0.1    -0.1     0.1    -0.1
     0.1    -0.1     0.1    -0.1     0.1    -0.1     0.1    -0.1     0.1    -0.1
     0.1    -0.1     0.1    -0.1     0.1    -0.1     0.1    -0.1     0.1    -0.1
     0.1    -0.1     0.0    -0.1     0.0    -0.1     0.0    -0.1     0.0    -0.1
     0.0    -0.1     0.0    -0.1     0.0    -0.1     0.0    -0.2     0.0    -0.2
     0.0    -0.2     0.0    -0.2     0.0    -0.2     0.0    -0.2    -0.0    -0.2
    -0.0    -0.2    -0.0    -0.2    -0.0    -0.2    -0.0    -0.2    -0.0    -0.2
    -0.0    -0.2    -0.0    -0.2    -0.0    -0.2    -0.0    -0.2    -0.0    -0.2
    -0.0    -0.2    -0.1    -0.2    -0.1    -0.2    -0.1    -0.2    -0.1    -0.2
    -0.1    -0.2    -0.1    -0.2    -0.1    -0.2    -0.1    -0.2    -0.1    -0.2
    -0.1    -0.2    -0.1    -0.2    -0.1    -0.2    -0.1    -0.2    -0.1    -0.2
    -0.1    -0.2    -0.1    -0.2    -0.1    -0.2    -0.1    -0.2    -0.2    -0.2
    -0.2    -0.2    -0.2    -0.2    -0.2    -0.2    -0.2    -0.1    -0.2    -0.1
    -0.2    -0.1    -0.3    -0.1    -0.3    -0.0    -0.3    -0.0    -0.4     0.0
    -0.4     0.1    -0.5     0.2    -0.6     0.3    -0.7     0.5    -1.0     0.9
    -1.6     6.7     7.3    10.3    -3.1    -0.4    -0.2     4.4     8.4    -5.1
     0.8    -3.0     2.0    10.6     4.0     2.3    -6.1    -6.0     1.6    -0.8
     4.6     2.2     0.6    -3.7     3.7     3.0    -1.3     0.7    -2.7    -6.8
    -3.1     0.2    -3.2    -2.0     3.8     1.1     0.7    -6.4    -1.3     3.9
    -8.6    -2.1     3.6    -0.8    -0.4    -3.7     2.8     4.9    -5.6   -12.2
     2.4     4.1     4.1     3.6    -3.3    -3.9    -0.2     1.4    -1.9     3.7
    -4.7     1.4    -6.2     5.1     0.4     0.8     3.8     5.1    -0.4     2.4
     1.4     0.1    -1.6    -2.5     0.4     2.5    -3.6    -3.8   -12.3    -4.3
     1.4     2.9    -1.2     3.5     3.5     2.0     0.1    -3.7    -7.8    -4.0
    -3.7    -0.5    -2.4    -4.0    -1.3     4.4    12.6     7.9     8.0     3.1
     4.6     6.3    -0.8    -0.0     8.5    -2.6     1.4     0.3    -3.8    -2.1
     0.5    -3.6    -2.2    -5.5     7.2    -3.5     2.1    -0.9    -3.6     0.7
     7.8     3.2     5.4    -8.0    -0.1    -3.0    -9.1    -0.2    -6.9     4.9
    -1.8    -5.3    -2.6    -4.6     2.4     2.3     2.4    -0.2    -3.6    -8.2
     5.9     3.9     2.9    -3.0    -3.9    -1.0    -3.9    -3.8     8.4    -0.6
    -0.4    -6.9    -0.3     1.6    -1.1    -5.5     4.8     2.3     0.5    -6.0
     7.0    -6.3    -4.6     7.8     3.6     0.2     4.1     7.6    12.5     4.6
    -2.5     5.2    -1.5    -4.8     1.7     2.9     3.5    -0.2    -6.9    -5.2
    -1.6    -1.1     1.5    -3.3     1.3    -0.9    -2.8    -2.6    -8.5     5.6
    -3.8     2.7     7.0     5.6     7.3    -2.7    -3.8    -6.3    -5.1     7.1
     9.2    -0.7     7.9    -3.0    -7.1     1.8    -3.0     2.0    -5.1    -6.0
     8.3     6.2     1.1    -2.2    -2.0     7.2     2.1    -0.8     2.8    -3.2
    -0.1     7.4     1.0    -2.9    -2.5    -4.2     4.0     3.7    -2.8     7.6
    -8.2     3.4    -4.5    -6.5    -1.7    -5.4     1.4     1.1    -6.8    -1.7
    -2.6    -1.8     2.2    -5.8    -2.2    -5.3    -2.6    -0.9     3.2    -3.3
     6.9    -8.2    -2.8     0.7    -5.0    -1.3     2.0     9.4    -6.6     3.6
    -5.5    -1.4    -3.4     5.2    -0.7     1.0    -4.5     4.7    -6.5     3.9
     6.3    -2.3     1.9     6.4     3.6    -4.2     2.1     9.8    -1.7     0.4
     3.1     3.5     0.0     3.4     2.5     2.3     2.2    -6.1     3.2    -4.4
    -2.3    -0.3     3.1     2.6    -4.0    -1.9     7.5    -2.9     3.5     3.1
     0.8     2.8     5.8     3.5    -8.8     0.3    -2.5     6.7    -3.5    -2.8
    -6.8    -0.9    -0.2     4.0     5.8    -2.2    -6.2     6.2     0.1    -9.8
    -1.6    -1.3    -0.5     1.4     6.0    -4.0    -2.7    -2.7     4.0    -0.7
    -0.5     1.2    -1.6    -4.3    -2.3    -0.2     1.6    -7.6     1.5     8.5
     0.6     4.7    -2.3    -0.2    -0.5     5.2     1.6     7.4     1.5    -6.5
     0.7     0.5     0.7    -2.5    -0.9    -4.7    -1.0    -1.1     0.4    -2.5
     0.5     5.0    -1.8     0.8     3.1    -3.2     2.6    -2.5     2.3    -4.1
    -5.3    -1.4     3.2     4.4     0.9    -2.9     1.8     0.5    -1.6    -0.3
     5.6     0.8    -7.9    -1.0    -5.9    -3.3     2.9    -1.2     3.2    -0.8
     2.4    -2.3     1.4    -4.4     1.5     1.0     6.6     0.0    -0.7     7.2
    -8.3     1.0    -3.1    -1.3    -6.8     4.2    -1.8    -4.5    -4.4     4.0
     5.1    -1.6    -6.3     2.2    -1.6    -1.3    -7.2     5.2     1.0     3.6
    -3.4     3.1     2.9     5.6    -1.1     4.1    -6.5     7.3     1.7    -4.9
     0.7     0.7    -1.8     3.0    -4.3     2.5     1.6    -5.5    -0.6     4.0
    -4.5    -6.1     1.9   -10.1     1.3     4.2     1.3    -3.3    -0.3    -2.0
     2.3     5.2    10.4     6.0     7.3    -6.8     4.2    -1.3     7.1    -5.9
    -6.7    -0.1    -3.2    -6.1     1.5     3.9     0.5     2.2    12.8     1.3
     1.2     2.4    -2.6    -0.9     0.6    -5.1     3.7    -6.0    -2.3    -5.9
     0.6    -5.2     9.4    -5.3    -7.2    -2.2     4.7     0.7    -4.2    -1.6
     9.5     7.2     5.5    -1.2     0.7    -0.9     2.7     3.9    10.1     3.8
     6.4    -2.0    -2.6   -10.2    -7.7    -0.0     0.2     2.3    -6.8     2.3
     1.6    -7.8    -1.3     2.8    -2.3    -0.4     1.9    -6.5    -4.9    -0.1
     3.0     8.6    -6.7    -2.2     7.2     7.5    -1.3    -9.7     4.5     0.2
    -1.9    -2.3    -2.9    -2.6     5.3     9.9    -1.1     3.6    -4.5     0.2
    -0.6    -2.0    -0.5    -3.2     1.6    -2.0     1.8    -3.7    -0.5     4.9
    -2.4    -5.0     4.3     9.4     5.4     2.9     2.3    -2.3    -1.1     1.9
     5.0     4.0     6.7    -3.1    -6.7     2.1    -1.9    -4.5    -3.5     0.6
     2.4    -4.9    -9.5    -8.0     4.7     3.3    -1.6    -0.8    -4.3     0.6
     0.0    -0.4     7.2     4.3     1.4     4.9     3.8    -1.9    -1.4    -4.7
     2.1    -4.4    -4.0     0.7     1.1    -5.5    -1.7    -8.8     4.1     0.9
    -4.6     2.4    -1.6     1.4    -1.3    -3.1     4.2    -0.3    -4.2     3.5
    -5.8    -2.6    -1.4     1.6    -3.0     1.8    -2.4    -0.8    -4.3     1.4
     6.4     1.9     1.9     2.6     5.4     5.2    -3.2    -1.9    -0.3     7.0
     1.4     3.4     5.8    -3.1    -0.5     1.9   -10.3     2.5    -3.8    -7.5
     6.4     6.7     1.0    -0.3     0.6    -2.1    -2.1     3.9    -1.1    -0.7
     4.6    -7.8     6.0     6.3     8.1    -3.8     1.6     4.8    -4.6     1.8
     5.4    -4.5     7.2    -6.1     1.1     2.2    -2.0     4.3     1.5     1.6
     1.8     5.6     5.4    -4.8    -4.1    -0.2     3.4    -8.9    -7.9    -1.8
     5.7    -6.5    -2.1     1.5    -2.1    -4.7     2.6     3.0    -6.6    -2.4
    -5.4    -0.2    -3.8     4.9     0.7    -2.2     5.6    -1.5     2.5     5.5
     3.3    -3.8    -4.2     5.9     1.1     2.0     1.6     1.9    -4.8    -5.4
    11.2    -0.1     1.6    -2.8    -1.5    -0.2    -2.9    -2.8     1.1     6.3
     2.9    -3.0    -0.6    -1.1    -4.0     3.4     1.0     0.0    -0.7    -1.4
     0.2     4.7    -0.5    -8.8    -8.5    -3.9    -4.5     6.9     5.5    -6.3
    -0.7     4.0     1.2    -0.2     3.6    -1.4     2.7    -8.8    -2.3    -4.4
    -4.3     3.6     1.1    -2.3    -0.2     6.9    -2.8    -7.8    -4.1     5.9
    -1.0     1.1     1.4    -2.6    -1.5    -5.4     0.7    -1.6    -4.5    -2.3
     0.1     1.1    -3.5    -0.1     2.2   -11.0     2.2    -1.0    -4.1    -3.8
    -5.6    -1.1     0.2    -3.2     2.2    -9.9    -5.1    -5.9    -4.9    -2.8
    -4.0    -1.2    -3.8     5.0     3.8    -5.7    -1.8    -4.2     2.3    -3.3
    -6.2    -0.1     3.9     0.1     0.5    -2.2     1.0    -3.3    -9.9     0.7
     1.3    -0.7     5.1    -6.2     3.4     2.0     3.8     6.4     2.3    -6.5
    -2.1     2.3    -3.8    -3.4    -1.0    -5.8    -4.0    -4.4    -5.4    -7.3
     2.2    -6.3    -4.2    -6.4     6.4     2.2     6.9    -7.3     5.7     3.0
     1.6    -4.4     1.8     0.0     2.6     4.7     0.6    -5.4    -1.5     9.5
     1.9    -4.1     4.5    -3.6     3.7     7.4     2.8    -0.6     4.9     1.4
     0.6    -6.4     7.5     0.6    11.6     6.7     0.2     2.2     3.4     5.8
     6.2     2.9     8.4     8.1     4.2     4.7     1.7     9.0    -2.2    -0.7
    -5.5     5.6     3.1     8.6     7.4     5.7    14.7    -4.7     2.0     0.4
     1.6    11.1     4.1     8.4     1.6     7.8     2.4    11.3     4.4     7.0
     7.2     5.0     7.3     0.9    10.9     0.9    -6.4     0.2     0.1    -2.5
     5.4     4.4     4.9     8.0    12.4     3.0    12.5     4.4     7.4    15.5
     7.7     1.5     3.6     8.7     3.2     6.0    11.7     4.4     5.0    13.9
     6.3    12.2     6.3    11.7     9.1    -0.9     4.3     4.1     6.8     6.0
    10.0    -2.0     9.4     8.5     4.0     6.2    10.3    12.5    10.8     5.2
    10.7     7.9    10.7    -0.8     9.8     8.8     2.0     2.9     7.7     1.5
     5.9     4.5    11.8     7.1     9.9     8.8    13.9    -4.8   -21.1    28.4
    13.7   -40.5    -9.8   -42.0   -86.6   -13.9    63.4    -1.7   -20.5   -45.8
    99.2   -28.5   -69.7   178.2   -13.5    69.1    76.9    23.0   -53.2   -51.4
   -64.1   -53.9   112.4    21.2     6.4   -58.2   -19.7  -122.9  -172.7   -99.5
  -102.8   100.0    88.1   -40.4  -145.4   -71.9  -141.7   -88.9    82.4   -78.6
   -52.2    64.4   185.3    32.9   -40.0  -226.1   -44.1   127.9    89.4  -190.1
  -136.6    65.7   -54.3  -128.1  -177.2   -76.4   -41.0   -55.0   -68.5    -9.6
    98.8   156.5   168.3   187.7   149.1  -230.9    44.0   376.2    31.0   -22.9
    -7.8  -249.0   -75.7    47.7  -145.6  -218.9  -264.6   -17.5   106.4   -29.0
  -200.5    -2.5   -15.2    13.0   255.8    88.7  -195.4   -89.5    78.3    41.9
    -2.7   118.2    61.6   -23.8   127.1    28.5  -150.5   -24.8    88.6    74.3
    97.5   -60.1  -164.5   -88.7   -31.7    75.7     2.1  -118.5   -12.3    -5.0
    29.5    82.9   213.3   138.1   191.6   208.8   216.7   380.3   192.2  -416.4
  -729.2  -558.1   122.0   478.3   254.2  -113.9  -451.0  -720.7  -820.8  -820.2
  -344.4   338.6   771.5  1125.7   937.6   309.1    60.5    -0.9   -69.4   -85.3
  -570.7  -576.2  -351.3   233.7   726.3   898.4   643.5    -6.8  -474.6  -170.4
   229.4   422.8   385.5   446.0   640.0   323.9    13.1  -352.5  -832.4     0.4
   324.4  -121.3  -374.0  -154.2   505.1   383.6   104.2  -407.9  -576.0  -578.6
  -287.3   110.5  1130.4   962.7    82.4  -661.8  -590.4    -7.5   208.3   198.0
  -343.0  -388.4  -539.7  -190.3     7.7   234.4   245.6  -185.0  -364.6  -245.4
  -397.5  -203.8     3.5  -100.4   -55.3   233.9    -8.7  -102.5   152.0   285.2
   370.5   451.4   132.4  -115.2   -99.7  -207.9  -242.2   -87.3   -61.5  -108.9
   -84.5    25.8   171.6   175.6   177.1    95.1   -41.8    80.9   362.8   110.3
   129.3   381.9   152.6   134.5   139.5   -27.2  -167.5  -256.2  -235.9   -49.4
    98.7    14.1  -185.0  -201.9  -103.9  -175.9  -148.1  -233.8  -210.9   -53.7
   -53.2   116.8   224.7   154.8   276.6   137.8  -105.2  -146.9   -15.1   105.9
   -81.2  -463.5  -526.5  -343.2   -47.7   -67.2  -379.1  -456.8  -247.8  -160.7
  -153.3   145.3   317.6    61.2  -139.6  -149.2  -134.8    66.4   255.4   254.8
   105.8   -59.5    50.8   221.9   306.3   268.6   206.2   120.8   114.2   230.8
   251.7    69.6   -79.8  -189.9  -260.6  -199.8  -278.4  -264.8  -119.5  -101.9
   -81.2  -119.8    81.3   296.8   132.5    63.7   232.2   208.2   111.7    99.2
   -77.4   -60.1    47.6   -38.4   -13.5    69.1    68.5    52.0    85.2   152.8
   191.0    81.1   -27.1   -25.1    23.0    81.1    14.7   -93.3  -106.2   -95.0
   -61.2  -102.9  -113.9  -117.1   -90.6    11.3     1.2   -79.0   -31.6    65.0
    -6.2   -48.3   -43.1   -24.7  -105.4  -234.8  -181.4   -73.9   -92.3   -34.9
    71.1    96.9   212.0   300.5   247.7   156.1    72.7     9.0    -5.6   -21.4
   -14.2   -48.1   -60.2   -12.2   -46.2  -102.5   -83.2   -27.1    84.2   177.9
   197.1   151.0   122.9   143.0   101.4   195.0   164.4   173.6    37.7   -45.5
    -0.1     4.7    37.3    14.2   -36.7   -29.3   -33.2    -9.4   -30.8   -68.6
  -164.0  -131.2   -60.4   -20.0   -35.5    10.5    64.4    63.5    38.4    33.9
    66.8    69.6    71.7    -9.1   -49.1  -141.3  -189.3  -197.1  -132.3    20.1
    -8.7   -30.7    -1.2    -4.7    47.0    67.7   -30.0   -97.7   -78.7   -74.9
   -70.9  -103.7  -155.6  -144.9  -112.6   -46.5   -23.4    25.6   108.5   101.6
    37.3    25.9    73.9   100.2    -9.0   -59.7   -63.2    -5.0   116.0    69.0
    30.1    12.7    36.9   105.2    47.0   -22.2    -4.9    84.9   119.7    38.8
   -77.9  -128.7   -70.7   -34.5   -49.4   -47.0   -21.1    28.7    13.0   -11.5
   -12.4   -27.7   -43.4     6.5    27.8    36.2    10.2    -4.9   -25.1     0.3
    65.2   109.6    78.4    10.7    42.2    68.6    67.8     8.8   -57.2   -41.5
   -37.6   -31.1   -31.2   -31.7   -77.7  -137.6  -136.6     9.1    53.1    12.3
    75.3    58.4    63.9    86.9    -8.3   -33.5   -28.3    -3.0     3.9    -1.6
   -24.5     9.4    44.4    53.4    17.2   -62.5   -78.2   -40.0     8.8    24.6
   -23.0   -86.7  -109.5   -55.0    66.0    44.1    47.7    34.6     7.0    45.7
     3.1    29.6    63.8     4.2   -46.9   -68.8   -23.5    41.7    -4.5   -36.2
   -59.8   -92.4  -101.2  -110.5   -61.0     2.4     0.2     9.2    79.7    83.2
    95.2    98.5    89.3   110.1    83.6    37.7   -16.2     0.3    54.4   100.8
    81.4    57.3    -0.2   -50.3   -89.8  -135.6   -58.1    22.5    -6.0   -40.8
   -23.6    12.8    36.1    39.0    40.3    61.7    38.2    -6.2   -48.7   -74.3
   -69.9   -74.9   -64.1   -91.7   -77.8    16.0    31.6    -5.7   -15.8   -53.7
   -50.8   -34.8   -23.6   -21.5   -10.4    37.4    79.7    54.4    38.6    19.9
    -4.5   -12.1   -27.2   -31.4   -47.5   -40.1   -54.2    -0.0    29.1    -3.2
     5.3    31.8     8.1   -40.4   -38.8    26.0    43.1    54.6    48.4    32.8
    18.7    27.2    17.8   -25.5   -20.1    25.4    -4.8    47.8    71.7    55.0
    15.6    24.9    30.9    42.0    31.7    31.6     0.9    -7.8   -51.2   -66.0
   -39.9   -49.3   -22.2    43.5    53.4    44.7    40.7    22.4    28.9    38.3
    21.1     6.5     5.5   -17.7   -27.1   -26.4    -8.7    21.3    25.5    -4.9
    -4.4    -8.4   -51.8   -72.5   -39.9    -1.6    -2.2    -9.5    -7.9     7.5
    10.0    23.3    32.7    15.9     7.9     7.3    -0.4   -29.8   -44.0   -31.1
   -18.3   -61.8   -86.2   -60.8     8.3    31.9    16.3    33.5    23.0    13.7
    37.4    52.0    23.1    -0.9   -43.7   -49.0   -56.3   -47.9    -5.0   -15.1
   -23.6    -4.9    22.5    17.8    16.2     2.1     5.3    57.0    84.4    36.6
    14.1    24.4   -16.0   -39.7   -15.0   -10.7    53.8    47.5    23.3   -10.3
   -22.9    -6.9    26.2    24.5    -7.2   -35.1   -35.5   -16.1     3.0     6.8
   -16.1     1.1     7.3    -0.0     5.8   -23.1   -46.8   -71.0   -48.5   -27.8
   -16.4   -17.4   -35.6    -3.8    10.7    17.8    18.4     1.0     4.7    26.0
    23.8    48.8    47.5    48.4    42.7    20.6    -7.8   -23.3   -14.6    -6.1
   -27.9   -51.4   -77.0   -63.5   -47.9    -7.3    44.0    15.7   -11.8     0.5
     1.6     7.7    25.9    24.9    15.0   -10.0    -9.4    -6.2   -12.7   -11.3
    -3.4    -8.2    10.3    26.9     6.6     7.6    27.9    31.0    24.9     7.2
     8.4    26.1    28.1    28.4    18.7    25.1    22.9     0.3    -7.6   -15.2
   -47.0   -49.2   -41.7   -23.6    -3.1     2.3    -4.8   -23.9   -43.0   -31.9
   -16.5   -13.7    -5.4     5.5     9.3     7.4    35.0    32.9    17.4    29.6
    35.8    36.2    46.4    36.8    19.2     8.2    24.8    29.6    34.7    51.2
    19.7    -8.0    -7.7    -6.2   -15.2   -15.1    -6.2    -8.2   -22.8   -34.2
   -35.9   -14.1     5.6     5.1   -20.3    -2.3     1.3     0.9     8.7    -7.2
   -10.7   -13.0   -13.0    -8.1   -23.0   -32.0   -21.0   -44.6   -37.8   -31.0
   -33.0   -43.1   -39.6   -41.7   -33.7   -24.8   -19.1    -7.3    10.7    11.6
    -6.0    10.1    13.9    23.0    30.1    18.5    18.4    50.4    71.0    74.6
    45.2    23.7    20.4    19.8    25.1    10.6   -13.2    -7.5    -6.1    10.3
    -2.0    10.5    -4.3   -16.0   -34.2   -30.1   -39.0   -33.4     0.5     5.8
    12.5    17.3    13.2    25.1    20.7    16.4     0.1     4.0    12.4    13.9
    16.8    12.5   -20.0   -12.6   -16.3   -20.8   -34.6   -18.8    -3.8   -12.6
     6.9    17.4     5.6     9.3    11.1    24.4    29.4    18.3     8.3     0.5
    -0.9   -11.6     4.4    15.8     4.0    -0.6    -8.8   -31.8    -6.7    -6.8
    -2.7   -19.8    -6.8   -20.4   -13.2    -7.5    11.7    18.3     4.4   -14.2
   -24.3    -0.7    14.9    14.9    -0.7     0.4   -12.6   -15.0    -9.8   -17.8
   -15.0     0.7    11.8    -4.7   -17.3     4.0    -7.9     9.2    18.8     5.6
     4.9     0.1   -12.1     0.3    19.0    25.6     8.0   -10.0     0.5     2.3
     1.2    13.9     7.0    -7.5    -4.1    -0.3     6.4     0.5     9.3    13.0
     8.9    -4.6    -9.0     5.5    10.4    13.0    13.0    17.3     8.3     2.5
    10.6    11.1     0.9    -8.3   -21.1   -23.7   -14.2   -17.3   -29.1   -22.3
   -17.9   -23.0   -30.0   -24.1   -27.7   -14.1     7.5   -11.5    -3.4     8.8
     5.9     0.1     2.4    -9.4    11.4    24.2    21.9    23.6    15.6    22.0
    27.2    25.7     9.5    -1.2    -1.2     5.2     8.8    18.8    13.9    -2.1
    14.9    13.9    -6.7    -3.0    -0.7    15.0    -2.6   -14.4   -17.8   -14.1
     1.4     2.3    -8.5    -7.3    13.9    12.9    -5.2   -29.2   -34.6   -29.3
