Corrected accelerogram 20160214_001343_SLRC_20 GNS Science
Site SLRC      43 40 30S  172 19 03E     Cusp file:  20160214_001352_SLRC
Selwyn Lake Road
Instrument Cusp_10467
Resolution: 18-bit   Instr Period: 0.0050 s   Damping: 0.700
Accelerogram 20160214_001343_SLRC_20                 Processed 2016 February 22
11 km east of CHRISTCHURCH
2016 February 14         00:13:43 UT
Epicentre  43 29 50S 172 45 18E  Bearing N61E  Dist   40km  Depth    8km M  5.70
Number of points  7000    Duration 139.98 sec
Instrument corrected data at 0.020 sec intervals
Band-pass filter transition bands are .10-.25 Hz and 24.50-25.50 Hz
Component N00E  Horizontal Axis 1
Acceleration:  peak   -244.4 mm/s/s at  18.36 sec     rms     16.9 mm/s/s
Velocity:      peak   -21.01 mm/s   at  22.82 sec     rms     2.62 mm/s
Displacement:  peak    7.971 mm     at  21.94 sec     rms    1.446 mm
    2016       2      14       0      13     430       0       0    2016       2
      43      29      50     172      45      18       8       0      14       0
      43      40      30     172      19       3       0       0      61      40
   26000     250     250    7000    7000    7000       0       0      13   42335
   200.0    0.70    0.00   0.000  0.0000   0.000   0.000   1.000     0.0    0.00
  43.675 172.318   43.50  172.76    5.70    0.00    0.00    0.00      0.      0.
  130.00    5.00    5.00  139.98  0.0050  0.0200      0.      0.      0.  9806.6
  -242.6   18.36    18.1   0.000      0.  -244.4   18.36    16.9   314.6   1.413
  -21.01   22.82    2.62   23.34   0.214    7.97   21.94    1.45    9.27   0.214
   0.100   0.150   0.250      0.      0.  24.500   1.000  25.500      0.      0.
     0.0     0.0     0.0     0.0     0.0     0.0     0.0     0.0     0.0     0.0
     0.0     0.0     0.0     0.0     0.0     0.0     0.0     0.0    -0.0     0.0
    -0.0     0.0    -0.0     0.0    -0.0     0.0    -0.0     0.0    -0.0     0.0
    -0.0     0.0    -0.0     0.0    -0.0     0.0    -0.0     0.0    -0.0     0.0
    -0.0    -0.0    -0.0    -0.0    -0.0    -0.0    -0.0    -0.0    -0.0    -0.0
    -0.0    -0.0    -0.0    -0.0    -0.0    -0.0    -0.0    -0.0    -0.0    -0.0
    -0.0    -0.0    -0.0    -0.0    -0.0    -0.0    -0.0    -0.0    -0.0    -0.0
    -0.0    -0.0    -0.0    -0.0    -0.0    -0.0    -0.0    -0.0    -0.0    -0.0
    -0.0    -0.0    -0.0    -0.0    -0.0    -0.0    -0.0    -0.0    -0.0    -0.0
    -0.0    -0.0    -0.0    -0.0    -0.0    -0.0    -0.0    -0.0    -0.0    -0.0
    -0.0    -0.0    -0.0    -0.0    -0.0    -0.0    -0.0    -0.0    -0.0    -0.0
    -0.1    -0.0    -0.1    -0.0    -0.1    -0.0    -0.1    -0.0    -0.1    -0.0
    -0.0    -0.0    -0.0    -0.0    -0.0    -0.0    -0.0    -0.0    -0.0    -0.0
    -0.0    -0.0    -0.0    -0.0    -0.0    -0.0    -0.0    -0.0    -0.0    -0.0
    -0.0    -0.0    -0.0    -0.0    -0.0    -0.0    -0.0    -0.0    -0.0    -0.0
    -0.0    -0.0    -0.0    -0.0    -0.0    -0.0    -0.0    -0.0    -0.0    -0.0
    -0.0     0.0    -0.0     0.0    -0.0     0.0    -0.0     0.0    -0.0     0.0
     0.0     0.0     0.0     0.0     0.0     0.0     0.0     0.0     0.0     0.0
     0.0     0.0     0.0     0.0     0.0     0.1     0.0     0.1     0.0     0.1
     0.0     0.1     0.1     0.1     0.1     0.1     0.1     0.1     0.1     0.1
     0.1     0.1     0.1     0.1     0.1     0.1     0.1     0.1     0.1     0.1
     0.1     0.1     0.1     0.1     0.1     0.1     0.1     0.2     0.1     0.2
     0.1     0.2     0.2     0.2     0.2     0.2     0.2     0.2     0.2     0.2
     0.2     0.2     0.2     0.2     0.2     0.2     0.2     0.2     0.2     0.2
     0.2     0.2     0.2     0.3     0.3     0.3     0.3     0.3     0.3     0.2
     0.3    -0.5    -0.1    -0.3    -0.7    -0.1     0.1    -0.5    -0.4    -0.5
     0.1    -0.1    -0.6     0.1    -0.3    -0.2    -0.1    -0.0    -0.0    -0.5
    -0.1    -0.0    -0.3    -0.1     0.4    -0.0    -0.3     0.6    -0.0    -0.5
    -0.3    -0.3    -0.2    -0.0    -0.0    -0.0     0.3    -0.0    -0.4     0.4
     0.2    -0.5     0.1    -0.0    -0.0    -0.0     0.2     0.1     0.0     0.1
    -0.2    -0.3    -0.3     0.2    -0.2    -0.6    -0.1     0.1     0.0    -0.1
    -0.0     0.0    -0.7     0.4    -0.3     0.1    -0.5    -0.2    -0.2     0.0
    -0.3    -0.2    -0.0    -0.0     0.5    -0.2    -0.1    -0.0     0.2    -0.5
    -0.2     0.3    -0.6    -0.2    -0.1    -0.1    -0.5     0.4     0.2    -0.8
     0.5    -0.5    -0.0     0.1    -0.8     0.4     0.8     0.2    -0.5     0.1
    -0.1     0.5     0.3    -0.1     0.1     0.1    -0.1    -0.1     0.2    -0.3
    -0.1    -0.0    -0.4     0.4    -0.2     0.4     0.2     0.3     0.0     0.0
     0.2    -0.1     0.8     0.0    -0.3     0.1    -0.3    -0.1     0.4     0.4
    -0.0     0.4    -0.4    -0.0     0.4    -0.1    -0.8     0.3    -0.1    -0.4
    -0.1     0.2    -0.1     0.2     0.2    -0.0     0.1    -0.4    -0.4    -0.5
    -0.2    -0.3    -0.2    -0.1    -0.1    -0.3     0.3     0.1    -0.2    -0.2
    -0.2    -0.1    -0.3    -0.2    -0.3     0.0     0.2    -0.0     0.3     0.3
     0.3     0.0    -0.4     0.2    -0.3    -0.3     0.1    -0.4     0.1    -0.3
    -0.2     0.1    -0.5    -0.1     0.2    -0.1     0.2     0.4    -0.1     0.1
     0.0     0.1     0.1    -0.2     0.1    -0.4     0.1     0.0    -0.2     0.1
     0.5     0.0     0.1     0.3    -0.3     0.2    -0.3    -0.4     0.1     0.2
    -0.2     0.5     0.4     0.3     0.4    -0.0    -0.1     0.0    -0.3     0.4
    -0.4     0.4     0.3    -0.3     0.2     0.2     0.3    -0.4    -0.2    -0.1
     0.5    -0.1    -0.5     0.5    -0.6    -0.2     0.1     0.3     0.1     0.2
    -0.2     0.3     0.1     0.1    -0.2     0.3    -0.6     0.2     0.0    -0.0
     0.4    -0.1    -0.3     0.1    -0.0     0.4     0.2    -0.3     0.6     0.1
    -0.2     0.5     0.4    -0.2     0.4     0.2    -0.2     0.3     0.1    -0.0
     0.2     0.3     0.8     0.5    -0.3    -0.0     0.4     0.2     0.5     0.2
     0.1     0.1    -0.1     0.3     0.1    -0.4    -0.1    -0.2    -0.2     0.1
     0.2    -0.2    -0.1     0.0    -0.3     0.4     0.8    -0.1    -0.4     0.6
    -0.0     0.1     0.9    -0.7     0.5    -0.2     0.1     0.1     0.2    -0.3
     0.3    -0.1    -0.1     0.4    -0.2     0.2     0.1    -0.7     0.1     0.7
    -0.8     0.2     0.2     0.0     0.5    -0.1    -0.4     0.6    -0.2    -0.3
     0.7     0.2     0.2     0.7    -0.1     0.6     0.8    -0.3     0.5     0.0
     0.0     0.0     0.4     0.0     0.1     0.1    -0.5     0.4     0.1    -0.2
    -0.4    -0.2    -0.3     0.1     0.0    -0.7     0.1    -0.6    -0.1     0.0
     0.1    -0.3     0.1    -0.4    -0.8     0.0    -0.2    -0.5     0.3     0.2
    -0.3     0.6     0.1     0.3     0.1    -0.0    -0.6     0.2     0.1     0.3
     0.4     0.1    -0.4     0.4    -0.3     0.4     0.4     0.0     0.4    -0.1
    -0.2     0.5     0.0    -0.6     0.3     0.3    -0.2     0.1    -0.0     0.1
    -0.2     0.1    -0.2     0.3    -0.0     0.1    -0.5     0.0     0.4     0.1
    -0.5    -0.2    -0.0    -0.7     0.2    -0.0    -0.2    -0.0     0.3    -0.2
    -0.1    -0.1    -0.2     0.1    -0.5    -0.1    -0.9    -0.6     0.1    -0.3
    -0.1    -0.2    -0.2    -0.3    -0.5    -0.5    -0.0    -0.1    -0.1    -0.1
     0.1    -0.0    -0.2    -0.4    -0.4    -0.5    -0.2    -0.4    -0.5    -0.1
    -0.4    -0.3    -0.1     0.2    -0.4     0.2    -0.2     0.1    -0.1     0.1
    -0.3    -0.5    -0.0    -0.1    -0.1     0.0    -0.0     0.2    -0.1     0.5
    -0.7    -0.8     0.7    -0.7    -0.5     0.7    -0.5    -0.8    -0.0    -0.1
    -1.0    -0.3     0.0     0.3     0.0     0.2     1.0    -2.5    -3.4    -0.9
    -1.1     1.4     2.5    -1.1    -0.5    -1.4    -3.9    -0.6     1.6    -0.9
     1.2    -0.9    -0.9    -0.0    -0.2    -4.0     0.2    -0.1     2.2     7.3
     4.7     0.8    -2.6    -0.2     0.7    -0.4    -0.5     2.3     0.4    -5.4
    -3.0     1.8     7.5     6.1    -1.5    -6.1    -4.6    -2.0    -1.8   -10.8
    -4.7     4.7     7.5     6.2    10.1     2.2    -6.7   -10.1    -4.3     6.2
     3.4    -3.0     0.1     5.2     0.1     2.4     2.2     3.3    -0.3     4.8
    13.2     6.7    -7.5   -10.8    -0.0     8.6     5.0    -4.6    -2.8     1.1
    -0.2     0.4    -1.9    -8.5    -7.6    -8.0   -14.0    -2.6    -6.6     7.1
     4.7     7.6    14.2     7.3    -3.2    -6.4   -19.8     1.9    27.1    34.9
    18.1    -9.2   -19.0    -3.4     3.4    -5.1   -12.6    -8.2     0.1     5.8
     8.7    14.9     4.5   -10.9   -23.6    -4.0    33.3    17.1   -40.2   -53.7
    -7.0    40.1    17.7   -23.7   -24.6    -2.0    20.1    19.6   -12.3   -10.3
     5.0     6.6    21.1    16.8   -11.9   -18.1     3.1     8.8    12.0    32.0
    29.5   -14.5   -30.7    -6.9     0.2   -14.8   -36.6   -12.8    26.7    19.9
   -28.6   -46.2   -31.3    21.8    22.6     9.8     5.3    13.4    22.5     5.3
   -39.8   -13.0    20.2    14.1    -6.9    -4.1    24.2    26.8     3.7   -30.7
   -31.3    10.5    31.9   -11.3   -17.5   -11.6    14.4    18.5    -6.4   -22.1
   -22.1   -14.9    20.0    14.4   -11.4   -21.5   -14.9    -9.7   -13.8    -0.2
    15.8     2.0    -9.7    -3.7    10.0    38.3    32.8   -13.4     2.6    26.6
    18.3    16.0     4.0   -13.7    -4.6    -3.1   -21.7    -4.1     2.7     3.8
    -8.1    -6.6   -13.3    -0.6   -16.8   -19.3    -5.6     5.0    -2.9    -2.8
    10.1     5.3     6.9    14.0    14.6     0.3    23.4    18.6    13.1   -23.4
   -33.2    -1.9    30.5     7.9    -4.6     1.3    37.5    28.0   -16.0   -25.1
    10.8    26.3     2.6   -20.6     1.2    20.0    15.1    -4.1   -31.0   -17.5
     9.3    11.2     8.4     4.7     5.6    10.7     5.2     2.1     9.5     8.2
    -2.4     0.5     8.4    14.1    -0.5   -12.0   -19.4    -2.5     8.1     7.6
     2.9   -12.4     3.7    19.2    32.1    10.3   -16.0   -20.0   -13.4    -8.0
     5.7     6.1    11.0    16.9    21.6     7.6   -21.5   -28.9   -14.4    -2.0
    -3.6   -16.5   -16.6    -2.8    12.0    25.8    19.4    -9.9   -26.7     1.1
    14.1    -1.0   -26.0   -30.5     0.5     7.7    -6.1     2.6    18.8    51.3
    79.7    77.5    51.5    44.2    26.5     4.6   -34.1   -67.5   -67.9   -45.5
   -30.8   -14.2    -5.7   -20.5   -53.1   -60.8   -53.0   -60.8   -50.7   -22.6
    -3.3   -11.0   -18.6   -20.7   -17.0    -3.9    11.3    -7.8    -6.6    -3.2
    -3.5    -4.8    -2.6   -17.9   -29.6   -34.1    14.9    81.7   116.0    94.2
    63.7    60.3    68.4    74.6    62.5    -1.0   -49.6   -54.4   -71.1  -119.0
  -139.3  -115.5   -88.8  -102.8   -94.8     3.6   107.6   145.0    77.7    20.0
    54.6    94.9    49.1   -35.8   -76.3   -74.6   -46.0   -14.1    -7.3   -62.6
   -98.6   -75.3     2.4    85.8    88.0    57.9    84.4   145.4   188.5   172.6
   110.3    42.3   -28.5   -75.5   -21.7    56.5    36.4   -30.3   -93.6  -116.1
  -103.6   -88.7   -99.0   -89.1   -61.5     4.3    69.5    87.2    51.6     9.7
   -73.7  -142.1  -102.6   -40.3   -24.0   -53.3   -68.7   -24.1    32.2    65.1
    83.4   101.7   118.7   100.6    92.7    80.3    44.5     1.9   -24.8   -35.3
    22.3   129.9   193.2   174.4    82.1   -48.8  -154.1  -221.6  -244.4  -187.7
   -70.1   -16.6   -36.3   -34.7   -12.0    -9.5   -19.1   -37.4   -46.1   -39.3
   -12.0    41.6    37.4    -1.9   -23.1   -36.5   -25.8    30.7    48.2     8.0
   -62.0  -101.9   -47.6    57.8    87.2    47.5    30.2    49.3    37.0     2.7
   -19.2   -35.3   -40.2   -30.8     9.1    56.6    48.8    -3.8   -19.6   -10.9
   -18.2     7.1    30.4     1.4    -2.6    43.7    96.3   123.9   111.9    87.3
   119.1   119.5    51.0    -8.7   -24.7   -33.7   -30.1     3.2    55.9   107.0
   136.6    99.9    43.3   -14.8   -48.7   -86.8  -138.4  -188.9  -175.5   -95.0
   -36.3   -51.6   -72.0   -30.3    53.7    92.4    52.0    10.1   -32.5   -27.7
     9.1    48.2    61.0    44.0    19.0    20.7    25.8    45.4    74.4    86.5
   101.7    88.9    76.1    69.5    26.8   -12.9   -21.3   -32.6   -51.4   -61.5
   -70.8   -66.7   -44.9   -21.8   -43.8   -75.2   -64.8   -28.7   -45.0   -45.4
   -42.2   -19.6    15.5    -4.5   -71.3   -89.0   -70.9   -60.0   -24.0    12.6
    63.2    76.5    36.9    19.9    35.7    10.9   -21.6   -10.4    23.7    64.8
   111.0   120.3    86.4    85.5    93.7    48.2     7.1   -17.4   -40.2   -46.1
   -32.1   -25.4   -42.5   -40.2   -26.4   -15.3   -35.2   -56.3   -32.1    16.2
    24.6    22.8    42.0    48.2    31.4    31.6    42.2    28.5   -15.1   -70.2
   -80.8   -39.3   -21.8   -34.3   -48.7   -56.6   -32.4    13.0    37.7    48.8
    60.5    45.0    -2.2   -39.5   -62.9   -77.4   -76.3   -62.0   -64.2   -53.0
   -31.9   -29.1   -39.0   -15.4     6.2     7.2   -14.1   -26.6     1.1    23.9
     8.1   -16.8   -33.1   -38.2   -18.5   -13.1   -44.9   -63.8    -5.2    69.4
    68.1    11.0   -25.1   -20.6   -31.2   -70.8  -101.4   -83.6   -81.5   -79.4
   -43.0    -9.2   -10.2   -12.9    -6.6    -0.4     6.1    -3.5   -30.6   -60.5
   -43.5   -10.3    10.0    16.2    31.1    49.4    80.7   110.8   117.8   106.8
    82.8    54.3    33.5    15.1    -2.8    -1.4    23.9    62.8    80.6    60.0
    34.9    31.9    14.9   -18.2   -35.6   -19.8     0.2   -10.1   -33.3   -26.9
     1.8     8.9    11.4    11.1    12.7    15.9    22.3    45.2    51.8    26.5
     7.2    22.1    17.5    -6.1    -5.8    26.2    43.7    24.7     6.0     2.7
     1.2   -16.3   -38.1   -28.2     8.1    13.4     4.7     5.5    -3.0   -26.0
   -30.1   -12.5     7.2    18.5    14.6    14.0    23.2    16.7    -0.9   -12.6
     3.7    25.5    15.0     2.1    -0.5     4.4    15.2    12.0     6.3    -1.9
   -23.8   -45.3   -34.0   -26.5   -44.1   -53.5   -24.5    13.8    24.2    14.3
    26.5    30.9    13.3    -1.4   -16.3     2.0    33.0    29.8    14.6    11.8
     3.9     1.2    -5.7    -6.6    -2.7     7.9    20.7    25.7    27.2    35.8
    35.8    28.4    25.6    24.9    23.3    25.6    33.5    29.6     2.7   -19.7
   -16.7    -8.8    -7.1    -5.3    -8.9    -3.8     6.0     9.3     7.9     3.2
    -4.2   -22.7   -45.8   -46.2   -32.7   -10.8    -7.4   -21.3   -19.2    -5.2
     5.8     1.7     2.2     4.6    -1.6   -13.1   -19.6   -16.9   -13.7   -21.3
   -20.6   -11.0   -14.3   -29.7   -40.6   -33.7   -16.6     3.1    22.6    38.7
    54.5    63.7    47.3    13.2    -6.4   -11.1   -20.1   -34.1   -40.2   -34.6
   -29.8   -27.4   -17.5    -0.7     7.0     4.2   -10.5   -18.5    -4.9    17.7
    15.5     5.2    -7.7   -21.0   -22.3   -13.1   -15.0   -23.2   -27.5   -21.5
     2.4    14.0     5.8     9.6    24.3    15.1   -12.0   -20.6   -24.4   -28.8
   -24.4   -11.8     5.1    22.3    42.9    64.6    75.2    61.0    32.4    13.1
    12.1     7.7    -4.5   -15.7   -12.8    -2.0    -5.8   -21.8   -13.4    -4.9
    -5.3   -10.7   -17.7    -3.6    25.7    29.8    11.6    -5.6   -16.2   -28.4
   -43.4   -50.2   -40.0   -22.0    -8.5     4.5     7.5   -11.2   -12.7    -2.8
     6.5    14.8     7.9    -1.2    -4.3     0.1     4.9    -3.6    -9.5    -0.8
     0.1   -18.0   -29.1   -31.9   -30.9   -36.2   -45.1   -37.1   -28.9   -29.1
   -29.3   -11.3    17.4    28.4    18.4     3.2    -4.0    -7.7   -15.7   -27.8
   -17.5    -1.9     0.9    -0.9    -3.4    -1.7    -5.1   -10.7    -0.6    17.4
    18.8    10.4     3.0     9.0    20.6    21.8    15.7    22.1    23.1    13.9
     9.3    13.8    18.5    17.9     7.2    -3.5   -15.6   -23.5   -23.8   -21.3
   -19.0   -17.7    -7.9    10.9    23.8    32.0    36.9    41.4    46.0    50.7
    50.1    38.1    21.5    16.6    24.8    25.0     9.9    -1.0     8.4    21.9
    13.2    -5.0    -8.5     5.3    18.0    13.8     1.7     0.6    -3.4   -10.8
   -10.7    -7.2    -2.9    -2.7    -4.0    -2.5     4.5     4.3     2.2     4.2
     6.1    12.1    18.4    16.3    11.6    14.1    19.5    16.5     7.4     1.0
     8.9    21.9    25.1    24.3    20.1    14.3    13.6     8.2     3.2     5.0
     3.3    -2.1    -0.1     2.1     2.4    -5.2   -14.7   -18.7   -17.9   -13.5
   -13.9   -16.2    -4.1     9.5     4.0   -10.7   -20.6   -15.9    -2.9     4.8
     3.0     2.9     8.0     7.4     2.9     1.8    -0.7    -9.8   -10.5   -10.1
   -11.2    -2.6     6.8     9.4    10.7    16.6    22.9    22.1    19.8    19.8
    15.9     5.6    -4.8    -7.5    -3.4    -4.9   -10.7   -19.3   -30.4   -38.7
   -40.6   -46.8   -52.3   -45.7   -30.9   -22.3   -23.6   -21.1   -15.7   -10.4
    -6.6    -8.9    -8.6     0.2     2.7     1.4    -0.0    -7.2    -7.6    -7.0
   -10.4    -8.7    -4.1     0.9     1.5    -6.4    -6.3     1.2    -0.1    -4.4
    -7.4    -3.9    -0.1    -5.6   -11.3   -10.7    -6.2   -14.5   -25.1   -22.8
   -17.3   -12.6   -11.2   -18.0   -24.1   -20.9   -23.5   -23.3   -16.7   -18.1
   -23.2   -22.3   -14.1    -7.2    -1.4     7.6    21.0    32.3    42.2    47.2
    44.0    33.4    23.8    20.4    18.6    19.4    20.0    20.1    19.1    19.3
    15.0     7.2    -5.1   -13.3   -16.1   -18.3   -21.9   -25.4   -22.7   -15.5
   -16.3   -22.6   -27.0   -27.7   -16.5     2.0     2.9    -1.9     1.6     5.4
    15.3    19.8    19.6    21.1    24.0    17.1    11.5     9.8    10.3    10.9
    16.8    23.7    23.5    17.4     7.9     1.0    -0.4    -2.9    -8.0    -5.1
     3.2     9.5    11.0    14.5    16.2    14.2    10.8     7.1     7.7     9.8
     8.6     3.2     3.3     4.8     7.0     8.1    10.1    13.3    18.3    21.9
    24.3    26.8    22.8    15.0    12.5    16.5    17.3     9.2     0.1    -0.4
    -2.0    -7.0    -7.5    -7.8    -8.0    -4.2    -4.5    -6.0    -7.2    -5.6
    -1.5    -3.2   -13.1   -16.7   -12.1    -9.2   -10.1    -8.7     1.5     9.7
    16.7    21.3    19.3    14.8    12.3    12.1    14.1    17.3    17.3    16.5
    11.0     6.3    10.1    12.4     9.1     6.0     0.8    -2.6     1.5    -0.4
    -9.7   -10.9    -7.2    -7.8    -8.2    -8.2    -3.2     8.1     9.6     3.2
    -4.8    -8.4    -5.3    -2.5    -3.9    -4.3    -5.1    -7.7   -12.4   -17.5
   -16.3   -12.3   -11.1   -11.7   -14.0   -14.8    -8.0    -5.2    -9.2   -10.4
    -7.9    -7.0   -11.6   -17.0   -22.3   -25.4   -26.8   -26.6   -22.3   -17.7
   -19.6   -25.3   -27.2   -28.3   -20.0   -15.8   -17.4   -19.1   -20.5   -25.4
   -25.1   -23.4   -23.2   -16.2    -7.5    -1.9     1.5     1.0     0.0     1.7
     2.5    -1.6    -4.3    -5.5    -6.7    -7.1    -7.4    -6.5    -2.4    -0.4
     0.9     4.5     5.7     4.2     5.9     7.4     6.8     7.0     5.6     4.4
     9.8    10.8     7.4     7.6     7.1     6.6     7.7     3.4    -1.8    -2.5
     1.3     9.3    17.3    21.4    20.2    19.1    17.9    18.2    18.2    14.2
    10.5    14.5    19.2    16.7    12.2     4.9    -0.3     1.0     5.6     7.7
     6.9     4.7     5.0     7.0     2.8    -2.3    -2.6    -1.7    -0.7     1.1
     3.6     4.0     5.4     4.2     2.5     3.9     7.0     9.1     7.6     6.5
     6.9     6.2     3.3    -0.0     3.3     7.7     6.8     1.7     1.6     6.3
     8.1     3.2     2.3     5.3     4.3     1.0     1.8     8.0    10.4     8.2
     8.0     9.1    10.9    12.7    13.0    11.2    10.1     8.6    11.0    11.7
     6.5     1.5     2.8     7.8     6.8     3.1     2.7     4.1     1.7    -0.4
     3.6     8.5     9.0     0.7    -9.0   -11.5   -12.7   -17.1   -18.9   -17.0
   -14.6   -12.9   -11.7   -13.3   -11.5   -10.3   -11.8   -12.4   -14.2   -13.6
    -9.6    -8.0    -5.4    -3.1    -4.5    -5.9    -9.6   -14.0   -14.2   -12.8
   -11.1    -8.9    -5.9    -2.0    -2.6    -6.2    -7.1    -5.7    -5.9    -7.8
    -5.9    -2.0    -1.8    -4.1    -3.0     0.8     0.6    -1.6     0.7     5.1
     7.4     6.7     5.9    11.1    13.0     9.1     7.4    11.3    16.2    17.0
    15.3    17.5    21.2    18.9    17.1    18.5    18.1    12.4     5.8     1.7
    -1.4    -6.0   -10.8   -12.8   -16.6   -22.2   -27.2   -30.0   -26.9   -24.6
   -21.9   -19.1   -16.8   -19.5   -20.5   -22.4   -21.5   -17.9   -16.9   -14.5
   -13.0   -11.9   -10.8    -9.3    -6.5    -8.1   -12.1   -10.7    -7.7    -6.2
    -6.6    -3.0     4.8    10.7    11.1     8.6     7.3     3.4     3.8     5.7
