Corrected accelerogram 20160214_001343_SWNC_20 GNS Science
Site SWNC      43 22 10S  172 29 43E     Cusp file:  20160214_001349_SWNC
Swannanoa School
Instrument Cusp_10452
Resolution: 18-bit   Instr Period: 0.0050 s   Damping: 0.700
Accelerogram 20160214_001343_SWNC_20                 Processed 2016 February 22
11 km east of CHRISTCHURCH
2016 February 14         00:13:43 UT
Epicentre  43 29 50S 172 45 18E  Bearing S56E  Dist   25km  Depth    8km M  5.70
Number of points  8192    Duration 163.82 sec
Instrument corrected data at 0.020 sec intervals
Band-pass filter transition bands are .10-.25 Hz and 24.50-25.50 Hz
Component N00E  Horizontal Axis 1
Acceleration:  peak    -97.0 mm/s/s at  45.54 sec     rms      5.8 mm/s/s
Velocity:      peak     6.25 mm/s   at  45.30 sec     rms     1.01 mm/s
Displacement:  peak   -2.282 mm     at  75.06 sec     rms    0.575 mm
    2016       2      14       0      13     430       0       0    2016       2
      43      29      50     172      45      18       8       0      14       0
      43      22      10     172      29      43       0       0     124      25
   35971     250     250    8192    8192    8192       0       0      13    9249
   200.0    0.70    0.00   0.000  0.0000   0.000   0.000   1.000     0.0    0.00
  43.369 172.495   43.50  172.76    5.70    0.00    0.00    0.00      0.      0.
  179.85    5.00    5.00  163.82  0.0050  0.0200      0.      0.      0.  9806.6
   -99.1   45.53     6.1   0.000      0.   -97.0   45.54     5.8   322.5   0.311
    6.25   45.30    1.01   20.79   0.311   -2.28   75.06    0.58    7.56   0.195
   0.100   0.150   0.250      0.      0.  24.500   1.000  25.500      0.      0.
     0.0    -0.0     0.0    -0.0     0.0    -0.0     0.0    -0.0     0.0    -0.0
     0.0    -0.0     0.0    -0.0     0.0    -0.0     0.0    -0.0     0.0    -0.0
     0.0    -0.0     0.0    -0.0     0.0    -0.0     0.0    -0.0     0.0    -0.0
     0.0    -0.0     0.0    -0.0     0.0    -0.0     0.0    -0.0     0.0    -0.0
     0.0    -0.0     0.0    -0.0     0.0    -0.0     0.0    -0.0     0.0    -0.0
     0.0    -0.0     0.0    -0.0     0.0    -0.0     0.0    -0.0     0.0    -0.0
     0.0    -0.0     0.0    -0.0     0.0    -0.0     0.0    -0.0     0.0    -0.0
     0.0    -0.0     0.0    -0.0     0.0     0.0     0.0     0.0     0.0     0.0
     0.0     0.0     0.0     0.0     0.0     0.0     0.0     0.0     0.0     0.0
     0.0     0.0     0.0     0.0     0.0     0.0     0.0     0.0     0.0     0.0
     0.0     0.0     0.0     0.0     0.0     0.0     0.0     0.0     0.0     0.0
     0.0     0.0     0.0     0.0     0.0     0.0     0.0     0.0     0.0     0.0
     0.0     0.0     0.0     0.0     0.0     0.0     0.0     0.0     0.0     0.0
     0.0     0.0     0.0     0.0     0.0     0.0     0.0     0.0     0.0     0.0
     0.0     0.0     0.0     0.0     0.0     0.0     0.0     0.0     0.0     0.0
     0.0     0.0     0.0     0.0     0.0     0.0     0.0     0.0     0.0     0.0
     0.0    -0.0     0.0    -0.0     0.0    -0.0     0.0    -0.0     0.0    -0.0
     0.0    -0.0     0.0    -0.0     0.0    -0.0     0.0    -0.0     0.0    -0.0
     0.0    -0.0     0.0    -0.0     0.0    -0.0     0.0    -0.0     0.0    -0.0
     0.0    -0.0     0.0    -0.0     0.0    -0.0     0.0    -0.0     0.0    -0.0
     0.0    -0.0    -0.0    -0.0    -0.0    -0.0    -0.0    -0.0    -0.0    -0.0
    -0.0    -0.0    -0.0    -0.0    -0.0    -0.0    -0.0    -0.0    -0.0    -0.0
    -0.0    -0.0    -0.0    -0.0    -0.0    -0.0    -0.0    -0.0     0.0    -0.0
     0.0    -0.0     0.0    -0.0     0.0    -0.0     0.0    -0.0     0.0    -0.0
     0.0    -0.0     0.0    -0.0     0.0    -0.0     0.0    -0.0     0.0    -0.0
     0.1     0.1     0.0     0.1    -0.0    -0.1    -0.0     0.1    -0.1     0.0
    -0.1    -0.0     0.1    -0.0     0.1     0.1    -0.1    -0.0    -0.0    -0.0
    -0.0     0.1     0.1     0.0    -0.1    -0.0     0.0    -0.0    -0.1     0.0
     0.0     0.1    -0.1    -0.0     0.0    -0.1    -0.1    -0.0     0.0     0.1
    -0.1    -0.0     0.0     0.1    -0.0     0.0     0.1     0.0     0.0     0.1
    -0.2    -0.1     0.0    -0.1    -0.0     0.1     0.0    -0.1    -0.0     0.0
    -0.1     0.0    -0.0     0.1    -0.0     0.0     0.1     0.1     0.1     0.1
    -0.0     0.1     0.0     0.0    -0.1     0.1    -0.1    -0.0     0.1    -0.0
    -0.1    -0.1    -0.0     0.0     0.0     0.0    -0.1     0.0     0.0     0.0
     0.1    -0.0     0.1    -0.0     0.0    -0.0     0.1     0.0    -0.1    -0.0
    -0.0     0.0    -0.0     0.1    -0.0    -0.0     0.0    -0.1     0.1     0.1
    -0.0    -0.1    -0.1     0.0    -0.0     0.1    -0.1    -0.0    -0.0    -0.0
     0.1    -0.1    -0.0     0.1    -0.0    -0.0    -0.0    -0.1    -0.0     0.0
    -0.0    -0.1     0.0    -0.0    -0.0    -0.1     0.1    -0.0    -0.1    -0.0
     0.0    -0.1     0.0    -0.1     0.0     0.1    -0.0    -0.1    -0.0     0.1
     0.1     0.0    -0.0     0.1    -0.0     0.1     0.0     0.0     0.1     0.1
     0.0     0.0    -0.1     0.1     0.0    -0.0    -0.1    -0.1     0.1     0.0
    -0.0    -0.0    -0.0    -0.1     0.2     0.1     0.1    -0.0     0.1     0.1
    -0.0    -0.0     0.1     0.1     0.1    -0.1    -0.0    -0.0     0.0     0.0
     0.0    -0.0     0.1    -0.1    -0.0    -0.0     0.1     0.0    -0.1    -0.1
    -0.0    -0.0     0.0    -0.1     0.0     0.1    -0.1    -0.1     0.0     0.1
     0.1    -0.1     0.1    -0.1     0.0    -0.0    -0.1    -0.0     0.1    -0.1
    -0.1    -0.0     0.0    -0.0    -0.0     0.1     0.1    -0.1    -0.1    -0.1
    -0.0     0.0     0.1     0.0    -0.1     0.0    -0.0    -0.0    -0.0    -0.0
    -0.0     0.0    -0.1    -0.0     0.0    -0.1    -0.0     0.0     0.0    -0.0
    -0.1    -0.0    -0.1    -0.1     0.0     0.1    -0.0     0.0     0.0     0.1
    -0.0     0.0    -0.1    -0.1     0.0    -0.0     0.0     0.0     0.0    -0.0
     0.1     0.0     0.1     0.1    -0.1    -0.1     0.1    -0.0    -0.0    -0.1
     0.0     0.0    -0.1    -0.1     0.0     0.0    -0.0    -0.0     0.0    -0.0
    -0.1    -0.1     0.0     0.0    -0.0     0.1     0.1    -0.1     0.1     0.1
    -0.0     0.1     0.0     0.1     0.1    -0.0    -0.0     0.1    -0.0    -0.0
    -0.0     0.0     0.0    -0.0    -0.1     0.1    -0.0     0.1     0.1    -0.1
    -0.0     0.0    -0.0    -0.0    -0.1    -0.0    -0.1     0.0     0.0     0.0
     0.1     0.1    -0.1    -0.1     0.0     0.1     0.0    -0.1     0.0    -0.1
     0.0    -0.0     0.0    -0.1     0.1    -0.0    -0.1    -0.0     0.1     0.0
    -0.0     0.1     0.0    -0.1     0.1    -0.1    -0.0    -0.0    -0.1    -0.0
     0.1     0.1    -0.0     0.0    -0.0     0.1     0.0    -0.0     0.1     0.1
     0.0    -0.0     0.1     0.0     0.1     0.0    -0.0     0.0     0.1     0.1
    -0.1     0.1     0.1     0.1    -0.1    -0.0     0.1     0.0    -0.1     0.0
    -0.0    -0.1    -0.1     0.0    -0.0    -0.0    -0.0    -0.0     0.0    -0.0
     0.0    -0.1    -0.0     0.0    -0.0    -0.0    -0.0    -0.0    -0.0     0.0
     0.1     0.1     0.0     0.0    -0.1     0.0    -0.0    -0.1    -0.1    -0.1
    -0.0     0.1    -0.1    -0.1    -0.0     0.0    -0.0     0.1    -0.1     0.0
    -0.0     0.0     0.0    -0.2    -0.1     0.0     0.0     0.0    -0.0     0.0
    -0.0     0.0    -0.2    -0.1    -0.0    -0.0     0.0     0.0    -0.1    -0.0
    -0.1     0.0    -0.1     0.0     0.0    -0.1    -0.1     0.0     0.1    -0.1
     0.0     0.1    -0.0    -0.0     0.0    -0.0    -0.1     0.1    -0.1    -0.1
    -0.0    -0.1     0.1     0.0     0.0     0.1     0.0     0.1     0.1    -0.0
     0.1    -0.1     0.0    -0.1    -0.0    -0.1    -0.0    -0.1     0.1    -0.0
     0.0    -0.1    -0.1     0.1     0.1    -0.1     0.0     0.0     0.0     0.0
    -0.0    -0.0    -0.0     0.0    -0.0    -0.0    -0.1    -0.0    -0.0     0.2
    -0.0     0.0    -0.0    -0.0    -0.0    -0.0    -0.0    -0.0     0.1     0.0
    -0.0    -0.0     0.0     0.0     0.0     0.0    -0.1     0.0     0.1     0.1
     0.0    -0.0     0.0     0.0    -0.1     0.0    -0.0    -0.0     0.0    -0.0
    -0.0    -0.0    -0.0    -0.0    -0.0    -0.0     0.0     0.2     0.2     0.1
     0.1     0.0    -0.0    -0.0    -0.0     0.0     0.1     0.0    -0.0    -0.1
    -0.0     0.1     0.1    -0.1    -0.0     0.0    -0.1    -0.1     0.1    -0.1
     0.0    -0.1    -0.0     0.0     0.1    -0.0     0.1     0.0    -0.1     0.0
    -0.1     0.1     0.0     0.0     0.0     0.0    -0.0     0.1     0.0     0.0
     0.0    -0.0    -0.1     0.1    -0.0    -0.1    -0.1    -0.0    -0.1    -0.0
     0.0     0.0     0.1     0.0     0.0     0.0    -0.1    -0.0     0.1     0.1
     0.0     0.0    -0.1     0.1     0.1    -0.1    -0.0     0.0     0.1    -0.0
     0.1     0.0     0.0     0.0    -0.1     0.0    -0.0     0.0    -0.1    -0.0
     0.0    -0.0     0.0    -0.0    -0.0     0.1    -0.1     0.1     0.0     0.0
     0.0    -0.1    -0.1    -0.0    -0.0     0.1    -0.1     0.0     0.0    -0.0
     0.1     0.1    -0.0     0.1     0.0     0.0    -0.0    -0.1     0.0    -0.0
     0.0    -0.1    -0.0     0.1    -0.1    -0.0    -0.0    -0.0     0.0    -0.1
     0.0    -0.0     0.0    -0.1     0.0    -0.1     0.1     0.1     0.0    -0.0
     0.1    -0.1    -0.1    -0.0    -0.0     0.1    -0.1     0.0    -0.0     0.1
    -0.0    -0.1    -0.1     0.1    -0.0     0.1    -0.0     0.0     0.0    -0.1
     0.0    -0.0    -0.0     0.0     0.0    -0.0     0.1    -0.1    -0.1    -0.0
    -0.1     0.0    -0.1    -0.1    -0.0    -0.1     0.1    -0.0    -0.1    -0.1
    -0.1     0.0     0.1    -0.0     0.1     0.1     0.1    -0.0     0.1     0.0
    -0.1    -0.1    -0.1    -0.1    -0.1    -0.0    -0.1    -0.0    -0.1     0.1
    -0.0     0.1     0.1     0.0    -0.0     0.1     0.1    -0.0    -0.1    -0.0
    -0.1    -0.0     0.0     0.0    -0.1    -0.1     0.1     0.1     0.0    -0.0
     0.0    -0.1     0.1     0.1     0.0    -0.1    -0.1     0.0     0.0    -0.0
    -0.0     0.0     0.1     0.0    -0.0    -0.1    -0.0    -0.0    -0.0     0.0
     0.1    -0.0     0.1     0.0     0.1     0.1     0.0     0.0     0.0     0.0
    -0.0     0.1     0.1    -0.1    -0.0    -0.1    -0.1    -0.1    -0.0     0.1
     0.1    -0.1     0.1    -0.0     0.0    -0.1    -0.0     0.1    -0.1    -0.0
     0.0    -0.1    -0.0    -0.0     0.0    -0.1     0.1     0.0    -0.0     0.0
     0.1    -0.1    -0.0     0.0    -0.1    -0.1     0.0    -0.0    -0.0     0.0
    -0.0    -0.0     0.0    -0.0     0.0     0.0     0.0    -0.0    -0.0    -0.0
    -0.0    -0.0     0.1     0.1    -0.1    -0.0    -0.1    -0.1     0.1     0.1
    -0.1    -0.1     0.0     0.1     0.0    -0.1    -0.1     0.0    -0.1    -0.1
     0.0    -0.0    -0.0    -0.1    -0.0     0.0    -0.1    -0.0     0.1    -0.1
    -0.0     0.0    -0.1     0.0     0.0    -0.0    -0.0    -0.1    -0.0     0.0
     0.0     0.0     0.1     0.0    -0.1    -0.0     0.1     0.0    -0.1    -0.0
     0.2     0.1     0.0     0.0     0.0     0.0     0.1    -0.0     0.1    -0.0
     0.1    -0.1    -0.0     0.1     0.1     0.1    -0.0     0.0    -0.1     0.0
     0.1     0.0    -0.0     0.1    -0.0    -0.1    -0.0     0.0     0.1     0.1
     0.0     0.1    -0.0    -0.1    -0.1     0.1    -0.0    -0.0    -0.0     0.0
     0.1     0.1    -0.1     0.0     0.1    -0.0    -0.1    -0.1     0.0     0.1
     0.0    -0.0    -0.1     0.1    -0.1    -0.0    -0.0     0.1     0.0    -0.0
    -0.1    -0.0     0.1    -0.1     0.2    -0.0    -0.1    -0.1    -0.0     0.0
     0.0    -0.0     0.1    -0.0     0.0     0.1     0.0     0.0    -0.1     0.0
     0.1    -0.0    -0.1    -0.0    -0.1    -0.1    -0.2    -0.0    -0.0     0.1
    -0.0    -0.0     0.0     0.1     0.0    -0.0    -0.1    -0.1     0.0     0.1
     0.1    -0.0    -0.1    -0.1    -0.0    -0.1    -0.0     0.0     0.1    -0.0
     0.0    -0.0     0.0    -0.1    -0.1     0.0     0.0    -0.0     0.1     0.1
    -0.1     0.0     0.1     0.1     0.1     0.1    -0.1     0.0     0.0    -0.0
    -0.0    -0.0     0.0    -0.0     0.0     0.1    -0.0    -0.1     0.0     0.0
     0.0     0.1    -0.0    -0.0    -0.0     0.0    -0.0    -0.1     0.0     0.0
    -0.1     0.1     0.0     0.0     0.0    -0.0     0.0     0.0     0.0     0.0
    -0.0    -0.0    -0.0    -0.0     0.1    -0.1     0.1     0.0    -0.1     0.0
     0.1    -0.0     0.1     0.1    -0.0     0.1    -0.0    -0.0    -0.1     0.1
    -0.0     0.0     0.0     0.0     0.0    -0.1    -0.1    -0.1     0.0    -0.0
    -0.0     0.0     0.0    -0.1    -0.0     0.0     0.1     0.1     0.0     0.0
     0.1     0.1    -0.1     0.1    -0.0     0.0     0.0    -0.0    -0.1     0.0
     0.1    -0.0    -0.0     0.0    -0.0    -0.0    -0.0    -0.0     0.0    -0.1
    -0.1    -0.0     0.0     0.1     0.1     0.1    -0.0     0.0    -0.0     0.0
     0.0     0.0    -0.1    -0.0    -0.0    -0.1     0.0     0.1     0.1     0.0
    -0.1    -0.1     0.0    -0.0    -0.0    -0.0     0.0     0.1    -0.1    -0.0
     0.0    -0.1    -0.1     0.0    -0.0     0.0    -0.0    -0.1     0.1     0.1
    -0.0    -0.0    -0.0    -0.0     0.0    -0.0     0.1    -0.1     0.1    -0.1
     0.0    -0.1     0.1    -0.1    -0.0    -0.0    -0.0    -0.0    -0.0    -0.0
    -0.0    -0.0    -0.0     0.1     0.0     0.1    -0.1    -0.0    -0.0     0.0
    -0.0    -0.1     0.1     0.0    -0.0    -0.1    -0.1     0.0     0.1    -0.1
    -0.0     0.0     0.0    -0.1    -0.0    -0.1     0.0    -0.0     0.0    -0.1
     0.0    -0.0    -0.1    -0.1     0.1     0.1    -0.0     0.1    -0.0     0.0
     0.0    -0.1     0.0     0.0     0.1    -0.2     0.1     0.1    -0.0    -0.0
     0.1    -0.1     0.2    -0.0     0.1     0.0    -0.1     0.1    -0.1    -0.0
     0.1    -0.1     0.0     0.0     0.1     0.0     0.1    -0.1     0.0     0.1
     0.1     0.1    -0.0     0.1     0.0     0.1    -0.0     0.0    -0.1    -0.0
     0.0    -0.1    -0.2    -0.0    -0.1     0.0    -0.0    -0.0     0.1    -0.1
     0.0    -0.0    -0.0    -0.1    -0.0    -0.0    -0.1     0.0    -0.0    -0.1
     0.0     0.1     0.1     0.0    -0.1    -0.1    -0.1    -0.0     0.0    -0.1
    -0.1     0.0    -0.0     0.1     0.0    -0.1     0.0    -0.0    -0.1    -0.0
    -0.0    -0.0     0.0     0.1    -0.0     0.0     0.1     0.1    -0.0     0.0
     0.0     0.0     0.1     0.1    -0.0    -0.1    -0.1    -0.1     0.0     0.0
    -0.0    -0.1     0.0    -0.0    -0.0    -0.1     0.0     0.0    -0.1     0.0
     0.0     0.1     0.0     0.1     0.0    -0.1     0.0    -0.0    -0.0    -0.1
     0.1     0.0    -0.1     0.1    -0.1     0.0     0.1     0.0    -0.1     0.1
     0.1    -0.1     0.1     0.1    -0.1     0.0     0.0     0.0     0.1    -0.1
     0.0    -0.0    -0.0    -0.0     0.0     0.0    -0.0    -0.1    -0.0     0.1
    -0.0    -0.0     0.1     0.0    -0.0    -0.1     0.0     0.1    -0.0    -0.1
     0.0    -0.0     0.1     0.1     0.1     0.1     0.1     0.1     0.1    -0.0
    -0.0    -0.0    -0.1    -0.0     0.1     0.1     0.1     0.0     0.0     0.0
     0.0     0.1     0.1     0.0     0.1     0.1    -0.0    -0.0    -0.1    -0.0
     0.0     0.0    -0.1     0.0     0.0     0.0     0.1    -0.1    -0.0    -0.0
    -0.1    -0.0     0.0    -0.0    -0.1     0.1    -0.0     0.0    -0.1    -0.1
    -0.1    -0.0    -0.1    -0.0    -0.2     0.1     0.0     0.1    -0.1     0.0
    -0.0    -0.0     0.0     0.0     0.0     0.0    -0.1    -0.1     0.0     0.1
     0.0     0.0    -0.1    -0.1    -0.1     0.0    -0.0    -0.1     0.1     0.0
    -0.0     0.0    -0.0    -0.0    -0.0    -0.0     0.0     0.1    -0.0     0.0
     0.1     0.0     0.1     0.1     0.0     0.0    -0.0    -0.0     0.1    -0.0
    -0.0    -0.0     0.0    -0.0    -0.0    -0.0    -0.1    -0.1     0.1     0.0
    -0.1    -0.0     0.0     0.0    -0.0     0.0     0.1    -0.1     0.0    -0.0
     0.0     0.0     0.0    -0.0    -0.0     0.0     0.0     0.0     0.0     0.0
    -0.0    -0.0     0.0     0.1    -0.1     0.2     0.0    -0.0     0.1     0.0
     0.1    -0.1    -0.0    -0.1    -0.1     0.1    -0.0    -0.0     0.1    -0.0
     0.1    -0.1     0.0     0.0     0.1     0.1    -0.0    -0.1    -0.0     0.1
     0.1    -0.0     0.0     0.1    -0.0    -0.0    -0.0    -0.1    -0.0    -0.1
     0.0     0.1     0.0    -0.0    -0.1     0.0     0.1     0.1     0.0     0.0
     0.0     0.0    -0.1     0.0    -0.1    -0.0     0.0    -0.1     0.0     0.1
     0.1    -0.0     0.1     0.1     0.0    -0.1     0.0     0.1    -0.0    -0.1
    -0.0    -0.0    -0.1    -0.1     0.0     0.1    -0.1    -0.1     0.0     0.0
     0.1     0.0     0.0     0.0    -0.1    -0.0     0.2    -0.0    -0.0     0.1
     0.0    -0.0     0.1    -0.0     0.0     0.1    -0.1     0.0    -0.0     0.0
     0.1    -0.0     0.1     0.0    -0.0    -0.0    -0.0    -0.0     0.1    -0.0
     0.1    -0.1    -0.0    -0.0     0.0    -0.0     0.2    -0.1    -0.1     0.0
    -0.0     0.1     0.0     0.0     0.1     0.1    -0.1     0.0     0.0     0.0
    -0.0    -0.1    -0.0    -0.0    -0.0    -0.1     0.0    -0.0    -0.1    -0.1
     0.1     0.0    -0.1     0.0    -0.0     0.0    -0.0    -0.1     0.0     0.0
     0.0    -0.0    -0.1    -0.0    -0.0    -0.1    -0.0    -0.1    -0.0     0.1
    -0.1    -0.1    -0.1     0.0    -0.0    -0.0    -0.1    -0.0     0.0     0.1
     0.0     0.0    -0.0     0.0    -0.2    -0.0    -0.1    -0.0     0.0     0.1
     0.1    -0.1     0.0     0.0    -0.1     0.0     0.0     0.0     0.0     0.1
     0.0     0.1    -0.0    -0.0    -0.1    -0.0    -0.1     0.1     0.0     0.0
    -0.0     0.0    -0.0     0.1    -0.1     0.1     0.0     0.1     0.2    -0.1
     0.1    -0.0     0.0     0.0     0.0    -0.0     0.0     0.1     0.1     0.1
     0.0    -0.1     0.0     0.0     0.0     0.1     0.2     0.1     0.0    -0.1
    -0.0    -0.0     0.1     0.0    -0.1     0.1     0.1     0.0     0.0     0.0
    -0.0     0.0    -0.1     0.0    -0.0    -0.1     0.0    -0.0    -0.0    -0.0
     0.0    -0.0    -0.1    -0.0    -0.1     0.0    -0.1    -0.0    -0.1    -0.1
    -0.0     0.0    -0.1    -0.0    -0.0    -0.1    -0.0    -0.1     0.0     0.1
    -0.0     0.1     0.0     0.0    -0.1    -0.0     0.1    -0.0     0.0     0.0
     0.0     0.0    -0.1     0.1     0.0     0.0     0.0    -0.1     0.1    -0.1
     0.0    -0.1     0.0    -0.1    -0.0     0.1    -0.1    -0.1     0.1    -0.1
    -0.1    -0.1    -0.1    -0.2    -0.1    -0.1    -0.1    -0.1     0.1    -0.1
     0.1     0.0    -0.0    -0.1    -0.1     0.0     0.0    -0.1    -0.0    -0.1
    -0.1     0.0    -0.1    -0.0    -0.1    -0.0     0.1    -0.1     0.0    -0.1
    -0.1     0.0    -0.0    -0.1    -0.1     0.0    -0.1    -0.2    -0.0    -0.0
    -0.1    -0.0    -0.1    -0.1    -0.1    -0.1    -0.1     0.0    -0.1    -0.0
    -0.0    -0.0    -0.1    -0.1    -0.1    -0.1    -0.0    -0.1    -0.1    -0.1
    -0.1    -0.1    -0.0    -0.1    -0.1    -0.1     0.1     0.0    -0.0    -0.1
    -0.1     0.0    -0.0    -0.0    -0.1    -0.1    -0.1    -0.0    -0.0    -0.1
    -0.1    -0.0     0.1    -0.2    -0.0     0.0    -0.1    -0.1     0.2     0.0
     0.0    -0.1     0.0    -0.1     0.1     0.0     0.1     0.1     0.1    -0.1
    -0.1     0.0     0.1     0.1     0.0    -0.1     0.1    -0.0     0.1    -0.0
     0.0     0.0     0.0     0.2     0.3     0.0     0.1     0.0     0.1     0.0
     0.2     0.2     0.2     0.1     0.1     0.1     0.2     0.0     0.1     0.0
     0.3     0.2     0.2     0.1     0.2     0.2     0.2     0.0     0.1     0.1
     0.2     0.2     0.2     0.3     0.2     0.2     0.2     0.3     0.3     0.3
     0.3     0.2     0.3     0.3     0.3     0.3     0.2     0.3     0.3     0.4
     0.2     0.4     0.4     0.3     0.2     0.1     0.3     0.4     0.4     0.3
     0.4     0.4     0.4     0.5     0.4     0.2     0.3     0.4     0.4     0.3
     0.4     0.3     0.4     0.3     0.3     0.3     0.3     0.2     0.3     0.2
     0.2    -0.1     0.2    -0.4    -0.0     0.3     0.6    -0.4     0.3    -1.5
     0.5    -0.9     0.5     1.1    -0.7     0.1     1.7    -0.7     3.0     1.4
