Corrected accelerogram 20160214_001343_OXZ_20 GNS Science
Site OXZ       43 19 33S  172 02 18E     Basalt file:  20160214_001354_OXZ
Oxford
Instrument Basalt_2155
Resolution: 24-bit   Instr Period: 0.0050 s   Damping: 0.700
Accelerogram 20160214_001343_OXZ_20                  Processed 2016 February 22
11 km east of CHRISTCHURCH
2016 February 14         00:13:43 UT
Epicentre  43 29 50S 172 45 18E  Bearing S72E  Dist   61km  Depth    8km M  5.70
Number of points  6750    Duration 134.98 sec
Instrument corrected data at 0.020 sec intervals
Band-pass filter transition bands are .10-.25 Hz and 24.50-25.50 Hz
Component N00E  Transverse Accelerometer Axis
Acceleration:  peak    132.5 mm/s/s at  52.00 sec     rms      9.4 mm/s/s
Velocity:      peak    -6.88 mm/s   at  54.32 sec     rms     1.05 mm/s
Displacement:  peak   -2.166 mm     at  54.50 sec     rms    0.517 mm
    2016       2      14       0      13     430       0       0    2016       2
      43      29      50     172      45      18       8       0      14       0
      43      19      33     172       2      18       0       0     108      61
   25000     250     250    6750    6750    6750       0       0      13   14000
   200.0    0.70    0.00   0.000  0.0000   0.000   0.000   1.000     0.0    0.00
  43.326 172.038   43.50  172.76    5.70    0.00    0.00    0.00      0.      0.
  125.00    5.00    5.00  134.98  0.0050  0.0200      0.      0.      0.  9806.6
   132.0   52.00    10.0   0.000      0.   132.5   52.00     9.4   136.1   2.832
   -6.88   54.32    1.05    7.75   0.214   -2.17   54.50    0.52    2.34   0.214
   0.100   0.150   0.250      0.      0.  24.500   1.000  25.500      0.      0.
     0.0    -0.0     0.0    -0.0     0.0    -0.0     0.0    -0.0     0.0    -0.0
     0.0    -0.0     0.0    -0.0     0.0    -0.0     0.0    -0.0     0.0    -0.0
     0.0    -0.0     0.0    -0.0     0.0    -0.0     0.0    -0.0     0.0    -0.0
     0.0    -0.0     0.0    -0.0     0.0    -0.0     0.0    -0.0     0.0    -0.0
     0.0    -0.0     0.0    -0.0     0.0    -0.0     0.0    -0.0     0.0    -0.0
     0.0    -0.0     0.0    -0.0     0.0    -0.0     0.0    -0.0     0.0    -0.0
     0.0    -0.0     0.0    -0.0     0.0    -0.0     0.0    -0.0     0.0    -0.0
     0.0    -0.0     0.0    -0.0     0.0    -0.0     0.0    -0.0     0.0    -0.0
     0.0    -0.0     0.0    -0.0     0.0    -0.0     0.0    -0.0     0.0    -0.0
     0.0    -0.0     0.0    -0.0     0.0    -0.0     0.0    -0.0     0.0    -0.0
     0.0    -0.0     0.0    -0.0     0.0    -0.0     0.0    -0.0     0.0    -0.0
     0.0    -0.0     0.0    -0.0     0.0    -0.0     0.0    -0.0     0.0    -0.0
     0.0    -0.0     0.0    -0.0     0.0    -0.0     0.0    -0.0     0.0    -0.0
     0.0    -0.0     0.0    -0.0     0.0    -0.0     0.0    -0.0     0.0    -0.0
     0.0    -0.0     0.0    -0.0     0.0    -0.0     0.0    -0.0     0.0    -0.0
     0.0    -0.0     0.0    -0.0     0.0    -0.0     0.0    -0.0     0.0    -0.0
     0.0    -0.0     0.0    -0.0     0.0    -0.0     0.0    -0.0     0.0    -0.0
     0.0    -0.0     0.0    -0.0     0.0    -0.0     0.0    -0.0     0.0    -0.0
     0.0    -0.0     0.0    -0.0     0.0    -0.0     0.0    -0.0     0.0    -0.0
     0.0    -0.0     0.0    -0.0     0.0    -0.0     0.0    -0.0     0.0    -0.0
     0.0    -0.0     0.0    -0.0     0.0    -0.0     0.0    -0.0     0.0    -0.0
     0.0    -0.0     0.0    -0.0     0.0    -0.0     0.0    -0.0     0.0    -0.0
     0.0    -0.0     0.0    -0.0     0.0    -0.0     0.0    -0.0     0.0    -0.0
     0.0    -0.0     0.0    -0.0     0.0    -0.0     0.0    -0.0     0.0    -0.0
     0.0    -0.0     0.0    -0.0     0.0    -0.0     0.0    -0.0     0.0    -0.0
     0.0    -0.0     0.0    -0.0    -0.0    -0.0     0.0    -0.0     0.0    -0.0
     0.0    -0.0     0.0    -0.0     0.0    -0.0    -0.0    -0.1     0.0    -0.0
     0.0    -0.0     0.0    -0.0     0.0    -0.0     0.0    -0.0     0.0    -0.0
    -0.0    -0.0     0.0    -0.0     0.0    -0.1     0.0    -0.0    -0.0    -0.0
     0.0    -0.0    -0.0    -0.0     0.0    -0.0     0.0    -0.0     0.0    -0.0
     0.0    -0.0     0.0    -0.0     0.0    -0.0     0.0    -0.0     0.0    -0.0
     0.1    -0.0     0.0    -0.0     0.1    -0.0     0.1    -0.1     0.0    -0.0
     0.0    -0.0     0.0    -0.0     0.0    -0.0     0.1     0.0     0.0    -0.0
    -0.0     0.0    -0.1     0.0    -0.0    -0.0     0.0    -0.1     0.0    -0.1
     0.1    -0.0    -0.0     0.0    -0.0     0.0    -0.0    -0.0    -0.0    -0.0
     0.0    -0.1     0.1    -0.0    -0.0    -0.0     0.0    -0.1     0.0    -0.0
     0.1    -0.0     0.1    -0.0     0.0    -0.1     0.0    -0.0     0.0    -0.0
     0.0    -0.0     0.1    -0.1     0.0    -0.0     0.0    -0.0     0.0    -0.0
     0.0     0.0     0.0    -0.0     0.0    -0.0     0.0    -0.0     0.0    -0.0
     0.0    -0.0     0.0    -0.0     0.0    -0.0     0.0    -0.1     0.0    -0.0
     0.0    -0.0     0.0    -0.0     0.1    -0.0     0.0    -0.0     0.1    -0.1
     0.1    -0.0     0.0    -0.0     0.0    -0.0     0.0    -0.0     0.1    -0.1
     0.0    -0.0     0.0    -0.1     0.0    -0.0     0.0     0.0     0.0    -0.0
     0.0    -0.0     0.0    -0.0     0.0    -0.0     0.0    -0.0     0.0     0.0
     0.0    -0.0     0.0    -0.0     0.0    -0.0    -0.0    -0.0    -0.0    -0.0
    -0.0    -0.0     0.0    -0.0     0.1    -0.0     0.0    -0.0     0.0    -0.0
     0.0    -0.0     0.1    -0.0     0.0    -0.0     0.1    -0.0     0.0    -0.0
     0.1    -0.0     0.0    -0.0     0.1    -0.0     0.0    -0.0     0.1    -0.1
     0.0    -0.0     0.0    -0.0     0.0    -0.0     0.0    -0.0     0.0    -0.0
     0.0    -0.0     0.0    -0.0     0.1    -0.0     0.0    -0.0     0.1    -0.0
     0.0    -0.0    -0.0     0.0    -0.0    -0.0     0.0    -0.0     0.0    -0.0
     0.0    -0.1     0.1    -0.1     0.1    -0.0     0.0    -0.0     0.0    -0.0
     0.0    -0.0     0.1    -0.0     0.1    -0.0     0.0    -0.0    -0.0     0.0
     0.0    -0.0     0.0    -0.0     0.0    -0.0     0.0    -0.0    -0.0    -0.0
    -0.0    -0.1     0.1    -0.1     0.0    -0.0     0.0    -0.0     0.0    -0.0
     0.0    -0.0     0.1    -0.0     0.0    -0.0     0.0    -0.0     0.0    -0.0
     0.0    -0.0     0.0    -0.0     0.0    -0.0     0.0    -0.0     0.0    -0.0
     0.0    -0.1     0.0    -0.0     0.0    -0.0     0.0    -0.0     0.1    -0.0
     0.1    -0.0     0.0    -0.0     0.0    -0.0     0.1    -0.0     0.0    -0.0
     0.1    -0.0     0.1    -0.1     0.0    -0.0     0.0    -0.0     0.0    -0.0
     0.0    -0.0     0.0    -0.0     0.1    -0.1     0.0    -0.0     0.0    -0.0
     0.0     0.0     0.0     0.0     0.0    -0.0     0.0    -0.0     0.0    -0.0
     0.0    -0.0     0.0    -0.0     0.0    -0.1     0.0    -0.1     0.1    -0.0
     0.0    -0.0     0.0    -0.0     0.1    -0.1     0.0    -0.0     0.0    -0.0
     0.1    -0.0     0.1    -0.0     0.0    -0.0     0.0    -0.0     0.0    -0.0
     0.0    -0.0     0.0    -0.0     0.1    -0.0     0.0    -0.1     0.0    -0.0
     0.0    -0.0     0.1    -0.0     0.0    -0.1     0.0    -0.1     0.0    -0.1
     0.0    -0.0     0.0    -0.0     0.0    -0.0     0.0    -0.0     0.0    -0.0
     0.0    -0.0     0.0    -0.0     0.0    -0.0     0.0    -0.0    -0.0    -0.0
    -0.0    -0.0     0.0    -0.0     0.0    -0.0     0.0    -0.0     0.0    -0.0
     0.0    -0.0     0.0    -0.0     0.0    -0.0     0.0    -0.0     0.0    -0.0
    -0.0    -0.0     0.1    -0.1     0.0    -0.1     0.0    -0.0     0.0    -0.0
     0.0    -0.0     0.0    -0.0     0.1    -0.1     0.1    -0.0     0.0    -0.0
     0.0    -0.0     0.0    -0.0     0.1    -0.1     0.1    -0.0     0.0    -0.0
     0.0    -0.0     0.0    -0.0     0.0    -0.1     0.0    -0.0     0.1    -0.0
     0.0    -0.0     0.0    -0.0     0.0    -0.0     0.0    -0.0     0.0    -0.1
     0.0    -0.0     0.0     0.0    -0.0    -0.1     0.0    -0.0     0.1    -0.0
     0.0    -0.0     0.1    -0.0     0.0    -0.0     0.0    -0.0     0.0    -0.1
     0.1    -0.0     0.1    -0.0     0.0    -0.0     0.1    -0.0     0.1    -0.0
     0.1    -0.0     0.1    -0.0     0.1    -0.0     0.1    -0.0     0.1    -0.0
     0.0    -0.0     0.0    -0.0     0.0    -0.1     0.0    -0.0     0.1    -0.0
     0.0    -0.0     0.0    -0.0     0.0    -0.1     0.0    -0.0     0.0    -0.0
    -0.0    -0.0     0.0    -0.0     0.1    -0.0     0.0    -0.0     0.0    -0.0
     0.0    -0.0     0.0    -0.0     0.1    -0.1     0.0    -0.1     0.0    -0.0
     0.0    -0.0     0.1    -0.0     0.0    -0.0     0.0    -0.0     0.0    -0.1
     0.1    -0.1     0.0    -0.0     0.0    -0.0     0.0    -0.0     0.1    -0.0
     0.0    -0.0     0.0    -0.1     0.1    -0.1     0.0    -0.1     0.0    -0.0
     0.0    -0.0     0.0    -0.1     0.1    -0.1     0.1    -0.1     0.0    -0.0
     0.0    -0.0     0.1    -0.0     0.1    -0.0     0.1    -0.1     0.0    -0.1
     0.0    -0.0     0.0    -0.0     0.1    -0.1     0.0    -0.1     0.1    -0.1
     0.0    -0.0     0.0    -0.0     0.0    -0.0     0.0    -0.0     0.0    -0.0
     0.0    -0.0     0.0    -0.0     0.0    -0.0     0.0    -0.0     0.0    -0.0
     0.0    -0.0     0.0    -0.0     0.0    -0.0     0.1    -0.0     0.0    -0.0
     0.0    -0.0     0.1    -0.1     0.0    -0.0     0.0    -0.0     0.1    -0.1
     0.0    -0.0     0.0    -0.0     0.1    -0.0     0.0    -0.0     0.0    -0.0
     0.0    -0.0     0.0    -0.0     0.1    -0.1     0.1    -0.1     0.0    -0.0
     0.1    -0.1     0.0    -0.0     0.0    -0.0     0.0    -0.0     0.0    -0.0
     0.0    -0.0     0.0    -0.1     0.1    -0.0     0.0    -0.1     0.1    -0.0
     0.0    -0.0     0.0    -0.1     0.1    -0.0     0.0    -0.0     0.1    -0.0
     0.0    -0.0     0.0    -0.0     0.0    -0.0     0.1    -0.0     0.0    -0.1
     0.0    -0.0     0.0    -0.0     0.0    -0.1     0.0    -0.0     0.0    -0.0
     0.0    -0.0     0.0    -0.0     0.0    -0.0     0.0    -0.0     0.0    -0.0
     0.0    -0.1     0.1    -0.0     0.1    -0.1     0.1    -0.1     0.0    -0.0
     0.0    -0.1     0.0    -0.0     0.0    -0.0     0.1    -0.1     0.0    -0.1
     0.0    -0.0     0.1    -0.0     0.0    -0.0     0.0    -0.0     0.0    -0.0
     0.0    -0.0     0.0    -0.0     0.0    -0.0     0.0    -0.1     0.1    -0.1
     0.1    -0.0     0.0    -0.1     0.1    -0.0     0.0    -0.1     0.1    -0.0
     0.0    -0.1     0.1    -0.0     0.1    -0.0     0.0    -0.0     0.0    -0.0
     0.0    -0.1     0.0    -0.0     0.1    -0.0     0.0    -0.0     0.1    -0.0
     0.1    -0.0     0.1    -0.1     0.1    -0.0     0.1    -0.1     0.0    -0.1
     0.1    -0.1     0.0    -0.1     0.0    -0.0     0.1    -0.0     0.0    -0.1
     0.1    -0.0     0.1    -0.0     0.1    -0.0     0.1    -0.0     0.0    -0.1
     0.0    -0.0     0.1    -0.0     0.0    -0.0     0.1    -0.0     0.0    -0.0
     0.0    -0.0     0.0    -0.0     0.0    -0.0     0.0    -0.1     0.0    -0.0
     0.1    -0.1     0.0    -0.0     0.0    -0.0     0.1    -0.0     0.0    -0.1
     0.1    -0.1     0.1    -0.1     0.1    -0.0     0.0    -0.1     0.0    -0.0
     0.1    -0.0     0.1    -0.0     0.1    -0.0     0.1    -0.0     0.1    -0.0
     0.1    -0.1     0.1    -0.1     0.1    -0.0     0.0    -0.1     0.1    -0.0
     0.0    -0.1     0.0    -0.1     0.1    -0.0     0.1    -0.0     0.0    -0.0
     0.0    -0.0     0.0    -0.1     0.0    -0.1     0.1    -0.0     0.0    -0.1
     0.1    -0.0     0.1    -0.1     0.0    -0.0     0.0    -0.1     0.0    -0.1
     0.0    -0.1     0.1    -0.1     0.0    -0.0     0.0    -0.0     0.1    -0.0
     0.1    -0.1     0.0    -0.1     0.1    -0.1     0.1    -0.1     0.0    -0.0
     0.0    -0.1     0.1    -0.0     0.1    -0.1     0.0    -0.0     0.0    -0.1
     0.0    -0.1     0.1    -0.1     0.1    -0.1     0.1    -0.1     0.1    -0.1
     0.0    -0.0     0.1    -0.0     0.1    -0.0     0.1    -0.1     0.1    -0.0
     0.0    -0.0     0.0    -0.0     0.0    -0.0     0.1    -0.0     0.1    -0.1
     0.0    -0.1     0.1    -0.1     0.1    -0.1     0.1    -0.1     0.1    -0.1
     0.0    -0.0     0.1    -0.0     0.0    -0.1     0.1    -0.1     0.1    -0.0
     0.1    -0.0     0.1    -0.0     0.1    -0.0     0.1    -0.0     0.1    -0.0
     0.1    -0.1     0.0    -0.0     0.1    -0.1     0.0    -0.0     0.1    -0.0
     0.0    -0.0     0.0    -0.0     0.0    -0.0     0.1    -0.0     0.1    -0.0
     0.1    -0.0     0.0    -0.0     0.1    -0.1     0.1    -0.0     0.1    -0.1
     0.1    -0.0     0.0    -0.1     0.1    -0.0     0.1    -0.1     0.1    -0.1
     0.0    -0.1     0.0    -0.0     0.0    -0.0     0.1    -0.1    -0.0    -0.0
     0.0    -0.1     0.1    -0.1     0.0     0.0     0.0    -0.1     0.1    -0.1
    -0.0    -0.0     0.0    -0.1     0.2    -0.2     0.1    -0.0     0.0    -0.1
     0.1    -0.1     0.0     0.0    -0.0    -0.1     0.2    -0.2     0.1    -0.0
     0.0    -0.1     0.2    -0.2     0.1    -0.0     0.0    -0.1     0.2    -0.2
     0.2    -0.1     0.0    -0.1     0.2    -0.2     0.1    -0.0    -0.0    -0.0
     0.1    -0.1     0.1     0.0    -0.0     0.0    -0.0    -0.1     0.1    -0.1
     0.0     0.0     0.0    -0.1     0.1    -0.1     0.0    -0.0     0.1    -0.1
     0.1    -0.1     0.0     0.0     0.0    -0.1     0.1    -0.1     0.1    -0.1
     0.0    -0.1     0.1    -0.1    -0.0     0.0    -0.0    -0.0     0.1    -0.1
     0.1    -0.0     0.0    -0.0     0.1    -0.0     0.1    -0.0     0.0    -0.1
     0.1    -0.1     0.1    -0.1     0.0    -0.0     0.1    -0.1     0.1    -0.0
     0.0    -0.0     0.1    -0.1     0.1    -0.0    -0.0    -0.0     0.1    -0.1
     0.1    -0.1     0.1    -0.1     0.1    -0.1     0.1    -0.1     0.0     0.0
     0.0    -0.1     0.1    -0.0     0.1    -0.0     0.1    -0.1     0.1    -0.0
    -0.0     0.0     0.0    -0.1     0.1    -0.1     0.1    -0.0     0.0    -0.0
     0.1    -0.1     0.1    -0.1     0.1    -0.1     0.1    -0.1     0.1    -0.1
     0.0    -0.1     0.1    -0.1     0.1    -0.0     0.1    -0.1     0.1    -0.1
     0.1    -0.1     0.0    -0.0     0.1    -0.1     0.1    -0.0     0.0    -0.1
     0.1    -0.1     0.1    -0.1     0.0    -0.0     0.1    -0.1     0.1    -0.1
     0.1    -0.1     0.1    -0.1     0.1    -0.1     0.0    -0.1     0.1    -0.1
     0.1    -0.0     0.1    -0.1     0.1    -0.1     0.1    -0.1     0.0    -0.0
     0.1    -0.1     0.1    -0.1     0.1    -0.0     0.0    -0.1     0.1    -0.1
     0.0    -0.1     0.1    -0.1     0.1    -0.0     0.1    -0.0     0.1    -0.1
     0.1    -0.1     0.1    -0.1     0.0    -0.1     0.1    -0.1     0.1    -0.0
     0.0    -0.1     0.1    -0.1     0.1    -0.1     0.1    -0.1     0.1    -0.1
     0.1    -0.1     0.1    -0.1     0.1    -0.1     0.1    -0.0     0.1    -0.1
     0.1    -0.1     0.1    -0.1     0.0    -0.1     0.1    -0.1     0.1    -0.1
     0.0    -0.1     0.1    -0.1     0.1    -0.1     0.1    -0.1     0.1    -0.1
     0.1    -0.1     0.1    -0.1     0.1    -0.1     0.1    -0.1     0.0    -0.1
     0.0    -0.1     0.0    -0.1     0.1    -0.0     0.0    -0.1     0.1    -0.1
     0.1    -0.1     0.1    -0.1     0.1    -0.1     0.1    -0.1     0.1    -0.1
     0.1    -0.1     0.1    -0.1     0.1    -0.1     0.1    -0.1     0.1    -0.1
     0.1    -0.1     0.1    -0.1     0.1    -0.1     0.1    -0.1     0.1    -0.1
     0.1    -0.1     0.1    -0.1     0.1    -0.1     0.1    -0.1     0.1    -0.1
     0.1    -0.1     0.1    -0.1     0.1    -0.0     0.0    -0.1     0.1    -0.0
     0.1    -0.1     0.1    -0.1     0.1    -0.1     0.1    -0.0     0.1    -0.0
     0.1    -0.1     0.1    -0.1     0.1    -0.1     0.1    -0.1     0.1    -0.1
     0.1    -0.1     0.1    -0.1     0.1    -0.1     0.1    -0.1     0.1    -0.1
     0.1    -0.1     0.1    -0.1     0.1    -0.1     0.1    -0.1     0.1    -0.1
     0.1    -0.1     0.1    -0.1     0.1    -0.1     0.1    -0.1     0.1    -0.1
     0.1    -0.1     0.1    -0.1     0.1    -0.1     0.0    -0.1     0.1    -0.1
     0.1    -0.1     0.0    -0.1     0.1    -0.1     0.1    -0.1     0.1    -0.1
     0.1    -0.1     0.1    -0.1     0.1    -0.1     0.0    -0.1     0.1    -0.1
     0.1    -0.1     0.1    -0.1     0.1    -0.1     0.1    -0.1     0.1    -0.1
     0.1    -0.1     0.1    -0.1     0.1    -0.1     0.1    -0.1     0.1    -0.1
     0.1    -0.1     0.1    -0.1     0.1    -0.1     0.1    -0.1     0.1    -0.1
     0.1    -0.1     0.1    -0.1     0.1    -0.1     0.1    -0.1     0.1    -0.1
     0.1    -0.1     0.1    -0.1     0.1    -0.1     0.1    -0.1     0.1    -0.1
     0.1    -0.1     0.1    -0.1     0.1    -0.1     0.1    -0.1     0.1    -0.1
     0.1    -0.1     0.1    -0.1     0.1    -0.1     0.1    -0.1     0.1    -0.1
     0.1    -0.1     0.1    -0.1     0.1    -0.1     0.1    -0.1     0.1    -0.1
     0.1    -0.1     0.1    -0.1     0.1    -0.1     0.1    -0.1     0.0    -0.1
     0.1    -0.1     0.1    -0.1     0.1    -0.1     0.1    -0.1     0.1    -0.1
     0.1    -0.1     0.1    -0.1     0.1    -0.1     0.1    -0.1     0.1    -0.1
     0.1    -0.1     0.1    -0.1     0.1    -0.1     0.1    -0.1     0.1    -0.1
     0.1    -0.1     0.1    -0.1     0.1    -0.1     0.1    -0.1     0.1    -0.1
     0.1    -0.1     0.1    -0.1     0.1    -0.1     0.1    -0.1     0.1    -0.1
     0.1    -0.1     0.1    -0.1     0.1    -0.1     0.1    -0.1     0.1    -0.1
     0.1    -0.1     0.1    -0.1     0.1    -0.1     0.1    -0.1     0.1    -0.1
     0.1    -0.1     0.1    -0.1     0.1    -0.1     0.1    -0.1     0.1    -0.1
     0.1    -0.1     0.1    -0.1     0.1    -0.1     0.1    -0.1     0.1    -0.1
     0.1    -0.1     0.1    -0.1     0.1    -0.1     0.1    -0.1     0.1    -0.1
     0.1    -0.1     0.1    -0.1     0.1    -0.1     0.1    -0.1     0.1    -0.1
     0.1    -0.1     0.1    -0.1     0.1    -0.1     0.1    -0.1     0.1    -0.1
     0.1    -0.1     0.1    -0.1     0.1    -0.1     0.2    -0.1     0.1    -0.1
     0.1    -0.1     0.1    -0.2     0.1    -0.1     0.1    -0.2     0.1    -0.1
     0.1    -0.1     0.1    -0.1     0.1    -0.2     0.1    -0.1     0.1    -0.1
     0.1    -0.1     0.1    -0.1     0.1    -0.1     0.2    -0.2     0.1    -0.2
     0.1    -0.2     0.1    -0.2     0.1    -0.2     0.1    -0.2     0.1    -0.2
     0.1    -0.2     0.1    -0.2     0.1    -0.2     0.1    -0.2     0.1    -0.2
     0.1    -0.1     0.1    -0.2     0.1    -0.2     0.1    -0.2     0.1    -0.2
     0.1    -0.2     0.1    -0.2     0.1    -0.2     0.1    -0.2     0.1    -0.2
     0.1    -0.2     0.1    -0.2     0.1    -0.2     0.1    -0.2     0.1    -0.2
     0.1    -0.2     0.1    -0.2     0.1    -0.2     0.1    -0.2     0.1    -0.2
     0.1    -0.2     0.1    -0.2     0.1    -0.2     0.1    -0.2     0.2    -0.2
     0.1    -0.2     0.2    -0.2     0.1    -0.2     0.1    -0.2     0.2    -0.2
     0.2    -0.2     0.1    -0.2     0.2    -0.2     0.2    -0.2     0.2    -0.2
     0.1    -0.2     0.1    -0.2     0.1    -0.2     0.1    -0.2     0.2    -0.2
     0.2    -0.2     0.2    -0.2     0.2    -0.2     0.2    -0.2     0.2    -0.2
     0.2    -0.2     0.2    -0.2     0.2    -0.2     0.2    -0.2     0.2    -0.2
     0.2    -0.2     0.2    -0.2     0.2    -0.2     0.2    -0.2     0.2    -0.2
     0.3    -0.2     0.2    -0.2     0.2    -0.2     0.2    -0.2     0.2    -0.2
     0.3    -0.2     0.3    -0.2     0.2    -0.2     0.3    -0.2     0.3    -0.2
     0.3    -0.2     0.3    -0.2     0.3    -0.2     0.3    -0.2     0.3    -0.2
     0.3    -0.2     0.3    -0.2     0.3    -0.2     0.3    -0.2     0.3    -0.2
     0.3    -0.2     0.3    -0.2     0.4    -0.2     0.3    -0.2     0.4    -0.2
     0.4    -0.2     0.4    -0.2     0.4    -0.2     0.4    -0.2     0.4    -0.2
     0.4    -0.2     0.4    -0.2     0.4    -0.2     0.4    -0.2     0.4    -0.2
     0.4    -0.2     0.5    -0.2     0.4    -0.2     0.5    -0.2     0.5    -0.2
     0.4    -0.2     0.4    -0.2     0.4    -0.2     0.5    -0.1     0.4    -0.2
     0.5    -0.1     0.5    -0.1     0.5    -0.2     0.5    -0.2     0.5    -0.2
