Corrected accelerogram 20160214_001343_TEPS_20 GNS Science
Site TEPS      41 17 26S  174 46 52E     Basalt file:  20160214_001447_TEPS
Wellington Te Papa Museum
Instrument Basalt_2411
Resolution: 24-bit   Instr Period: 0.0050 s   Damping: 0.700
Accelerogram 20160214_001343_TEPS_20                 Processed 2016 February 22
11 km east of CHRISTCHURCH
2016 February 14         00:13:43 UT
Epicentre  43 29 50S 172 45 18E  Bearing S34W  Dist  297km  Depth    8km M  5.70
Number of points  7700    Duration 153.98 sec
Instrument corrected data at 0.020 sec intervals
Band-pass filter transition bands are .10-.25 Hz and 24.50-25.50 Hz
Component N00E  Horizontal Axis 1
Acceleration:  peak      3.7 mm/s/s at  82.46 sec     rms      0.8 mm/s/s
Velocity:      peak    -0.63 mm/s   at  82.26 sec     rms     0.14 mm/s
Displacement:  peak    0.208 mm     at 108.20 sec     rms    0.054 mm
    2016       2      14       0      13     430       0       0    2016       2
      43      29      50     172      45      18       8       0      14       0
      41      17      26     174      46      52       0       0     214     297
   28800     250     250    7700    7700    7700       0       0      14    7000
   200.0    0.70    0.00   0.000  0.0000   0.000   0.000   1.000     0.0    0.00
  41.291 174.781   43.50  172.76    5.70    0.00    0.00    0.00      0.      0.
  144.00    5.00    5.00  153.98  0.0050  0.0200      0.      0.      0.  9806.6
     3.7   82.47     0.8   0.000      0.     3.7   82.46     0.8     4.4   1.303
   -0.63   82.26    0.14    0.73   0.305    0.21  108.20    0.05    0.23   0.247
   0.100   0.150   0.250      0.      0.  24.500   1.000  25.500      0.      0.
  -0.000   0.000  -0.000   0.000  -0.000   0.000  -0.000   0.000  -0.000   0.000
  -0.000   0.000  -0.000   0.000  -0.000   0.000  -0.000   0.000  -0.000   0.000
  -0.000   0.000  -0.000   0.000  -0.000   0.000  -0.000   0.000   0.000   0.000
   0.000   0.000   0.000   0.000   0.000   0.000   0.000   0.000   0.000   0.000
   0.000   0.000   0.000   0.000   0.000   0.000   0.000   0.000   0.000   0.000
   0.000   0.000   0.000   0.000   0.000   0.000   0.000   0.000   0.000   0.000
   0.000   0.000   0.000   0.000   0.000   0.000   0.000   0.000   0.000   0.001
   0.000   0.001   0.000   0.001   0.000   0.001   0.000   0.001   0.000   0.001
   0.000   0.001   0.000   0.001   0.000   0.001   0.000   0.001   0.000   0.001
   0.001   0.001   0.001   0.001   0.001   0.001   0.001   0.001   0.001   0.001
   0.001   0.001   0.001   0.001   0.001   0.001   0.001   0.001   0.001   0.001
   0.001   0.001   0.001   0.001   0.001   0.001   0.001   0.001   0.001   0.001
   0.001   0.001   0.001   0.001   0.001   0.001   0.001   0.000   0.001   0.000
   0.000   0.000   0.000   0.000   0.000   0.000   0.000   0.000   0.000   0.000
   0.000   0.000   0.000   0.000   0.000   0.000   0.000   0.000   0.000   0.000
   0.000   0.000   0.000   0.000   0.000   0.000   0.000  -0.000  -0.000  -0.000
  -0.000  -0.000  -0.000  -0.000  -0.000  -0.000  -0.000  -0.000  -0.000  -0.000
  -0.000  -0.000  -0.000  -0.000  -0.001  -0.001  -0.001  -0.001  -0.001  -0.001
  -0.001  -0.001  -0.001  -0.001  -0.001  -0.001  -0.001  -0.001  -0.001  -0.001
  -0.001  -0.001  -0.001  -0.001  -0.001  -0.001  -0.001  -0.002  -0.001  -0.002
  -0.001  -0.002  -0.002  -0.002  -0.002  -0.002  -0.002  -0.002  -0.002  -0.002
  -0.002  -0.003  -0.002  -0.003  -0.002  -0.003  -0.002  -0.003  -0.002  -0.003
  -0.002  -0.003  -0.002  -0.004  -0.002  -0.004  -0.002  -0.004  -0.002  -0.005
  -0.001  -0.005  -0.001  -0.005  -0.001  -0.006  -0.001  -0.006  -0.001  -0.006
  -0.000  -0.007   0.000  -0.008   0.001  -0.009   0.002  -0.010   0.004  -0.015
   0.051   0.029   0.068  -0.029   0.048  -0.051   0.011  -0.078  -0.037   0.011
   0.012   0.074  -0.015  -0.017   0.079   0.006  -0.019   0.003  -0.050  -0.035
   0.068   0.016  -0.042   0.030  -0.044  -0.061  -0.021  -0.009   0.047  -0.054
  -0.076  -0.035  -0.016   0.079   0.001   0.004  -0.002   0.039   0.075   0.071
   0.009  -0.114  -0.035   0.078   0.014   0.125  -0.045  -0.035  -0.020   0.062
  -0.044   0.078   0.031   0.002  -0.059  -0.028   0.012   0.036  -0.090   0.070
  -0.008   0.009  -0.042   0.062   0.056   0.006  -0.094  -0.094   0.045   0.044
  -0.041  -0.091  -0.012   0.142   0.051  -0.001  -0.033   0.015   0.100  -0.013
  -0.068  -0.066   0.021   0.020   0.006  -0.056  -0.070   0.067   0.144   0.035
  -0.050  -0.078   0.071   0.048   0.012  -0.112   0.027  -0.051   0.026  -0.023
   0.095  -0.002  -0.058  -0.080   0.145  -0.043  -0.082   0.050   0.038  -0.084
  -0.026   0.053   0.097  -0.138   0.007  -0.012   0.020  -0.058  -0.018   0.055
   0.003   0.016   0.001   0.035   0.070  -0.027  -0.050  -0.004  -0.001   0.005
  -0.025   0.043  -0.092  -0.087   0.012   0.187  -0.005  -0.056   0.001   0.019
   0.050  -0.075  -0.057   0.078  -0.096   0.013  -0.041   0.024  -0.015   0.056
   0.034  -0.126   0.017   0.117   0.022  -0.048  -0.045   0.044   0.037   0.010
  -0.014  -0.049  -0.029   0.040  -0.024   0.090   0.056  -0.045  -0.033   0.074
   0.040  -0.057  -0.057   0.046   0.006  -0.074   0.014   0.038  -0.011   0.043
  -0.076   0.030   0.015   0.136  -0.045  -0.110  -0.018  -0.060   0.045   0.075
  -0.005   0.036  -0.004   0.023  -0.046  -0.008  -0.042   0.107  -0.031   0.000
  -0.047  -0.076   0.029   0.010  -0.057  -0.023  -0.036   0.019   0.022   0.018
   0.039  -0.013  -0.023  -0.023   0.031   0.047   0.031  -0.043  -0.041   0.023
   0.004   0.031  -0.012  -0.016  -0.058   0.010  -0.008  -0.009   0.066   0.053
  -0.103   0.003  -0.019   0.076  -0.040  -0.036  -0.007   0.030   0.028  -0.053
  -0.009   0.020  -0.015  -0.003   0.027  -0.027  -0.025  -0.036   0.035  -0.076
   0.042  -0.041  -0.006   0.015  -0.101   0.001  -0.009   0.068   0.094  -0.062
   0.147   0.002   0.009  -0.079   0.036   0.047  -0.024  -0.013   0.016  -0.088
   0.098   0.042   0.011  -0.129  -0.066  -0.032   0.098  -0.022  -0.016  -0.049
   0.144  -0.067   0.027   0.034   0.062  -0.029  -0.052  -0.087   0.108   0.039
  -0.133   0.022   0.058   0.040  -0.014  -0.005  -0.003  -0.037  -0.120  -0.014
   0.014   0.109   0.031   0.002  -0.104   0.025   0.122   0.038  -0.031  -0.041
  -0.008   0.011  -0.049   0.098  -0.081   0.020  -0.009  -0.022   0.034   0.045
   0.041   0.014  -0.031   0.041  -0.123   0.004  -0.050   0.025  -0.007   0.015
   0.043  -0.005  -0.055  -0.004  -0.003   0.072  -0.064   0.007  -0.004   0.030
  -0.025  -0.047   0.046   0.110   0.048  -0.016  -0.050   0.060   0.002   0.041
  -0.079   0.020  -0.021  -0.081  -0.017   0.040  -0.017   0.055  -0.010  -0.086
   0.069   0.060  -0.024   0.007  -0.052  -0.005  -0.014   0.078   0.003  -0.087
   0.016   0.062   0.004   0.028   0.071  -0.075   0.010  -0.006  -0.049   0.019
   0.110  -0.087   0.017   0.026  -0.017  -0.068   0.017  -0.027   0.069   0.032
   0.035  -0.032   0.006   0.066  -0.096   0.037  -0.010  -0.047   0.045   0.074
  -0.019  -0.023   0.048   0.008  -0.045  -0.054  -0.072  -0.047   0.004  -0.034
  -0.038   0.012  -0.065   0.009   0.034   0.012   0.044   0.037   0.013   0.002
  -0.015  -0.045  -0.031  -0.007   0.060   0.057   0.031  -0.007   0.078  -0.037
  -0.035  -0.091  -0.033   0.035   0.067  -0.130   0.069  -0.000   0.146  -0.032
  -0.002  -0.014  -0.014  -0.044   0.076  -0.052  -0.074   0.024   0.154  -0.065
  -0.042  -0.026   0.127  -0.111  -0.070  -0.049  -0.033  -0.000   0.078  -0.022
  -0.052  -0.010   0.047  -0.036   0.031  -0.008   0.051   0.095  -0.012  -0.035
  -0.007   0.021   0.069   0.012  -0.050   0.020   0.006   0.013   0.003  -0.002
  -0.067   0.040  -0.059   0.035  -0.033  -0.001  -0.080   0.034  -0.049   0.012
  -0.027   0.054  -0.038  -0.041  -0.069  -0.003  -0.052   0.082   0.079  -0.067
  -0.066   0.034   0.019   0.020  -0.062   0.031   0.053   0.075  -0.005   0.041
  -0.044   0.027  -0.063  -0.010  -0.023   0.047   0.017   0.021   0.005   0.024
   0.027   0.012  -0.015  -0.008  -0.007   0.006  -0.031   0.041  -0.030   0.010
  -0.016  -0.011  -0.055  -0.007   0.040   0.080   0.005  -0.030  -0.019   0.016
  -0.026  -0.032   0.044  -0.020   0.051  -0.061   0.094   0.038  -0.036   0.008
   0.034   0.014  -0.032  -0.017   0.011  -0.048   0.078  -0.067  -0.016   0.025
   0.011  -0.066   0.009  -0.060  -0.051   0.073   0.063   0.002  -0.097  -0.058
   0.165  -0.010   0.004   0.029  -0.002   0.012   0.027  -0.004  -0.017   0.063
  -0.020  -0.054   0.032  -0.003  -0.035  -0.048   0.027  -0.017  -0.030  -0.023
  -0.026   0.047   0.014   0.019  -0.050  -0.012   0.103  -0.062  -0.006   0.029
  -0.004   0.079  -0.003  -0.020   0.004  -0.033   0.098   0.009  -0.025  -0.067
  -0.077   0.070   0.056  -0.076  -0.011   0.063  -0.019  -0.088   0.057   0.080
   0.031  -0.001  -0.038   0.007  -0.011   0.051   0.057  -0.097  -0.034  -0.003
   0.032  -0.081  -0.037   0.016   0.024  -0.041   0.001   0.047  -0.042   0.050
   0.037  -0.001  -0.094   0.000  -0.087  -0.065   0.091  -0.020  -0.000   0.046
  -0.012   0.046   0.015   0.039  -0.091   0.002  -0.064  -0.026   0.068   0.017
  -0.033  -0.008  -0.030   0.028   0.086  -0.073  -0.061  -0.019  -0.043   0.048
  -0.004   0.081  -0.005  -0.005   0.086   0.035   0.003   0.045  -0.063   0.057
   0.014  -0.007   0.023   0.101   0.033  -0.067  -0.106   0.035  -0.073   0.018
  -0.037   0.032   0.026  -0.081  -0.057   0.020  -0.012  -0.080   0.037   0.012
  -0.011   0.059  -0.026   0.030  -0.007   0.042   0.001   0.065  -0.049   0.012
   0.015   0.135  -0.013  -0.213  -0.026   0.116   0.042  -0.161  -0.082   0.056
   0.046  -0.042  -0.085  -0.001   0.053  -0.013  -0.032   0.057   0.026  -0.024
  -0.020   0.085   0.026  -0.041  -0.027  -0.124   0.115   0.087   0.010  -0.176
   0.079   0.180  -0.003  -0.098   0.088  -0.036  -0.004  -0.001   0.050  -0.016
  -0.024  -0.022   0.035   0.133  -0.048  -0.092   0.039   0.022   0.060  -0.056
   0.040   0.036   0.032  -0.062   0.015   0.013  -0.028   0.001  -0.011   0.030
  -0.029   0.011   0.001  -0.019   0.008   0.098  -0.060  -0.080   0.056   0.025
   0.009  -0.121   0.007   0.080   0.013  -0.064  -0.047   0.021  -0.009  -0.046
  -0.036  -0.008  -0.091   0.036   0.019   0.010  -0.031   0.014  -0.005  -0.052
   0.140   0.108  -0.116   0.016   0.021  -0.008   0.066  -0.045  -0.013   0.005
  -0.077   0.001   0.047   0.002   0.031   0.020   0.037   0.021   0.043  -0.071
  -0.005  -0.027  -0.023   0.000   0.007   0.065  -0.007  -0.104  -0.045   0.101
  -0.053   0.025  -0.027   0.018  -0.035   0.019   0.024   0.027  -0.037   0.063
  -0.039  -0.039  -0.017   0.010   0.028   0.003  -0.077   0.026  -0.081  -0.011
   0.002   0.038   0.013   0.089  -0.006   0.049  -0.022   0.017  -0.057  -0.001
   0.034  -0.034  -0.029   0.014   0.057   0.029  -0.100  -0.029  -0.072   0.034
   0.016  -0.081   0.016   0.063   0.036  -0.040  -0.038  -0.062   0.051   0.025
   0.049  -0.056  -0.008  -0.009  -0.031  -0.066  -0.010   0.005   0.018  -0.034
  -0.042   0.008   0.028   0.018  -0.077  -0.063   0.046   0.068  -0.008  -0.015
  -0.019   0.061   0.047   0.055   0.035   0.006   0.025  -0.048   0.002   0.030
   0.009  -0.076  -0.052  -0.024   0.113   0.058  -0.005  -0.099  -0.009   0.019
   0.029  -0.080  -0.017   0.011   0.133   0.031  -0.063   0.005   0.088   0.077
  -0.062   0.024   0.099  -0.008  -0.088   0.003   0.041  -0.014   0.010  -0.003
   0.000   0.009   0.037  -0.086   0.035  -0.019  -0.080   0.031  -0.089   0.035
   0.000   0.063   0.006   0.022  -0.019   0.017   0.088   0.073   0.081   0.063
   0.038   0.061  -0.011   0.095   0.088  -0.041  -0.066  -0.051   0.018   0.065
  -0.072  -0.077   0.026   0.019   0.003  -0.148  -0.124   0.035   0.001  -0.118
  -0.016  -0.065  -0.033   0.109   0.067   0.071   0.105   0.135   0.083   0.058
   0.089   0.080   0.072   0.039   0.074   0.020  -0.103   0.022  -0.006  -0.030
  -0.123  -0.086  -0.049  -0.173  -0.107  -0.050  -0.073  -0.009  -0.085  -0.046
  -0.032  -0.096  -0.227  -0.203  -0.232  -0.023  -0.058  -0.038  -0.038   0.057
   0.017   0.122   0.092   0.224   0.170   0.118   0.110   0.076   0.176   0.229
   0.075   0.079  -0.013   0.030  -0.084  -0.067  -0.124  -0.024  -0.067  -0.135
   0.031  -0.018  -0.013  -0.090  -0.191  -0.178  -0.114  -0.095  -0.263  -0.244
  -0.245  -0.139  -0.050  -0.039   0.028   0.154   0.146   0.039   0.022   0.067
   0.095   0.283   0.377   0.327   0.254   0.220   0.228   0.191   0.080   0.199
   0.091   0.007  -0.091  -0.213  -0.164  -0.221  -0.190  -0.195  -0.240  -0.407
  -0.439  -0.557  -0.233  -0.174  -0.205  -0.069   0.093   0.180   0.200   0.242
   0.281   0.176   0.262   0.285   0.186   0.085   0.043  -0.069   0.208   0.328
   0.414   0.234   0.142  -0.004  -0.096  -0.011   0.109  -0.075  -0.007  -0.003
   0.036  -0.110  -0.117  -0.170  -0.047  -0.097  -0.296  -0.283  -0.221  -0.383
  -0.427  -0.297  -0.141  -0.200  -0.141  -0.118  -0.228  -0.138  -0.026   0.224
   0.291   0.266   0.185   0.507   0.501   0.544   0.552   0.645   0.430   0.250
   0.158   0.056  -0.177  -0.253  -0.292  -0.166  -0.160  -0.138  -0.191  -0.396
  -0.573  -0.435  -0.228  -0.177  -0.240  -0.072  -0.069  -0.084  -0.129  -0.151
   0.082   0.214   0.282   0.395   0.348   0.334   0.210   0.219   0.236   0.403
   0.282   0.200   0.181   0.037   0.026   0.108   0.059   0.043  -0.015  -0.044
  -0.180  -0.029  -0.143   0.059   0.127   0.062  -0.097  -0.244  -0.481  -0.502
  -0.565  -0.680  -0.579  -0.447  -0.290  -0.143  -0.018   0.071   0.240   0.325
   0.347   0.438   0.464   0.395   0.382   0.271   0.230   0.075  -0.077  -0.075
  -0.156  -0.356  -0.236  -0.181  -0.096  -0.198  -0.228  -0.127   0.066   0.203
   0.182   0.120   0.099   0.044   0.022   0.003  -0.047  -0.130  -0.302  -0.167
  -0.116  -0.117   0.073   0.093   0.193   0.260   0.265   0.209   0.324   0.229
   0.041  -0.012   0.065   0.167   0.042  -0.072  -0.081   0.005   0.126   0.066
  -0.093  -0.232  -0.193  -0.266  -0.292  -0.292  -0.335  -0.285  -0.207  -0.118
  -0.092  -0.135  -0.096  -0.125  -0.133  -0.177  -0.058  -0.032  -0.057   0.069
   0.087   0.171   0.191   0.127   0.300   0.279   0.147   0.050   0.255   0.373
   0.430   0.211   0.322   0.171   0.104   0.209   0.141  -0.122  -0.295  -0.196
  -0.241  -0.283  -0.342  -0.340  -0.300  -0.101  -0.132  -0.142  -0.180  -0.070
  -0.159  -0.064  -0.075  -0.065   0.050   0.087   0.040   0.106   0.286   0.350
   0.365   0.274   0.296   0.189   0.113   0.154  -0.022   0.032   0.004   0.057
   0.012  -0.049  -0.178  -0.136  -0.218  -0.180  -0.227  -0.000   0.060   0.111
  -0.003  -0.092  -0.150  -0.277  -0.302  -0.267  -0.464  -0.370  -0.405  -0.223
  -0.196   0.104   0.415   0.498   0.693   0.638   0.600   0.666   0.453   0.322
   0.192   0.186   0.001   0.019  -0.023  -0.194  -0.291  -0.204  -0.283  -0.311
  -0.299  -0.278  -0.281  -0.136  -0.136   0.032   0.157   0.075  -0.095  -0.215
  -0.077  -0.113  -0.131  -0.081  -0.230  -0.031   0.149  -0.063   0.081   0.140
   0.261   0.345   0.357   0.394   0.308   0.271   0.141   0.035  -0.053   0.003
  -0.039  -0.136  -0.153  -0.100  -0.106   0.043   0.250   0.202   0.230   0.106
  -0.027  -0.197  -0.070  -0.148  -0.154  -0.063  -0.060   0.024   0.026  -0.167
  -0.132  -0.135   0.065  -0.090   0.061   0.028   0.041  -0.068  -0.142  -0.151
  -0.053  -0.085  -0.131  -0.211  -0.311  -0.495  -0.488  -0.420  -0.282   0.008
   0.055   0.192   0.261   0.261   0.266   0.371   0.460   0.566   0.534   0.434
   0.382   0.158  -0.032   0.080  -0.015  -0.011  -0.011  -0.177  -0.110  -0.263
  -0.239  -0.335  -0.287  -0.166  -0.105  -0.193  -0.264  -0.244  -0.145  -0.129
  -0.083  -0.115  -0.068  -0.041  -0.111  -0.068  -0.162  -0.135  -0.056  -0.086
  -0.132  -0.002   0.181   0.273   0.130   0.144   0.139   0.100   0.091   0.084
   0.137   0.220   0.295   0.305   0.242   0.175   0.129  -0.065  -0.272  -0.300
  -0.513  -0.495  -0.505  -0.398  -0.311  -0.125  -0.040   0.008   0.074   0.233
   0.257   0.089   0.180   0.336   0.211   0.444   0.640   0.586   0.535   0.526
   0.428   0.254   0.097   0.020  -0.140  -0.252  -0.329  -0.420  -0.396  -0.504
  -0.380  -0.392  -0.220  -0.235  -0.084  -0.178   0.014   0.145   0.240   0.177
   0.095   0.132   0.045   0.006   0.052  -0.080  -0.049   0.001  -0.024  -0.019
   0.155   0.190   0.155   0.222   0.389   0.363   0.490   0.492   0.478   0.270
   0.164   0.071  -0.174  -0.241  -0.433  -0.493  -0.675  -0.756  -0.755  -0.570
  -0.413  -0.361  -0.326  -0.126  -0.225  -0.112   0.021   0.180   0.178   0.261
   0.215   0.143   0.075   0.165   0.118   0.199   0.261   0.317   0.454   0.542
   0.480   0.429   0.360   0.254   0.293   0.084  -0.039  -0.137  -0.199  -0.392
  -0.295  -0.449  -0.372  -0.419  -0.226  -0.184  -0.140  -0.091   0.006   0.064
   0.094  -0.003  -0.051  -0.092  -0.153  -0.312  -0.269  -0.140   0.014   0.181
   0.305   0.314   0.368   0.362   0.254   0.320   0.285   0.194   0.164  -0.007
  -0.005  -0.112  -0.189  -0.093  -0.183  -0.352  -0.432  -0.573  -0.517  -0.504
  -0.359  -0.330  -0.228  -0.086   0.016   0.083   0.113   0.067   0.038   0.038
   0.127   0.215   0.226   0.314   0.358   0.349   0.353   0.352   0.339   0.389
   0.267   0.128   0.043   0.018  -0.044  -0.090  -0.052  -0.005  -0.165  -0.078
  -0.064   0.001  -0.022  -0.177  -0.255  -0.150  -0.217  -0.148  -0.304  -0.336
  -0.434  -0.360  -0.300  -0.287  -0.270  -0.120  -0.052  -0.019  -0.009   0.024
   0.271   0.225   0.270   0.308   0.292   0.303   0.234   0.297   0.358   0.302
   0.262   0.217   0.104  -0.023  -0.183  -0.219  -0.350  -0.459  -0.472  -0.338
  -0.229  -0.207  -0.263  -0.194  -0.105  -0.050   0.048   0.101   0.168   0.242
   0.409   0.513   0.660   0.586   0.499   0.482   0.369   0.328   0.233   0.114
   0.051  -0.149  -0.207  -0.340  -0.231  -0.317  -0.295  -0.404  -0.301  -0.389
  -0.345  -0.500  -0.549  -0.417  -0.255  -0.135  -0.027   0.028   0.196   0.228
   0.542   0.461   0.609   0.684   0.641   0.550   0.494   0.489   0.428   0.314
   0.264   0.114  -0.029  -0.115  -0.333  -0.284  -0.173  -0.171  -0.121  -0.275
  -0.271  -0.387  -0.439  -0.450  -0.401  -0.423  -0.466  -0.483  -0.553  -0.571
  -0.549  -0.426  -0.405  -0.244  -0.059   0.092   0.146   0.248   0.363   0.543
   0.716   0.794   0.720   0.771   0.620   0.606   0.617   0.528   0.505   0.481
   0.414   0.454   0.193   0.102  -0.175  -0.266  -0.432  -0.536  -0.538  -0.426
  -0.464  -0.325  -0.292  -0.228  -0.276  -0.068  -0.156  -0.183  -0.253  -0.232
  -0.143   0.039   0.083   0.221   0.163   0.321   0.272   0.328   0.397   0.319
   0.408   0.331   0.234   0.094   0.096   0.156   0.279   0.076  -0.142  -0.286
  -0.376  -0.430  -0.416  -0.401  -0.419  -0.526  -0.554  -0.538  -0.401  -0.468
  -0.641  -0.645  -0.706  -0.772  -0.506  -0.404  -0.429  -0.483  -0.406  -0.470
  -0.346  -0.256  -0.197  -0.280  -0.114  -0.033   0.029   0.270   0.320   0.458
   0.527   0.576   0.632   0.641   0.499   0.455   0.297   0.301   0.289   0.234
   0.303   0.378   0.271   0.165   0.213   0.250   0.187  -0.048  -0.057  -0.189
  -0.221  -0.280  -0.180  -0.203  -0.127  -0.125  -0.050  -0.090   0.061   0.051
   0.101   0.159   0.324   0.120   0.191   0.233   0.340   0.212   0.360   0.304
   0.308   0.263   0.408   0.454   0.416   0.392   0.268   0.139   0.082   0.014
  -0.035  -0.294  -0.404  -0.635  -0.686  -0.670  -0.648  -0.565  -0.613  -0.574
  -0.512  -0.616  -0.564  -0.474  -0.480  -0.408  -0.241  -0.067  -0.047   0.078
   0.356   0.382   0.439   0.678   0.752   0.838   0.915   0.963   0.906   1.019
   0.855   0.619   0.238   0.023  -0.053  -0.129  -0.150  -0.264  -0.118  -0.019
   0.143   0.223   0.318   0.456   0.554   0.801   0.622   0.611   0.525   0.441
   0.204   0.061  -0.144  -0.402  -0.739  -0.803  -0.864  -0.804  -0.953  -0.892
  -0.931  -0.727  -0.746  -0.750  -0.783  -0.555  -0.344   0.067   0.369   0.637
   0.716   0.995   1.114   1.170   1.214   1.376   1.282   1.174   0.790   0.523
   0.273   0.010  -0.167  -0.376  -0.560  -0.776  -0.788  -0.886  -1.022  -1.122
  -1.168  -1.163  -1.073  -1.209  -1.185  -1.251  -1.038  -0.899  -0.616  -0.375
