Corrected accelerogram 20160214_001343_NBLC_20 GNS Science
Site NBLC      43 30 25S  172 43 53E     Cusp file:  20160214_001345_NBLC
New Brighton Library
Instrument Cusp_323
Resolution: 18-bit   Instr Period: 0.0050 s   Damping: 0.700
Accelerogram 20160214_001343_NBLC_20                 Processed 2016 February 22
11 km east of CHRISTCHURCH
2016 February 14         00:13:43 UT
Epicentre  43 29 50S 172 45 18E  Bearing N61E  Dist    2km  Depth    8km M  5.70
Number of points  7096    Duration 141.90 sec
Instrument corrected data at 0.020 sec intervals
Band-pass filter transition bands are .10-.25 Hz and 24.50-25.50 Hz
Component N00E  Horizontal Axis 1
Acceleration:  peak   1864.9 mm/s/s at  23.36 sec     rms    126.9 mm/s/s
Velocity:      peak   521.15 mm/s   at  23.54 sec     rms    41.40 mm/s
Displacement:  peak -235.203 mm     at  23.14 sec     rms   20.523 mm
    2016       2      14       0      13     430       0       0    2016       2
      43      29      50     172      45      18       8       0      14       0
      43      30      25     172      43      53       0       0      61       2
   26385     250     250    7096    7096    7096       0       0      13   25845
   200.0    0.70    0.00   0.000  0.0000   0.000   0.000   1.000     0.0    0.00
  43.507 172.731   43.50  172.76    5.70    0.00    0.00    0.00      0.      0.
  131.92    5.00    5.00  141.90  0.0050  0.0200      0.      0.      0.  9806.6
  1931.8   23.31   133.2   0.000      0.  1864.9   23.36   126.9  2228.7   0.385
  521.15   23.54   41.40  589.21   0.281 -235.20   23.14   20.52  242.27   0.238
   0.100   0.150   0.250      0.      0.  24.500   1.000  25.500      0.      0.
    -0.0    -0.0    -0.0    -0.0    -0.0    -0.0    -0.0    -0.0    -0.0    -0.0
    -0.1    -0.1    -0.1    -0.1    -0.1    -0.1    -0.1    -0.1    -0.1    -0.1
    -0.1    -0.1    -0.1    -0.1    -0.1    -0.1    -0.1    -0.1    -0.1    -0.1
    -0.1    -0.1    -0.1    -0.1    -0.1    -0.1    -0.1    -0.1    -0.1    -0.1
    -0.1    -0.1    -0.1    -0.1    -0.1    -0.1    -0.1    -0.1    -0.1    -0.1
    -0.1    -0.1    -0.1    -0.1    -0.1    -0.1    -0.1    -0.1    -0.1    -0.1
    -0.1    -0.1    -0.1    -0.1    -0.1    -0.1    -0.1    -0.1    -0.1    -0.1
    -0.1    -0.1    -0.1    -0.1    -0.1    -0.1    -0.1    -0.1    -0.1    -0.1
    -0.1    -0.1    -0.1    -0.1    -0.1    -0.1    -0.1    -0.0    -0.0    -0.0
    -0.0    -0.0    -0.0    -0.0    -0.0    -0.0    -0.0    -0.0    -0.0    -0.0
    -0.0    -0.0     0.0     0.0     0.0     0.0     0.0     0.0     0.0     0.0
     0.0     0.0     0.0     0.0     0.0     0.0     0.1     0.1     0.1     0.1
     0.1     0.1     0.1     0.1     0.1     0.1     0.1     0.1     0.1     0.1
     0.1     0.1     0.1     0.1     0.1     0.1     0.1     0.1     0.1     0.1
     0.1     0.1     0.1     0.1     0.1     0.1     0.1     0.1     0.1     0.1
     0.1     0.1     0.1     0.1     0.1     0.1     0.1     0.1     0.1     0.1
     0.1     0.1     0.1     0.1     0.1     0.1     0.1     0.1     0.1     0.1
     0.1     0.1     0.1     0.1     0.1     0.1     0.1     0.1     0.1     0.1
     0.1     0.1     0.1     0.1     0.1     0.1     0.1     0.1     0.1     0.1
     0.1     0.1     0.1     0.0     0.1     0.0     0.1     0.0     0.1     0.0
     0.1     0.0     0.0     0.0     0.0    -0.0     0.0    -0.0     0.0    -0.0
     0.0    -0.0     0.0    -0.0     0.0    -0.1     0.0    -0.1     0.0    -0.1
     0.0    -0.1    -0.0    -0.1    -0.0    -0.1    -0.0    -0.1    -0.0    -0.1
    -0.0    -0.1    -0.0    -0.2     0.0    -0.2     0.0    -0.2     0.0    -0.2
     0.0    -0.2     0.0    -0.2     0.1    -0.3     0.1    -0.3    -0.0    -0.0
    -5.9    -5.2     1.9    -0.2    -0.3    -2.7    -0.8     2.9     0.2     0.8
     1.8    -0.2    -0.3    -2.2    -4.8    -0.4    -1.0     8.9     0.1     0.2
    -2.5    -2.5    -0.7    -3.7     3.8     1.4     4.1     3.1    -2.1     1.9
     3.2     3.6    -1.0     1.7     0.5    -3.2    -5.9    -3.8     4.0    -5.1
     0.1    -2.2    -2.6    -3.5     0.3    -0.4    -2.9    -0.0    -1.8    -0.9
    -4.1    -6.4     2.9    -9.1     5.4     0.6    -0.2     5.8    -1.0     0.0
    -1.5    -5.1     5.5     8.2    -3.8     1.8     1.1     9.5     2.7     2.5
     5.7     3.3    -3.9     7.1     0.5     3.7    -3.0     3.2     1.4     1.7
    -1.6    -1.0     0.8    -1.1     2.7    -1.3     2.2     2.0    -0.5    -1.5
    -1.0    -4.4    -2.1     1.2     2.8    -1.9     6.7     4.2    -0.0     3.6
     3.3    -3.2     5.6    -5.1     3.1     1.6     2.0    -5.5    -2.3     3.0
    -6.3     3.0     7.2     1.0     3.1    -1.9    -1.9    -3.9     1.7    -2.8
    -0.9     4.3    -2.2     5.5    -1.0     0.6    -5.0     2.8    -0.5     0.0
    -1.5     0.5    -1.2    -3.0     2.4     0.6     1.9    -1.4     3.1    -4.9
     3.0     0.2    -1.3    -4.6    -3.3     2.6     1.8     7.2     4.4    -8.1
    -2.7     1.1    -1.1   -10.6     2.1    -2.4    -6.2     0.7    -4.1     1.1
    -6.4    -0.5    -0.7    -7.5     1.4    -3.2    -0.8    -0.6     7.8     1.0
    -1.2    -3.0     0.2    -4.9     5.4     2.4    -0.9    -4.1    -0.0     4.0
     3.1    -3.0    -9.0     3.1    -1.2     4.0    -1.2     3.3    -4.6     5.2
     2.7     4.9     2.1     6.8     3.9     6.3    -0.6    -3.9    -3.1    -8.2
     0.1    -4.2    -2.4     0.4    -4.4    -6.2     2.2    -0.1     0.9    -4.1
     1.5    -0.3    -4.3     0.6     1.4     0.6    -3.8     1.5     2.2    -2.5
     3.7    -2.6     2.0     3.4    -2.5    -0.1    -1.1     5.5    -0.5    -7.4
     0.6     3.7     6.0    -2.1     0.3     1.9     2.7     6.7    -5.4     4.0
     1.1     0.6    -1.7    -5.8     1.1     3.5     1.9    -4.3     2.7    -0.3
    -3.9     1.3     1.1     6.9     1.0    -1.8    -2.7    -1.2    -0.3     2.4
     1.0    -3.1    -0.6    -0.3    -2.1    -3.4     2.3     1.2    -0.3    -1.6
    -4.0    -1.1     3.9    -0.4    -6.3     3.6    -0.1     0.8     7.6    -1.3
    -3.8    -0.5     4.8    -8.6    -3.0    -4.5    -4.0    -3.8     4.0     1.0
    -0.6    -1.5     0.6    -4.9     6.7     3.7    -2.6     5.6    -2.5     4.4
    -1.2     6.8     1.8     1.7    -6.4     3.2    -3.4    -3.1    -1.9    -3.6
    -3.7    -6.4    -5.2    -2.0     4.5     7.0    -1.5     9.3    -2.4    -0.0
     3.2     1.6     9.2     4.6     0.1    -1.9     1.0    -9.3     8.9     0.3
    -1.5     3.0    -3.2     3.7     2.8     7.0     3.5    -3.6    -1.3     6.9
     1.4    -2.6    -2.2     1.9     1.7    -2.9     6.4     4.4     3.8     2.5
     0.2     1.5     2.5     4.8     1.2     0.5    -0.6     3.8   -11.8    -4.0
     7.9     0.7     2.6    -1.2     3.3     1.1    -3.7     1.2    -4.2    -1.0
     1.9     6.8    -1.0     4.7     2.5    -6.7     0.4    -6.5    -7.3    -2.6
    -0.1     2.6     1.5     2.7    -1.6   -10.7    -1.1    -9.9    -9.0    -5.1
    -2.1     2.2    -8.2     1.8     3.0    -1.7    -5.1     0.9     2.4    -2.4
    -0.9    -7.0    -5.4    -0.7     1.1    -0.7     1.4    -2.0     8.5    -7.3
    -3.6     1.2     0.9     1.9     0.5     4.7     0.8     0.8    -7.6     1.5
     4.6    -8.7    -7.5     3.1    -4.1     2.2    -1.4     2.2    -0.4    -5.7
    -6.3    -2.1    -3.3     1.7     3.3    -6.4    -4.3    -7.1    -3.7    -4.5
     1.4     1.8     3.9     0.6     0.8     7.1     6.5     5.9     1.1     4.3
    -0.8     4.5     3.0    -5.3     6.7    -3.5    -0.5     4.7     5.3     3.4
     3.0    -2.9    -4.8    -2.3    -0.6    -2.1    -5.9     3.6    -2.1    -7.3
     5.0    -0.9     4.0    -0.3    -2.5     7.4    -2.6     2.2     5.1     1.9
    -6.8    -0.5     5.1    -0.5     2.1    -7.5     3.6     1.0     1.8     8.7
    -0.7     3.3     4.1     5.9     9.0     6.7    -2.3    -4.6     1.6     3.0
    -0.9     2.4     4.5     2.1    -3.0    -1.4     3.9     2.4    -0.9    -7.5
    -5.5     3.9     4.9     2.1     0.5    -5.9     0.4     0.8    -2.2     3.1
     1.5     0.4     4.4    -0.4    -1.1     4.1    -7.2     3.6     0.7     5.1
    -0.4    -3.1     6.2     0.5    -0.6     3.4    -0.1    -1.4    -0.8    -3.3
    -0.5     9.4     1.9     0.1     2.8    -3.3     0.8    -2.6    -0.4    -2.5
     0.6    -2.6     3.1    -3.4    -5.5     1.2    -4.9    -2.6     1.4    -4.5
    -0.4     3.0    -0.9     5.0    -0.7     0.2     2.1     6.2     2.9     2.2
     0.2    -2.9     1.4    -1.0    -9.5    -0.3    -0.2    -2.0    -1.8    -2.6
    -0.4     0.4     0.9     0.7    -0.3    -1.4    -6.3    -6.2     0.6     3.1
    -3.8     3.6     6.8     4.7    -6.1     3.2    -1.8    -3.8     4.9    -3.5
     2.1     2.6     4.8    -2.4     1.3     2.8    -3.6     1.7    -8.0     1.4
    -0.9    -1.4     3.0    -2.1    -0.4    -2.9     1.0    -0.5    -2.7    -8.8
    -6.4     3.2    -2.5    -1.5     0.9    -3.4    -0.2    -8.8     1.1     1.9
     0.9     0.1     0.9    -0.3    -4.3    -1.1    -0.6    -0.6     1.7    -0.1
    -0.7     2.3    -3.3     1.2    -4.6    -4.0     4.0    -4.5    -2.8     2.2
     5.5     5.7     0.5    -0.6    -3.7    -1.0     3.3     4.1     0.2     5.2
     2.5    -2.5     2.6    -5.3    -0.0    -0.6    -1.6    -3.0    -1.6     1.7
     8.9     1.3     1.9     6.2     4.3     7.1     0.0     6.6     5.8    -0.5
     0.1     2.5     4.9     4.2     5.3    -2.6     4.8     4.1     2.9     6.3
     2.7     8.5    -2.8     0.7     3.8    -0.2     0.4     3.8     2.6     7.0
    -2.1    -3.9    -1.5     2.2     3.5    -1.8    -3.8     6.0    -0.7     4.9
    -1.1     3.1     6.0     1.8     4.8     8.8     8.2     0.8     7.4     5.4
     0.4    10.9     5.5     3.4     3.7     9.2    -2.9     3.7     9.3    -4.4
    -4.3     1.6     5.4     2.8     8.7    -0.9     7.0    -2.8     3.3     2.0
     1.8     2.9     6.3     2.8     1.1    -1.3    -4.2    -0.4     3.6    -0.3
    -2.2    -1.3     4.1    -3.1    -1.5     0.8     4.5    -3.1    -3.8    -1.1
    -6.7     6.6    -9.2    -5.3    -6.5    -6.4    -8.5    -3.2    -4.9    -4.4
    -2.2     0.9    -5.5    -5.3    -1.7    -7.0    -9.1    -6.7    -0.8    -6.1
    -2.3    -3.7    -3.8    -9.6    -4.2    -8.2    -9.6    -4.6    -4.7    -8.2
    -8.2   -10.7    -2.4    -4.5    -6.2   -10.0    -8.8    -4.4    -6.6   -10.3
   -16.4    -3.9    -5.7   -10.7   -13.7    -6.8    -5.1    -7.6   -15.0    -9.3
   -11.1   -10.8   -12.7   -16.7    -6.6    -8.8   -14.9   -11.8   -13.2   -13.4
   -13.1   -14.1   -10.8    -9.4   -11.4   -13.6   -11.1   -16.1    -8.7   -12.7
   -14.7   -10.7   -12.6   -12.9   -11.5    -8.8   -12.2    -9.7   -15.4    -4.2
   -12.1   -14.7    -9.7   -13.2   -10.7   -14.1   -10.0    -9.7    -5.7   -16.8
   -10.3    -6.4    -9.0   -19.9   -17.7    -8.9    -8.9   -14.9   -12.2   -12.5
    -6.9   -10.5    -3.8    -7.1     2.1    -6.7    -6.2    -7.3    -8.7    -1.7
    -3.3    -8.5   -11.9    -3.8    -6.2    -4.5    -2.5    -3.2    -3.4    -2.1
     1.6    -1.3     1.3     2.1     1.8    -3.8     4.4     5.8    -5.9     5.3
     4.6    -0.1     6.1     7.2     8.8     7.2     9.6     1.5     4.9     7.5
     4.6    11.2     5.9    13.3     8.8    16.0     8.6    13.8    14.6    19.4
    15.6    14.8    17.7     8.2    18.4    15.1    14.8    23.0    21.2    19.4
    21.1    22.7    17.5    28.8    30.4    21.1    24.1    31.8    30.7    22.2
    23.3    27.9    28.2    28.6    25.7    35.0    27.9    36.8    28.6    30.1
    33.4    36.2    37.1    33.8    30.5    37.7    35.6    38.8    38.8    41.1
    37.5    38.8    37.6    40.5    38.9    43.5    46.3    45.6    44.8    46.2
    45.8    44.4    48.5    50.3    42.8    49.7    49.7    43.2    52.0    50.2
    50.8    53.9    48.4    42.7    44.4    45.5    50.4    50.9    54.5    48.5
    52.9    49.8    50.7    51.1    46.6    47.8    48.3    42.7    42.1    48.9
    44.1    51.2    41.2    50.0    48.1    47.9    48.0    49.8    33.0    47.5
    39.2    41.3    39.8    35.0    32.8    41.7    15.8    38.6    47.3     4.7
    -3.9   136.4    11.6   -43.2    65.9   126.4  -110.7   -19.8   129.6   -77.6
   -56.4    89.8   -47.7   -34.5   112.8   -22.3   -91.9    30.8   -13.5  -180.7
   -44.4    45.2   -24.1   -17.0    41.2   -52.4   -82.9  -123.4   -69.5  -147.9
   -40.8   -50.1   -96.2  -236.7   -93.1  -185.9  -296.0  -145.9  -217.0  -223.7
  -145.9    68.9    13.8   -53.9    40.2   291.0   270.4   -63.2  -342.3  -365.0
  -151.1   -40.1  -255.5  -375.6  -289.2  -102.6  -270.5  -397.8  -349.1  -271.2
  -405.0  -240.4  -165.4  -159.8   232.1   168.9   286.8   359.6   372.5   192.6
   223.1  -126.4  -299.0  -183.4  -111.0  -359.0  -329.5  -379.8  -665.7  -608.4
  -121.0    46.0   -85.2   114.1   526.4   549.4   344.3   150.9  -172.5  -515.4
  -435.4  -983.8 -1141.1  -786.9  -912.3  -959.1  -367.4   209.4   747.9   919.0
   379.9  -163.9  -727.7 -1057.2  -850.1  -282.4   -99.3  -412.1  -751.5 -1040.2
 -1064.8  -886.9  -778.9  -622.9  -399.6  -322.3  -326.9  -188.3   -10.8   -40.0
   -52.5  -210.3  -235.4  -238.1  -346.7  -446.2  -453.0  -695.4  -509.2  -414.8
  -349.5    -2.6   357.7   776.1  1081.2  1335.1  1433.0  1650.3  1744.8  1640.0
  1511.1  1386.2  1359.2  1327.8  1268.4  1315.4  1416.2  1434.3  1375.3  1410.2
  1463.5  1513.7  1641.4  1758.9  1811.9  1861.9  1855.3  1832.1  1864.9  1684.7
  1240.5   937.8   753.2   669.6   665.7   636.6   392.5    82.3  -151.9  -404.1
  -693.6  -787.7  -856.9  -972.8  -952.2  -838.5  -661.9  -296.0  -224.8  -306.2
  -295.2  -222.4  -186.8  -175.0  -216.4  -360.6  -470.3  -480.8  -457.5  -588.1
  -690.0  -779.8  -827.4  -896.6  -966.0 -1089.4 -1222.9 -1007.4  -684.2  -416.5
  -210.2   -85.1   -66.8   -51.8   -73.1  -188.7  -315.6  -423.7  -615.8  -796.6
  -830.2  -897.2  -867.8  -758.0  -707.9  -722.9  -701.8  -714.3  -739.9  -679.7
  -616.6  -586.9  -496.2  -412.9  -375.0  -370.5  -375.2  -409.0  -403.5  -313.0
  -181.6   -32.5   115.3   194.4   208.1   169.3   195.2   249.8   305.6   304.8
   410.9   164.6    12.8    64.8    33.0    57.7    40.5    49.8    47.9    59.4
    48.7    55.1    54.0    65.7    58.6    60.9    49.9    59.6    51.7    60.8
    62.4    61.9    57.9    56.0    57.9    62.5    57.5    69.5    62.6    65.4
    63.7    70.0    65.6    67.2    73.9    75.8    70.0    77.6    66.0    70.3
    71.6    65.1    76.1    67.2    72.9    71.1    66.4    75.3    71.1    68.9
    65.9    75.6    69.6    71.3    68.2    70.8    69.3    72.9    74.6    63.8
    64.5    64.0    67.7    70.0    65.2    69.1    62.7    67.7    64.4    62.8
    60.8    61.0    68.3    67.0    62.5    62.0    55.2    53.6    58.2    57.1
    63.1    57.0    57.8    59.1    47.9    58.8    53.2    56.5    45.4    53.7
    50.9    51.8    52.9    48.5    44.8    49.0    42.0    51.1    42.6    39.6
    37.6    37.2    37.9    34.8    34.7    34.5    39.1    36.2    35.4    33.8
    28.9    35.0    32.8    28.3    31.9    26.0    33.5    26.6    23.7    33.8
    27.0    26.0    18.4    23.5    20.0    19.8    23.8    15.6    11.8    16.0
    17.4    14.6    10.8    10.6    17.7     7.7    13.6    14.2     7.9    11.6
    10.8    12.3    11.1     9.4     4.6     1.7    10.2     3.0     1.6    -1.7
     2.2     4.4    -5.5    -3.7    -6.4     1.1    -5.0    -0.9    -4.3    -4.2
    -8.2    -5.5    -0.9    -8.1    -9.9   -14.5    -5.3    -8.4    -7.7   -10.8
    -5.4   -12.0   -12.1   -15.2   -13.9   -11.3   -13.2    -6.6   -13.4   -14.8
   -10.2   -15.5    -5.1   -17.8   -18.6   -18.8   -22.6   -19.1   -12.1   -21.5
   -18.6   -19.6   -18.4   -12.1   -14.9   -22.2   -23.5   -20.0   -14.8   -20.5
   -20.2   -21.4   -18.2   -15.9   -18.3   -19.2   -21.5   -14.6   -15.1   -21.9
   -18.6   -12.5   -14.8    -9.8   -22.0   -17.1   -17.7   -19.6   -22.2   -14.3
   -10.2   -19.4   -14.5   -10.6   -13.9   -15.2   -17.3   -13.6   -20.2   -13.6
   -14.2   -16.1   -11.9   -17.0   -11.3   -15.1   -14.4   -18.8   -13.3   -14.7
   -14.6    -8.7   -10.4   -14.2   -12.2   -15.4   -13.1    -4.1    -9.5   -15.5
    -5.4   -10.7   -12.9   -10.1    -6.9   -11.2   -10.0    -4.7     2.0    -6.3
   -10.8    -1.2    -3.8    -4.5    -3.2    -6.9    -4.4    -5.8   -11.3    -5.4
    -3.1    -3.2    -4.4    -2.5    -8.3     0.3    -1.6    -2.8     2.7    -3.3
    -2.2    -3.4    -2.3    -0.7     2.6    -3.2     6.9    -3.1     0.3    -0.4
     3.2    -0.8    -4.5     3.7     3.8     4.3    -5.7     6.2     3.4     7.8
     1.6    -3.8     5.9     1.8     4.1    -1.6     1.3     3.7     0.2     7.0
     5.7     4.2     1.3     2.3     4.9    12.0     4.8     3.5    12.9     8.5
     7.2     0.3     6.1     2.3     6.6    10.9     2.9     4.7    10.1    -3.7
     7.6    -2.9     5.3     6.1     9.4    10.6    11.0    -0.2     1.9    -0.6
     0.9     8.8     0.4     2.4    -2.9     9.5     1.9     5.5     7.7    -3.6
     0.2    -2.2     6.8     1.0    -0.9     7.9     6.3     6.9     2.9     6.4
     2.6     9.4     7.2    10.3     0.3     0.3     5.1    -0.3     4.6     5.9
     4.3     3.0     3.0     4.2     6.3     0.6     4.0     3.9    10.0     0.2
     1.0     4.1    -0.7    -2.4     6.1    -0.3    -2.9    -8.9     3.9    -6.5
    -3.8     1.1    -0.6     2.4     5.3     0.8    -0.7    -0.8    -2.0     3.7
     6.5     0.0     0.6    -1.6     4.6    -4.0     0.6    -0.2     7.5     4.8
    -1.6     1.5    -1.9    -3.7    -4.3    -2.9     1.5    -2.3     3.6     0.3
     2.1     0.3    -5.9     1.6     1.3     4.2    -4.6    -1.2    -4.2    -0.5
    -2.0    -0.8    -4.5     5.3     0.3     3.0    -5.2    -3.9    -0.6    -1.1
    -0.6    -4.8     0.7    -3.7    -0.4    -0.1     0.4     0.6    -2.2    -4.8
    -3.5    -2.0    -5.4    -3.9    -5.5    -2.6     0.1    -2.9    -0.6     3.1
     3.2    -1.0    -0.5    -2.9    -0.0     2.5    -4.5    -7.2    -4.0    -5.2
    -0.3    -0.3    -0.4     5.8     3.4     4.5    -5.9    -1.3     1.9    -9.4
     3.4    -5.3    -1.0    -8.4    -0.7    -3.4     0.2     1.0    -4.3     0.1
     5.7     0.5     2.5     2.1     2.5    -6.1     9.5    -0.2     2.7     3.6
     0.7    -0.5    -6.7     3.1    -2.1     0.7    -2.1     4.8    -0.2     2.0
    -0.3    -7.0     2.6    -0.1     0.4     3.4     2.8     3.1    -0.6    -0.3
     0.3    -0.6    -0.3    -3.6    -0.5    -1.3     0.3     1.8    -1.2     0.6
    -0.5    -0.6     2.2    -9.0     1.7     1.7     3.1    -2.1    10.6    -7.0
     2.8    -0.6     0.7     7.9     7.0     3.1     7.0     6.2     1.6    -0.4
     0.7     1.8     1.3     3.6     3.4     2.7     0.7     0.4    -5.0     1.5
    -1.8     1.1     7.2     2.6    -4.7    -2.4    -2.3     1.6     4.2     6.4
     4.0    -0.2     0.4     4.8     1.7     0.8     1.5     0.9    -1.1    -2.8
     1.3    -1.6     2.4     3.4    -0.1     3.1    -1.2     1.0     7.9     1.6
    -0.8    -2.2    -3.1    -3.0     4.4     4.9    -3.3    -5.5     0.7     1.7
     1.3    -4.9    -0.1     1.0     1.2    -0.4    -3.9    -1.6    -0.4     6.6
     0.0     1.7    -6.5     2.5     0.1     1.0     3.1    -3.9    -1.3     0.1
    -4.8    -4.1    -2.8     0.5    -8.1     4.3    -4.9     4.5    -6.4    -1.6
    -6.4    -2.6    -1.5    -5.2     0.2    -9.0     6.7     0.7     0.3    -0.2
    -0.5    -1.1    -0.1    -1.7     0.1     5.5    -2.3     0.8    -5.0     2.5
    -0.9     1.5    -0.4    -8.5     2.8    -2.7     0.2     2.1     2.4    -0.4
    -7.9     3.3     8.2     1.4    -2.7    -3.3    -2.3     1.5    -0.3     1.4
    -4.3     4.0    -4.8    -2.2     0.8     0.2     0.1    -0.6    -3.0    -2.9
     4.5     6.5     0.3     2.1     5.2    -0.9    -1.5    -3.4    -6.3    -3.8
     1.6    -2.4    -3.8    -0.5    -1.2    -6.1    -0.1     1.8    -3.1    -4.2
    -8.4     3.0    -4.7    -2.9     1.5    -0.5    -0.1    -2.0     1.2    -2.7
    -1.2     5.4    -2.2     4.7     1.4    -1.6     1.7    -0.2     6.0     2.1
     0.9     0.2     7.0     5.2     3.9    -3.3     1.4     2.1     2.1    -1.7
     3.6     4.1     2.8     1.8     7.0     0.7     0.6     1.2    -8.0    -2.5
     4.4     0.2    -9.3     2.2    -2.2     6.7     1.0     4.0     3.7     3.8
    -1.0     0.4    -0.2     3.7     3.5     3.4    -0.7    -2.9     2.4    -5.0
