Corrected accelerogram 20160214_001343_WTMC_20 GNS Science
Site WTMC      42 37 10S  173 03 13E     Cusp file:  20160214_001416_WTMC
Te Mara Farm Waiau
Instrument Cusp_10416
Resolution: 18-bit   Instr Period: 0.0050 s   Damping: 0.700
Accelerogram 20160214_001343_WTMC_20                 Processed 2016 February 22
11 km east of CHRISTCHURCH
2016 February 14         00:13:43 UT
Epicentre  43 29 50S 172 45 18E  Bearing S14W  Dist  101km  Depth    8km M  5.70
Number of points  2039    Duration  40.76 sec
Instrument corrected data at 0.020 sec intervals
Band-pass filter transition bands are .10-.25 Hz and 24.50-25.50 Hz
Component N00E  Horizontal Axis 1
Acceleration:  peak    -57.2 mm/s/s at  11.16 sec     rms      9.5 mm/s/s
Velocity:      peak     7.13 mm/s   at  16.14 sec     rms     1.48 mm/s
Displacement:  peak    1.678 mm     at  12.34 sec     rms    0.544 mm
    2016       2      14       0      13     430       0       0    2016       2
      43      29      50     172      45      18       8       0      14       0
      42      37      10     173       3      13       0       0     194     101
    6157     250     250    2039    2039    2039       0       0      14    6801
   200.0    0.70    0.00   0.000  0.0000   0.000   0.000   1.000     0.0    0.00
  42.619 173.054   43.50  172.76    5.70    0.00    0.00    0.00      0.      0.
   30.78    5.00    5.00   40.76  0.0050  0.0200      0.      0.      0.  9806.6
   -60.7   11.15    11.1   0.000      0.   -57.2   11.16     9.5    57.2   0.928
    7.13   16.14    1.48    8.51   0.244    1.68   12.34    0.54    2.48   0.244
   0.100   0.150   0.250      0.      0.  24.500   1.000  25.500      0.      0.
  -0.082  -0.064  -0.087  -0.069  -0.091  -0.074  -0.096  -0.079  -0.101  -0.083
  -0.106  -0.088  -0.111  -0.093  -0.116  -0.097  -0.120  -0.102  -0.125  -0.106
  -0.129  -0.111  -0.133  -0.115  -0.138  -0.119  -0.142  -0.122  -0.145  -0.126
  -0.149  -0.129  -0.152  -0.133  -0.156  -0.136  -0.159  -0.138  -0.161  -0.141
  -0.164  -0.143  -0.166  -0.145  -0.168  -0.147  -0.169  -0.148  -0.171  -0.149
  -0.172  -0.150  -0.172  -0.150  -0.173  -0.150  -0.172  -0.150  -0.172  -0.149
  -0.171  -0.148  -0.170  -0.146  -0.168  -0.144  -0.166  -0.142  -0.164  -0.139
  -0.161  -0.136  -0.158  -0.132  -0.154  -0.128  -0.149  -0.123  -0.145  -0.118
  -0.140  -0.112  -0.134  -0.106  -0.128  -0.100  -0.121  -0.093  -0.114  -0.086
  -0.107  -0.078  -0.099  -0.069  -0.090  -0.060  -0.081  -0.051  -0.072  -0.041
  -0.062  -0.031  -0.052  -0.020  -0.041  -0.009  -0.030   0.003  -0.018   0.015
  -0.006   0.027   0.006   0.040   0.019   0.053   0.033   0.067   0.046   0.081
   0.061   0.096   0.075   0.111   0.090   0.126   0.105   0.141   0.121   0.157
   0.136   0.173   0.153   0.190   0.169   0.207   0.186   0.224   0.202   0.241
   0.219   0.258   0.237   0.276   0.254   0.294   0.272   0.312   0.290   0.330
   0.307   0.348   0.325   0.366   0.343   0.384   0.361   0.403   0.380   0.421
   0.398   0.440   0.416   0.458   0.434   0.477   0.452   0.495   0.469   0.513
   0.487   0.531   0.505   0.549   0.522   0.567   0.539   0.584   0.556   0.602
   0.573   0.619   0.589   0.636   0.605   0.653   0.621   0.669   0.636   0.685
   0.651   0.701   0.666   0.716   0.680   0.731   0.693   0.746   0.706   0.760
   0.719   0.774   0.731   0.787   0.743   0.800   0.754   0.813   0.764   0.825
   0.774   0.837   0.783   0.848   0.791   0.859   0.798   0.869   0.805   0.879
   0.811   0.888   0.816   0.898   0.820   0.906   0.823   0.915   0.825   0.924
   0.825   0.932   0.824   0.941   0.821   0.951   0.815   0.962   0.806   0.976
   0.793   0.994   0.772   1.020   0.737   1.067   0.668   1.170   0.482   1.581
  -6.002  -7.096  -4.500  -6.406  -5.004  -6.787 -12.405 -14.830 -16.435 -19.937
 -21.199 -15.915  -4.987  -4.883  -6.799  -6.245   0.365   7.925  14.536  16.325
  11.989   9.341  11.122  10.725  10.936  11.985  12.246   5.309  -4.438  -7.493
  -6.533  -5.032  -5.626 -10.406 -19.826 -19.987 -14.970  -0.933   8.663   3.353
  -3.350  -7.227 -13.279 -11.879  -6.152   0.730   8.141   2.964   1.182   5.457
   8.839  12.204   3.671   6.239   5.521   0.826  -2.200  -2.658  -3.369  -2.844
  -2.643   3.708   7.198   8.009   9.810   9.975   7.389   1.096  -0.649  -1.482
   0.056   2.842   8.271   7.493   0.842  -6.176  -7.236 -10.934 -15.433 -11.348
  -6.322  -4.862  -0.747  -2.724  -1.531  -6.015  -7.596  -4.115  -0.626   2.718
   1.292   1.669   2.138   4.567   9.395  10.918  10.370   6.802   9.062  10.996
  13.063  11.073  10.568  16.044  14.106  12.119  11.265   9.345   4.236   4.020
   0.096  -4.123  -7.711  -9.597  -7.308  -8.241  -4.223  -5.112  -4.627  -5.506
  -7.620  -6.704  -3.167  -1.072  -1.114  -1.010   2.479   4.186   5.014   1.341
  -2.450  -1.368  -2.854  -1.085  -3.873  -4.336  -7.915  -8.506  -5.625  -5.464
  -5.953  -7.103  -4.271  -3.280  -2.083  -2.145  -1.939  -1.984  -1.772   2.870
  14.200  18.583  19.139  13.493   7.171   3.988   4.427   4.111   4.765   4.487
   6.893   8.144   5.797   2.726  -1.595  -8.266 -11.350 -12.448 -16.524 -16.823
 -13.887 -15.026 -12.013 -11.156  -7.690  -1.680   1.104  -0.109  -0.701   0.753
   5.674   7.519  12.117  13.117   8.157   7.638  10.291   8.475   6.337  10.682
   7.993   5.040  -2.287  -4.314  -8.433  -5.695  -5.968 -10.140 -11.165  -7.396
  -4.065  -2.648  -0.366  -0.863   0.865  -2.836   1.780   4.099   4.139   1.772
   0.632  -1.390  -1.819  -1.105  -1.941  -4.769  -4.686  -7.800  -8.647  -6.578
  -6.640  -3.590  -1.970   0.956   1.155   4.117   2.883   5.924   8.061  11.053
  12.679  11.286   9.194   2.192  -2.404  -7.971  -9.167  -7.402  -5.621  -4.606
  -2.684  -5.113  -5.848  -7.262  -5.813   1.080   6.466   6.846   6.440   6.326
   4.766   0.797   1.181  -0.238  -7.322  -6.609  -8.343  -5.823  -5.980  -3.349
  -0.752   3.536   5.105   5.389   6.082   4.744   0.540  -3.168  -2.534  -0.916
   1.079   0.009   2.162   6.282   7.292   9.128   2.427  -0.856  -2.172  -2.934
  -4.808  -6.206  -4.158  -0.960  -1.320   2.173   3.180   4.378   5.851   5.516
   5.878   0.338  -0.070  -1.596   2.014  -1.101  -3.129  -1.556  -4.118  -4.785
  -5.127  -5.555   0.659   7.807   5.960   9.545   9.196   5.071   4.008   3.954
   5.310   7.088   5.394   6.013   5.576   5.676   3.491  -1.552  -7.194 -12.892
 -10.095  -8.903  -9.779  -6.154  -2.827   0.073   5.714   3.929   1.524  -0.121
  -0.186   0.143  -0.991   3.368  -0.348  -2.175  -1.511  -3.237  -2.834  -1.188
  -3.104  -4.328  -3.128  -3.030  -1.012  -0.602   1.500   5.373   4.729   2.121
  -1.098  -2.165  -6.148  -5.098  -7.633  -6.897  -4.242   0.019   0.373   6.351
   7.508   3.536   7.118  -0.533   4.153   4.151   2.251   1.241   4.327   7.480
   6.958   5.558   4.380   0.184  -3.112  -1.944  -2.593  -5.276  -6.269  -3.609
  -4.209  -2.165  -6.402  -3.391  -5.583  -0.353   1.554   7.386   8.933   7.041
   4.270  -1.072  -1.611  -5.423  -4.656  -0.829  -2.902  -1.243  -0.105   1.874
   4.099   7.967   6.665   9.889   9.521   6.519   4.407   2.131  -3.461  -7.291
  -7.454  -6.672  -6.139  -4.550  -4.111  -3.951  -1.051  -2.333   0.564   2.723
   1.182   2.531   6.449  10.421   8.851   4.312   0.501  -7.094  -3.643  -4.429
  -2.620  -1.862  -1.927  -2.970   0.151  -0.153  -4.471  -8.555  -9.778  -9.233
  -4.768  -0.991   0.451   0.734   3.569   3.638   3.723   1.772   0.961  -2.618
  -4.419  -6.602 -11.910 -14.213 -11.892  -9.751  -9.046 -10.696  -4.241  -0.996
  -0.051   1.686  -0.693  -4.499  -0.106  -0.151   1.223   2.330   3.862   0.602
  -5.695  -8.780 -11.877 -12.823 -11.588  -2.732   3.414   9.894  15.639  17.227
  16.964  13.557   4.097  -3.385  -9.219  -8.742  -0.118   3.306   5.271   6.149
   7.726   8.089  12.627  16.206  20.807  18.311  10.704  -6.334 -21.072 -26.692
 -27.412 -17.631  -0.765   8.573  13.962  18.286  14.520   9.260  -2.898 -13.608
 -10.784  -1.750   4.008  10.309   6.254  -0.688  -1.642  -2.133  -6.738 -14.929
 -20.976 -19.983 -13.522  -4.537   9.659  16.420  20.974  19.210  14.305   6.665
  -2.175  -1.543   5.321  13.003  14.448   8.509   1.365   1.548   5.153   4.041
  -3.135  -5.646   5.298  25.393  36.539  39.029  31.129  17.854   6.274  -1.571
  -3.473  -6.689  -8.135 -12.549 -19.135 -32.048 -43.237 -55.543 -57.235 -50.344
 -34.599 -15.990  -4.280   0.462  -2.016  -3.397  -2.758   2.164   9.996  17.965
  24.184  29.131  29.715  24.998  14.855   4.056   2.940   1.668  -1.122  -2.178
   6.718  16.671  20.376  21.438  18.519  18.967  21.466  19.570  20.320  16.960
  16.626  14.896  13.542   9.914   8.155   7.155   4.765  -4.144  -7.231  -9.145
  -5.853  -3.812  -1.525   4.668   3.768   0.879  -3.689 -10.239 -17.704 -17.248
 -14.757 -16.253 -22.593 -24.472 -29.139 -35.301 -40.888 -42.285 -40.450 -33.672
 -22.287  -9.043   4.734   9.718  10.026   9.222   8.878  15.564  15.543  14.584
  10.070   7.980   3.348   2.632   1.968  -4.484 -14.178 -18.482 -23.191 -16.793
  -1.822  10.517  23.754  27.342  29.215  29.586  23.158  13.642   1.462 -11.754
 -16.102 -18.727 -17.102 -15.210 -13.759 -11.977 -14.013 -11.345  -7.134  -2.230
  -1.506  -4.052  -3.444  -3.892   6.106   4.056  -0.608  -7.538  -5.831  -3.698
   1.347   4.453   6.761   6.290   6.374   3.608   5.185  10.928  18.213  28.910
  34.863  32.241  20.291   7.916  -2.778 -11.885 -18.678 -17.985 -16.766 -12.269
  -5.854  -1.475   6.183  11.474  12.021   9.672  14.245  18.420  17.788   6.592
  -1.388  -8.706 -15.155 -19.026 -21.905 -24.587 -27.238 -32.803 -33.648 -28.293
 -20.412 -13.206  -5.860  -1.176   2.925   6.341  14.497  14.793  14.240  14.204
  16.074  16.305   7.201   2.062  -3.515  -6.368  -6.306  -3.149   2.351  10.509
  16.559  19.994  18.275  15.889  11.972   9.422  11.043   6.516   2.873  -2.600
  -1.474  -0.645   1.457   3.046   1.173   3.741   2.450   1.198   0.823   2.832
  -2.446 -11.872 -19.684 -25.499 -29.295 -32.040 -29.292 -24.250 -20.465 -17.228
 -10.332  -8.433  -8.485  -7.321  -5.486  -3.310   2.810   5.845  10.832  12.092
  16.584  22.629  24.452  21.330  20.916  16.825  15.069  13.939  13.897  14.839
  16.999  11.687  10.300  10.302   5.541  -1.701  -7.285  -9.059 -12.585 -10.092
  -6.964  -2.706   1.226   6.875   7.206  12.495  21.688  24.586  30.485  35.120
  37.673  38.406  35.544  32.104  25.084  16.704   9.539   3.246  -5.746 -13.814
 -11.888 -11.410 -11.393 -12.253 -11.570 -11.698 -13.895 -16.071 -19.468 -20.759
 -25.536 -22.441 -23.753 -25.245 -29.785 -31.675 -34.287 -33.503 -32.760 -26.906
 -19.393 -13.705 -12.459 -10.093 -12.656 -14.612 -12.504 -13.282  -9.677  -4.958
   2.103   3.621   5.397   0.781   0.837  -0.178  -1.427   1.976   6.077  11.138
  13.811  15.592  14.934  14.423  17.611  22.337  20.861  22.695  21.424  20.397
  17.984  15.068  12.397   6.666   2.776   3.349   6.406   2.780   2.636   4.201
   6.123   6.169   7.755   5.497   3.481   0.005  -1.121  -2.914  -4.041  -2.286
  -1.664   1.525   0.065  -1.170  -4.295  -8.831  -9.172 -13.078  -9.922  -8.630
  -8.402 -11.657 -11.243 -10.266  -4.821  -5.663  -2.831  -2.334   0.142   2.722
   2.265  -0.208  -1.436  -0.159   2.325   4.283   4.865   7.765   8.944   8.608
   1.892   0.993  -1.796  -1.404  -3.323  -6.860  -5.151  -4.651  -4.704  -6.739
 -10.169 -11.659 -12.343 -14.739 -18.711 -14.432 -16.504 -14.455 -13.641 -11.297
 -13.172  -9.878  -5.799  -0.560   2.023   6.359  10.057  11.474  10.223  10.512
  12.746  10.215  14.453  16.736  20.037  18.528  19.737  17.010  14.527   9.890
   9.882   0.674  -2.724  -4.503  -7.534  -7.802  -7.200  -3.326  -0.621   1.912
   6.398   9.916  11.651  16.181  19.661  20.792  24.620  25.237  26.575  28.089
  28.157  29.261  26.523  21.678  12.918   4.730  -5.679 -14.331 -23.327 -28.070
 -31.574 -35.726 -38.198 -42.461 -38.952 -35.963 -29.557 -29.585 -26.273 -25.783
 -21.685 -18.114 -14.783 -14.916 -12.277  -7.262  -7.225  -4.955  -4.378  -3.504
  -1.233   2.537   7.834   9.845  15.502  14.390  18.740  21.240  17.201  12.682
   9.476   9.562   5.269   5.149   1.934   1.346  -0.745  -0.621  -1.078  -3.803
   0.345  -2.040   1.652   2.174   1.560   2.534   2.051   2.245  -0.331   2.445
  -0.343   1.028  -0.395  -4.214  -0.068   1.420   5.194   7.089   7.045   6.420
   4.453   1.779   0.381  -2.580  -5.462  -3.911  -7.627  -3.513  -4.881  -4.974
  -3.733  -5.377  -5.433  -5.115  -9.240  -9.041  -9.328 -10.263  -9.576  -7.650
  -4.939  -1.602   3.483   8.154  13.844  14.556  15.155  18.431  18.744  21.891
  20.601  18.975  16.727  13.343   9.419   5.768   2.111  -1.993  -5.884  -7.772
  -7.149  -5.922  -5.051  -5.094  -4.896  -2.683  -0.037   2.556   5.309   5.739
   6.628   5.987   7.549   8.321   5.315   7.705   7.007   6.171   6.804   5.515
   1.104  -2.403  -3.884  -5.217  -6.088  -9.833 -11.574 -10.945 -11.065 -10.051
  -9.090  -5.968  -5.839  -3.144  -0.834  -1.546   5.056   6.266   7.210   7.188
   7.492   8.174   5.135   2.692   1.420  -6.477  -9.224  -9.819 -10.648 -12.514
 -10.782  -9.325 -11.091  -9.113  -8.249  -7.079  -5.052  -3.478  -4.968  -5.129
  -2.954  -0.848   0.017   1.882   4.130   3.582   6.065   4.956   4.379   6.810
   8.026   9.099   6.873   3.751   4.441   1.549   0.349   1.562   1.431   0.201
   0.663   0.515   0.734  -1.463  -0.415   0.799   3.294   3.499   2.867   5.620
   5.693   5.176   5.187   5.212   7.043   6.954   8.997   8.686   8.193   7.173
   8.541   5.384   2.567  -0.339  -1.177  -4.227  -6.683  -7.112 -10.138 -13.951
 -14.921  -9.077  -9.957  -5.408  -7.198  -4.368  -3.905  -1.679  -1.594  -0.966
  -1.187   0.630  -0.786   1.746   3.651   3.628   5.048   2.545   0.787  -0.227
   2.311  -0.422  -2.680  -1.742  -3.894  -2.690  -4.967  -3.527  -4.660  -9.937
  -8.266 -10.006 -10.449  -5.927  -2.696  -0.942   1.408   3.232   2.972   5.010
   3.160   5.010   5.184   3.361   3.957   3.586   7.392   5.579   6.238   6.405
   2.060   2.507   3.257   1.823  -1.018  -2.106  -0.109  -2.821  -4.476  -7.557
  -8.521 -10.865 -10.063 -12.346 -12.558 -11.228 -12.491 -11.385 -11.982  -9.588
  -9.281  -6.834  -3.722  -4.923  -3.615   0.449   4.580   4.279   5.582   7.464
   6.020   4.173   5.709   6.276   6.913   2.482   3.362   0.502   1.953   0.578
   3.365   4.188   1.989   2.516   3.092   3.542   3.159   3.175   1.918   5.866
   4.295   1.899   2.196   2.558   2.239  -1.149  -1.674  -0.342  -3.033  -4.320
  -2.901  -2.937  -2.469  -3.744  -3.416  -1.527  -2.644  -0.568  -0.279  -2.473
   1.146   3.491   4.069   5.899   5.673   7.050   6.456   7.993   9.082   7.538
   9.288   7.873   6.983   3.553   2.322   2.206   2.061  -0.505   3.379   1.234
   1.039   0.367  -1.892   0.005  -2.352  -2.091  -1.521  -3.059  -3.512  -1.401
  -0.648  -2.812  -2.395  -1.709  -2.696  -0.036  -1.007   1.351   2.086   5.562
   5.389   6.303   6.904   6.837   5.309   2.207   2.049   3.046  -0.438  -1.257
  -2.526  -3.205  -3.200  -4.594  -2.870  -4.256  -3.928  -1.991  -1.685  -4.633
  -4.656  -4.835  -7.109  -6.850  -3.720  -6.156  -5.181  -5.419  -3.775  -1.814
  -2.615  -1.435  -1.120   2.259  -2.171  -0.585  -2.462  -4.145  -1.130  -6.326
  -4.972  -4.955  -3.621  -1.592  -2.013  -0.396   0.432   3.913   2.686   5.597
   7.189   8.851  11.842  13.534  11.133  10.206  10.340  11.480  11.666  10.498
   9.216   7.305  11.396  10.241   9.714  10.165   9.150   7.386   5.028   5.344
   2.285  -2.442  -1.313  -3.608  -7.802  -4.710  -5.576  -5.063  -5.365  -3.236
  -2.687  -0.233   1.568   1.238   3.682   1.978   1.630   0.556   1.303   2.456
  -1.278  -2.828  -5.285  -6.751  -9.355  -8.474  -7.553  -8.510  -7.383  -7.574
  -6.082  -6.559  -7.863  -4.012  -5.114  -5.278  -3.717  -9.511  -3.484  -2.995
  -4.288  -3.697  -2.772  -3.168  -2.619  -4.086  -4.213  -1.280  -2.677  -0.793
   2.932   3.658   1.684   0.800   0.017  -0.989  -4.846  -6.914  -7.598  -7.848
  -5.584  -8.282  -8.257  -9.527  -8.852  -8.153  -8.106  -8.098  -6.288  -6.939
  -6.239  -4.880  -5.191  -3.722  -1.461   2.932   2.431   3.910   5.077   7.221
   8.006   8.275   5.994   6.891   8.626   8.923   5.801   7.571   7.366   4.947
   4.270   1.664  -0.273  -0.234  -1.883  -2.557  -2.839  -2.145  -2.504  -1.855
  -3.847  -0.522   3.055   2.461   4.648   6.904   6.709   8.120   6.402   8.594
   7.376   7.449   6.894   4.008   3.597   4.468   3.642   4.823   4.740   2.052
  -0.428   0.250  -0.225   0.142  -0.176   0.092  -0.155   0.058  -0.147   0.032
  -0.143   0.010  -0.144  -0.009  -0.146  -0.027  -0.150  -0.043  -0.155  -0.058
  -0.161  -0.073  -0.167  -0.086  -0.174  -0.099  -0.182  -0.112  -0.189  -0.124
  -0.197  -0.135  -0.205  -0.146  -0.213  -0.156  -0.220  -0.166  -0.228  -0.176
  -0.236  -0.185  -0.243  -0.194  -0.250  -0.202  -0.257  -0.210  -0.264  -0.217
  -0.270  -0.224  -0.276  -0.231  -0.282  -0.237  -0.287  -0.242  -0.292  -0.248
  -0.297  -0.252  -0.301  -0.256  -0.305  -0.260  -0.308  -0.263  -0.311  -0.266
  -0.314  -0.268  -0.316  -0.270  -0.317  -0.272  -0.318  -0.273  -0.319  -0.273
  -0.319  -0.273  -0.319  -0.273  -0.318  -0.272  -0.317  -0.270  -0.315  -0.269
  -0.313  -0.266  -0.311  -0.264  -0.308  -0.261  -0.304  -0.257  -0.301  -0.254
  -0.296  -0.250  -0.292  -0.245  -0.287  -0.240  -0.282  -0.235  -0.276  -0.230
  -0.270  -0.224  -0.264  -0.218  -0.258  -0.212  -0.251  -0.205  -0.244  -0.198
  -0.237  -0.191  -0.229  -0.184  -0.222  -0.176  -0.214  -0.169  -0.206  -0.161
  -0.198  -0.153  -0.190  -0.145  -0.181  -0.137  -0.173  -0.129  -0.164  -0.121
  -0.156  -0.112  -0.147  -0.104  -0.139  -0.096  -0.130  -0.087  -0.122  -0.079
  -0.113  -0.071  -0.105  -0.062  -0.096  -0.054  -0.088  -0.046  -0.080  -0.038
  -0.072  -0.030  -0.064  -0.023  -0.056  -0.015  -0.049  -0.008  -0.041  -0.001
  -0.034   0.006  -0.027   0.013  -0.020   0.020  -0.013   0.026  -0.007   0.032
  -0.001   0.038   0.005   0.044   0.011   0.049   0.016   0.055   0.021   0.060
   0.026   0.064   0.031   0.069   0.035   0.073   0.039   0.077   0.043   0.080
   0.047   0.083   0.050   0.086   0.053   0.089   0.056   0.092   0.058   0.094
   0.061   0.096   0.062   0.097   0.064   0.099   0.065   0.100   0.067   0.101
   0.067   0.101   0.068   0.102   0.068   0.102   0.068   0.102   0.068   0.101
   0.068   0.101   0.067   0.100   0.067   0.099   0.066   0.098   0.065   0.096
   0.063   0.095   0.062   0.093   0.060   0.091   0.058   0.089   0.056
  0.0388  0.0373  0.0359  0.0342  0.0327  0.0310  0.0294  0.0275  0.0258  0.0239
  0.0221  0.0200  0.0181  0.0160  0.0140  0.0118  0.0097  0.0074  0.0052  0.0028
  0.0006 -0.0019 -0.0043 -0.0069 -0.0093 -0.0120 -0.0144 -0.0172 -0.0198 -0.0226
 -0.0252 -0.0281 -0.0308 -0.0338 -0.0366 -0.0396 -0.0424 -0.0455 -0.0484 -0.0515
 -0.0544 -0.0576 -0.0606 -0.0638 -0.0668 -0.0701 -0.0732 -0.0764 -0.0795 -0.0828
 -0.0859 -0.0892 -0.0924 -0.0957 -0.0988 -0.1021 -0.1053 -0.1086 -0.1117 -0.1150
 -0.1181 -0.1214 -0.1245 -0.1277 -0.1308 -0.1340 -0.1370 -0.1402 -0.1431 -0.1463
 -0.1492 -0.1522 -0.1551 -0.1581 -0.1608 -0.1637 -0.1664 -0.1692 -0.1718 -0.1745
 -0.1770 -0.1796 -0.1820 -0.1845 -0.1867 -0.1891 -0.1912 -0.1935 -0.1954 -0.1976
 -0.1994 -0.2013 -0.2030 -0.2048 -0.2062 -0.2079 -0.2092 -0.2106 -0.2117 -0.2130
 -0.2139 -0.2149 -0.2156 -0.2165 -0.2170 -0.2176 -0.2179 -0.2183 -0.2183 -0.2185
 -0.2183 -0.2182 -0.2177 -0.2174 -0.2166 -0.2160 -0.2151 -0.2142 -0.2129 -0.2118
 -0.2102 -0.2088 -0.2070 -0.2052 -0.2031 -0.2011 -0.1986 -0.1963 -0.1936 -0.1909
 -0.1878 -0.1849 -0.1815 -0.1782 -0.1745 -0.1708 -0.1668 -0.1628 -0.1584 -0.1541
 -0.1494 -0.1448 -0.1397 -0.1347 -0.1293 -0.1239 -0.1181 -0.1124 -0.1063 -0.1002
 -0.0937 -0.0873 -0.0804 -0.0736 -0.0664 -0.0593 -0.0517 -0.0442 -0.0362 -0.0283
 -0.0200 -0.0118 -0.0031  0.0055  0.0146  0.0236  0.0329  0.0423  0.0520  0.0618
  0.0719  0.0820  0.0924  0.1028  0.1136  0.1244  0.1356  0.1467  0.1582  0.1697
  0.1815  0.1934  0.2055  0.2177  0.2302  0.2427  0.2555  0.2683  0.2815  0.2946
  0.3080  0.3215  0.3352  0.3490  0.3630  0.3770  0.3913  0.4057  0.4202  0.4349
  0.4497  0.4646  0.4797  0.4948  0.5102  0.5256  0.5411  0.5568  0.5726  0.5884
  0.6044  0.6205  0.6367  0.6530  0.6694  0.6859  0.7025  0.7192  0.7359  0.7528
