Corrected accelerogram 20160214_001343_WHAS_20 GNS Science
Site WHAS      43 18 52S  170 19 37E     Basalt file:  20160214_001418_WHAS
Gaunt Creek
Instrument Basalt_2142
Resolution: 24-bit   Instr Period: 0.0050 s   Damping: 0.700
Accelerogram 20160214_001343_WHAS_20                 Processed 2016 February 22
11 km east of CHRISTCHURCH
2016 February 14         00:13:43 UT
Epicentre  43 29 50S 172 45 18E  Bearing S83E  Dist  198km  Depth    8km M  5.70
Number of points  7700    Duration 153.98 sec
Instrument corrected data at 0.020 sec intervals
Band-pass filter transition bands are .10-.25 Hz and 24.50-25.50 Hz
Component N00E  Transverse Accelerometer Axis
Acceleration:  peak     -6.3 mm/s/s at  62.88 sec     rms      1.0 mm/s/s
Velocity:      peak     1.04 mm/s   at  76.32 sec     rms     0.18 mm/s
Displacement:  peak   -0.400 mm     at  75.80 sec     rms    0.095 mm
    2016       2      14       0      13     430       0       0    2016       2
      43      29      50     172      45      18       8       0      14       0
      43      18      52     170      19      37       0       0      97     198
   28800     250     250    7700    7700    7700       0       0      13   38000
   200.0    0.70    0.00   0.000  0.0000   0.000   0.000   1.000     0.0    0.00
  43.314 170.327   43.50  172.76    5.70    0.00    0.00    0.00      0.      0.
  144.00    5.00    5.00  153.98  0.0050  0.0200      0.      0.      0.  9806.6
     6.8   64.78     1.0   0.000      0.    -6.3   62.88     1.0     8.6   0.446
    1.04   76.32    0.18    1.05   0.220   -0.40   75.80    0.09    0.41   0.217
   0.100   0.150   0.250      0.      0.  24.500   1.000  25.500      0.      0.
  -0.000  -0.002  -0.000  -0.001  -0.000  -0.001  -0.000  -0.001  -0.000  -0.001
   0.000  -0.001   0.000  -0.001   0.000  -0.001   0.000  -0.001   0.001  -0.000
   0.001  -0.000   0.001  -0.000   0.001  -0.000   0.001   0.000   0.001   0.000
   0.001   0.000   0.002   0.001   0.002   0.001   0.002   0.001   0.002   0.001
   0.002   0.001   0.002   0.001   0.003   0.002   0.003   0.002   0.003   0.002
   0.003   0.002   0.003   0.002   0.003   0.003   0.004   0.003   0.004   0.003
   0.004   0.003   0.004   0.003   0.004   0.004   0.005   0.004   0.005   0.004
   0.005   0.004   0.005   0.004   0.005   0.004   0.005   0.005   0.006   0.005
   0.006   0.005   0.006   0.005   0.006   0.005   0.006   0.005   0.006   0.005
   0.006   0.005   0.006   0.006   0.006   0.006   0.007   0.006   0.007   0.006
   0.007   0.006   0.007   0.006   0.007   0.006   0.007   0.006   0.007   0.006
   0.007   0.006   0.007   0.006   0.007   0.006   0.007   0.006   0.006   0.006
   0.006   0.006   0.006   0.005   0.006   0.005   0.006   0.005   0.006   0.005
   0.006   0.005   0.005   0.005   0.005   0.004   0.005   0.004   0.005   0.004
   0.004   0.004   0.004   0.003   0.004   0.003   0.003   0.003   0.003   0.002
   0.002   0.002   0.002   0.001   0.002   0.001   0.001   0.000   0.001  -0.000
   0.000  -0.001  -0.000  -0.001  -0.001  -0.002  -0.002  -0.002  -0.002  -0.003
  -0.003  -0.004  -0.004  -0.004  -0.004  -0.005  -0.005  -0.006  -0.006  -0.006
  -0.006  -0.007  -0.007  -0.008  -0.008  -0.009  -0.009  -0.009  -0.010  -0.010
  -0.011  -0.011  -0.012  -0.012  -0.012  -0.013  -0.013  -0.014  -0.014  -0.014
  -0.015  -0.015  -0.016  -0.016  -0.017  -0.017  -0.018  -0.018  -0.019  -0.019
  -0.021  -0.020  -0.022  -0.021  -0.023  -0.022  -0.024  -0.023  -0.025  -0.024
  -0.026  -0.025  -0.027  -0.026  -0.029  -0.027  -0.030  -0.029  -0.031  -0.030
  -0.032  -0.031  -0.034  -0.032  -0.035  -0.033  -0.036  -0.034  -0.037  -0.035
  -0.039  -0.036  -0.040  -0.037  -0.041  -0.039  -0.042  -0.041  -0.041  -0.047
  -0.004   0.025   0.032   0.045   0.034   0.081   0.021   0.021   0.060   0.028
   0.043   0.058   0.033   0.014   0.066   0.038   0.022   0.051   0.046   0.011
   0.011   0.011   0.040   0.049  -0.010   0.050   0.023   0.004   0.084   0.003
   0.022   0.046   0.021   0.003   0.044   0.038   0.047  -0.004   0.021   0.013
   0.022   0.052   0.002   0.027  -0.003   0.031   0.019  -0.021   0.047   0.001
   0.005   0.006  -0.010   0.040  -0.007   0.007   0.012  -0.008   0.020  -0.001
   0.008   0.005  -0.001   0.027  -0.021  -0.021   0.037   0.017   0.009  -0.004
   0.012   0.020   0.013   0.019   0.014   0.003   0.025  -0.017   0.039  -0.046
   0.032  -0.016  -0.010   0.001   0.004  -0.016  -0.002  -0.003   0.034  -0.029
   0.023   0.010   0.019   0.012   0.012  -0.014   0.028  -0.018   0.017   0.007
   0.023  -0.018  -0.008  -0.014   0.016  -0.028  -0.032   0.002  -0.005   0.010
   0.024   0.007  -0.011   0.010   0.015  -0.005  -0.004   0.016  -0.018   0.016
   0.009   0.002  -0.018   0.015  -0.046   0.022  -0.043   0.030  -0.025  -0.016
   0.010   0.020  -0.020  -0.042  -0.018  -0.016   0.022  -0.040   0.032  -0.053
   0.013  -0.072   0.046  -0.042   0.043  -0.032  -0.018  -0.023  -0.009   0.014
  -0.011  -0.011  -0.019   0.042   0.007  -0.027  -0.028   0.014  -0.020   0.023
  -0.007  -0.021  -0.030  -0.016  -0.022  -0.028   0.042  -0.046   0.012  -0.030
  -0.004   0.009   0.020  -0.080   0.011  -0.021   0.021  -0.020  -0.014   0.024
  -0.019  -0.015   0.021  -0.035   0.015   0.006   0.008  -0.030   0.001   0.028
  -0.008   0.015  -0.004  -0.000   0.012  -0.001  -0.001  -0.030   0.009  -0.007
  -0.020   0.006  -0.011   0.009   0.045  -0.016   0.011   0.009  -0.036   0.028
  -0.043   0.021  -0.051   0.077  -0.049  -0.014   0.009  -0.016   0.028  -0.002
  -0.010  -0.042   0.026  -0.034   0.030  -0.029   0.022  -0.046  -0.005  -0.028
   0.006  -0.011   0.024  -0.033  -0.013   0.026   0.018   0.018   0.027  -0.018
  -0.022   0.021   0.003  -0.005  -0.005  -0.002   0.001   0.015  -0.025   0.021
   0.000   0.031  -0.024   0.006  -0.023   0.037  -0.021   0.019   0.001   0.046
  -0.011  -0.008   0.005  -0.001   0.021   0.021  -0.026  -0.053   0.010  -0.002
   0.005   0.027  -0.001   0.016   0.025  -0.025   0.010   0.003   0.004  -0.032
   0.001   0.007  -0.014   0.003   0.029  -0.027  -0.029   0.079  -0.047   0.038
  -0.004   0.001  -0.046   0.025  -0.001   0.018  -0.018   0.020   0.023   0.024
   0.020   0.010   0.026   0.014  -0.008  -0.003   0.069  -0.060   0.057   0.006
   0.014  -0.012   0.002  -0.015   0.007  -0.005   0.030  -0.030   0.006  -0.007
  -0.006  -0.002   0.024  -0.001  -0.029   0.040  -0.017  -0.003  -0.024  -0.025
   0.028   0.024  -0.002  -0.009  -0.068  -0.003   0.012  -0.001   0.003   0.031
  -0.030  -0.010   0.019  -0.008   0.011   0.022   0.018  -0.005   0.034   0.012
   0.034   0.004   0.014  -0.003  -0.012   0.013  -0.009  -0.021  -0.026  -0.009
  -0.017   0.018  -0.049   0.004  -0.002   0.017  -0.036  -0.018  -0.033   0.010
   0.005  -0.021  -0.021  -0.009  -0.004  -0.011   0.006   0.018  -0.023   0.039
  -0.030  -0.010   0.012  -0.019   0.016   0.003  -0.024   0.020   0.008   0.006
   0.029  -0.021   0.008   0.029   0.022  -0.011  -0.028   0.006  -0.045   0.012
   0.010  -0.009   0.054  -0.021   0.001  -0.006   0.055  -0.040   0.025  -0.030
   0.001   0.020   0.029   0.002   0.012  -0.014   0.001  -0.008   0.005  -0.012
  -0.005   0.026  -0.003  -0.028   0.016  -0.000  -0.008   0.004   0.006   0.015
  -0.032   0.016  -0.010  -0.019  -0.005   0.036  -0.043  -0.009   0.021  -0.028
   0.019  -0.009  -0.017   0.026  -0.029   0.024   0.001  -0.013   0.040  -0.035
   0.025  -0.010   0.020   0.018  -0.019   0.010   0.015  -0.009   0.008  -0.004
  -0.028   0.025  -0.031   0.014   0.013  -0.004  -0.002   0.018  -0.007  -0.030
  -0.009   0.001  -0.032   0.007   0.024  -0.038   0.062  -0.005  -0.015  -0.025
  -0.025   0.027  -0.038   0.013   0.020  -0.023   0.013   0.020   0.018  -0.004
   0.003   0.023   0.001  -0.044   0.027  -0.010   0.026  -0.051   0.051   0.000
  -0.022   0.035  -0.005   0.031   0.003  -0.019   0.014  -0.006  -0.007  -0.021
   0.008   0.016  -0.024  -0.002  -0.030  -0.003  -0.001  -0.021   0.005  -0.020
   0.024   0.025  -0.023   0.008  -0.002  -0.007  -0.008   0.001   0.014   0.000
  -0.025   0.046   0.002  -0.022   0.027  -0.011  -0.029   0.008  -0.037   0.017
   0.042  -0.015   0.002  -0.037   0.033  -0.028   0.025   0.002  -0.008   0.011
  -0.000  -0.011   0.058  -0.048  -0.020   0.030   0.009  -0.031   0.008   0.013
  -0.023   0.043  -0.041   0.025  -0.040   0.030  -0.007   0.001  -0.002   0.052
  -0.041   0.001   0.011   0.003  -0.023   0.035  -0.046   0.007  -0.015  -0.016
   0.030  -0.029   0.025  -0.017   0.035  -0.077   0.048  -0.034   0.027   0.016
   0.029  -0.010   0.016  -0.016  -0.041   0.001   0.011   0.008  -0.010   0.006
  -0.011   0.008   0.003   0.038  -0.011   0.008   0.034  -0.012   0.014   0.022
  -0.033  -0.010   0.013   0.009   0.023  -0.026   0.003  -0.019   0.006  -0.038
   0.040  -0.034  -0.006   0.007  -0.018   0.041  -0.008  -0.004  -0.019  -0.002
  -0.013   0.022  -0.001  -0.004  -0.007  -0.039  -0.002  -0.017  -0.017   0.016
  -0.015   0.024   0.014   0.024  -0.005   0.025  -0.020   0.022  -0.023   0.015
  -0.012   0.011  -0.010   0.011  -0.021   0.005   0.017  -0.020   0.000  -0.016
  -0.009  -0.014   0.012   0.007   0.044  -0.026   0.027  -0.008   0.015  -0.005
  -0.039   0.021  -0.036   0.012  -0.006   0.028  -0.019  -0.020   0.046  -0.039
   0.004   0.053  -0.024  -0.011  -0.004   0.020   0.037  -0.017   0.021  -0.013
  -0.009   0.016   0.009  -0.015   0.010   0.003  -0.025   0.037  -0.022   0.027
  -0.031   0.016  -0.013   0.007  -0.030  -0.023  -0.012  -0.003  -0.013  -0.027
   0.028   0.002  -0.008   0.045  -0.041   0.042  -0.015  -0.012   0.003  -0.012
   0.024  -0.004  -0.002   0.019  -0.001  -0.001  -0.040  -0.014   0.021   0.005
  -0.017   0.023   0.009  -0.021   0.057  -0.049   0.033  -0.001  -0.008   0.019
  -0.006  -0.014   0.009  -0.032   0.033   0.011  -0.025   0.023   0.030  -0.022
   0.005  -0.009   0.004  -0.009   0.010  -0.011   0.025   0.001   0.028  -0.029
   0.007  -0.015   0.010   0.032  -0.002  -0.028  -0.000   0.037  -0.008  -0.014
  -0.002  -0.001   0.003   0.021  -0.030   0.009  -0.035   0.029   0.001   0.003
  -0.006   0.023   0.042  -0.039   0.036  -0.013   0.017  -0.010  -0.008   0.007
   0.017  -0.044   0.063  -0.042   0.026  -0.030   0.005   0.013  -0.018   0.042
  -0.031  -0.016   0.003  -0.035   0.031  -0.015   0.012  -0.010  -0.032  -0.002
  -0.010  -0.023   0.031  -0.014   0.033   0.015  -0.008   0.029  -0.003  -0.014
  -0.005  -0.024   0.015   0.004  -0.004  -0.014  -0.004  -0.004  -0.012  -0.013
  -0.011  -0.013   0.014  -0.019   0.003  -0.008  -0.025  -0.042   0.040  -0.033
  -0.014   0.004   0.004  -0.011  -0.005   0.004  -0.011   0.018   0.023  -0.023
   0.025   0.022   0.010  -0.017   0.016  -0.014   0.053   0.000   0.013  -0.029
   0.012   0.012  -0.003   0.035   0.002  -0.013  -0.005   0.016   0.015   0.016
  -0.007   0.011   0.009   0.047  -0.013  -0.033   0.036  -0.007  -0.007  -0.047
   0.020  -0.003   0.024  -0.040   0.006  -0.001  -0.042   0.006   0.005   0.008
   0.002  -0.022   0.004  -0.001  -0.018   0.001  -0.035  -0.018   0.028  -0.011
   0.047  -0.064   0.039  -0.053   0.005  -0.006  -0.033  -0.008  -0.027   0.013
   0.001   0.007  -0.011   0.058   0.011   0.001   0.032   0.011  -0.014   0.006
  -0.008  -0.010   0.024  -0.038  -0.011  -0.030   0.004   0.003   0.013  -0.033
   0.020   0.000   0.006  -0.005   0.008   0.014  -0.048   0.030   0.004   0.001
   0.021   0.015  -0.031   0.063  -0.049   0.015   0.020  -0.054   0.035  -0.026
   0.031  -0.019   0.020  -0.006   0.031  -0.046   0.017  -0.016  -0.007   0.007
   0.001   0.004  -0.003  -0.006  -0.012  -0.017   0.000   0.008   0.038   0.010
  -0.015   0.010   0.012  -0.004   0.011   0.013   0.017  -0.019   0.003   0.023
  -0.014   0.011  -0.002   0.008   0.015   0.016  -0.008   0.055  -0.036   0.013
  -0.009   0.031  -0.039   0.004   0.020  -0.005  -0.014  -0.002   0.019   0.005
  -0.009   0.035  -0.032  -0.015   0.015  -0.033   0.039  -0.038   0.039  -0.020
   0.038  -0.061   0.036  -0.008   0.022  -0.012   0.011   0.011   0.051  -0.046
   0.024   0.019  -0.014   0.002   0.024  -0.055   0.015  -0.033  -0.003  -0.016
  -0.043   0.031   0.004  -0.043   0.037  -0.042  -0.010   0.043  -0.030   0.021
  -0.012   0.015  -0.037   0.025  -0.001   0.012  -0.003   0.006   0.007   0.011
  -0.007  -0.013   0.028  -0.013   0.000  -0.025  -0.012   0.042  -0.020   0.025
  -0.009   0.025   0.006  -0.048   0.016  -0.007   0.018  -0.010   0.011  -0.009
  -0.020  -0.012  -0.019   0.011   0.007  -0.032   0.028  -0.044   0.021   0.006
  -0.002   0.005  -0.009   0.012  -0.034   0.034  -0.034   0.020   0.024   0.004
   0.011   0.010  -0.012  -0.027  -0.001  -0.034   0.008   0.028  -0.031   0.014
   0.012  -0.021   0.028  -0.046   0.020  -0.002  -0.024   0.010  -0.035   0.006
   0.009  -0.009   0.006  -0.007  -0.004  -0.017   0.015  -0.061   0.025   0.004
  -0.004   0.006  -0.016   0.024   0.026  -0.024   0.001   0.010   0.032  -0.016
  -0.014   0.014   0.007   0.013   0.011  -0.028  -0.009   0.017  -0.034   0.014
   0.002  -0.006   0.039  -0.032   0.009   0.013   0.029  -0.018   0.001   0.008
   0.012  -0.023   0.010  -0.016  -0.003   0.006   0.022  -0.012   0.003  -0.015
  -0.042   0.047  -0.017   0.019  -0.006  -0.007   0.016   0.008   0.005   0.038
  -0.003   0.012  -0.029   0.019   0.002  -0.023   0.035   0.004  -0.032   0.041
   0.017  -0.004  -0.007   0.001  -0.018   0.034  -0.023  -0.029  -0.001  -0.017
   0.043  -0.038   0.005   0.019  -0.027   0.028  -0.034   0.040  -0.059   0.003
   0.050  -0.038   0.011   0.004   0.036  -0.042  -0.010   0.020  -0.021   0.024
  -0.031  -0.006  -0.024  -0.007   0.011  -0.009   0.010   0.035  -0.038   0.024
   0.024  -0.007  -0.012  -0.007   0.035   0.000  -0.032   0.033   0.036  -0.037
   0.012  -0.007  -0.002   0.002  -0.018   0.010  -0.050   0.024  -0.025   0.027
  -0.004   0.011   0.014   0.040  -0.038  -0.016   0.031  -0.051   0.052  -0.060
   0.007  -0.009   0.011   0.007  -0.006   0.006   0.016   0.011   0.033   0.001
   0.005  -0.036   0.052  -0.016   0.050  -0.015  -0.011   0.033  -0.005  -0.035
   0.025  -0.008   0.005  -0.001  -0.031   0.060  -0.039  -0.008   0.024   0.030
  -0.005   0.018  -0.020  -0.023  -0.006  -0.040   0.002  -0.029  -0.033   0.037
  -0.003  -0.044   0.015  -0.032   0.034   0.014  -0.003   0.008   0.016  -0.035
   0.001  -0.018   0.024   0.023   0.010  -0.000   0.001   0.001   0.002  -0.001
  -0.008  -0.014  -0.025  -0.006   0.013  -0.012   0.044  -0.005  -0.008  -0.032
   0.022  -0.018   0.049  -0.019   0.010  -0.013   0.021  -0.043   0.049  -0.021
   0.034  -0.028  -0.018   0.039  -0.013  -0.015  -0.032   0.018  -0.009   0.002
  -0.033   0.010  -0.040   0.014  -0.013   0.011  -0.024   0.030  -0.018   0.009
  -0.010  -0.018   0.020  -0.044   0.062  -0.028   0.010   0.028  -0.006  -0.010
   0.013   0.031  -0.031   0.040  -0.009   0.018   0.003  -0.030   0.017  -0.010
  -0.020   0.039  -0.050   0.039   0.019  -0.012   0.006  -0.006   0.048   0.009
  -0.012   0.017   0.003  -0.032  -0.002  -0.010  -0.005   0.001  -0.012  -0.029
   0.025   0.027  -0.020  -0.003   0.006   0.007  -0.008  -0.040   0.035  -0.046
   0.046  -0.030   0.017  -0.029   0.005  -0.037   0.024  -0.010   0.006   0.030
   0.028   0.026  -0.007   0.011  -0.002   0.010  -0.017   0.020   0.004   0.018
  -0.019   0.021  -0.004   0.008   0.034  -0.060   0.035   0.013  -0.027   0.062
  -0.049   0.023  -0.053  -0.005   0.012   0.014  -0.039  -0.012  -0.001  -0.019
  -0.004   0.008  -0.011   0.000  -0.029   0.023  -0.011   0.043  -0.029   0.009
  -0.024  -0.002  -0.010   0.024  -0.051   0.014   0.002  -0.045   0.024   0.012
  -0.006   0.011   0.038  -0.003   0.017  -0.042   0.024  -0.025  -0.016   0.021
  -0.029   0.027   0.019  -0.003  -0.024  -0.011   0.008  -0.006   0.012   0.026
  -0.001   0.001   0.007  -0.005   0.025   0.002  -0.038   0.041  -0.076   0.033
  -0.029  -0.013   0.021  -0.051  -0.009   0.011  -0.049   0.013   0.014  -0.003
   0.004   0.019  -0.015  -0.005   0.012  -0.010   0.050   0.011   0.040  -0.057
   0.011   0.003   0.005  -0.008  -0.019  -0.005   0.020  -0.008   0.062  -0.012
   0.020  -0.029  -0.005  -0.008  -0.000  -0.022   0.010   0.004   0.042  -0.024
   0.021  -0.011   0.038  -0.037   0.050  -0.018   0.010  -0.000   0.011  -0.026
  -0.008  -0.005   0.013  -0.019   0.053   0.005   0.015  -0.027   0.019   0.014
  -0.017  -0.014   0.031   0.014  -0.016   0.044  -0.058   0.011  -0.015   0.018
  -0.008   0.016  -0.002   0.012   0.015   0.011  -0.055   0.006   0.004  -0.027
   0.012   0.010  -0.001  -0.001   0.009   0.031  -0.022   0.020   0.027   0.023
  -0.001  -0.031   0.034  -0.023   0.019  -0.035   0.030  -0.046   0.014   0.014
  -0.014   0.037   0.003   0.011   0.004   0.003  -0.037   0.025  -0.003   0.008
   0.005  -0.024   0.044  -0.044   0.035  -0.027  -0.009  -0.014  -0.025   0.013
  -0.020   0.011  -0.031   0.028   0.003  -0.002  -0.019  -0.013   0.010   0.016
  -0.030   0.009   0.016  -0.009  -0.010   0.017   0.003  -0.022   0.030  -0.024
  -0.008  -0.028   0.027   0.003   0.012  -0.027   0.026  -0.018   0.027   0.030
  -0.038   0.056  -0.044   0.038  -0.004  -0.001  -0.001   0.009  -0.033   0.010
  -0.034   0.005   0.014  -0.011  -0.040   0.030  -0.014  -0.058  -0.008   0.010
   0.004  -0.037   0.006  -0.007   0.005  -0.009   0.027  -0.001   0.008   0.019
  -0.031   0.004   0.003  -0.009   0.001   0.011  -0.040  -0.007  -0.038  -0.029
  -0.022   0.027  -0.041   0.017  -0.013  -0.034  -0.009  -0.033   0.025  -0.038
   0.032  -0.010   0.005  -0.012  -0.003  -0.053   0.062  -0.027   0.001  -0.013
  -0.007   0.023  -0.030  -0.004   0.001  -0.003  -0.008   0.026   0.003  -0.028
   0.011  -0.052   0.042  -0.079   0.005  -0.019   0.017   0.015  -0.012  -0.033
   0.015  -0.039   0.049  -0.016   0.011   0.032  -0.003   0.029  -0.013  -0.008
  -0.010   0.068  -0.015   0.043  -0.055   0.040  -0.017  -0.006   0.003   0.029
   0.011   0.023  -0.027   0.011  -0.004   0.058   0.006   0.007   0.007   0.041
   0.020  -0.041   0.012  -0.022   0.013   0.011  -0.021   0.003  -0.001  -0.021
   0.036   0.013   0.027  -0.021   0.031  -0.022   0.019  -0.031   0.000   0.015
   0.019   0.009  -0.028   0.023   0.005   0.003  -0.005   0.025  -0.013  -0.018
   0.033   0.012   0.043   0.036   0.006  -0.019   0.048  -0.021   0.030   0.001
   0.005   0.023   0.013  -0.005  -0.026   0.009   0.005   0.038   0.019   0.020
   0.048  -0.001  -0.001   0.049   0.005   0.028  -0.000  -0.003   0.024   0.020
   0.029   0.002   0.002   0.023  -0.026   0.043   0.025  -0.028  -0.001   0.006
   0.003   0.008   0.005   0.061   0.025   0.010   0.001   0.053   0.016   0.008
   0.034   0.004   0.028  -0.032   0.076  -0.047   0.020   0.025  -0.047   0.004
   0.052   0.049  -0.012   0.029   0.028   0.006  -0.001  -0.011  -0.003  -0.014
   0.044  -0.002   0.005  -0.017   0.036  -0.014   0.006   0.034  -0.048  -0.000
  -0.051  -0.001   0.000  -0.023  -0.047  -0.008  -0.007  -0.005  -0.017   0.009
  -0.024  -0.018  -0.037  -0.034  -0.062  -0.067  -0.049   0.020   0.007   0.051
  -0.019  -0.018  -0.050  -0.044  -0.012  -0.010   0.019  -0.063   0.003  -0.035
  -0.022   0.039  -0.101  -0.110   0.100   0.240   0.033   0.087   0.003  -0.309
  -0.302  -0.134   0.016   0.151   0.161  -0.004  -0.058   0.035  -0.031  -0.220
  -0.090  -0.070   0.043  -0.019   0.069  -0.042  -0.145  -0.359  -0.342   0.040
   0.315   0.242  -0.138  -0.215   0.072  -0.269  -0.483  -0.064   0.198  -0.397
  -0.226   0.402   0.600  -0.105  -0.272  -0.430  -0.570  -0.273   0.182   0.754
   0.549  -0.167  -0.371  -0.450   0.181   0.576  -0.176  -0.436  -0.043   0.511
   0.490   0.099  -0.036  -0.162  -0.168  -0.436   0.427   0.633  -0.165  -0.315
   0.472   0.070  -0.545  -0.508   0.289   0.670  -0.144   0.153   0.380  -0.400
  -1.122   0.085   0.329   0.398   0.115   0.036   0.136  -0.194  -0.040   0.175
  -0.089  -0.325  -0.546  -0.071   0.919   0.948  -0.480  -0.479  -0.544  -0.676
   0.025   0.235   0.068   0.123  -1.010  -0.466   0.952   1.249   0.300  -0.198
  -0.559   0.776   0.604  -0.876  -0.825   0.478   0.030   0.764   0.363   0.058
