Corrected accelerogram 20160214_001343_MOLS_20 GNS Science
Site MOLS      42 05 17S  173 15 27E     Basalt file:  20160214_001410_MOLS
Molesworth Station
Instrument Basalt_2431
Resolution: 24-bit   Instr Period: 0.0050 s   Damping: 0.700
Accelerogram 20160214_001343_MOLS_20                 Processed 2016 February 22
11 km east of CHRISTCHURCH
2016 February 14         00:13:43 UT
Epicentre  43 29 50S 172 45 18E  Bearing S15W  Dist  162km  Depth    8km M  5.70
Number of points  7800    Duration 155.98 sec
Instrument corrected data at 0.020 sec intervals
Band-pass filter transition bands are .10-.25 Hz and 24.50-25.50 Hz
Component N00E  Horizontal Axis 1
Acceleration:  peak     11.4 mm/s/s at  65.06 sec     rms      1.3 mm/s/s
Velocity:      peak    -1.29 mm/s   at  84.48 sec     rms     0.21 mm/s
Displacement:  peak   -0.651 mm     at  85.48 sec     rms    0.098 mm
    2016       2      14       0      13     430       0       0    2016       2
      43      29      50     172      45      18       8       0      14       0
      42       5      17     173      15      27       0       0     195     162
   29200     250     250    7800    7800    7800       0       0      13   30000
   200.0    0.70    0.00   0.000  0.0000   0.000   0.000   1.000     0.0    0.00
  42.088 173.257   43.50  172.76    5.70    0.00    0.00    0.00      0.      0.
  146.00    5.00    5.00  155.98  0.0050  0.0200      0.      0.      0.  9806.6
    11.8   65.07     1.3   0.000      0.    11.4   65.06     1.3    14.4   0.436
   -1.29   84.48    0.21    1.52   0.436   -0.65   85.48    0.10    0.69   0.238
   0.100   0.150   0.250      0.      0.  24.500   1.000  25.500      0.      0.
  -0.001  -0.001  -0.001  -0.001  -0.001  -0.000  -0.000  -0.000  -0.000  -0.000
  -0.000  -0.000  -0.000  -0.000  -0.000  -0.000  -0.000   0.000   0.000   0.000
   0.000   0.000   0.000   0.000   0.000   0.000   0.000   0.001   0.001   0.001
   0.001   0.001   0.001   0.001   0.001   0.001   0.001   0.001   0.001   0.001
   0.001   0.001   0.001   0.002   0.002   0.002   0.002   0.002   0.002   0.002
   0.002   0.002   0.002   0.002   0.002   0.002   0.002   0.002   0.002   0.003
   0.003   0.003   0.003   0.003   0.003   0.003   0.003   0.003   0.003   0.003
   0.003   0.003   0.003   0.003   0.003   0.004   0.003   0.004   0.004   0.004
   0.004   0.004   0.004   0.004   0.004   0.004   0.004   0.004   0.004   0.004
   0.004   0.004   0.004   0.004   0.004   0.004   0.004   0.004   0.004   0.004
   0.004   0.004   0.004   0.004   0.004   0.004   0.004   0.004   0.004   0.004
   0.004   0.004   0.004   0.004   0.004   0.004   0.004   0.004   0.004   0.004
   0.004   0.004   0.004   0.004   0.004   0.004   0.004   0.004   0.004   0.004
   0.003   0.004   0.003   0.003   0.003   0.003   0.003   0.003   0.003   0.003
   0.002   0.003   0.002   0.002   0.002   0.002   0.002   0.002   0.001   0.002
   0.001   0.001   0.001   0.001   0.001   0.001   0.000   0.000  -0.000  -0.000
  -0.001  -0.000  -0.001  -0.001  -0.001  -0.001  -0.002  -0.002  -0.002  -0.002
  -0.003  -0.003  -0.003  -0.003  -0.004  -0.004  -0.004  -0.004  -0.005  -0.005
  -0.005  -0.005  -0.006  -0.006  -0.006  -0.006  -0.007  -0.007  -0.008  -0.007
  -0.008  -0.008  -0.009  -0.009  -0.009  -0.009  -0.010  -0.010  -0.011  -0.011
  -0.011  -0.011  -0.012  -0.012  -0.013  -0.013  -0.014  -0.013  -0.014  -0.014
  -0.015  -0.015  -0.016  -0.015  -0.017  -0.016  -0.017  -0.017  -0.018  -0.018
  -0.019  -0.019  -0.020  -0.019  -0.020  -0.020  -0.021  -0.021  -0.022  -0.022
  -0.023  -0.022  -0.024  -0.023  -0.025  -0.024  -0.025  -0.025  -0.026  -0.026
  -0.027  -0.027  -0.028  -0.028  -0.029  -0.029  -0.029  -0.030  -0.029  -0.033
   0.021   0.014   0.011   0.055   0.065   0.042   0.021   0.016   0.028   0.011
   0.025   0.036   0.023   0.029   0.028   0.019   0.005   0.044   0.033   0.020
   0.027   0.008   0.024   0.016   0.051   0.035   0.005   0.050   0.037  -0.031
   0.016   0.022   0.030   0.040   0.012   0.032   0.017   0.023   0.017   0.023
  -0.011  -0.004   0.029  -0.017   0.002   0.011   0.032   0.002   0.003   0.029
  -0.001  -0.011   0.006   0.008   0.016   0.014   0.006   0.036   0.016   0.007
   0.005   0.026  -0.000   0.056   0.024  -0.008   0.009   0.013   0.007  -0.014
   0.012   0.009   0.012  -0.030  -0.020  -0.024  -0.040  -0.004   0.001   0.018
   0.012   0.005  -0.007   0.016   0.017   0.031  -0.005   0.007  -0.026   0.014
  -0.012   0.028   0.000  -0.011   0.020  -0.025  -0.001  -0.027  -0.039   0.041
  -0.020   0.007  -0.007  -0.003   0.000  -0.015  -0.021  -0.016  -0.022   0.014
  -0.033  -0.008   0.016   0.026  -0.066  -0.016   0.034   0.012   0.026  -0.039
  -0.062   0.008  -0.010  -0.019   0.005   0.008  -0.015   0.038   0.018   0.006
  -0.015  -0.019   0.007   0.003  -0.027  -0.015   0.010  -0.007  -0.002   0.014
  -0.021  -0.011  -0.028   0.021  -0.090   0.083   0.033   0.007  -0.068  -0.040
   0.043  -0.058   0.046  -0.031   0.047   0.001  -0.008  -0.029   0.015  -0.055
   0.009   0.042   0.021   0.002   0.003  -0.042  -0.014  -0.068  -0.015  -0.006
  -0.012   0.005  -0.002   0.013   0.022  -0.022   0.001  -0.002   0.021   0.012
   0.007   0.042   0.015   0.009  -0.046   0.024   0.022   0.006   0.047  -0.018
  -0.014   0.018   0.011  -0.006  -0.012  -0.014   0.017   0.003  -0.018  -0.019
   0.003   0.021   0.027  -0.020   0.016   0.006   0.007   0.001   0.004   0.018
   0.009  -0.013  -0.016  -0.007  -0.014  -0.008   0.004   0.013  -0.006  -0.024
  -0.002  -0.035  -0.028  -0.009  -0.010  -0.034  -0.008  -0.004  -0.026  -0.008
   0.006  -0.022  -0.012  -0.015  -0.019   0.014   0.028  -0.026  -0.039  -0.026
   0.014  -0.018   0.012   0.001   0.006   0.011   0.021   0.006  -0.004   0.021
   0.003   0.008   0.017  -0.013   0.008   0.004   0.011   0.008  -0.004  -0.006
  -0.002   0.015  -0.017  -0.014   0.017  -0.001   0.006   0.010   0.039  -0.013
   0.035  -0.000  -0.018   0.012  -0.031   0.006   0.031   0.030   0.019   0.013
   0.008   0.002  -0.014  -0.007  -0.017  -0.009  -0.012  -0.005   0.006   0.007
   0.032  -0.008  -0.004  -0.010   0.006   0.011   0.009   0.009  -0.004  -0.016
  -0.010   0.005  -0.005  -0.025   0.008  -0.015  -0.026  -0.006   0.016  -0.006
   0.007   0.004  -0.018  -0.002  -0.002   0.007   0.000   0.017  -0.009  -0.032
  -0.002   0.004   0.006   0.027   0.019   0.013   0.014  -0.020  -0.010  -0.012
   0.003   0.007   0.015   0.013  -0.023   0.016  -0.007  -0.006  -0.005   0.002
   0.002   0.001   0.006   0.041  -0.004   0.015  -0.006   0.022  -0.012  -0.013
  -0.034   0.007   0.039  -0.003   0.013  -0.021   0.016  -0.009   0.000  -0.014
  -0.005  -0.011   0.025   0.015  -0.022   0.018   0.017   0.022  -0.008   0.010
   0.014   0.011   0.001  -0.021   0.039  -0.011   0.013  -0.013  -0.008   0.032
   0.022  -0.013  -0.011  -0.013   0.005   0.017   0.008   0.004   0.005   0.002
   0.008   0.025   0.012   0.005   0.011  -0.011  -0.009   0.022  -0.016  -0.013
  -0.020  -0.025   0.010  -0.001  -0.032  -0.025   0.014   0.003   0.002   0.013
   0.012  -0.025   0.001   0.022  -0.016  -0.013   0.005  -0.003  -0.009  -0.018
   0.016  -0.042   0.008  -0.007  -0.015   0.013  -0.029   0.017  -0.003  -0.009
  -0.011  -0.013  -0.028   0.038   0.000   0.016   0.009   0.020  -0.017  -0.004
  -0.017   0.001   0.016   0.009   0.002  -0.015  -0.028   0.028  -0.005   0.016
   0.004  -0.022  -0.015  -0.011  -0.006  -0.029   0.021  -0.008   0.012   0.022
  -0.005  -0.012   0.013  -0.014  -0.025  -0.009   0.026  -0.035  -0.005   0.006
   0.008  -0.037   0.016  -0.002  -0.005   0.004  -0.003   0.029   0.005  -0.006
  -0.018  -0.002   0.019  -0.009  -0.011   0.033   0.009   0.025  -0.023   0.006
   0.013   0.025  -0.032   0.001   0.010  -0.009   0.014   0.012  -0.025   0.015
  -0.002  -0.013  -0.002  -0.002  -0.022   0.027  -0.018   0.051   0.001   0.012
   0.002  -0.006  -0.033   0.017  -0.002   0.013   0.047  -0.024  -0.004  -0.026
   0.007   0.008  -0.008  -0.004   0.010  -0.013   0.014  -0.009  -0.003  -0.024
  -0.018   0.005  -0.009  -0.030  -0.012  -0.016   0.017   0.003   0.001   0.002
   0.003  -0.012  -0.037  -0.013  -0.005  -0.000   0.011   0.008   0.002   0.006
  -0.016   0.003   0.022  -0.013   0.004   0.026   0.007   0.008  -0.004   0.035
  -0.029  -0.022  -0.004  -0.010   0.018   0.009   0.040  -0.006  -0.010   0.023
   0.001  -0.001   0.008   0.020  -0.000   0.007   0.011  -0.003   0.015   0.027
  -0.014   0.002   0.023   0.005   0.019  -0.016  -0.003  -0.022  -0.019  -0.011
  -0.004  -0.034  -0.018   0.012   0.023  -0.019  -0.012   0.002   0.030   0.008
   0.015  -0.010  -0.011  -0.017   0.001   0.015  -0.034   0.035  -0.000  -0.005
  -0.033  -0.003   0.012  -0.011   0.001  -0.013  -0.003   0.013   0.015   0.009
   0.028  -0.009  -0.002   0.015   0.005   0.015  -0.012  -0.002  -0.011  -0.008
  -0.004   0.007   0.015   0.002   0.004   0.024   0.006  -0.005   0.017   0.020
   0.009  -0.005  -0.003   0.018   0.006  -0.010   0.002  -0.016  -0.022  -0.011
   0.011  -0.006  -0.008  -0.008  -0.010  -0.004  -0.004   0.029  -0.016  -0.006
  -0.001   0.009  -0.003  -0.026   0.010  -0.014   0.012   0.002  -0.014  -0.002
   0.006  -0.016  -0.016  -0.028   0.021  -0.009   0.013   0.008  -0.008   0.021
  -0.003   0.012   0.017   0.012  -0.010  -0.022  -0.009  -0.016   0.013   0.017
  -0.036   0.009  -0.011  -0.001  -0.002   0.013   0.012   0.022  -0.020  -0.043
   0.019   0.017  -0.001  -0.007  -0.000  -0.003  -0.000  -0.001   0.041  -0.007
  -0.008   0.002  -0.001   0.028  -0.023   0.009  -0.004  -0.026   0.013   0.009
   0.026   0.001  -0.012   0.001   0.001  -0.010  -0.002  -0.005  -0.003   0.022
   0.017   0.042  -0.006   0.008  -0.013  -0.011  -0.039  -0.009  -0.006  -0.000
   0.001   0.001   0.013   0.010  -0.009   0.009   0.005  -0.002   0.014   0.012
  -0.015  -0.025  -0.016  -0.010  -0.041  -0.032  -0.002  -0.017   0.028   0.039
   0.017   0.017  -0.008   0.013  -0.019  -0.014   0.004  -0.021  -0.008   0.020
  -0.020  -0.011   0.001  -0.025  -0.029   0.007  -0.019  -0.009   0.032  -0.011
  -0.016  -0.009  -0.010   0.023   0.011  -0.009   0.006   0.023  -0.007  -0.003
   0.019  -0.035   0.021   0.027   0.019  -0.000  -0.016  -0.022  -0.017   0.020
   0.001  -0.007   0.009  -0.001   0.008  -0.007   0.032   0.018   0.025  -0.008
  -0.013  -0.017  -0.016   0.003   0.023  -0.001  -0.001   0.007  -0.009   0.023
  -0.006  -0.008  -0.012  -0.017   0.016  -0.010   0.030  -0.001  -0.008   0.015
  -0.008  -0.012   0.006  -0.013  -0.004  -0.004   0.030   0.036  -0.012   0.029
  -0.010  -0.010  -0.002  -0.019   0.016   0.021  -0.016   0.001   0.019   0.002
   0.003  -0.004  -0.002  -0.005  -0.008   0.001  -0.010  -0.025  -0.007   0.009
  -0.035   0.019   0.017   0.018  -0.000   0.011  -0.001  -0.012   0.003   0.007
  -0.005   0.016  -0.006   0.040  -0.017  -0.005   0.025  -0.018   0.004  -0.006
  -0.002   0.003  -0.007   0.006   0.002   0.019   0.017  -0.004  -0.013  -0.030
   0.024   0.010  -0.001  -0.018  -0.005  -0.017  -0.003   0.004   0.014  -0.037
  -0.017   0.004  -0.008  -0.011   0.011   0.032   0.001   0.011  -0.010  -0.010
  -0.007   0.034  -0.002  -0.021   0.004   0.002   0.003   0.024   0.019  -0.007
  -0.009   0.030  -0.016   0.003   0.014  -0.013   0.028   0.007  -0.022  -0.028
  -0.007  -0.005  -0.024   0.023   0.016   0.001   0.006  -0.007   0.015  -0.037
  -0.023   0.010   0.022  -0.006   0.003  -0.012  -0.007   0.032   0.000  -0.015
   0.002   0.003  -0.019   0.009  -0.017  -0.027   0.014  -0.025   0.001  -0.015
  -0.020   0.001   0.011  -0.011  -0.011  -0.010   0.019   0.011   0.006   0.006
  -0.019   0.004   0.011  -0.001   0.012   0.031   0.005   0.003  -0.015  -0.012
  -0.002  -0.015   0.039  -0.012  -0.009   0.011   0.002  -0.031   0.011  -0.007
  -0.004   0.017   0.013   0.013  -0.001   0.013  -0.008  -0.020  -0.016  -0.018
   0.016  -0.010  -0.015   0.028  -0.003  -0.011   0.004   0.015   0.010  -0.024
   0.007   0.010  -0.019  -0.015  -0.021  -0.010   0.013   0.010   0.006   0.038
  -0.016  -0.001   0.034  -0.002   0.022   0.020  -0.007   0.003   0.022   0.024
  -0.022   0.011   0.016   0.016  -0.009  -0.018   0.021  -0.009  -0.002  -0.012
  -0.008  -0.009  -0.002   0.003  -0.021  -0.011  -0.024   0.006   0.001   0.011
  -0.001   0.006   0.002   0.003   0.005  -0.005  -0.016   0.001  -0.014  -0.010
  -0.023  -0.032   0.014  -0.001   0.024  -0.005   0.002   0.009  -0.028  -0.022
  -0.008   0.005  -0.016   0.008  -0.018  -0.030   0.005   0.006   0.010   0.010
  -0.003  -0.015  -0.001  -0.012  -0.001  -0.019   0.013   0.004  -0.020   0.031
   0.025  -0.008   0.002   0.039   0.000  -0.013   0.003   0.027   0.021   0.003
   0.018  -0.004  -0.015   0.007   0.005   0.002   0.010   0.019  -0.015   0.002
  -0.013   0.009  -0.005  -0.000   0.026   0.014  -0.024  -0.031   0.027   0.024
   0.003  -0.030   0.004   0.006  -0.004   0.008  -0.027  -0.009  -0.027   0.000
  -0.011  -0.030   0.014   0.006  -0.011   0.017   0.045   0.012  -0.037   0.028
   0.017   0.009   0.015   0.010   0.011  -0.027  -0.000  -0.029   0.008  -0.011
  -0.009  -0.022   0.014   0.020   0.014   0.033  -0.002   0.005   0.028  -0.002
  -0.011   0.001  -0.010   0.007  -0.004   0.015   0.008  -0.001  -0.015  -0.022
  -0.040   0.013   0.043   0.004   0.020  -0.008   0.009   0.010   0.009  -0.002
  -0.005  -0.037  -0.004  -0.024  -0.002   0.009   0.004  -0.010   0.024  -0.025
  -0.005  -0.026  -0.009   0.014   0.011   0.022  -0.011   0.013   0.003   0.000
  -0.016   0.008  -0.003   0.026   0.034  -0.002  -0.009   0.008   0.007  -0.017
   0.020   0.035   0.010  -0.028  -0.001   0.013  -0.007  -0.011  -0.037  -0.019
  -0.040   0.016   0.014  -0.036  -0.006  -0.005   0.019   0.009   0.003  -0.016
   0.001  -0.023  -0.005   0.003  -0.028   0.020   0.004  -0.007  -0.002   0.014
  -0.007  -0.008  -0.020   0.014  -0.015   0.009   0.029  -0.015   0.013  -0.030
  -0.019   0.007  -0.013  -0.036  -0.006   0.013   0.015  -0.028  -0.010   0.008
   0.044  -0.004   0.002   0.011   0.014  -0.020  -0.006   0.007  -0.036   0.004
   0.015   0.011   0.018   0.017   0.017  -0.008  -0.032   0.023   0.005   0.009
   0.019   0.017   0.041   0.003  -0.005   0.025   0.006  -0.027  -0.029  -0.002
   0.002  -0.009  -0.016  -0.032   0.008   0.003   0.039   0.034  -0.012   0.020
   0.010  -0.032  -0.015   0.020  -0.023   0.003  -0.022   0.022  -0.015  -0.028
  -0.026   0.013   0.001  -0.036  -0.006   0.040  -0.001   0.055  -0.010  -0.023
   0.030   0.018   0.011   0.025   0.011   0.011  -0.026   0.015   0.015  -0.003
  -0.007  -0.004   0.013  -0.008  -0.022  -0.026   0.018  -0.024  -0.008  -0.015
  -0.017   0.013  -0.022   0.008  -0.014  -0.011   0.020   0.009   0.006  -0.021
  -0.003  -0.022   0.012  -0.016  -0.030  -0.012   0.012   0.004  -0.009  -0.001
   0.010  -0.022  -0.004  -0.019   0.015   0.016  -0.010  -0.016  -0.002   0.009
   0.018   0.012   0.005  -0.028   0.019  -0.024  -0.014  -0.010  -0.011   0.062
  -0.006  -0.015   0.020  -0.032  -0.007   0.005  -0.009   0.039   0.011   0.025
   0.041  -0.005  -0.016   0.014  -0.027   0.013   0.010  -0.025  -0.015   0.024
   0.036  -0.011   0.018  -0.007  -0.006   0.044   0.022   0.006  -0.019  -0.030
  -0.017   0.007  -0.005  -0.005   0.013   0.007  -0.005   0.001  -0.003  -0.008
   0.009  -0.001  -0.035   0.003  -0.025   0.015  -0.002   0.020   0.012   0.013
   0.005   0.001   0.021  -0.015   0.010  -0.015   0.017   0.013  -0.026  -0.024
   0.006   0.035   0.033  -0.015  -0.008  -0.008  -0.012  -0.006  -0.033  -0.006
   0.009   0.015   0.016   0.015   0.024   0.003  -0.002  -0.006  -0.011  -0.008
  -0.011  -0.033  -0.008  -0.007   0.010   0.018   0.026   0.032   0.011   0.009
  -0.015  -0.021   0.019  -0.006   0.011   0.008   0.020  -0.005   0.017   0.019
   0.025   0.026  -0.004  -0.015   0.013   0.000   0.000  -0.006  -0.021  -0.025
   0.004   0.006  -0.017   0.004   0.003  -0.020  -0.012   0.014  -0.016   0.001
  -0.014  -0.025   0.014  -0.002  -0.023  -0.020  -0.008   0.003  -0.024   0.024
  -0.018   0.005   0.009  -0.024   0.002  -0.011  -0.027  -0.006  -0.005  -0.005
  -0.007   0.002   0.060  -0.019  -0.015  -0.023  -0.015   0.013   0.009   0.016
  -0.010   0.007  -0.003  -0.001   0.024   0.005   0.002  -0.011   0.005  -0.022
   0.010   0.015  -0.024  -0.013  -0.022  -0.013  -0.025   0.016   0.025   0.025
   0.022  -0.015  -0.021   0.004  -0.011  -0.022   0.015   0.020  -0.000   0.028
   0.001   0.019  -0.010   0.004   0.000  -0.002  -0.008   0.023  -0.022  -0.005
   0.007  -0.022  -0.015  -0.017  -0.021   0.013   0.028   0.020   0.012   0.004
   0.014  -0.028   0.005  -0.008  -0.018  -0.014  -0.012  -0.025   0.011   0.005
   0.011   0.012   0.002   0.034   0.000   0.009   0.008   0.002   0.025   0.014
  -0.003  -0.025  -0.011  -0.023   0.016  -0.032   0.028  -0.005   0.007   0.026
   0.027   0.012  -0.020  -0.016   0.018   0.015   0.003  -0.003  -0.005  -0.001
  -0.024  -0.013  -0.021  -0.015  -0.019  -0.018  -0.007   0.026   0.017   0.001
   0.003   0.008   0.015   0.003  -0.022  -0.015  -0.018   0.008  -0.015   0.022
   0.022   0.012  -0.005  -0.004  -0.001  -0.017  -0.020   0.006  -0.012  -0.020
   0.003   0.005   0.026  -0.015   0.017   0.027   0.006  -0.024   0.008  -0.012
  -0.019  -0.014  -0.021  -0.001   0.030  -0.001  -0.019   0.016   0.006  -0.026
   0.004   0.006  -0.015   0.040  -0.011   0.005  -0.008  -0.003   0.001  -0.022
  -0.010  -0.020  -0.007   0.019   0.031   0.024  -0.004   0.005  -0.003   0.024
  -0.017  -0.006   0.025   0.011  -0.011  -0.009   0.011  -0.025   0.015   0.011
   0.006  -0.005  -0.020  -0.002   0.006   0.010  -0.017   0.004  -0.001   0.004
   0.023  -0.021  -0.005  -0.018  -0.006  -0.018  -0.005  -0.020   0.004   0.028
  -0.008   0.035   0.033   0.011   0.017   0.012  -0.016   0.005   0.010   0.002
   0.009  -0.023   0.022   0.016   0.020   0.018  -0.018  -0.004  -0.015  -0.000
   0.013   0.008   0.026   0.016   0.017  -0.010  -0.003   0.016   0.006   0.021
  -0.003  -0.012  -0.006  -0.013   0.014   0.032   0.032  -0.008   0.005   0.026
   0.007   0.009  -0.017  -0.001  -0.017   0.006   0.014  -0.011  -0.009  -0.007
  -0.013   0.016   0.021  -0.012  -0.007  -0.009  -0.009  -0.007   0.013   0.016
   0.001  -0.016   0.028   0.006   0.008   0.010   0.055   0.050   0.024   0.034
   0.007   0.012  -0.020   0.018  -0.012   0.012  -0.007  -0.011  -0.015   0.012
  -0.009   0.009  -0.007   0.005  -0.002  -0.019   0.023   0.005  -0.017  -0.006
   0.010  -0.023  -0.001   0.002  -0.012   0.028   0.028   0.046  -0.050   0.035
  -0.037   0.081   0.011  -0.042   0.018  -0.027   0.011  -0.028  -0.000   0.014
  -0.015  -0.021  -0.018  -0.020  -0.022   0.000  -0.014  -0.024  -0.021  -0.011
   0.017  -0.023  -0.023  -0.004   0.011  -0.034   0.001  -0.002  -0.016  -0.032
  -0.019  -0.035   0.002  -0.028  -0.018  -0.008  -0.031  -0.026  -0.030  -0.009
   0.015   0.004  -0.025   0.001   0.017  -0.036  -0.018  -0.016  -0.011  -0.001
  -0.036  -0.031  -0.032  -0.010  -0.014  -0.024  -0.014  -0.032  -0.037  -0.032
  -0.038  -0.029   0.008  -0.003  -0.039  -0.033  -0.040  -0.002  -0.019  -0.039
  -0.006  -0.036   0.002  -0.030  -0.039  -0.038  -0.038  -0.038  -0.038  -0.039
  -0.008  -0.015  -0.018  -0.014  -0.011  -0.038   0.000  -0.031  -0.041  -0.039
  -0.040  -0.038  -0.042   0.008  -0.010  -0.043  -0.037  -0.041  -0.038  -0.042
  -0.016   0.015  -0.006  -0.050  -0.031  -0.046  -0.031  -0.048  -0.017  -0.030
  -0.019   0.006  -0.005  -0.036  -0.038  -0.034   0.001  -0.026   0.001  -0.029
  -0.036  -0.039  -0.021  -0.014  -0.016  -0.042  -0.017   0.010   0.000   0.029
   0.036   0.018   0.051   0.070   0.075   0.067   0.107   0.123   0.139   0.163
   0.170   0.181   0.143   0.166   0.143   0.183   0.175   0.157   0.137   0.081
   0.099   0.008  -0.109  -0.146  -0.204  -0.157  -0.142  -0.139  -0.066  -0.069
   0.069   0.145   0.101   0.111   0.163   0.360   0.394   0.197  -0.047  -0.094
   0.098   0.269   0.123   0.008   0.015   0.292   0.620   0.506   0.249   0.145
   0.281   0.383   0.081  -0.258  -0.288  -0.204  -0.428  -0.330   0.115   0.598
