Corrected accelerogram 20160214_001343_MCNS_20 GNS Science
Site MCNS      43 44 11S  170 05 50E     Basalt file:  20160214_001420_MCNS
Mount Cook Annex
Instrument Basalt_2419
Resolution: 24-bit   Instr Period: 0.0050 s   Damping: 0.700
Accelerogram 20160214_001343_MCNS_20                 Processed 2016 February 22
11 km east of CHRISTCHURCH
2016 February 14         00:13:43 UT
Epicentre  43 29 50S 172 45 18E  Bearing N84E  Dist  216km  Depth    8km M  5.70
Number of points  8000    Duration 159.98 sec
Instrument corrected data at 0.020 sec intervals
Band-pass filter transition bands are .10-.25 Hz and 24.50-25.50 Hz
Component N00E  Horizontal Axis 1
Acceleration:  peak     -6.6 mm/s/s at  73.20 sec     rms      1.0 mm/s/s
Velocity:      peak    -0.95 mm/s   at  85.18 sec     rms     0.17 mm/s
Displacement:  peak    0.448 mm     at  80.00 sec     rms    0.088 mm
    2016       2      14       0      13     430       0       0    2016       2
      43      29      50     172      45      18       8       0      14       0
      43      44      11     170       5      50       0       0      84     216
   30000     250     250    8000    8000    8000       0       0      13   40000
   200.0    0.70    0.00   0.000  0.0000   0.000   0.000   1.000     0.0    0.00
  43.736 170.097   43.50  172.76    5.70    0.00    0.00    0.00      0.      0.
  150.00    5.00    5.00  159.98  0.0050  0.0200      0.      0.      0.  9806.6
    -6.6   73.20     1.0   0.000      0.    -6.6   73.20     1.0     9.3   0.467
   -0.95   85.18    0.17    1.19   0.467    0.45   80.00    0.09    0.53   0.201
   0.100   0.150   0.250      0.      0.  24.500   1.000  25.500      0.      0.
   0.000  -0.001   0.000  -0.001   0.000  -0.001   0.000  -0.001   0.000  -0.001
   0.000  -0.001   0.000  -0.000   0.000  -0.000   0.000  -0.000   0.000  -0.000
   0.000  -0.000   0.000  -0.000   0.000  -0.000   0.000  -0.000   0.000  -0.000
   0.000  -0.000   0.001  -0.000   0.001  -0.000   0.001  -0.000   0.001  -0.000
   0.001  -0.000   0.001  -0.000   0.001  -0.000   0.001  -0.000   0.001  -0.000
   0.001  -0.000   0.001   0.000   0.001   0.000   0.001   0.000   0.001   0.000
   0.001   0.000   0.001   0.000   0.001   0.000   0.001   0.000   0.001   0.000
   0.001   0.000   0.001   0.000   0.001   0.000   0.001   0.000   0.001   0.000
   0.001   0.000   0.001   0.000   0.001   0.000   0.001   0.000   0.001   0.000
   0.001   0.000   0.001   0.000   0.001   0.001   0.001   0.001   0.001   0.001
   0.001   0.001   0.001   0.001   0.001   0.001   0.001   0.001   0.001   0.001
   0.001   0.001   0.001   0.001   0.001   0.001   0.001   0.001   0.001   0.001
   0.001   0.000   0.001   0.000   0.001   0.000   0.001   0.000   0.001   0.000
   0.001   0.000   0.001   0.000   0.001   0.000   0.001   0.000   0.001   0.000
   0.001   0.000   0.001   0.000   0.001   0.000   0.001  -0.000   0.001  -0.000
   0.001  -0.000   0.001  -0.000   0.001  -0.000   0.001  -0.000   0.001  -0.000
   0.001  -0.001   0.000  -0.001   0.000  -0.001   0.000  -0.001   0.000  -0.001
   0.000  -0.001   0.000  -0.001  -0.000  -0.001  -0.000  -0.001  -0.000  -0.001
  -0.000  -0.002  -0.000  -0.002  -0.001  -0.002  -0.001  -0.002  -0.001  -0.002
  -0.001  -0.002  -0.001  -0.002  -0.001  -0.003  -0.001  -0.003  -0.001  -0.003
  -0.002  -0.003  -0.002  -0.003  -0.002  -0.003  -0.002  -0.004  -0.002  -0.004
  -0.002  -0.004  -0.002  -0.004  -0.003  -0.004  -0.003  -0.005  -0.003  -0.005
  -0.003  -0.005  -0.003  -0.005  -0.003  -0.006  -0.003  -0.006  -0.004  -0.006
  -0.004  -0.006  -0.004  -0.007  -0.004  -0.007  -0.004  -0.007  -0.004  -0.007
  -0.004  -0.008  -0.004  -0.008  -0.004  -0.009  -0.004  -0.009  -0.004  -0.012
   0.011   0.064   0.026  -0.021  -0.005  -0.011   0.026   0.000   0.031   0.034
  -0.029  -0.012   0.014   0.003  -0.014  -0.015   0.022  -0.001  -0.025   0.008
   0.042  -0.014  -0.033   0.024   0.052  -0.016  -0.024  -0.017   0.014  -0.017
  -0.011   0.020  -0.001  -0.017  -0.019   0.080  -0.009  -0.009   0.012   0.010
  -0.016  -0.030   0.010   0.027   0.012  -0.045   0.006   0.040  -0.005  -0.000
  -0.014   0.029   0.002   0.017  -0.009   0.043  -0.044   0.058   0.002  -0.014
  -0.013  -0.007   0.027  -0.007  -0.013   0.016  -0.001  -0.046   0.012  -0.007
   0.016  -0.008   0.031   0.026   0.001  -0.034  -0.008   0.063   0.043  -0.050
   0.025   0.004   0.002  -0.037   0.049  -0.049  -0.061   0.022   0.028   0.004
   0.019   0.010  -0.009  -0.015   0.009   0.020  -0.001   0.010  -0.022   0.046
  -0.017  -0.003   0.033   0.020   0.016  -0.053  -0.023  -0.019   0.033  -0.004
  -0.036   0.016   0.013  -0.021  -0.049   0.032   0.000  -0.013  -0.035   0.008
  -0.004  -0.012   0.022   0.044  -0.056   0.012   0.012  -0.005  -0.042   0.040
  -0.010  -0.047  -0.039   0.071   0.042  -0.043  -0.002  -0.024   0.038  -0.043
   0.029  -0.008   0.029  -0.033  -0.017   0.009   0.003  -0.018   0.021   0.010
  -0.008   0.002   0.047   0.025  -0.032   0.008   0.013   0.018  -0.030  -0.056
   0.054   0.042  -0.022  -0.025   0.058   0.009  -0.018   0.022   0.010  -0.025
  -0.051  -0.007  -0.021  -0.013  -0.018   0.029  -0.002  -0.003   0.003  -0.021
  -0.001  -0.008   0.016  -0.008   0.003  -0.007   0.012   0.002  -0.018  -0.015
   0.024  -0.002  -0.010   0.038  -0.043  -0.015   0.012   0.014  -0.025  -0.036
  -0.000  -0.004   0.025  -0.006  -0.041   0.079   0.000  -0.007  -0.008   0.013
   0.008  -0.065  -0.011   0.022   0.034  -0.053  -0.004   0.034   0.007   0.015
   0.031   0.015   0.030  -0.026   0.022   0.030  -0.037   0.001  -0.016  -0.008
  -0.012  -0.020   0.023  -0.023  -0.015  -0.028   0.029   0.008   0.006  -0.098
  -0.019   0.065  -0.011   0.024  -0.027   0.021   0.023  -0.030   0.002  -0.018
  -0.006   0.043  -0.032  -0.003   0.022   0.007   0.015  -0.008   0.037  -0.014
  -0.013   0.002  -0.017  -0.018   0.019   0.008  -0.014   0.002  -0.028  -0.002
   0.049   0.016   0.023  -0.019  -0.017  -0.055  -0.013   0.072   0.044  -0.030
  -0.039  -0.003   0.069  -0.006  -0.023   0.015  -0.016  -0.015   0.025   0.032
   0.007  -0.016   0.017   0.053  -0.062  -0.030   0.063  -0.032  -0.013  -0.006
   0.006  -0.002  -0.044   0.028   0.019   0.016  -0.029   0.008   0.036  -0.069
   0.007  -0.003  -0.014  -0.039   0.006   0.014  -0.006   0.023  -0.013   0.028
   0.025  -0.034  -0.033   0.015   0.073  -0.039  -0.024   0.020   0.000  -0.028
   0.061   0.038  -0.029   0.063  -0.016  -0.013   0.033  -0.026  -0.002   0.043
   0.009   0.014   0.032   0.016  -0.075   0.059   0.053  -0.006  -0.025  -0.003
   0.053  -0.006  -0.024  -0.009  -0.027   0.025  -0.052   0.038  -0.011  -0.047
   0.031  -0.034   0.002  -0.013  -0.006  -0.009  -0.017  -0.032  -0.039   0.033
   0.031  -0.092   0.014   0.037  -0.018  -0.048   0.030   0.032  -0.039  -0.029
   0.045   0.011  -0.019  -0.021   0.036   0.017  -0.007  -0.007  -0.005  -0.023
   0.014   0.010  -0.020  -0.034   0.013   0.018  -0.039  -0.005   0.021   0.001
   0.001  -0.007  -0.028  -0.028   0.052  -0.051   0.010   0.018  -0.015   0.003
   0.048  -0.000  -0.060   0.008   0.023   0.042  -0.039   0.013  -0.012  -0.006
  -0.029   0.056   0.015   0.003   0.013  -0.007  -0.029   0.030  -0.031   0.025
  -0.007  -0.055   0.017   0.088  -0.038  -0.019   0.008   0.051  -0.005   0.018
   0.021  -0.049  -0.035  -0.015   0.076  -0.051  -0.043   0.001   0.046   0.045
  -0.049  -0.039   0.017  -0.005  -0.038   0.049   0.037  -0.075  -0.031   0.026
   0.036  -0.037   0.006  -0.002   0.062  -0.017  -0.002   0.047   0.004   0.002
  -0.027  -0.003   0.056   0.002  -0.015  -0.009  -0.001  -0.017   0.063   0.018
  -0.011   0.027  -0.037  -0.031   0.011   0.044  -0.015  -0.025  -0.055   0.026
  -0.001  -0.020   0.004  -0.025  -0.009  -0.002   0.011  -0.027   0.007  -0.024
   0.030   0.047  -0.086   0.066  -0.019  -0.005   0.045  -0.018   0.033   0.020
  -0.005  -0.025  -0.046   0.071  -0.018  -0.052   0.017  -0.022  -0.028   0.007
   0.043   0.013  -0.022  -0.000   0.039  -0.032  -0.054   0.071  -0.034   0.025
   0.021   0.009  -0.006  -0.030   0.022   0.012   0.014   0.004   0.025   0.043
  -0.022  -0.041   0.034   0.039  -0.022  -0.059   0.006   0.037  -0.026   0.019
  -0.016  -0.008   0.029  -0.017   0.007  -0.013  -0.010   0.035   0.021  -0.011
  -0.052   0.019   0.058  -0.052  -0.015  -0.022   0.045   0.028   0.011  -0.097
   0.003   0.091  -0.013  -0.046  -0.036   0.016   0.063  -0.002  -0.051  -0.028
   0.053  -0.027   0.010  -0.001  -0.006  -0.027  -0.040   0.018  -0.007  -0.039
   0.026  -0.008   0.056  -0.025  -0.001   0.022   0.039  -0.038   0.010   0.037
   0.000  -0.020  -0.045   0.054  -0.011  -0.062  -0.017   0.023   0.035  -0.044
  -0.022  -0.001   0.027   0.016  -0.033  -0.041   0.049   0.040  -0.087  -0.030
  -0.013   0.053  -0.037  -0.026   0.042   0.036  -0.028  -0.065   0.017   0.005
   0.072   0.007  -0.091   0.035   0.106  -0.013  -0.113   0.084   0.030  -0.043
   0.001   0.075   0.010  -0.084  -0.002   0.042  -0.003   0.019   0.030  -0.043
  -0.005   0.114  -0.046  -0.127   0.046   0.126   0.025  -0.127   0.009   0.027
   0.018   0.034  -0.093   0.025   0.111  -0.067  -0.139   0.116   0.174  -0.171
  -0.054   0.083   0.075  -0.073  -0.032  -0.031   0.041   0.077  -0.095   0.002
   0.120  -0.029  -0.136  -0.058   0.044   0.124  -0.013  -0.056  -0.039   0.043
  -0.022   0.043  -0.037   0.004   0.070  -0.076  -0.063   0.100   0.077  -0.131
   0.008   0.067  -0.014  -0.042   0.025   0.057  -0.097  -0.025   0.056  -0.045
  -0.062   0.007   0.029   0.008  -0.068   0.017   0.063   0.076  -0.108  -0.080
   0.137  -0.004  -0.071  -0.003   0.043  -0.009  -0.039  -0.021   0.013   0.042
  -0.052  -0.030   0.106   0.049  -0.061  -0.036   0.063  -0.004  -0.018  -0.034
   0.062   0.017  -0.002  -0.012  -0.009  -0.006  -0.026   0.009  -0.003  -0.041
  -0.022  -0.009   0.001  -0.032  -0.005  -0.025   0.006   0.012  -0.017   0.004
   0.013   0.025  -0.001  -0.037  -0.004   0.066  -0.002  -0.018  -0.015   0.044
  -0.020  -0.038   0.023   0.006   0.011  -0.043  -0.009   0.092  -0.029  -0.058
   0.014   0.047  -0.037   0.027   0.034   0.033  -0.034  -0.012   0.021   0.050
   0.012  -0.064   0.050   0.037  -0.066  -0.027   0.058   0.008  -0.021   0.004
   0.000   0.062  -0.044   0.006   0.035  -0.021   0.001   0.019  -0.040   0.070
  -0.016  -0.040   0.019  -0.026   0.017   0.017  -0.002  -0.013   0.049   0.044
  -0.026  -0.063   0.128   0.001  -0.036   0.024   0.008  -0.028  -0.076   0.003
   0.017   0.002   0.039  -0.036  -0.009   0.044   0.027   0.067  -0.049  -0.049
   0.053  -0.004  -0.081   0.088  -0.021  -0.078   0.015  -0.055   0.023   0.026
  -0.012  -0.093   0.030   0.078  -0.048  -0.047   0.043   0.030  -0.057  -0.012
   0.016   0.045  -0.016  -0.076   0.038   0.119  -0.045  -0.087   0.115   0.045
  -0.055  -0.068   0.119  -0.028  -0.062   0.034   0.000  -0.050  -0.026   0.048
   0.034  -0.060   0.008   0.063  -0.003  -0.073   0.023  -0.031   0.065   0.006
  -0.051   0.007  -0.023  -0.013   0.045  -0.017  -0.004   0.011   0.000  -0.022
   0.040   0.054  -0.062  -0.046   0.011  -0.005   0.036  -0.044   0.005   0.004
   0.014  -0.003  -0.035   0.008   0.035  -0.014   0.002   0.019   0.007  -0.017
  -0.053   0.048   0.055  -0.077   0.013   0.039  -0.058  -0.012  -0.010  -0.009
   0.016  -0.032   0.015   0.019  -0.063   0.003  -0.003  -0.047  -0.024   0.014
   0.037  -0.043   0.024   0.015  -0.003  -0.045   0.014   0.046  -0.050   0.017
   0.049  -0.052   0.038  -0.054   0.056   0.032  -0.043  -0.013  -0.017   0.063
  -0.036  -0.002  -0.034   0.016  -0.020  -0.018   0.043   0.005  -0.094   0.048
   0.012   0.010  -0.040   0.040   0.045  -0.066   0.042   0.048  -0.018   0.017
   0.045  -0.052  -0.005   0.034  -0.061   0.038   0.068  -0.026  -0.011   0.089
  -0.044   0.024   0.032   0.006  -0.038   0.014   0.008  -0.015   0.051  -0.010
  -0.068   0.080   0.024  -0.122   0.086   0.001  -0.039   0.016  -0.012  -0.022
   0.023  -0.034   0.007   0.030   0.035  -0.067   0.016  -0.002  -0.062   0.076
   0.020  -0.143   0.080  -0.027  -0.038   0.067   0.014  -0.036   0.025   0.012
  -0.017   0.014   0.053  -0.055  -0.055   0.075  -0.051   0.014   0.008  -0.004
  -0.026   0.042   0.026  -0.094   0.027   0.081  -0.087   0.010   0.027  -0.000
   0.104  -0.019  -0.006   0.010   0.004  -0.024   0.028  -0.021  -0.029  -0.005
   0.009  -0.031   0.028  -0.031  -0.055   0.061   0.016  -0.106   0.080   0.003
  -0.059  -0.014  -0.021   0.009   0.020  -0.091   0.059   0.020  -0.036  -0.002
   0.073   0.019  -0.045   0.041   0.021   0.009  -0.037   0.009   0.067  -0.040
  -0.092   0.103   0.057  -0.094   0.038   0.048  -0.045  -0.001   0.008  -0.042
   0.009  -0.008   0.073  -0.022   0.000  -0.091  -0.016   0.027   0.071  -0.067
  -0.072   0.048   0.058  -0.102   0.006   0.122  -0.019  -0.130   0.007   0.137
  -0.076  -0.195   0.176   0.129  -0.225   0.128   0.138  -0.198   0.010   0.067
   0.138   0.012  -0.279   0.174   0.010  -0.144   0.158  -0.002  -0.054  -0.023
  -0.122   0.177   0.083  -0.097  -0.076  -0.149   0.211   0.101  -0.230   0.164
  -0.034  -0.075  -0.020   0.117   0.010   0.011  -0.018  -0.128   0.045   0.136
  -0.043  -0.099   0.025   0.003   0.091  -0.066  -0.098   0.106  -0.013  -0.016
  -0.055   0.074   0.047  -0.080  -0.074   0.091   0.004   0.006  -0.057   0.112
  -0.010  -0.051   0.043   0.005  -0.050   0.025  -0.006  -0.050   0.026   0.041
  -0.015  -0.032  -0.013   0.032   0.046  -0.019  -0.062   0.034   0.030  -0.007
  -0.004   0.050   0.017  -0.061   0.034   0.030  -0.015  -0.053   0.003   0.015
  -0.012  -0.028  -0.025   0.002   0.025  -0.072   0.073  -0.003  -0.024   0.037
  -0.008   0.024  -0.015  -0.052   0.072   0.036  -0.031  -0.012   0.007  -0.021
   0.015  -0.005  -0.000  -0.040   0.024  -0.000   0.050  -0.060  -0.014   0.004
  -0.007   0.044  -0.006  -0.017   0.016   0.007  -0.049   0.079  -0.002  -0.037
   0.031   0.083  -0.081  -0.041   0.085   0.010  -0.038  -0.009   0.043  -0.032
   0.019  -0.009   0.036  -0.035   0.002  -0.034  -0.012   0.015  -0.011   0.033
   0.004  -0.043   0.004   0.033  -0.098   0.020   0.022   0.054  -0.078  -0.062
   0.091   0.024  -0.057   0.007  -0.029   0.074  -0.008  -0.010   0.007   0.045
  -0.009   0.012  -0.009  -0.005   0.004   0.034  -0.078  -0.026   0.085  -0.010
  -0.067   0.009  -0.013   0.020   0.019  -0.030  -0.015   0.009  -0.027  -0.017
  -0.027   0.033   0.003   0.035  -0.021  -0.010  -0.003   0.046  -0.087   0.005
   0.013  -0.046  -0.016   0.020   0.045  -0.135   0.106   0.079  -0.040  -0.148
   0.128   0.061  -0.036  -0.046   0.067  -0.005  -0.005   0.096  -0.050  -0.033
   0.047   0.044  -0.059  -0.047   0.075   0.025  -0.063  -0.052   0.057   0.006
   0.026  -0.053   0.051  -0.018   0.021  -0.036   0.006   0.052  -0.056  -0.008
   0.001  -0.008   0.012  -0.025  -0.054   0.016   0.006  -0.008   0.019   0.006
  -0.059  -0.044   0.066  -0.020  -0.007  -0.022  -0.021   0.044   0.019  -0.008
   0.046  -0.038  -0.014   0.071  -0.060  -0.039   0.006   0.035  -0.023  -0.016
   0.017   0.018  -0.021   0.012  -0.053   0.074   0.012  -0.001   0.040  -0.006
  -0.012   0.019  -0.001   0.016  -0.011  -0.015   0.048  -0.024  -0.006   0.009
   0.029  -0.024  -0.041   0.106   0.007  -0.018  -0.010   0.009   0.026   0.020
   0.032  -0.053  -0.014  -0.007   0.084  -0.019  -0.052  -0.011   0.042   0.036
  -0.049   0.003   0.038  -0.016  -0.039   0.012   0.004  -0.027  -0.001  -0.019
   0.022   0.016   0.016   0.010  -0.009  -0.066   0.038  -0.026   0.018   0.016
  -0.076   0.010   0.031  -0.015  -0.015   0.050  -0.024  -0.116   0.081   0.063
  -0.042  -0.076   0.078   0.050  -0.017   0.053  -0.042   0.003  -0.001   0.006
   0.005  -0.034   0.002  -0.005  -0.009   0.020   0.042  -0.044   0.013   0.060
  -0.061   0.006  -0.007  -0.082   0.037  -0.033   0.048  -0.008  -0.073   0.078
  -0.021  -0.046   0.042   0.106  -0.102  -0.005   0.053  -0.112   0.112   0.028
  -0.045   0.060  -0.127   0.101  -0.074   0.038   0.043  -0.081   0.082  -0.052
   0.045   0.005  -0.056   0.056  -0.036  -0.074   0.093  -0.055  -0.026   0.062
  -0.036   0.009  -0.101   0.144   0.068  -0.129   0.014   0.024   0.023  -0.030
  -0.005   0.033  -0.032  -0.009   0.013   0.070  -0.095  -0.012   0.014   0.046
  -0.038  -0.110   0.131   0.002  -0.071   0.081  -0.024   0.015  -0.084   0.027
   0.098  -0.138   0.005   0.037  -0.030  -0.004   0.027  -0.046   0.080  -0.046
  -0.003   0.032   0.015  -0.085   0.083  -0.099   0.055   0.002  -0.054   0.049
  -0.039  -0.090   0.110  -0.084   0.078  -0.064  -0.030  -0.038   0.144  -0.093
  -0.082   0.122   0.013  -0.031  -0.107   0.016   0.132  -0.146   0.066  -0.052
  -0.014   0.055  -0.015  -0.005  -0.041   0.120  -0.150   0.045   0.185  -0.083
  -0.180   0.083   0.215  -0.073  -0.172   0.079   0.025  -0.020  -0.020   0.135
  -0.085  -0.003   0.099  -0.033  -0.080   0.102  -0.014   0.009  -0.058  -0.028
   0.069   0.111  -0.092  -0.071  -0.047   0.180  -0.020  -0.024  -0.086   0.178
  -0.033  -0.047   0.017  -0.025   0.109  -0.135   0.014   0.080  -0.022  -0.038
   0.005  -0.007  -0.064   0.059   0.097  -0.067  -0.075   0.050   0.026   0.067
  -0.117  -0.013   0.124   0.001   0.003  -0.065   0.023   0.036   0.011   0.039
  -0.073   0.012   0.032   0.023  -0.063  -0.032   0.009   0.043   0.073  -0.069
  -0.004   0.028  -0.069   0.117  -0.005  -0.108   0.065  -0.018   0.017   0.056
  -0.054   0.052   0.038  -0.145   0.157  -0.097   0.067   0.019  -0.081   0.075
  -0.049   0.072  -0.086  -0.005   0.102  -0.164   0.019   0.064  -0.115   0.036
   0.021   0.060  -0.048   0.028  -0.047   0.019   0.042  -0.066   0.088  -0.072
  -0.034   0.028   0.114  -0.152   0.010   0.072  -0.059   0.053  -0.065   0.117
  -0.002  -0.150   0.062  -0.027   0.160  -0.099  -0.060   0.023  -0.016  -0.002
  -0.084   0.165  -0.090   0.064  -0.041   0.044  -0.040  -0.031   0.108  -0.096
   0.165  -0.177  -0.010   0.106   0.029  -0.022  -0.242   0.367  -0.221   0.084
   0.043  -0.060   0.015  -0.017   0.106  -0.128  -0.029   0.068   0.089  -0.096
   0.004   0.008  -0.045  -0.024   0.136  -0.142   0.015  -0.043   0.142  -0.016
  -0.188   0.097   0.003  -0.013  -0.025   0.115  -0.114  -0.109   0.148   0.133
  -0.170  -0.024   0.065  -0.086   0.169  -0.124  -0.196   0.130   0.145  -0.113
  -0.027   0.045  -0.022  -0.178   0.190   0.018  -0.115   0.066   0.157  -0.269
  -0.225   0.443   0.216  -0.309  -0.217   0.130   0.104   0.174   0.052  -0.348
  -0.214   0.433   0.060  -0.106  -0.138   0.026   0.135  -0.030  -0.172   0.174
   0.152  -0.255  -0.096   0.219  -0.050  -0.208   0.153   0.070  -0.186   0.021
   0.004  -0.067   0.013   0.119  -0.069  -0.065  -0.053  -0.015   0.266  -0.116
  -0.345   0.209   0.256  -0.244  -0.051   0.103  -0.080   0.077   0.032  -0.109
  -0.060   0.082   0.158  -0.278  -0.245   0.308   0.191  -0.377  -0.106   0.279
  -0.070  -0.043   0.046  -0.046   0.105  -0.096  -0.246   0.356   0.179  -0.453
  -0.218   0.465   0.146  -0.285  -0.072   0.088   0.237  -0.082  -0.384  -0.308
   0.564   0.243  -0.349  -0.041   0.055   0.048   0.260  -0.169  -0.192   0.195
   0.010  -0.041   0.294  -0.354  -0.145   0.235   0.005  -0.314   0.137   0.100
  -0.083   0.066   0.102   0.206   0.156  -0.167  -0.089  -0.181   0.007  -0.068
   0.253   0.174   0.069  -0.065   0.004  -0.227  -0.120   0.123   0.308   0.234
   0.284  -0.120  -0.251  -0.257  -0.087   0.005   0.060   0.247  -0.077  -0.021
   0.118  -0.021  -0.185  -0.143  -0.112   0.059   0.158   0.040   0.177   0.089
   0.065  -0.047  -0.148  -0.051  -0.069  -0.015   0.178   0.161  -0.191  -0.345
  -0.329   0.178   0.208   0.187   0.161   0.235  -0.121  -0.080   0.042   0.285
  -0.090  -0.505  -0.050   0.243   0.004   0.064   0.356   0.344   0.033  -0.505
  -0.543  -0.013   0.075   0.328   0.317   0.383   0.263  -0.263  -0.334   0.050
  -0.018   0.080   0.376   0.123  -0.146  -0.435  -0.080   0.123   0.265   0.368
   0.578   0.340  -0.165  -0.109  -0.280  -0.549  -0.566  -0.199  -0.417  -0.575
   0.504   0.746   0.954   0.722   0.187  -0.284  -0.720  -0.837  -0.581   0.311
