Corrected accelerogram 20160214_001343_BWRS_20 GNS Science
Site BWRS      41 26 22S  173 54 18E     Basalt file:  20160214_001431_BWRS
Waikakaho Road
Instrument Basalt_492
Resolution: 24-bit   Instr Period: 0.0050 s   Damping: 0.700
Accelerogram 20160214_001343_BWRS_20                 Processed 2016 February 22
11 km east of CHRISTCHURCH
2016 February 14         00:13:43 UT
Epicentre  43 29 50S 172 45 18E  Bearing S22W  Dist  247km  Depth    8km M  5.70
Number of points  7950    Duration 158.98 sec
Instrument corrected data at 0.020 sec intervals
Band-pass filter transition bands are .10-.25 Hz and 24.50-25.50 Hz
Component N00E  Horizontal Axis 1
Acceleration:  peak     -2.4 mm/s/s at  61.30 sec     rms      0.5 mm/s/s
Velocity:      peak     0.71 mm/s   at  91.98 sec     rms     0.15 mm/s
Displacement:  peak    0.341 mm     at  92.76 sec     rms    0.078 mm
    2016       2      14       0      13     430       0       0    2016       2
      43      29      50     172      45      18       8       0      14       0
      41      26      22     173      54      18       0       0     202     247
   29800     250     250    7950    7950    7950       0       0      13   51000
   200.0    0.70    0.00   0.000  0.0000   0.000   0.000   1.000     0.0    0.00
  41.440 173.905   43.50  172.76    5.70    0.00    0.00    0.00      0.      0.
  149.00    5.00    5.00  158.98  0.0050  0.0200      0.      0.      0.  9806.6
    -2.5   61.30     0.5   0.000      0.    -2.4   61.30     0.5     3.3   0.409
    0.71   91.98    0.15    0.82   0.278    0.34   92.76    0.08    0.42   0.278
   0.100   0.150   0.250      0.      0.  24.500   1.000  25.500      0.      0.
   0.000  -0.000   0.000  -0.000   0.000  -0.000   0.000  -0.000   0.000  -0.000
   0.000  -0.000   0.000  -0.000   0.000  -0.000   0.000  -0.000   0.000  -0.000
   0.000  -0.000   0.000  -0.000   0.000  -0.000   0.000  -0.000   0.000  -0.000
   0.000  -0.000   0.000  -0.000   0.000  -0.000   0.000  -0.000   0.000  -0.000
   0.000  -0.000   0.000  -0.000   0.000  -0.000   0.000  -0.000   0.000  -0.000
   0.001   0.000   0.001   0.000   0.001   0.000   0.001   0.000   0.001   0.000
   0.001   0.000   0.001   0.000   0.001   0.000   0.001   0.000   0.001   0.000
   0.001   0.000   0.001   0.000   0.001   0.000   0.001   0.000   0.001   0.000
   0.001   0.000   0.001   0.000   0.001   0.000   0.001   0.000   0.001   0.000
   0.001   0.001   0.001   0.001   0.001   0.001   0.001   0.001   0.001   0.001
   0.001   0.001   0.001   0.001   0.001   0.001   0.001   0.001   0.001   0.001
   0.001   0.001   0.001   0.001   0.001   0.001   0.001   0.001   0.001   0.001
   0.001   0.001   0.001   0.001   0.001   0.001   0.001   0.001   0.001   0.001
   0.001   0.001   0.001   0.001   0.001   0.001   0.001   0.001   0.001   0.000
   0.001   0.000   0.001   0.000   0.001   0.000   0.001   0.000   0.001   0.000
   0.001   0.000   0.001   0.000   0.001   0.000   0.001   0.000   0.001  -0.000
   0.001  -0.000   0.000  -0.000   0.000  -0.000   0.000  -0.000   0.000  -0.000
   0.000  -0.000   0.000  -0.001   0.000  -0.001  -0.000  -0.001  -0.000  -0.001
  -0.000  -0.001  -0.000  -0.001  -0.001  -0.001  -0.001  -0.001  -0.001  -0.002
  -0.001  -0.002  -0.001  -0.002  -0.001  -0.002  -0.001  -0.002  -0.001  -0.002
  -0.002  -0.002  -0.002  -0.003  -0.002  -0.003  -0.002  -0.003  -0.002  -0.003
  -0.002  -0.003  -0.003  -0.003  -0.003  -0.004  -0.003  -0.004  -0.003  -0.004
  -0.003  -0.004  -0.004  -0.004  -0.004  -0.005  -0.004  -0.005  -0.004  -0.005
  -0.005  -0.005  -0.005  -0.005  -0.005  -0.005  -0.005  -0.006  -0.006  -0.006
  -0.006  -0.006  -0.007  -0.006  -0.007  -0.005  -0.008  -0.005  -0.010  -0.001
  -0.003   0.012   0.025   0.010  -0.000  -0.012   0.016   0.029   0.027  -0.006
  -0.006   0.014  -0.011   0.019   0.024   0.024   0.012  -0.021  -0.003   0.017
  -0.019  -0.001  -0.014   0.014   0.016   0.009   0.007   0.015  -0.001   0.023
  -0.022  -0.019   0.001  -0.025  -0.024  -0.029  -0.011   0.013   0.032   0.024
  -0.016   0.021   0.031   0.011  -0.009  -0.019  -0.008   0.032   0.031   0.007
   0.034   0.020  -0.001   0.009   0.010   0.006  -0.010  -0.008  -0.027  -0.005
  -0.008  -0.021  -0.038   0.008  -0.002   0.000  -0.014  -0.023   0.020  -0.025
   0.014  -0.018   0.025   0.012  -0.009  -0.051  -0.014  -0.012   0.014  -0.003
  -0.002   0.033   0.012   0.007   0.007  -0.017   0.040   0.019  -0.009   0.017
  -0.023  -0.012  -0.022   0.018   0.013  -0.011   0.024   0.019   0.036   0.006
  -0.003   0.007  -0.013   0.015  -0.025   0.005   0.003   0.008   0.002   0.010
  -0.008  -0.000   0.004   0.005  -0.029   0.005   0.019  -0.006   0.006  -0.004
  -0.021  -0.016  -0.012  -0.011  -0.014  -0.003  -0.003  -0.026  -0.001   0.001
  -0.021   0.005   0.010   0.019  -0.002   0.011  -0.002  -0.002  -0.010  -0.011
  -0.008  -0.034  -0.009  -0.006  -0.030   0.017  -0.004  -0.014   0.018  -0.022
  -0.004  -0.048  -0.020  -0.005  -0.011   0.011   0.001  -0.011   0.030   0.020
   0.034  -0.001   0.014   0.006   0.020   0.031   0.023  -0.007   0.014   0.006
   0.010   0.018   0.008   0.006   0.029  -0.000   0.010   0.033   0.013   0.008
  -0.001   0.035  -0.024   0.002   0.016  -0.013  -0.029   0.012   0.004  -0.011
   0.015   0.046   0.018  -0.009   0.007   0.015   0.002   0.010   0.028  -0.007
   0.001   0.011  -0.007  -0.021  -0.014  -0.029  -0.012  -0.006  -0.025  -0.013
  -0.017   0.008  -0.033  -0.024  -0.001   0.033   0.003   0.005  -0.007  -0.010
   0.027   0.013  -0.022   0.006   0.009   0.028  -0.003  -0.016   0.003  -0.033
   0.027  -0.004  -0.015  -0.030  -0.039  -0.009  -0.020   0.006  -0.011  -0.002
   0.004   0.003   0.005   0.008  -0.014  -0.006   0.007   0.001   0.002  -0.012
  -0.022  -0.006  -0.013  -0.006  -0.024  -0.019  -0.001   0.022  -0.023   0.010
  -0.001  -0.012  -0.009  -0.010  -0.020   0.005  -0.003  -0.012   0.012  -0.006
  -0.020  -0.008  -0.000  -0.014   0.015  -0.002  -0.011  -0.019  -0.016  -0.015
   0.014   0.020   0.026  -0.001   0.007  -0.019  -0.003   0.002  -0.001   0.004
  -0.016   0.015   0.007  -0.027  -0.009  -0.016  -0.006  -0.009   0.023   0.017
  -0.005   0.004   0.001   0.020  -0.006  -0.006   0.025   0.028  -0.005  -0.002
   0.011   0.006   0.031   0.023   0.037   0.031   0.030  -0.011   0.016   0.021
  -0.003  -0.026   0.001   0.000   0.007  -0.022   0.019  -0.002  -0.048  -0.003
  -0.032  -0.016   0.021  -0.016   0.001  -0.025  -0.015   0.002  -0.014   0.001
  -0.032  -0.007  -0.020  -0.012  -0.020   0.014  -0.014   0.001  -0.019   0.038
  -0.001   0.037  -0.003   0.022   0.003   0.032  -0.008   0.021  -0.006   0.002
  -0.002   0.029   0.003   0.031   0.019   0.014   0.035   0.037   0.023  -0.001
   0.012   0.017   0.027   0.020  -0.000  -0.006   0.025  -0.014   0.007   0.028
  -0.025   0.017   0.018  -0.009   0.036   0.001   0.006   0.006   0.028  -0.002
  -0.000   0.015   0.017   0.037  -0.013   0.032   0.012   0.012   0.020  -0.006
   0.022  -0.035  -0.012  -0.001  -0.013  -0.014  -0.008   0.003  -0.020  -0.021
  -0.003  -0.008  -0.036  -0.005  -0.011  -0.041  -0.019  -0.022  -0.007  -0.002
   0.003  -0.011  -0.007   0.007  -0.010   0.017  -0.029  -0.022   0.011  -0.009
   0.019  -0.011  -0.024  -0.003  -0.012   0.004   0.004  -0.005  -0.011  -0.029
   0.007  -0.007  -0.007  -0.000   0.002  -0.003   0.015   0.006   0.004   0.002
   0.015   0.001  -0.028  -0.032  -0.029   0.013  -0.014   0.002  -0.001  -0.005
   0.010   0.007   0.013   0.016   0.002   0.011   0.013   0.006  -0.005   0.020
  -0.036  -0.032   0.003   0.004   0.006  -0.022  -0.004  -0.014  -0.015   0.021
  -0.010  -0.002  -0.020  -0.001  -0.031  -0.019  -0.011  -0.024   0.028   0.015
   0.011  -0.003   0.002  -0.018  -0.022   0.009  -0.015   0.000   0.022  -0.023
  -0.004  -0.008   0.022  -0.030  -0.008   0.016   0.005  -0.026  -0.006   0.001
  -0.009  -0.016  -0.008   0.011   0.002  -0.010   0.002   0.010   0.003   0.013
   0.020   0.007  -0.014   0.018   0.008  -0.003  -0.004   0.001  -0.012  -0.005
   0.016  -0.034   0.026  -0.013   0.016  -0.002  -0.003  -0.005  -0.008   0.008
  -0.037   0.010   0.009   0.016   0.017   0.015   0.003  -0.003   0.030   0.023
   0.020   0.003  -0.012   0.006   0.029  -0.006  -0.006  -0.023   0.000  -0.010
  -0.012   0.010   0.006  -0.008   0.010   0.003  -0.002  -0.023  -0.014   0.010
  -0.003  -0.011   0.017  -0.035  -0.003  -0.015  -0.011  -0.009   0.003  -0.003
  -0.006   0.001  -0.021  -0.004  -0.017   0.014   0.005   0.024   0.009   0.006
   0.048   0.011   0.030   0.009   0.003   0.030  -0.010  -0.000   0.007  -0.002
  -0.008   0.039  -0.006   0.027   0.016  -0.004   0.009   0.004   0.028   0.011
   0.021  -0.006   0.003  -0.006  -0.024  -0.011  -0.011   0.015   0.022   0.019
   0.017  -0.027  -0.000   0.006   0.015  -0.015  -0.011   0.001   0.003  -0.027
   0.006   0.000  -0.004  -0.004  -0.007   0.008  -0.021   0.008   0.006   0.004
  -0.004   0.023   0.012  -0.012   0.004  -0.008   0.027  -0.003  -0.002   0.001
   0.015  -0.007  -0.022   0.020  -0.006   0.009  -0.004   0.005  -0.001  -0.014
  -0.002   0.015   0.020   0.007  -0.005  -0.026   0.015   0.012  -0.009   0.010
  -0.002  -0.021  -0.007  -0.007  -0.012   0.006   0.008   0.011  -0.021   0.003
   0.010  -0.019   0.003   0.005   0.012   0.023   0.014  -0.027  -0.000   0.007
  -0.020   0.002   0.014  -0.006   0.011  -0.024  -0.004   0.005  -0.007  -0.006
   0.009  -0.010   0.019   0.001  -0.007   0.003  -0.017   0.049   0.006  -0.002
   0.008   0.009  -0.009  -0.021  -0.018  -0.005  -0.013   0.006  -0.014   0.005
  -0.018  -0.020   0.010  -0.007  -0.026  -0.048  -0.037   0.008  -0.010  -0.037
  -0.031  -0.013   0.008  -0.035  -0.011   0.006  -0.006   0.001  -0.001   0.008
  -0.018   0.007  -0.019  -0.016  -0.023   0.009  -0.012   0.015  -0.000  -0.024
  -0.013   0.031   0.047   0.040  -0.023  -0.001  -0.004  -0.007   0.009   0.004
   0.004  -0.016   0.010   0.006   0.016   0.000   0.012   0.010   0.021  -0.010
   0.011   0.034   0.001   0.011   0.000   0.010   0.011  -0.004   0.020   0.006
   0.028  -0.010   0.031   0.000  -0.007  -0.001  -0.004  -0.006  -0.003  -0.008
  -0.009   0.004  -0.016   0.006   0.030   0.004   0.014   0.011  -0.007   0.001
   0.007  -0.001  -0.027   0.014  -0.022  -0.021  -0.012  -0.007   0.004  -0.007
   0.013   0.017   0.012  -0.008   0.029  -0.011   0.003   0.024   0.000  -0.022
  -0.005   0.009   0.018   0.011   0.029   0.003   0.030  -0.003   0.032   0.029
   0.039   0.002   0.013   0.001   0.012  -0.010  -0.007   0.003  -0.034  -0.016
   0.042   0.013  -0.002   0.022  -0.025  -0.014  -0.002   0.015   0.000   0.009
  -0.022  -0.035  -0.009  -0.020  -0.007  -0.013   0.002   0.015  -0.021   0.023
   0.011  -0.006   0.036  -0.019   0.002  -0.009  -0.018  -0.004   0.003   0.016
  -0.040   0.001  -0.028  -0.022  -0.030  -0.044  -0.013  -0.007  -0.005  -0.061
  -0.020  -0.024  -0.058  -0.008   0.010  -0.014   0.015  -0.009  -0.032   0.017
   0.013  -0.002  -0.027  -0.021  -0.007   0.002  -0.009   0.017   0.018  -0.006
   0.013   0.005   0.007   0.011   0.019   0.017  -0.001   0.013  -0.001  -0.032
   0.002  -0.001  -0.011   0.015  -0.016  -0.014  -0.008  -0.015  -0.022   0.013
   0.013   0.003   0.007   0.008  -0.027   0.021   0.030  -0.003   0.008   0.004
   0.017   0.010  -0.005   0.023  -0.002   0.005   0.013   0.028   0.000   0.005
   0.011  -0.005   0.008   0.014  -0.018  -0.001   0.018   0.015   0.010  -0.006
  -0.001   0.010  -0.010  -0.009  -0.026   0.025  -0.022   0.007   0.008  -0.008
  -0.001  -0.011  -0.028  -0.034  -0.022  -0.011  -0.018  -0.018   0.001   0.006
   0.025   0.032   0.034  -0.007   0.019   0.012  -0.010   0.009  -0.001  -0.036
  -0.029  -0.000  -0.009  -0.026  -0.046   0.017   0.017  -0.010  -0.011   0.030
   0.017  -0.034   0.021   0.036   0.023  -0.002   0.019   0.037   0.002   0.011
   0.028  -0.007   0.006  -0.006   0.003   0.013  -0.001   0.001   0.027  -0.000
   0.014   0.011   0.010   0.030   0.017   0.006   0.032   0.034   0.010   0.031
  -0.016   0.009   0.006  -0.038  -0.021   0.009  -0.001  -0.008  -0.035  -0.005
   0.008   0.005  -0.005  -0.008  -0.018  -0.022  -0.003   0.005  -0.002  -0.001
  -0.021  -0.017  -0.002  -0.010   0.024   0.017   0.002   0.019   0.058   0.016
   0.007   0.026   0.007   0.005   0.021   0.026  -0.028   0.002   0.014   0.008
  -0.003  -0.001  -0.008  -0.004   0.024   0.007   0.020  -0.015  -0.012  -0.018
  -0.033  -0.005  -0.010  -0.022  -0.016  -0.016  -0.017   0.012   0.016  -0.009
  -0.001  -0.013   0.010  -0.006   0.006   0.011  -0.018   0.013  -0.023   0.003
  -0.016   0.002   0.016   0.005  -0.009  -0.018   0.004   0.005  -0.014  -0.030
   0.006   0.005  -0.030  -0.019   0.002  -0.007  -0.055   0.018  -0.012  -0.002
  -0.022  -0.011  -0.004  -0.016   0.019   0.012   0.001  -0.014   0.003   0.036
   0.004  -0.009   0.014   0.012   0.016  -0.000   0.017  -0.014  -0.008   0.015
   0.007   0.014   0.045   0.008   0.005  -0.002   0.002   0.035   0.007   0.000
  -0.001  -0.008  -0.001  -0.027   0.012   0.006  -0.023  -0.012  -0.007  -0.017
  -0.003  -0.033  -0.021  -0.037  -0.014  -0.016   0.004  -0.005  -0.022  -0.003
  -0.015   0.003   0.009   0.016  -0.003   0.008   0.020   0.007  -0.018   0.001
   0.012   0.016  -0.002   0.011  -0.014  -0.015  -0.018   0.006  -0.028  -0.028
  -0.011  -0.022  -0.010  -0.003  -0.027  -0.033  -0.002   0.018   0.003   0.006
  -0.018   0.003  -0.003  -0.017   0.023  -0.009  -0.012  -0.008   0.020   0.012
   0.008   0.026   0.008  -0.012  -0.021   0.006   0.030  -0.027   0.020  -0.002
   0.023   0.001   0.004  -0.014  -0.005  -0.012   0.009  -0.016   0.015  -0.002
  -0.009   0.003   0.035  -0.012  -0.021   0.019   0.009  -0.005   0.002  -0.020
   0.003  -0.019   0.026  -0.008   0.006  -0.007   0.001   0.003  -0.006   0.017
  -0.014   0.002  -0.015   0.003  -0.010  -0.019  -0.019  -0.027  -0.006  -0.009
   0.004   0.005   0.018   0.002   0.038   0.008   0.003   0.023   0.036   0.023
   0.013  -0.009   0.026   0.009   0.016   0.009  -0.003   0.023   0.012   0.032
   0.018   0.008   0.016   0.026   0.018   0.006  -0.004   0.013   0.004   0.022
   0.012   0.003   0.034  -0.011  -0.036   0.013  -0.035  -0.021   0.010   0.008
   0.008   0.003   0.018  -0.008  -0.032  -0.023  -0.007  -0.002  -0.010   0.005
   0.013  -0.015  -0.002   0.009   0.015   0.045  -0.000   0.029   0.012   0.020
   0.019  -0.007   0.017   0.011  -0.010  -0.009   0.021  -0.032   0.020   0.000
   0.010   0.001   0.010   0.027  -0.002   0.011   0.022   0.001   0.004  -0.006
  -0.001  -0.011  -0.004  -0.004   0.000   0.020  -0.001  -0.002  -0.011  -0.008
   0.031  -0.012  -0.012  -0.001  -0.003   0.013   0.006  -0.003  -0.008  -0.046
   0.005   0.015  -0.024  -0.006  -0.002  -0.012  -0.012  -0.026  -0.010  -0.022
   0.003  -0.063  -0.026  -0.015  -0.014  -0.009  -0.008  -0.017  -0.029  -0.009
  -0.009  -0.012  -0.035  -0.016  -0.024   0.008   0.005   0.002  -0.019   0.021
   0.002  -0.021   0.014  -0.023  -0.001  -0.007  -0.023  -0.030  -0.004  -0.016
   0.014  -0.041  -0.018   0.006   0.006   0.007  -0.011   0.006  -0.023   0.001
  -0.015   0.016  -0.008  -0.001  -0.034  -0.012  -0.023  -0.003  -0.010  -0.001
   0.009  -0.022  -0.049  -0.016  -0.008  -0.015  -0.022  -0.031  -0.023   0.020
   0.037   0.026   0.019  -0.023  -0.016  -0.007   0.004  -0.018   0.014  -0.011
   0.004   0.011   0.034   0.014  -0.003   0.051   0.009  -0.010  -0.008  -0.005
  -0.004   0.010   0.036  -0.015  -0.006   0.029   0.003   0.019   0.038   0.058
   0.032   0.045   0.001   0.007  -0.017  -0.011   0.044   0.058   0.067   0.001
   0.034   0.010  -0.016  -0.008  -0.025   0.003   0.035   0.031   0.007  -0.085
  -0.025   0.023   0.087   0.100   0.044  -0.067  -0.037   0.040   0.022   0.070
   0.039   0.057  -0.019  -0.043  -0.039   0.023   0.096   0.088   0.057  -0.030
  -0.056  -0.049   0.158   0.126  -0.074  -0.045  -0.021  -0.038   0.023   0.033
  -0.065   0.020   0.174   0.178   0.012  -0.089  -0.121  -0.090   0.085   0.200
   0.127  -0.106  -0.094   0.031  -0.011   0.048   0.127   0.096   0.034  -0.164
  -0.190  -0.001   0.169   0.231  -0.028  -0.419  -0.300   0.192   0.291  -0.001
  -0.225  -0.279  -0.284  -0.027   0.181  -0.111  -0.233   0.060  -0.069  -0.254
  -0.131  -0.085   0.016   0.089   0.052  -0.320  -0.138   0.214   0.313   0.083
  -0.099  -0.268  -0.142   0.436   0.329  -0.275  -0.344   0.139   0.364   0.356
  -0.010  -0.455  -0.164   0.084   0.070   0.040   0.081  -0.000  -0.047  -0.136
  -0.054  -0.090  -0.044   0.353   0.300  -0.248  -0.349  -0.019   0.076   0.200
  -0.202  -0.418  -0.045   0.323   0.172  -0.039  -0.084  -0.058   0.138   0.158
  -0.037  -0.113  -0.198  -0.115   0.211   0.324   0.056  -0.045  -0.065  -0.446
  -0.218   0.308   0.430   0.292  -0.107  -0.567  -0.502  -0.034   0.163  -0.083
  -0.150   0.232   0.360   0.041  -0.258  -0.122   0.194   0.207   0.066  -0.127
  -0.121  -0.124   0.245   0.527   0.097  -0.418  -0.102   0.613   0.305  -0.164
  -0.040   0.202   0.123   0.087  -0.017  -0.121  -0.247  -0.156   0.210   0.146
   0.002   0.034  -0.209  -0.155   0.263   0.116  -0.386  -0.451  -0.017   0.144
  -0.161   0.174   0.551   0.124  -0.303  -0.372  -0.439   0.075   0.274   0.132
  -0.208  -0.240   0.085   0.587   0.442   0.405   0.116  -0.162  -0.233  -0.206
  -0.073   0.108   0.015  -0.162   0.108   0.233   0.213  -0.006  -0.058  -0.064
  -0.082   0.074   0.423   0.102  -0.412  -0.387  -0.197   0.187   0.610   0.415
  -0.199  -0.545  -0.505   0.052   0.250  -0.130  -0.075   0.083  -0.102  -0.228
   0.014   0.232  -0.081  -0.359  -0.094   0.033  -0.036  -0.151   0.029   0.109
  -0.065   0.217   0.172   0.102   0.282   0.336   0.172  -0.022   0.131   0.236
  -0.127  -0.329   0.226   0.150  -0.431  -0.326   0.069   0.165  -0.057  -0.090
  -0.213   0.192   0.348  -0.055  -0.045   0.033   0.006   0.010   0.068  -0.543
  -0.619  -0.264  -0.043   0.151  -0.072  -0.060   0.104   0.008  -0.428  -0.344
   0.102   0.489   0.265  -0.401  -0.481   0.119   0.154  -0.188   0.145   0.667
   0.469  -0.228  -0.143   0.244   0.052   0.094   0.214  -0.269  -0.682  -0.234
   0.166   0.257   0.259   0.004  -0.126   0.236   0.017  -0.701  -0.875  -0.171
   0.545   0.532   0.100  -0.039  -0.069  -0.080   0.342   0.670   0.264  -0.567
  -0.800  -0.666  -0.147   0.389   0.559   0.034  -0.216  -0.049   0.174   0.346
   0.303  -0.079  -0.079   0.165  -0.092  -0.322  -0.140  -0.056  -0.320  -0.289
  -0.134  -0.057  -0.094  -0.573  -0.501  -0.361  -0.274  -0.026   0.084   0.158
  -0.063   0.040   0.235   0.553   0.378   0.315   0.200  -0.066   0.083   0.389
   0.317  -0.227  -0.262   0.002   0.089   0.110   0.081   0.061   0.076   0.117
  -0.140  -0.476  -0.304   0.267   0.515   0.462   0.249   0.182   0.239  -0.098
  -0.088   0.080   0.052  -0.231  -0.350  -0.306  -0.360  -0.188   0.167   0.055
  -0.255  -0.325  -0.279  -0.069  -0.019   0.037   0.071   0.121   0.517   0.538
   0.199   0.181   0.358   0.040  -0.216  -0.352  -0.163   0.283   0.390   0.020
  -0.154  -0.023  -0.026   0.133   0.528   0.586   0.163  -0.249  -0.229   0.099
   0.316   0.218   0.317   0.098  -0.138   0.362   0.545   0.279   0.403   0.471
   0.244   0.232   0.041  -0.071  -0.036  -0.173  -0.115   0.076  -0.047  -0.090
  -0.068   0.090   0.173   0.220   0.490   0.389   0.213   0.164   0.154  -0.016
  -0.036   0.176   0.341   0.002  -0.116  -0.040   0.032  -0.125  -0.085   0.219
   0.267  -0.063  -0.082   0.127  -0.101  -0.231  -0.220  -0.363  -0.333  -0.377
  -0.299  -0.146   0.104   0.373   0.349  -0.006  -0.325  -0.584  -0.767  -0.483
  -0.499  -0.467  -0.406  -0.294   0.056   0.349   0.237  -0.465  -0.631  -0.382
  -0.670  -0.945  -0.701  -0.405  -0.378  -0.227  -0.070  -0.072  -0.278  -0.730
  -0.894  -0.658  -0.622  -0.500  -0.480  -0.498  -0.153   0.239   0.188  -0.056
  -0.285  -0.498  -0.649  -0.675  -0.546  -0.348  -0.348  -0.299   0.018   0.091
  -0.012   0.286   0.505   0.366   0.013  -0.356  -0.493  -0.307  -0.351  -0.444
   0.108   0.444   0.428   0.409   0.392   0.448   0.627   0.784   0.736   0.764
