Corrected accelerogram 20160214_001343_AKSS_20 GNS Science
Site AKSS      43 48 39S  172 57 49E     Basalt file:  20160214_001351_AKSS
Akaroa School
Instrument Basalt_1675
Resolution: 24-bit   Instr Period: 0.0050 s   Damping: 0.700
Accelerogram 20160214_001343_AKSS_20                 Processed 2016 February 22
11 km east of CHRISTCHURCH
2016 February 14         00:13:43 UT
Epicentre  43 29 50S 172 45 18E  Bearing N26W  Dist   39km  Depth    8km M  5.70
Number of points  6250    Duration 124.98 sec
Instrument corrected data at 0.020 sec intervals
Band-pass filter transition bands are .10-.25 Hz and 24.50-25.50 Hz
Component N00E  Transverse Accelerometer Axis
Acceleration:  peak    315.3 mm/s/s at  46.98 sec     rms     20.0 mm/s/s
Velocity:      peak   -14.37 mm/s   at  46.84 sec     rms     1.38 mm/s
Displacement:  peak    3.099 mm     at  51.44 sec     rms    0.420 mm
    2016       2      14       0      13     430       0       0    2016       2
      43      29      50     172      45      18       8       0      14       0
      43      48      39     172      57      49       0       0     334      39
   23000     250     250    6250    6250    6250       0       0      13   11000
   200.0    0.70    0.00   0.000  0.0000   0.000   0.000   1.000     0.0    0.00
  43.811 172.963   43.50  172.76    5.70    0.00    0.00    0.00      0.      0.
  115.00    5.00    5.00  124.98  0.0050  0.0200      0.      0.      0.  9806.6
  -349.9   47.15    21.0   0.000      0.   315.3   46.98    20.0   564.3   3.473
  -14.37   46.84    1.38   34.51   0.314    3.10   51.44    0.42    3.90   0.226
   0.100   0.150   0.250      0.      0.  24.500   1.000  25.500      0.      0.
     0.0    -0.0     0.0    -0.0     0.0    -0.0     0.0    -0.0     0.0    -0.0
     0.0    -0.0     0.0    -0.0     0.0    -0.0     0.0    -0.0     0.0    -0.0
     0.0    -0.0     0.0    -0.0     0.0    -0.0     0.0    -0.0     0.0    -0.0
     0.0    -0.0     0.0    -0.0     0.0    -0.0     0.0    -0.0     0.0    -0.0
     0.0    -0.0     0.0    -0.0     0.0    -0.0     0.0    -0.0     0.0    -0.0
     0.0    -0.0     0.0    -0.0     0.0    -0.0     0.0    -0.0     0.0    -0.0
     0.0    -0.0     0.0    -0.0     0.0    -0.0     0.0    -0.0     0.0    -0.0
     0.0    -0.0     0.0    -0.0     0.0    -0.0     0.0    -0.0     0.0    -0.0
     0.0    -0.0     0.0    -0.0     0.0    -0.0     0.0    -0.0     0.0    -0.0
     0.0    -0.0     0.0    -0.0     0.0    -0.0     0.0    -0.0     0.0    -0.0
     0.0    -0.0     0.0    -0.0     0.0    -0.0     0.0    -0.0     0.0    -0.0
     0.0    -0.0     0.0    -0.0     0.0    -0.0     0.0    -0.0     0.0    -0.0
     0.0    -0.0     0.0    -0.0     0.0    -0.0     0.0    -0.0     0.0    -0.0
     0.0    -0.0     0.0    -0.0     0.0    -0.0     0.0    -0.0     0.0    -0.0
     0.0    -0.0     0.0    -0.0     0.0    -0.0     0.0    -0.0     0.0    -0.0
     0.0    -0.0     0.0    -0.0     0.0    -0.0     0.0    -0.0     0.0    -0.0
     0.0    -0.0     0.0    -0.0     0.0    -0.0     0.0    -0.0     0.0    -0.0
     0.0    -0.0     0.0    -0.0     0.0    -0.0     0.0    -0.0     0.0    -0.0
     0.0    -0.0     0.0    -0.0     0.0    -0.0     0.0    -0.0     0.0    -0.0
     0.0    -0.0     0.0    -0.0     0.0    -0.0     0.0    -0.0     0.0    -0.0
     0.0    -0.0     0.0    -0.0     0.0    -0.0     0.0    -0.0     0.0    -0.0
     0.0    -0.0     0.0    -0.0     0.0    -0.0     0.0    -0.0     0.0    -0.0
     0.0    -0.0     0.0    -0.0     0.0    -0.0     0.0    -0.0     0.0    -0.0
     0.0    -0.0     0.0    -0.0     0.0    -0.0     0.0    -0.0     0.0    -0.0
     0.0     0.0     0.0    -0.0     0.0    -0.0     0.0    -0.0     0.0    -0.0
     0.0    -0.1     0.1    -0.0    -0.0     0.0    -0.1    -0.0    -0.0     0.1
    -0.1    -0.0     0.0    -0.0    -0.0     0.0    -0.0    -0.1     0.0     0.0
    -0.0     0.0    -0.0    -0.0     0.1    -0.1     0.1    -0.0     0.0     0.0
     0.0     0.0     0.0    -0.0    -0.0    -0.0     0.0     0.0    -0.0     0.0
    -0.0    -0.0     0.0    -0.0     0.0    -0.0    -0.0     0.0    -0.0    -0.1
     0.1     0.1     0.0    -0.1     0.1    -0.1     0.1    -0.0    -0.0    -0.0
     0.0     0.0    -0.0    -0.1     0.0     0.0     0.0    -0.1     0.1    -0.0
    -0.0    -0.0    -0.0    -0.0     0.0     0.0    -0.0     0.0    -0.0    -0.0
     0.0    -0.0    -0.0    -0.0     0.0    -0.1     0.0    -0.1    -0.0     0.0
     0.0     0.0    -0.0    -0.0     0.0    -0.0    -0.0     0.0     0.0     0.0
    -0.0     0.0     0.0    -0.0     0.0    -0.0     0.0    -0.0     0.1    -0.0
     0.0     0.0    -0.0     0.0    -0.0     0.0     0.0    -0.0     0.0     0.0
    -0.0    -0.1     0.1    -0.0    -0.0     0.0     0.1    -0.1     0.0     0.0
    -0.0     0.0     0.0    -0.1     0.0     0.0     0.0    -0.1     0.0     0.0
     0.0     0.0    -0.0    -0.0     0.0     0.1    -0.0     0.0     0.0    -0.1
     0.1    -0.0    -0.0    -0.1     0.1    -0.1     0.0    -0.0     0.0    -0.1
     0.0     0.0    -0.0     0.1    -0.1    -0.0     0.0     0.1    -0.1    -0.0
     0.0    -0.0    -0.0    -0.0     0.0     0.0     0.0    -0.1     0.0    -0.0
     0.1    -0.1     0.0    -0.0     0.1    -0.0    -0.0    -0.1     0.1     0.0
     0.0    -0.0     0.0    -0.1     0.1     0.1     0.0    -0.1     0.1    -0.0
    -0.0    -0.0     0.0    -0.0    -0.0     0.1    -0.0    -0.0    -0.0     0.0
     0.0     0.0    -0.0    -0.1     0.0     0.0     0.0     0.0    -0.0    -0.0
     0.0     0.0    -0.0    -0.0     0.0     0.1    -0.0     0.0     0.0    -0.1
     0.1    -0.1     0.0    -0.0    -0.0     0.0     0.0    -0.1    -0.0     0.1
     0.0    -0.0    -0.0    -0.0    -0.0     0.0     0.0    -0.1     0.0    -0.0
     0.1    -0.1     0.0    -0.0     0.0    -0.0     0.0     0.0     0.0     0.1
    -0.1    -0.0     0.0     0.0     0.1    -0.0    -0.1    -0.0     0.1    -0.0
     0.0    -0.1     0.0     0.0     0.1    -0.0    -0.1     0.0     0.0     0.0
    -0.0    -0.1     0.1    -0.1     0.1    -0.0    -0.1     0.0     0.1    -0.0
     0.0    -0.0     0.0    -0.0     0.1    -0.0    -0.0     0.0     0.0    -0.0
     0.1    -0.0    -0.0    -0.0     0.1    -0.0     0.0    -0.0    -0.0    -0.0
     0.0     0.0     0.0    -0.0    -0.0     0.0    -0.0    -0.0     0.1     0.1
    -0.1    -0.0     0.1    -0.0     0.1     0.0    -0.1     0.0     0.1    -0.1
     0.0    -0.0     0.0    -0.0    -0.0    -0.0    -0.0     0.0     0.0    -0.0
     0.0    -0.0     0.0     0.0    -0.1     0.0     0.1    -0.0    -0.1     0.0
    -0.0    -0.0     0.0    -0.0    -0.0     0.0    -0.0    -0.1     0.0     0.0
     0.0    -0.0     0.0    -0.0     0.1    -0.0    -0.1    -0.0     0.0    -0.0
    -0.0     0.0    -0.0     0.0    -0.1     0.0     0.0    -0.0     0.0    -0.0
    -0.1     0.0     0.0    -0.1     0.0    -0.0     0.1     0.1    -0.0    -0.1
     0.1     0.1    -0.1     0.0     0.0    -0.0     0.0    -0.0     0.0     0.0
    -0.0    -0.0     0.0     0.0     0.1    -0.0    -0.0    -0.0     0.0     0.0
    -0.0    -0.0    -0.0     0.1     0.0    -0.0    -0.0     0.0    -0.0     0.0
    -0.0     0.0     0.0    -0.0     0.0    -0.0    -0.0     0.0    -0.1     0.1
    -0.0    -0.0     0.1     0.0    -0.1     0.1    -0.0    -0.1     0.1     0.0
     0.0    -0.1     0.1    -0.0     0.0    -0.1    -0.0     0.1    -0.0    -0.0
    -0.0    -0.0     0.0     0.0     0.1    -0.1    -0.0    -0.0    -0.0     0.1
    -0.0     0.0    -0.1     0.0    -0.0     0.1     0.0    -0.0    -0.0    -0.0
     0.0    -0.0     0.0    -0.0    -0.0     0.0     0.1    -0.1     0.0     0.0
     0.0     0.0    -0.0    -0.0     0.0    -0.0    -0.0     0.0    -0.0    -0.0
     0.0     0.0    -0.0    -0.1     0.0     0.1    -0.0    -0.0     0.1    -0.1
    -0.0    -0.0     0.1    -0.0    -0.0    -0.0     0.0    -0.0     0.0    -0.0
     0.0    -0.0     0.0     0.0     0.0    -0.0     0.0    -0.0     0.0     0.0
    -0.0    -0.0    -0.0     0.1    -0.1     0.0     0.0    -0.1     0.0     0.0
     0.0    -0.0     0.0    -0.0    -0.0    -0.0     0.0    -0.0    -0.0    -0.0
    -0.0     0.1     0.0    -0.1     0.1    -0.1    -0.0     0.0     0.0    -0.0
    -0.0     0.0    -0.0    -0.0     0.0     0.0     0.1    -0.0    -0.0     0.0
     0.0    -0.0     0.0    -0.0    -0.0    -0.0    -0.0     0.0     0.0    -0.0
     0.1    -0.0     0.0    -0.0     0.2    -0.1     0.0    -0.0    -0.0     0.0
    -0.0    -0.0    -0.0     0.0    -0.0     0.0    -0.0     0.0     0.0    -0.0
     0.0    -0.0    -0.0     0.0    -0.0     0.0    -0.0     0.0    -0.0     0.0
     0.0     0.0     0.0    -0.0    -0.0    -0.0    -0.0    -0.0     0.1    -0.1
     0.0    -0.0     0.0    -0.0     0.1    -0.0    -0.0     0.0    -0.1     0.1
    -0.0    -0.0     0.1    -0.0     0.0     0.0    -0.0     0.0    -0.0     0.0
     0.0    -0.0     0.0    -0.0     0.0    -0.1    -0.1     0.0     0.0    -0.0
     0.0    -0.1    -0.0    -0.0     0.0    -0.0    -0.0    -0.0     0.0    -0.0
     0.0    -0.1     0.1    -0.0     0.0    -0.0     0.0     0.0    -0.0    -0.1
     0.1     0.0    -0.0    -0.1     0.0     0.0     0.0    -0.0    -0.0     0.0
    -0.0    -0.0     0.1     0.0     0.0    -0.0    -0.0    -0.0     0.0     0.0
    -0.0    -0.0    -0.0    -0.1     0.0    -0.0     0.0    -0.0    -0.1     0.1
     0.0    -0.0     0.0    -0.1     0.0    -0.0     0.0     0.0    -0.0    -0.0
     0.0    -0.0     0.0    -0.0    -0.0     0.0     0.0    -0.1     0.1     0.0
    -0.1     0.0    -0.0    -0.0    -0.0     0.1    -0.0    -0.1     0.1    -0.0
    -0.0     0.0     0.0     0.0     0.0    -0.0     0.0    -0.0     0.0     0.0
    -0.0     0.1     0.0    -0.1     0.0     0.1    -0.1     0.0    -0.0     0.0
    -0.0    -0.0     0.1    -0.0     0.0     0.0    -0.0     0.0     0.0    -0.0
     0.1    -0.0     0.0    -0.0    -0.0     0.0    -0.0    -0.1     0.0     0.0
    -0.0    -0.0     0.1    -0.0    -0.1     0.0     0.0    -0.0     0.0     0.0
    -0.1    -0.0     0.0    -0.0     0.1    -0.0     0.0    -0.0     0.1    -0.1
     0.0    -0.0     0.0    -0.0    -0.0    -0.0     0.0     0.0    -0.0    -0.0
     0.1    -0.0    -0.1     0.0     0.0    -0.0     0.1    -0.0     0.0    -0.0
     0.1    -0.0    -0.0     0.0     0.1    -0.1     0.0     0.0    -0.0     0.0
     0.0    -0.0     0.0    -0.0     0.1    -0.0    -0.0     0.0     0.0    -0.0
     0.1    -0.0    -0.0    -0.0     0.0    -0.0     0.1    -0.0    -0.1    -0.1
     0.1    -0.0    -0.1     0.0    -0.0     0.0     0.0     0.1    -0.0    -0.0
     0.1    -0.0    -0.0     0.0    -0.0     0.0     0.1    -0.0     0.0    -0.0
     0.0    -0.0    -0.1     0.0     0.0     0.0    -0.0    -0.1     0.0     0.0
     0.0    -0.1     0.0     0.0     0.0    -0.0     0.0     0.0     0.0    -0.1
     0.1     0.1    -0.0    -0.0     0.0     0.0     0.0     0.0    -0.0    -0.0
     0.0     0.0    -0.1     0.0     0.0    -0.1    -0.0     0.0     0.0     0.0
     0.0    -0.1     0.0    -0.0    -0.0    -0.0    -0.0     0.0     0.0    -0.0
     0.1    -0.0     0.0    -0.1     0.1    -0.0    -0.1    -0.0     0.0    -0.0
     0.0    -0.0     0.0     0.0     0.0    -0.1     0.0     0.0     0.0    -0.0
    -0.1    -0.0     0.0    -0.0     0.1    -0.1     0.0    -0.0     0.0     0.0
    -0.0     0.0    -0.1    -0.0     0.0     0.0    -0.0    -0.1     0.1    -0.0
     0.0    -0.0    -0.0    -0.1     0.1    -0.0     0.0    -0.1     0.0     0.1
     0.0    -0.1     0.0    -0.0    -0.0     0.0     0.1    -0.1    -0.0     0.0
     0.1    -0.0    -0.0    -0.0     0.1    -0.1     0.0     0.0    -0.0     0.0
    -0.0    -0.0     0.1    -0.0    -0.0     0.0     0.0    -0.0     0.0    -0.1
     0.0     0.1    -0.0    -0.1     0.1    -0.0     0.0     0.0    -0.0     0.0
     0.0    -0.1     0.0     0.0     0.1    -0.1     0.1    -0.0    -0.0     0.0
    -0.0    -0.0    -0.0    -0.0     0.1    -0.1    -0.0     0.1    -0.1     0.1
    -0.1     0.0     0.1    -0.1    -0.0    -0.0     0.0    -0.0     0.1     0.0
    -0.1     0.0     0.0    -0.1     0.1    -0.1     0.0    -0.0     0.0     0.0
     0.0    -0.0    -0.0     0.0     0.0    -0.0    -0.0    -0.0    -0.0     0.1
     0.0    -0.0    -0.1     0.1    -0.0     0.0     0.0    -0.0     0.0    -0.0
     0.0    -0.0     0.0    -0.0     0.0     0.0     0.0    -0.1     0.0     0.0
     0.1    -0.0     0.0    -0.0    -0.0    -0.0     0.1    -0.0    -0.0     0.0
    -0.0    -0.0     0.0    -0.0     0.0     0.1    -0.0     0.0    -0.0    -0.1
     0.1     0.0     0.1    -0.0    -0.0     0.0     0.0     0.0    -0.1    -0.0
     0.1    -0.1     0.0     0.0    -0.1     0.0    -0.0     0.1    -0.0    -0.0
    -0.0     0.0    -0.0     0.1    -0.0    -0.0     0.0    -0.0    -0.0    -0.0
    -0.0    -0.1     0.1     0.0    -0.0    -0.1     0.0     0.0    -0.0    -0.0
     0.0    -0.1     0.0     0.0    -0.0     0.0     0.1    -0.0    -0.0    -0.0
     0.0    -0.0    -0.0     0.0    -0.0    -0.0     0.1    -0.0    -0.0    -0.0
     0.0    -0.1    -0.0     0.0    -0.1     0.0     0.1    -0.1     0.0     0.0
    -0.0    -0.1     0.1     0.0     0.0    -0.0    -0.0    -0.0    -0.0     0.0
     0.0    -0.1     0.1    -0.0    -0.0    -0.0     0.0    -0.1     0.0    -0.0
     0.0     0.0    -0.0    -0.0     0.0     0.0     0.0    -0.1     0.0    -0.0
     0.0     0.0     0.0    -0.1     0.1    -0.1    -0.0     0.1     0.1    -0.1
     0.0    -0.0     0.1     0.0     0.0    -0.1     0.1    -0.0     0.0     0.0
     0.0     0.0     0.0    -0.1    -0.0     0.1     0.0    -0.0    -0.0     0.0
     0.0     0.0    -0.0    -0.1     0.1     0.0    -0.0     0.0     0.0    -0.0
     0.0    -0.0     0.0    -0.0     0.0    -0.0     0.0    -0.0     0.0     0.0
     0.0     0.0    -0.0    -0.0     0.0     0.0    -0.0    -0.0     0.0    -0.0
     0.1    -0.0     0.0    -0.0     0.0     0.0    -0.0    -0.0     0.1    -0.0
     0.1    -0.0    -0.0    -0.0    -0.0     0.0     0.0    -0.0    -0.0    -0.0
     0.0     0.0    -0.1    -0.0    -0.0     0.1     0.0    -0.0    -0.0    -0.0
    -0.0     0.1    -0.0     0.0    -0.0    -0.0     0.1     0.0    -0.1     0.1
     0.0    -0.1     0.1     0.0     0.0    -0.0    -0.0     0.0     0.1    -0.1
     0.0     0.0    -0.0     0.1    -0.0    -0.0    -0.0     0.0     0.0    -0.0
     0.0    -0.0    -0.1     0.0     0.0    -0.1     0.1     0.0    -0.0    -0.1
    -0.0    -0.0     0.1    -0.0     0.0    -0.0     0.0    -0.0     0.0    -0.0
    -0.0    -0.1     0.1     0.0    -0.1     0.0    -0.0    -0.0     0.1    -0.0
     0.0    -0.1     0.1    -0.1     0.0     0.0    -0.0    -0.0    -0.0     0.1
    -0.0     0.0     0.0    -0.0    -0.0     0.0    -0.0    -0.0    -0.0    -0.0
     0.0     0.0     0.0     0.0     0.1    -0.1    -0.1     0.1     0.1     0.0
    -0.1    -0.0    -0.0     0.0     0.1    -0.0    -0.0     0.0    -0.0    -0.0
     0.1    -0.1     0.1    -0.0    -0.0     0.0    -0.0    -0.1     0.1    -0.0
    -0.0     0.0     0.0    -0.0     0.0     0.0    -0.0    -0.0     0.0    -0.0
     0.0    -0.0    -0.0    -0.0     0.0    -0.0     0.0    -0.0    -0.0     0.0
    -0.0     0.0    -0.0    -0.0     0.0    -0.0     0.1    -0.1     0.0     0.0
    -0.0     0.0    -0.0     0.0     0.0     0.0    -0.0     0.0     0.0    -0.1
     0.1    -0.0     0.0    -0.0     0.0     0.0     0.0    -0.1     0.1     0.0
     0.0    -0.0     0.1    -0.0     0.0    -0.1     0.1    -0.0    -0.0     0.0
    -0.1     0.0     0.1    -0.1     0.0    -0.0     0.0     0.0    -0.0     0.0
     0.0    -0.1     0.1     0.0     0.0    -0.1     0.1     0.0    -0.1     0.1
     0.0     0.0    -0.0    -0.0    -0.0     0.1     0.0    -0.0     0.0    -0.0
     0.1    -0.0     0.0    -0.0     0.0    -0.0    -0.1    -0.0    -0.0     0.1
    -0.0     0.0    -0.0    -0.0     0.0    -0.0     0.0    -0.0     0.0    -0.0
     0.1    -0.1    -0.0     0.0     0.1    -0.1     0.0     0.0     0.0    -0.0
    -0.0     0.0    -0.0     0.0    -0.1    -0.0     0.0    -0.0     0.0    -0.0
    -0.0     0.0     0.0     0.0    -0.0    -0.0     0.1    -0.1     0.0    -0.0
    -0.0    -0.1     0.1    -0.1     0.0    -0.0     0.0    -0.0     0.0    -0.0
    -0.0    -0.0     0.0    -0.0     0.0    -0.0    -0.0     0.0    -0.0    -0.1
     0.1    -0.1     0.1    -0.0     0.0     0.0    -0.0    -0.0     0.0    -0.1
     0.1    -0.0    -0.0     0.0    -0.0     0.0    -0.0     0.0    -0.0    -0.0
     0.0    -0.0    -0.0     0.1     0.0    -0.1     0.0    -0.1     0.1    -0.0
    -0.0     0.0    -0.0    -0.0     0.0     0.0     0.0    -0.1     0.0     0.0
    -0.0     0.1    -0.0    -0.0    -0.0     0.0     0.0    -0.1     0.0     0.0
    -0.0    -0.0     0.0    -0.0     0.0    -0.1     0.1    -0.0     0.0    -0.0
     0.0    -0.0     0.1    -0.0    -0.0    -0.0     0.1    -0.0    -0.0    -0.0
     0.0    -0.0     0.0     0.0     0.1    -0.0    -0.0     0.0     0.0    -0.1
     0.0    -0.0     0.0    -0.1     0.1     0.1    -0.0     0.0     0.0    -0.0
    -0.0     0.0     0.1    -0.1     0.0    -0.0     0.0    -0.1     0.0    -0.0
     0.0    -0.0     0.1    -0.0     0.0    -0.0     0.0    -0.0     0.0    -0.0
     0.1    -0.0    -0.0    -0.0     0.0     0.0     0.0    -0.0     0.0    -0.0
    -0.0     0.0    -0.0    -0.0     0.0    -0.0     0.0    -0.1     0.0    -0.0
     0.0    -0.1     0.1    -0.1     0.0     0.0     0.1    -0.1    -0.0    -0.0
    -0.0    -0.1     0.1    -0.0    -0.1    -0.0     0.0    -0.0    -0.0    -0.0
     0.1    -0.0    -0.0     0.0     0.0    -0.1     0.0    -0.0    -0.1    -0.0
    -0.0     0.0     0.0     0.0     0.0    -0.0     0.0     0.0    -0.1     0.0
    -0.0    -0.0     0.0    -0.0    -0.0     0.0    -0.0    -0.0     0.0    -0.0
    -0.0    -0.0     0.0     0.0    -0.0    -0.0    -0.0     0.0     0.0    -0.0
    -0.1    -0.0     0.0    -0.1     0.0    -0.0     0.0    -0.0    -0.0    -0.0
     0.0    -0.0    -0.0    -0.0     0.0    -0.0    -0.0     0.0     0.0    -0.0
     0.1    -0.0     0.0    -0.0     0.0    -0.0     0.0     0.0     0.0     0.0
     0.0    -0.0    -0.0    -0.0     0.0     0.0    -0.0     0.0     0.0    -0.0
     0.1    -0.0    -0.0     0.0    -0.0    -0.0     0.0     0.0     0.0     0.0
     0.0     0.0     0.0    -0.0     0.0     0.0     0.1     0.0     0.0     0.0
     0.0     0.0     0.0     0.0     0.0    -0.0     0.0     0.1     0.0     0.0
     0.0     0.0     0.1    -0.0     0.0     0.1     0.0     0.0    -0.0     0.0
     0.0     0.0    -0.0     0.0     0.0     0.0     0.1     0.0     0.0     0.0
     0.0     0.0     0.0     0.0     0.0     0.0     0.1     0.0     0.1    -0.0
     0.1     0.0    -0.0     0.1     0.0     0.0     0.0    -0.0     0.1    -0.0
     0.1     0.0     0.1    -0.1     0.1    -0.0     0.0     0.0     0.1    -0.0
     0.1     0.1     0.0     0.0     0.0     0.0     0.1     0.0     0.0     0.0
     0.0     0.1     0.0     0.0     0.0     0.0     0.0     0.0     0.0     0.0
     0.1     0.0     0.0     0.0     0.0     0.0    -0.0    -0.0     0.1    -0.0
     0.1     0.0     0.1     0.0    -0.0    -0.0     0.0     0.0     0.0     0.0
    -0.0     0.0     0.0     0.0    -0.0     0.0    -0.0    -0.0    -0.0    -0.0
     0.0     0.0     0.0    -0.0    -0.0     0.0     0.0    -0.0     0.0    -0.0
     0.0    -0.1     0.0     0.0    -0.0     0.0    -0.1     0.0    -0.0     0.0
    -0.0    -0.0     0.0    -0.1    -0.0     0.0    -0.0    -0.1     0.0    -0.0
    -0.0    -0.0     0.0    -0.1     0.0    -0.1    -0.0     0.0     0.0    -0.1
    -0.0    -0.0    -0.0    -0.1    -0.1    -0.0     0.0    -0.1    -0.0    -0.0
    -0.1    -0.0    -0.0    -0.0    -0.1    -0.0    -0.1     0.0    -0.0    -0.0
    -0.1    -0.1    -0.1    -0.0    -0.0    -0.1    -0.1    -0.0    -0.1    -0.1
    -0.0    -0.1    -0.1    -0.0    -0.1    -0.0    -0.1    -0.1    -0.1    -0.1
    -0.1     0.0    -0.1    -0.1    -0.0    -0.1    -0.1    -0.1    -0.1    -0.1
    -0.1    -0.0    -0.2    -0.0    -0.1    -0.1    -0.1    -0.1    -0.2    -0.0
    -0.1    -0.1    -0.2    -0.0    -0.1    -0.1    -0.2    -0.0    -0.2    -0.1
