Corrected accelerogram 20160214_001343_APPS_20 GNS Science
Site APPS      42 56 56S  171 34 04E     Basalt file:  20160214_001404_APPS
Arthurs Pass Police Station
Instrument Basalt_2148
Resolution: 24-bit   Instr Period: 0.0050 s   Damping: 0.700
Accelerogram 20160214_001343_APPS_20                 Processed 2016 February 22
11 km east of CHRISTCHURCH
2016 February 14         00:13:43 UT
Epicentre  43 29 50S 172 45 18E  Bearing S57E  Dist  114km  Depth    8km M  5.70
Number of points  6850    Duration 136.98 sec
Instrument corrected data at 0.020 sec intervals
Band-pass filter transition bands are .10-.25 Hz and 24.50-25.50 Hz
Component N00E  Horizontal Axis 1
Acceleration:  peak    -40.6 mm/s/s at  55.62 sec     rms      3.6 mm/s/s
Velocity:      peak    -2.58 mm/s   at  55.70 sec     rms     0.41 mm/s
Displacement:  peak    0.743 mm     at  55.60 sec     rms    0.217 mm
    2016       2      14       0      13     430       0       0    2016       2
      43      29      50     172      45      18       8       0      14       0
      42      56      56     171      34       4       0       0     123     114
   25400     250     250    6850    6850    6850       0       0      13   24000
   200.0    0.70    0.00   0.000  0.0000   0.000   0.000   1.000     0.0    0.00
  42.949 171.568   43.50  172.76    5.70    0.00    0.00    0.00      0.      0.
  127.00    5.00    5.00  136.98  0.0050  0.0200      0.      0.      0.  9806.6
   -41.4   55.61     3.8   0.000      0.   -40.6   55.62     3.6    49.4   2.652
   -2.58   55.70    0.41    3.26   0.220    0.74   55.60    0.22    1.28   0.220
   0.100   0.150   0.250      0.      0.  24.500   1.000  25.500      0.      0.
   0.000   0.000   0.000   0.000   0.000   0.000   0.000  -0.000   0.000  -0.000
   0.000  -0.000   0.000  -0.000  -0.000  -0.000  -0.000  -0.000  -0.000  -0.000
  -0.000  -0.000  -0.000  -0.000  -0.000  -0.000  -0.000  -0.001  -0.000  -0.001
  -0.000  -0.001  -0.000  -0.001  -0.001  -0.001  -0.001  -0.001  -0.001  -0.001
  -0.001  -0.001  -0.001  -0.001  -0.001  -0.001  -0.001  -0.001  -0.001  -0.001
  -0.001  -0.001  -0.001  -0.001  -0.001  -0.001  -0.001  -0.001  -0.001  -0.001
  -0.001  -0.001  -0.001  -0.002  -0.001  -0.002  -0.001  -0.002  -0.001  -0.002
  -0.002  -0.002  -0.002  -0.002  -0.002  -0.002  -0.002  -0.002  -0.002  -0.002
  -0.002  -0.002  -0.002  -0.002  -0.002  -0.002  -0.002  -0.002  -0.002  -0.002
  -0.002  -0.002  -0.002  -0.002  -0.002  -0.002  -0.002  -0.002  -0.002  -0.002
  -0.002  -0.002  -0.002  -0.002  -0.002  -0.002  -0.002  -0.002  -0.002  -0.002
  -0.002  -0.002  -0.002  -0.002  -0.002  -0.002  -0.002  -0.002  -0.002  -0.002
  -0.002  -0.002  -0.002  -0.002  -0.001  -0.002  -0.001  -0.002  -0.001  -0.002
  -0.001  -0.002  -0.001  -0.001  -0.001  -0.001  -0.001  -0.001  -0.001  -0.001
  -0.001  -0.001  -0.001  -0.001  -0.000  -0.001  -0.000  -0.001  -0.000  -0.000
   0.000  -0.000   0.000  -0.000   0.000  -0.000   0.001   0.000   0.001   0.000
   0.001   0.001   0.001   0.001   0.001   0.001   0.001   0.001   0.002   0.001
   0.002   0.002   0.002   0.002   0.002   0.002   0.003   0.002   0.003   0.003
   0.003   0.003   0.003   0.003   0.004   0.003   0.004   0.004   0.004   0.004
   0.004   0.004   0.005   0.005   0.005   0.005   0.005   0.005   0.006   0.005
   0.006   0.006   0.006   0.006   0.006   0.006   0.007   0.007   0.007   0.007
   0.007   0.007   0.008   0.008   0.008   0.008   0.008   0.008   0.009   0.009
   0.009   0.009   0.009   0.010   0.010   0.010   0.010   0.010   0.010   0.010
   0.011   0.011   0.011   0.011   0.012   0.011   0.012   0.012   0.013   0.012
   0.013   0.012   0.014   0.012   0.015   0.012   0.016   0.011   0.017   0.010
  -0.015   0.005  -0.071  -0.019   0.004   0.034  -0.074  -0.078   0.102  -0.063
  -0.016   0.019  -0.034  -0.011   0.022  -0.067   0.052  -0.063   0.019  -0.012
  -0.057   0.046  -0.013  -0.040   0.007  -0.079   0.063  -0.070   0.042  -0.019
  -0.042   0.097  -0.085   0.018  -0.051  -0.006   0.020  -0.020  -0.025  -0.083
   0.125  -0.037   0.010  -0.056  -0.029  -0.000   0.007   0.063  -0.109   0.007
   0.059  -0.121   0.029  -0.024   0.103  -0.109   0.095  -0.014  -0.050  -0.054
  -0.035   0.083  -0.106   0.121  -0.076   0.005  -0.081   0.104   0.026  -0.073
  -0.059  -0.044   0.202  -0.095  -0.109   0.039  -0.012   0.094  -0.045  -0.055
  -0.165   0.165   0.093  -0.156   0.002  -0.063   0.261  -0.164  -0.029   0.041
   0.024   0.128  -0.103   0.083  -0.064   0.032   0.006   0.095  -0.125  -0.062
   0.121  -0.033   0.067  -0.066   0.016   0.121  -0.062  -0.009  -0.010   0.112
  -0.016   0.084  -0.142  -0.009   0.094   0.105  -0.109  -0.105   0.144   0.055
  -0.047  -0.095  -0.080   0.216   0.030   0.026  -0.187  -0.033   0.176   0.008
  -0.111  -0.037   0.098  -0.016  -0.016  -0.127   0.095   0.011   0.000   0.003
  -0.071   0.105  -0.067   0.053  -0.009  -0.025   0.100  -0.077  -0.041   0.014
   0.059  -0.032   0.117  -0.094   0.083  -0.054   0.111  -0.097  -0.011   0.036
  -0.014   0.029  -0.070   0.025  -0.010   0.041  -0.038   0.009  -0.019   0.045
   0.016  -0.018   0.071  -0.046   0.034   0.029  -0.060  -0.016   0.135  -0.035
  -0.053  -0.044   0.043  -0.018   0.045  -0.064  -0.107   0.141   0.155  -0.148
   0.003  -0.010  -0.044   0.119   0.040  -0.049   0.007   0.027  -0.000  -0.065
  -0.004   0.030   0.006  -0.041   0.068  -0.041  -0.023   0.014  -0.027  -0.020
   0.005   0.060   0.014  -0.081  -0.134   0.151   0.067  -0.059  -0.069  -0.075
   0.054   0.076   0.075  -0.158  -0.033   0.003   0.099  -0.007  -0.115  -0.025
   0.029   0.023   0.049  -0.037  -0.089   0.013   0.014  -0.068   0.046   0.093
  -0.051  -0.066  -0.006   0.165  -0.040  -0.027  -0.006   0.046  -0.048   0.105
  -0.114   0.033  -0.128   0.265  -0.011  -0.184  -0.102   0.199   0.086  -0.096
  -0.054   0.030  -0.076   0.131  -0.023  -0.095   0.019   0.066  -0.070  -0.011
   0.075  -0.093   0.018  -0.104   0.114   0.124  -0.231   0.033  -0.008  -0.000
   0.066   0.015  -0.106   0.058   0.013   0.008  -0.018  -0.061   0.051  -0.028
   0.160  -0.143  -0.050  -0.104   0.103   0.215  -0.070  -0.101  -0.018   0.079
   0.014   0.003  -0.029   0.104  -0.018  -0.060   0.014  -0.051   0.078  -0.079
  -0.029   0.116  -0.052  -0.006   0.119  -0.176  -0.015   0.144  -0.021  -0.090
   0.043  -0.109   0.130   0.110  -0.054  -0.071  -0.067   0.117   0.169  -0.089
  -0.133   0.035   0.143  -0.089  -0.052  -0.190   0.249   0.045  -0.169  -0.034
   0.159  -0.027  -0.031  -0.034   0.019   0.184  -0.177  -0.104   0.176  -0.024
  -0.100   0.212  -0.347   0.086   0.212  -0.006  -0.168  -0.042   0.065   0.077
  -0.023  -0.066   0.020  -0.065   0.198  -0.104  -0.108   0.010   0.029   0.109
  -0.092  -0.055   0.064   0.015  -0.087  -0.065   0.219  -0.086  -0.047  -0.001
   0.004   0.056   0.104  -0.095   0.060  -0.047  -0.093   0.144   0.092  -0.190
   0.085   0.035   0.010  -0.065  -0.016   0.013   0.112  -0.127   0.162  -0.135
   0.063   0.005  -0.101   0.001   0.201  -0.049  -0.072  -0.048  -0.014   0.141
  -0.184   0.117   0.007   0.112  -0.104  -0.069  -0.082   0.141  -0.013   0.037
  -0.025  -0.037  -0.037   0.008   0.107  -0.091  -0.133   0.182  -0.038   0.013
  -0.092  -0.025   0.143   0.179  -0.438   0.072   0.338  -0.033  -0.298   0.028
   0.133   0.197  -0.226  -0.182   0.140   0.172   0.052  -0.324  -0.015   0.169
  -0.037  -0.127   0.163   0.012  -0.104   0.036  -0.167   0.253  -0.000  -0.222
   0.210  -0.089  -0.044   0.073   0.072  -0.082   0.027  -0.056  -0.031   0.128
  -0.006  -0.079   0.051  -0.011  -0.141   0.155   0.082  -0.071   0.058  -0.080
  -0.114   0.177  -0.102   0.113  -0.107   0.039  -0.090  -0.003   0.120  -0.015
   0.097  -0.194  -0.062   0.192  -0.140  -0.020   0.201  -0.248   0.025   0.010
   0.067  -0.013  -0.086  -0.051   0.193  -0.071  -0.054   0.108  -0.093   0.101
  -0.056  -0.030  -0.091   0.230  -0.059  -0.224   0.240   0.118  -0.359   0.215
   0.048  -0.100   0.074   0.029  -0.101  -0.048   0.050   0.155  -0.176  -0.005
   0.103  -0.137   0.026   0.122  -0.175   0.163  -0.129  -0.013   0.095   0.109
  -0.129  -0.103   0.157   0.145  -0.163  -0.208   0.317  -0.015  -0.160  -0.080
   0.280   0.032  -0.370   0.083   0.287  -0.080  -0.181  -0.020   0.265  -0.231
   0.212  -0.074  -0.029  -0.060   0.172   0.023  -0.079   0.112  -0.048  -0.044
  -0.034   0.060   0.024   0.105  -0.206   0.090   0.025  -0.021  -0.049   0.071
  -0.033   0.024  -0.029  -0.055   0.045   0.048  -0.044  -0.104   0.056   0.057
  -0.064   0.078  -0.109  -0.026   0.040   0.004   0.020  -0.092   0.061   0.116
  -0.079  -0.084  -0.010   0.231  -0.242  -0.001   0.213  -0.108   0.004  -0.081
   0.066   0.071  -0.148   0.152   0.055  -0.229   0.101   0.057   0.054  -0.050
  -0.046  -0.001  -0.112   0.135  -0.008   0.036  -0.105   0.072  -0.048  -0.082
   0.111  -0.072   0.042   0.005  -0.003  -0.027  -0.012  -0.018  -0.044   0.097
  -0.143   0.043   0.109  -0.049  -0.098  -0.002   0.193  -0.128  -0.018   0.038
  -0.042   0.089  -0.085  -0.101   0.192   0.040  -0.100  -0.111   0.162  -0.055
  -0.047  -0.036   0.058   0.028  -0.021  -0.003  -0.021  -0.008   0.113  -0.108
  -0.036   0.130   0.005  -0.215   0.154   0.077  -0.038  -0.097  -0.093   0.255
  -0.195   0.017  -0.020   0.020   0.017   0.003   0.095  -0.177   0.174  -0.065
  -0.056  -0.102   0.269  -0.114  -0.066   0.160  -0.113   0.094  -0.018   0.064
  -0.183   0.256  -0.052  -0.041   0.044  -0.218   0.392  -0.229  -0.157   0.272
  -0.144   0.194  -0.217   0.016   0.185  -0.243   0.221  -0.153   0.064   0.101
  -0.213   0.039   0.090   0.100  -0.196   0.085   0.024  -0.140   0.161  -0.009
  -0.130   0.124  -0.027   0.054  -0.054   0.014   0.154  -0.094  -0.142   0.209
   0.164  -0.521   0.266   0.132  -0.229  -0.045   0.089   0.204  -0.350  -0.062
   0.287   0.045  -0.266   0.008   0.282  -0.245  -0.024   0.266  -0.150  -0.226
   0.266   0.135  -0.176  -0.131   0.150   0.088  -0.329   0.265  -0.047  -0.008
  -0.017   0.107  -0.150  -0.041   0.213  -0.009  -0.093  -0.090   0.070   0.102
  -0.260   0.224   0.145  -0.446   0.117   0.152  -0.007  -0.124   0.051   0.019
  -0.160   0.132   0.059  -0.120   0.187  -0.384   0.337   0.015  -0.219   0.094
  -0.004   0.082  -0.091   0.040  -0.141   0.215  -0.142   0.091   0.196  -0.518
   0.341  -0.071   0.148  -0.164   0.006   0.038   0.026  -0.036  -0.003   0.030
   0.077  -0.186   0.105   0.102  -0.277   0.166  -0.104   0.143  -0.130  -0.136
   0.333  -0.113  -0.234   0.047   0.370  -0.384   0.030   0.217  -0.002  -0.278
  -0.043   0.371  -0.077  -0.242   0.070   0.165  -0.077  -0.088   0.186  -0.080
  -0.225   0.430  -0.331   0.229  -0.202   0.054   0.034   0.128  -0.217   0.107
   0.039   0.060  -0.246   0.102   0.257  -0.149  -0.154   0.132   0.079  -0.362
   0.352  -0.132   0.043  -0.043  -0.042   0.054  -0.139   0.109   0.115  -0.164
   0.057   0.198  -0.281   0.142   0.029  -0.118   0.138   0.017  -0.033  -0.017
   0.226  -0.356  -0.068   0.443  -0.121  -0.215   0.224  -0.018  -0.022  -0.182
   0.333  -0.225   0.240  -0.314   0.106  -0.049   0.123  -0.181   0.254  -0.026
  -0.137  -0.060   0.140   0.026  -0.127   0.269  -0.260   0.127  -0.086  -0.084
   0.196   0.142  -0.269   0.062  -0.046   0.064   0.065  -0.169   0.103  -0.003
  -0.063   0.165  -0.219   0.103  -0.015   0.091  -0.165   0.032   0.134  -0.087
  -0.094   0.206  -0.166   0.192  -0.175   0.107   0.064  -0.097  -0.051  -0.082
   0.100   0.044  -0.010   0.056  -0.130   0.173  -0.144  -0.046   0.010   0.224
  -0.205   0.029  -0.080  -0.123   0.163  -0.082   0.187  -0.146   0.163  -0.136
  -0.091   0.013   0.008   0.215  -0.137  -0.014  -0.230   0.261  -0.106   0.410
  -0.571   0.264  -0.060  -0.084   0.437  -0.294  -0.072  -0.009   0.082  -0.060
   0.053  -0.116   0.058   0.035   0.154  -0.387   0.249   0.012   0.058  -0.038
  -0.128   0.027   0.086  -0.068   0.056  -0.183   0.191   0.003  -0.215   0.066
   0.066  -0.010   0.006   0.116  -0.382   0.267  -0.031  -0.017  -0.079   0.124
  -0.026  -0.016   0.170  -0.298   0.076   0.178  -0.179  -0.003   0.049  -0.043
   0.006  -0.072   0.059   0.066  -0.170   0.081   0.251  -0.093  -0.368   0.285
   0.078  -0.202   0.195   0.006  -0.116   0.176  -0.113  -0.114   0.358  -0.284
  -0.110   0.342  -0.130  -0.121   0.148  -0.119   0.002  -0.016   0.265  -0.240
  -0.057   0.147  -0.029   0.071  -0.158   0.057   0.036   0.076  -0.071  -0.017
   0.064  -0.100   0.092  -0.116  -0.001   0.058   0.181  -0.139  -0.194   0.128
   0.088   0.117  -0.248   0.086   0.110  -0.083  -0.012   0.025  -0.027  -0.022
   0.035   0.056  -0.004  -0.115   0.188  -0.012  -0.054  -0.047  -0.179   0.273
   0.026  -0.163   0.042  -0.002   0.101  -0.157  -0.042   0.242  -0.036  -0.257
   0.107   0.083  -0.010   0.050  -0.219   0.101   0.098   0.043  -0.168   0.007
   0.175  -0.137   0.064   0.015  -0.025   0.063  -0.100  -0.122   0.202  -0.100
   0.159  -0.184  -0.053   0.172  -0.201   0.171   0.034  -0.238   0.205  -0.131
   0.104   0.019  -0.093   0.085  -0.014  -0.101  -0.031   0.279   0.095  -0.356
  -0.057   0.097   0.156  -0.088  -0.021   0.145  -0.239   0.027   0.047   0.045
   0.134  -0.303   0.150   0.024  -0.084   0.148  -0.070  -0.058  -0.000   0.066
  -0.171   0.151  -0.117   0.132  -0.029  -0.352   0.323   0.023  -0.059  -0.062
  -0.080   0.262  -0.214   0.052   0.215  -0.193  -0.077   0.210  -0.092  -0.022
  -0.056   0.182   0.025  -0.255   0.158   0.071  -0.139   0.046   0.051   0.213
  -0.303   0.037   0.147   0.017  -0.197  -0.006   0.197  -0.111   0.112  -0.011
  -0.168   0.065   0.081  -0.057  -0.098   0.100   0.013  -0.017  -0.073   0.165
  -0.156  -0.061   0.303  -0.314  -0.021   0.076   0.036   0.132  -0.200   0.076
  -0.101  -0.060   0.341  -0.076  -0.194   0.197  -0.105   0.006   0.006  -0.088
   0.176  -0.086  -0.100   0.100  -0.036   0.267  -0.201  -0.030  -0.033   0.111
  -0.035   0.093   0.034  -0.107  -0.063   0.027   0.080  -0.098   0.110  -0.014
  -0.193   0.186  -0.107   0.071   0.059  -0.045   0.020  -0.152   0.108   0.007
   0.015   0.026  -0.035   0.004  -0.075   0.084  -0.003  -0.025   0.111  -0.178
  -0.060   0.141   0.067  -0.137  -0.052   0.075  -0.008   0.004  -0.019  -0.084
   0.065  -0.064   0.090  -0.126   0.081   0.003   0.037  -0.094   0.064   0.030
  -0.061   0.027   0.039  -0.016  -0.027   0.036   0.014  -0.092   0.221  -0.129
  -0.182   0.201   0.041  -0.201   0.058  -0.001   0.250  -0.287  -0.071   0.314
  -0.224  -0.061   0.113  -0.086   0.118  -0.053  -0.133   0.139  -0.053  -0.069
   0.148  -0.046  -0.097   0.009   0.022   0.103  -0.036  -0.033  -0.246   0.198
   0.210  -0.208  -0.129   0.165  -0.044   0.009   0.109  -0.143  -0.011   0.052
   0.130  -0.174  -0.062   0.187   0.025  -0.179   0.030   0.192  -0.019  -0.088
   0.048  -0.048  -0.042   0.238  -0.244   0.103   0.012   0.017  -0.026  -0.173
   0.179   0.032  -0.076  -0.020  -0.015   0.044  -0.001  -0.055   0.077   0.028
  -0.062  -0.071   0.093   0.009  -0.076   0.059   0.075  -0.132  -0.134   0.189
   0.031  -0.193   0.280  -0.143  -0.014   0.074   0.028   0.093  -0.192   0.079
   0.191  -0.220   0.045   0.035   0.057  -0.226   0.159  -0.051   0.025  -0.042
   0.030   0.106  -0.208   0.055   0.132  -0.129   0.045   0.036  -0.080  -0.086
   0.107   0.101  -0.146   0.106  -0.124   0.006   0.157  -0.090  -0.017  -0.081
   0.110   0.007  -0.175   0.368  -0.198  -0.031   0.032   0.068   0.107  -0.320
   0.335  -0.260  -0.038   0.152  -0.018   0.099  -0.265   0.206  -0.087  -0.182
   0.294  -0.231   0.147   0.030  -0.225   0.294  -0.240   0.077   0.114   0.086
  -0.151  -0.127   0.321  -0.072  -0.045   0.035  -0.106  -0.020   0.025   0.151
  -0.010  -0.244   0.096  -0.056   0.112   0.023  -0.047  -0.014  -0.091   0.166
  -0.212   0.193  -0.066   0.033  -0.110   0.072   0.190  -0.157  -0.036   0.086
   0.025  -0.081   0.016   0.083  -0.051  -0.023   0.050   0.013  -0.217   0.226
   0.184  -0.224  -0.035   0.037   0.043  -0.094   0.089   0.028  -0.140   0.010
   0.070   0.035  -0.068  -0.032   0.138  -0.092  -0.078   0.074  -0.059   0.105
  -0.154   0.054   0.100  -0.084   0.019   0.015  -0.044  -0.031  -0.003   0.013
   0.147  -0.271  -0.017   0.093   0.124  -0.281   0.060   0.242  -0.180  -0.214
   0.213   0.127  -0.050  -0.061  -0.069  -0.019   0.152  -0.064  -0.063  -0.064
   0.146  -0.041  -0.063  -0.044   0.078  -0.035   0.074  -0.053   0.001   0.126
  -0.052  -0.059   0.095   0.052  -0.178   0.195  -0.079  -0.023   0.014  -0.037
   0.102  -0.103  -0.013   0.137  -0.031  -0.030  -0.015  -0.009   0.013   0.039
   0.041  -0.143   0.056   0.014  -0.046   0.059   0.048  -0.023   0.040  -0.082
  -0.013   0.082  -0.026   0.053  -0.047   0.008  -0.063   0.079  -0.060   0.126
  -0.107   0.116  -0.142   0.069  -0.041   0.070  -0.025   0.025  -0.068   0.052
   0.095  -0.134  -0.007  -0.026   0.101  -0.213   0.181  -0.025  -0.036  -0.012
  -0.030   0.032  -0.035   0.056   0.004  -0.025   0.080  -0.088   0.026  -0.001
   0.022   0.070  -0.181   0.113  -0.007   0.101  -0.095   0.076  -0.038   0.049
  -0.148   0.162   0.024  -0.046  -0.072   0.071  -0.082   0.118  -0.041   0.076
  -0.076   0.057  -0.057   0.025   0.010  -0.035   0.083  -0.030  -0.026  -0.037
   0.136  -0.078   0.055  -0.037   0.092  -0.112   0.023   0.051   0.022  -0.016
   0.060  -0.049   0.034  -0.033  -0.065   0.102  -0.062   0.039  -0.034  -0.036
   0.074   0.054  -0.037  -0.001   0.037  -0.030  -0.038   0.013  -0.027  -0.012
   0.038  -0.094   0.069   0.031  -0.095   0.149  -0.077  -0.055   0.062   0.026
  -0.074   0.095  -0.084   0.010  -0.015   0.107  -0.156   0.094   0.039  -0.024
   0.027  -0.027   0.042   0.017  -0.006   0.040  -0.004  -0.042  -0.022   0.090
  -0.033  -0.131   0.124   0.028  -0.120   0.099  -0.071   0.021  -0.019  -0.059
   0.091   0.049  -0.184   0.175  -0.076   0.022  -0.070   0.078  -0.032   0.014
  -0.110   0.132  -0.089  -0.005   0.046  -0.049  -0.094   0.093  -0.091   0.033
   0.101  -0.218   0.120  -0.016  -0.101   0.128  -0.188   0.111   0.022  -0.114
   0.058  -0.073  -0.070   0.061  -0.132   0.116  -0.090   0.069   0.023  -0.191
   0.154  -0.079  -0.086   0.135  -0.167   0.103  -0.011  -0.063   0.130  -0.092
  -0.043   0.105  -0.134   0.030   0.018  -0.107   0.034   0.023  -0.035  -0.017
   0.013  -0.027   0.017  -0.027  -0.022   0.002   0.036  -0.062   0.059  -0.075
   0.095  -0.074   0.047  -0.073   0.042  -0.049  -0.016   0.017  -0.018  -0.069
  -0.002   0.003   0.002  -0.046   0.029  -0.026  -0.111   0.110  -0.052   0.027
  -0.033  -0.036   0.072  -0.108  -0.019   0.016   0.018  -0.124   0.126  -0.065
   0.014   0.031  -0.057   0.060  -0.012  -0.069   0.075  -0.008  -0.080  -0.019
   0.050  -0.054  -0.064   0.030   0.038  -0.026  -0.085   0.167  -0.154  -0.001
   0.146  -0.093  -0.028   0.111  -0.016  -0.095   0.085   0.020  -0.088   0.084
   0.015  -0.127   0.080   0.041  -0.010   0.005  -0.075   0.049   0.023  -0.024
   0.098  -0.127   0.018   0.115  -0.127   0.068   0.087  -0.059   0.040  -0.049
   0.107  -0.040   0.047   0.011  -0.029   0.067  -0.039   0.076  -0.110   0.079
   0.020  -0.062   0.006  -0.012   0.167  -0.241   0.233   0.031  -0.148   0.269
  -0.177   0.208  -0.136  -0.031   0.243  -0.255   0.139   0.067  -0.003  -0.017
   0.076   0.063  -0.012   0.052  -0.023   0.188  -0.207   0.189   0.105  -0.166
   0.120   0.065  -0.001   0.114   0.013  -0.041   0.161  -0.011   0.084  -0.001
   0.081   0.134  -0.254   0.315   0.038  -0.145   0.121   0.161   0.039  -0.040
  -0.003   0.189   0.071   0.046  -0.013   0.044   0.203  -0.064  -0.026   0.077
   0.151   0.123  -0.133   0.185  -0.003   0.027   0.070   0.129   0.009  -0.052
   0.220  -0.000  -0.060   0.047   0.148   0.174  -0.104   0.024   0.092   0.232
   0.099  -0.009   0.055   0.212   0.239   0.091  -0.067   0.310   0.217  -0.016
  -0.168  -0.319   0.122   0.452   0.105   0.067  -0.416  -0.362  -0.272   0.030
   0.075  -0.027  -0.455  -0.564   0.183   0.099  -0.092  -0.676  -1.125  -0.290
