Corrected accelerogram 20160214_001343_GODS_21 GNS Science
Site GODS      43 34 42S  172 46 09E     Cusp file:  20160214_001346_GODS
Godley Drive
Instrument Cusp_42283
Resolution: 18-bit   Instr Period: 0.0050 s   Damping: 0.700
Accelerogram 20160214_001343_GODS_21                 Processed 2016 February 22
11 km east of CHRISTCHURCH
2016 February 14         00:13:43 UT
Epicentre  43 29 50S 172 45 18E  Bearing N07W  Dist    9km  Depth    8km M  5.70
Number of points  8192    Duration 163.82 sec
Instrument corrected data at 0.020 sec intervals
Band-pass filter transition bands are .10-.25 Hz and 24.50-25.50 Hz
Component N00E  Horizontal Axis 1
Acceleration:  peak   1168.4 mm/s/s at  43.96 sec     rms     60.0 mm/s/s
Velocity:      peak   -85.96 mm/s   at  43.82 sec     rms     7.21 mm/s
Displacement:  peak  -29.279 mm     at  42.58 sec     rms    2.504 mm
    2016       2      14       0      13     430       0       0    2016       2
      43      29      50     172      45      18       8       0      14       0
      43      34      42     172      46       9       0       0     353       9
   35779     250     250    8192    8192    8192       0       0      13    6869
   200.0    0.70    0.00   0.000  0.0000   0.000   0.000   1.000     0.0    0.00
  43.578 172.769   43.50  172.76    5.70    0.00    0.00    0.00      0.      0.
  178.89    5.00    5.00  163.82  0.0050  0.0200      0.      0.      0.  9806.6
  1169.1   43.96    62.0   0.000      0.  1168.4   43.96    60.0  1262.2   1.563
  -85.96   43.82    7.21  191.97   0.256  -29.28   42.58    2.50   35.10   0.241
   0.100   0.150   0.250      0.      0.  24.500   1.000  25.500      0.      0.
     0.0    -0.0     0.0    -0.0     0.0    -0.0     0.0    -0.0     0.0    -0.0
     0.0    -0.0     0.0    -0.0    -0.0    -0.0    -0.0    -0.0    -0.0    -0.0
    -0.0    -0.0    -0.0    -0.0    -0.0    -0.0    -0.0    -0.0    -0.0    -0.0
    -0.0    -0.0    -0.0    -0.0    -0.0    -0.0    -0.0    -0.0    -0.0    -0.0
    -0.0    -0.0    -0.0    -0.0    -0.0    -0.0    -0.0    -0.0    -0.0    -0.0
    -0.0    -0.0    -0.0    -0.0    -0.0    -0.0    -0.0    -0.0    -0.0    -0.0
    -0.0    -0.0    -0.0    -0.0    -0.0    -0.0    -0.0    -0.0    -0.0    -0.0
    -0.0    -0.0    -0.0    -0.0    -0.0    -0.0    -0.0    -0.0    -0.0    -0.0
    -0.0    -0.0    -0.0    -0.0    -0.0    -0.0    -0.0    -0.0    -0.0    -0.0
    -0.0    -0.0    -0.0    -0.0    -0.0    -0.0    -0.0    -0.0    -0.0    -0.0
    -0.0    -0.0    -0.0    -0.0    -0.0    -0.0    -0.0    -0.0    -0.0    -0.0
    -0.0    -0.0    -0.0    -0.0    -0.0    -0.0    -0.0    -0.0    -0.0    -0.0
    -0.0    -0.0    -0.0    -0.0    -0.0    -0.0    -0.0    -0.0    -0.0    -0.0
    -0.0    -0.0     0.0    -0.0     0.0    -0.0     0.0    -0.0     0.0    -0.0
     0.0    -0.0     0.0    -0.0     0.0    -0.0     0.0    -0.0     0.0    -0.0
     0.0    -0.0     0.0    -0.0     0.0    -0.0     0.0    -0.0     0.0    -0.0
     0.0    -0.0     0.0    -0.0     0.0     0.0     0.0     0.0     0.0     0.0
     0.0     0.0     0.0     0.0     0.0     0.0     0.0     0.0     0.0     0.0
     0.0     0.0     0.0     0.0     0.0     0.0     0.0     0.0     0.0     0.0
     0.0     0.0     0.0     0.0     0.0     0.0     0.0     0.0     0.0     0.0
     0.0     0.0     0.0     0.0     0.0     0.0     0.0     0.0     0.0     0.0
     0.0     0.0     0.0     0.0     0.0     0.0     0.0     0.0     0.0     0.0
     0.0     0.0     0.0     0.0     0.0     0.0     0.0     0.0     0.0     0.0
     0.0     0.0     0.0     0.0     0.0     0.0     0.0     0.0     0.0     0.0
     0.0     0.0     0.0     0.0     0.0     0.0     0.0     0.0     0.0     0.0
    -0.0     0.0    -0.0    -0.0    -0.1    -0.0    -0.1    -0.1    -0.1    -0.1
     0.0    -0.1    -0.0    -0.1    -0.1     0.0    -0.1     0.1    -0.0    -0.2
    -0.1    -0.0     0.0    -0.0    -0.1     0.0    -0.0    -0.0    -0.0     0.0
     0.0    -0.0    -0.0     0.0     0.0    -0.0    -0.0    -0.1     0.1    -0.0
     0.1    -0.1    -0.1     0.0    -0.0    -0.0    -0.0     0.0     0.0    -0.0
    -0.1    -0.1    -0.1     0.0     0.1    -0.1    -0.0     0.0     0.0    -0.0
    -0.0    -0.0     0.0     0.1     0.1     0.0     0.0    -0.0     0.1    -0.0
    -0.1    -0.1    -0.0     0.0    -0.1     0.0     0.1     0.1     0.1    -0.0
     0.1    -0.0     0.0    -0.0    -0.1     0.1    -0.1     0.1     0.1     0.1
     0.0     0.1     0.1    -0.1     0.0    -0.1    -0.0     0.1    -0.0    -0.1
     0.0    -0.0     0.0    -0.1    -0.0     0.1     0.1     0.1    -0.0    -0.0
     0.0     0.0     0.0    -0.1    -0.0    -0.0     0.1    -0.0    -0.1    -0.1
    -0.0    -0.0    -0.1    -0.0    -0.0    -0.1    -0.1    -0.1    -0.1    -0.1
    -0.0    -0.1    -0.0    -0.1     0.0     0.0    -0.0    -0.0     0.0    -0.0
     0.0    -0.1    -0.0    -0.1    -0.0    -0.1    -0.1    -0.0     0.1     0.0
    -0.0    -0.0    -0.0    -0.1     0.0     0.1    -0.0     0.0    -0.0    -0.1
    -0.0    -0.0    -0.0    -0.1    -0.1     0.0    -0.0    -0.1     0.1     0.0
    -0.0    -0.0    -0.1     0.0    -0.0     0.0    -0.0     0.0     0.0    -0.0
    -0.1     0.0     0.0    -0.0    -0.0     0.0     0.1    -0.1     0.1    -0.0
     0.0     0.0     0.2     0.0     0.2     0.1    -0.0    -0.0    -0.0    -0.1
     0.0    -0.1    -0.1    -0.0     0.0    -0.0     0.0    -0.0    -0.0     0.0
    -0.0    -0.0    -0.1     0.0     0.0     0.1     0.0     0.1    -0.0    -0.0
     0.1     0.0     0.0     0.0    -0.1    -0.1    -0.0     0.1     0.1     0.0
    -0.0     0.0     0.0     0.0     0.0     0.0     0.0     0.1     0.0     0.0
    -0.1     0.0    -0.1    -0.0     0.0     0.1     0.1    -0.0     0.1     0.1
     0.1     0.1     0.1     0.1     0.1     0.0     0.0     0.1     0.1     0.1
    -0.0     0.1     0.1     0.1     0.1     0.1     0.0    -0.0     0.1     0.0
    -0.0    -0.0     0.2    -0.0     0.0     0.0     0.1     0.0    -0.0    -0.0
    -0.0     0.0     0.0     0.0     0.0     0.0     0.1    -0.1     0.0    -0.0
     0.0    -0.1    -0.1    -0.0    -0.1     0.1     0.0    -0.1     0.1     0.1
     0.1    -0.0     0.1    -0.1    -0.0    -0.0    -0.1     0.1    -0.0    -0.1
    -0.0    -0.1    -0.2    -0.1    -0.0     0.0    -0.0    -0.0    -0.0    -0.1
     0.0     0.0    -0.1    -0.0     0.0    -0.0     0.0    -0.1    -0.1    -0.1
    -0.0    -0.1    -0.0    -0.0    -0.1    -0.2     0.0     0.1    -0.1    -0.1
    -0.1     0.0     0.0    -0.0    -0.0    -0.1    -0.1    -0.1    -0.1    -0.1
    -0.1    -0.1    -0.1    -0.0    -0.0    -0.1    -0.0     0.1     0.0     0.0
     0.0     0.0     0.1    -0.1     0.1     0.1    -0.0     0.0    -0.1    -0.0
     0.0     0.0    -0.0     0.0    -0.1    -0.0     0.0     0.0     0.1    -0.1
    -0.0     0.1    -0.0    -0.0     0.0     0.1     0.0     0.1     0.0     0.1
     0.0    -0.0     0.0    -0.1     0.0     0.1     0.0    -0.1    -0.0    -0.0
     0.1     0.1    -0.0    -0.0    -0.0    -0.0    -0.1    -0.1    -0.0     0.0
     0.0     0.0    -0.0    -0.0     0.0    -0.0     0.0    -0.0    -0.0    -0.0
    -0.1     0.0    -0.1     0.0     0.1    -0.1     0.0    -0.0     0.1    -0.0
    -0.0    -0.0     0.0     0.0     0.0     0.0    -0.1    -0.0     0.0     0.0
    -0.0     0.0    -0.0    -0.0    -0.0    -0.1    -0.0     0.0    -0.0     0.0
     0.0     0.1     0.0     0.0     0.1    -0.0     0.0     0.1    -0.0     0.1
     0.0    -0.1     0.1     0.0    -0.1    -0.0     0.0    -0.0     0.1     0.0
     0.1    -0.0    -0.0    -0.0     0.1     0.0     0.1    -0.0     0.1    -0.1
    -0.0    -0.0    -0.0     0.0     0.0     0.0    -0.1     0.1     0.1     0.0
    -0.1    -0.0     0.0    -0.0     0.0    -0.0     0.1     0.1     0.1     0.0
     0.1     0.0     0.1     0.0     0.2     0.1     0.1     0.1     0.1     0.1
     0.1     0.1    -0.1    -0.1     0.1    -0.0    -0.1     0.0     0.0     0.0
    -0.0     0.0     0.1    -0.1     0.0    -0.0    -0.0    -0.1    -0.1     0.1
    -0.0    -0.1    -0.1    -0.1    -0.1    -0.0     0.0     0.1    -0.1    -0.1
    -0.0    -0.0    -0.1     0.1     0.0     0.1    -0.0    -0.0     0.1    -0.0
    -0.0    -0.0    -0.0    -0.1     0.1    -0.0     0.2    -0.1    -0.1     0.0
    -0.0     0.1     0.1     0.0    -0.0     0.0    -0.0    -0.0    -0.1     0.0
    -0.1    -0.1     0.0    -0.1     0.0    -0.1    -0.1     0.0     0.1    -0.0
     0.0     0.0    -0.0    -0.1     0.0    -0.1     0.0    -0.1    -0.0    -0.0
     0.1    -0.1    -0.1     0.0    -0.1    -0.0    -0.1    -0.0    -0.1    -0.1
    -0.0    -0.2    -0.1    -0.0    -0.0    -0.1     0.1     0.0     0.0     0.2
    -0.0    -0.1     0.0     0.0    -0.0    -0.1     0.1    -0.0    -0.0     0.1
     0.0    -0.1    -0.0     0.0    -0.0    -0.1     0.0     0.0     0.1     0.1
     0.1    -0.1    -0.0     0.0    -0.0    -0.1    -0.1    -0.0     0.0     0.0
     0.1    -0.0    -0.0    -0.0     0.1     0.1     0.1    -0.0    -0.0     0.0
     0.0     0.1     0.1     0.0     0.0     0.1    -0.0     0.0     0.1     0.1
     0.0     0.1     0.2     0.0     0.1    -0.0    -0.1    -0.1     0.0     0.0
    -0.0     0.0    -0.1    -0.0    -0.1     0.0    -0.0    -0.1     0.1     0.0
     0.1     0.0     0.1     0.0     0.1     0.1     0.0     0.0     0.0     0.1
     0.0     0.1     0.1    -0.0     0.1     0.1     0.1     0.1     0.1     0.1
     0.1     0.0    -0.0     0.1     0.1     0.1    -0.0     0.1    -0.0    -0.1
    -0.0     0.0    -0.1    -0.0    -0.0     0.1     0.1     0.1    -0.1    -0.1
     0.0    -0.1     0.1    -0.0     0.1    -0.1     0.0    -0.1    -0.0    -0.1
    -0.0    -0.1    -0.0    -0.0    -0.1     0.0     0.0     0.0    -0.1     0.0
     0.0     0.0     0.1    -0.0     0.0    -0.0    -0.1    -0.0    -0.0    -0.1
    -0.1    -0.0    -0.0    -0.1    -0.0    -0.1    -0.1    -0.0    -0.0    -0.1
     0.0    -0.0    -0.0    -0.1    -0.0    -0.1    -0.1    -0.1     0.0    -0.0
     0.0     0.0    -0.0    -0.1    -0.0    -0.1    -0.0    -0.1    -0.1    -0.1
    -0.0    -0.1    -0.2    -0.1    -0.0    -0.1    -0.0    -0.1    -0.1    -0.1
    -0.1    -0.1    -0.0    -0.1    -0.2    -0.0     0.0     0.0     0.0    -0.1
    -0.0     0.0     0.0     0.1     0.1    -0.1    -0.1    -0.1     0.0     0.0
     0.0    -0.0    -0.1     0.0     0.1     0.1    -0.0     0.0     0.0     0.1
     0.0    -0.0     0.1    -0.1     0.0     0.0     0.1     0.0     0.0    -0.0
    -0.0    -0.0    -0.0     0.0     0.0     0.0     0.1     0.0     0.1     0.1
    -0.0     0.0    -0.0     0.0    -0.0    -0.0     0.1     0.0     0.1    -0.0
     0.1     0.2     0.1     0.1     0.0     0.0     0.0     0.1     0.1     0.0
     0.0    -0.0     0.1    -0.0     0.0    -0.1    -0.1     0.1     0.0     0.1
     0.0     0.0     0.1     0.0     0.1     0.0    -0.0    -0.0     0.1     0.0
     0.2    -0.0     0.0    -0.1    -0.0    -0.0     0.0     0.0     0.0    -0.0
    -0.0     0.0     0.1     0.0     0.1     0.1     0.1    -0.0     0.1     0.0
    -0.0    -0.0     0.0    -0.1    -0.1    -0.1     0.1     0.0    -0.0    -0.0
    -0.1     0.0    -0.0    -0.1    -0.2    -0.0     0.1     0.0     0.1     0.0
     0.1     0.1     0.0     0.1    -0.1     0.1     0.1     0.0    -0.0    -0.0
     0.1    -0.1     0.0     0.0    -0.0     0.1     0.1     0.1     0.2    -0.0
     0.0     0.1    -0.0     0.1     0.0    -0.0    -0.0    -0.1    -0.1    -0.1
    -0.0    -0.0    -0.0    -0.0    -0.1     0.0    -0.0    -0.1    -0.1    -0.0
    -0.0    -0.1    -0.0    -0.1     0.0    -0.0     0.0     0.0     0.0     0.0
    -0.1     0.1     0.1    -0.1     0.0     0.0     0.0     0.0     0.2     0.0
    -0.1    -0.1    -0.1    -0.1    -0.1    -0.0    -0.0     0.0     0.0    -0.0
     0.1    -0.1    -0.1     0.0    -0.0    -0.0    -0.1    -0.1    -0.1    -0.0
    -0.1    -0.1    -0.0    -0.0    -0.1    -0.1    -0.0     0.0    -0.1    -0.1
    -0.0     0.0     0.0    -0.0     0.0    -0.1    -0.0    -0.0     0.0    -0.0
     0.0     0.0    -0.0    -0.1    -0.1    -0.0     0.1    -0.0    -0.2    -0.1
    -0.0    -0.1    -0.0     0.1    -0.0     0.0     0.0    -0.1    -0.0    -0.0
     0.1    -0.1     0.1     0.1     0.1     0.1     0.1     0.1     0.1     0.1
     0.0     0.1     0.1     0.1     0.0    -0.0     0.1     0.1     0.0     0.1
     0.2     0.1     0.0     0.1     0.1    -0.0     0.0    -0.0     0.1     0.1
     0.1    -0.0     0.0     0.1     0.0    -0.1    -0.0    -0.0     0.0     0.1
    -0.0    -0.1     0.0    -0.0    -0.0     0.1     0.0     0.0     0.1     0.1
     0.0     0.0     0.1    -0.0     0.1     0.0     0.1     0.1     0.0    -0.0
     0.1     0.0     0.0     0.0     0.0    -0.0    -0.1    -0.0     0.0     0.0
     0.1    -0.0     0.1    -0.0     0.1     0.0    -0.1     0.0    -0.0    -0.0
     0.1     0.0     0.0    -0.0     0.0     0.1     0.1    -0.1     0.0     0.0
     0.1     0.1     0.0     0.0     0.1     0.1     0.0    -0.0     0.1     0.1
     0.0     0.0     0.0    -0.1    -0.1    -0.0     0.0    -0.0    -0.0    -0.1
    -0.0     0.0    -0.1    -0.1    -0.0    -0.0     0.0    -0.0     0.0    -0.0
    -0.1     0.0    -0.0    -0.1     0.0     0.0     0.1    -0.2     0.0    -0.0
    -0.1    -0.0    -0.1    -0.1    -0.1    -0.0    -0.1    -0.1    -0.0    -0.1
    -0.0    -0.1    -0.0    -0.1    -0.0     0.1    -0.1    -0.1    -0.1    -0.1
    -0.1    -0.1    -0.1    -0.1    -0.0    -0.0     0.1    -0.0     0.1     0.0
    -0.0    -0.1    -0.0    -0.0     0.0     0.0    -0.0    -0.1    -0.1    -0.1
    -0.1    -0.1    -0.1    -0.1    -0.0    -0.1    -0.1    -0.1    -0.0    -0.1
    -0.0    -0.0     0.0    -0.0     0.0    -0.0     0.1     0.1    -0.0    -0.0
    -0.0    -0.0     0.1     0.0     0.1     0.0     0.0    -0.0     0.1    -0.1
    -0.1    -0.0    -0.1    -0.0     0.0     0.1    -0.0    -0.1    -0.0    -0.0
     0.0     0.1    -0.0    -0.0     0.0     0.1     0.0    -0.0     0.0    -0.1
     0.1     0.1     0.1    -0.1     0.1    -0.0    -0.0     0.1     0.1     0.0
     0.1     0.1     0.1    -0.1     0.1    -0.0    -0.0     0.1     0.0     0.1
     0.0     0.0     0.1     0.1     0.1     0.2     0.1     0.0     0.1     0.1
     0.1    -0.0     0.0    -0.1     0.1     0.0     0.1     0.1     0.0     0.1
     0.0     0.0    -0.0    -0.0    -0.0    -0.1     0.0    -0.0     0.0     0.1
     0.1    -0.1     0.0    -0.0     0.0    -0.0     0.1    -0.0     0.1     0.0
    -0.0    -0.0    -0.1    -0.1    -0.1     0.0     0.0    -0.0     0.0     0.0
    -0.1    -0.1     0.1     0.0     0.1    -0.0     0.0    -0.1    -0.0    -0.1
    -0.0     0.0     0.0    -0.1    -0.0    -0.0     0.0    -0.1     0.0    -0.1
    -0.1     0.0     0.0    -0.0    -0.0    -0.0    -0.0    -0.0     0.0    -0.0
    -0.1    -0.1     0.0    -0.0    -0.1    -0.0     0.0    -0.1    -0.1    -0.0
    -0.0    -0.1    -0.0    -0.0    -0.1    -0.1    -0.0    -0.2    -0.2    -0.1
    -0.2    -0.2    -0.2    -0.1    -0.0    -0.2    -0.0    -0.0    -0.1    -0.2
    -0.2    -0.1    -0.2    -0.1    -0.2    -0.1    -0.1    -0.1    -0.2    -0.1
    -0.1    -0.2    -0.0    -0.1    -0.1    -0.1    -0.1    -0.1    -0.0    -0.0
     0.1    -0.1    -0.1    -0.1    -0.0    -0.1    -0.1    -0.1    -0.0    -0.1
    -0.1    -0.0    -0.0    -0.0    -0.1    -0.1    -0.1    -0.1     0.1    -0.2
    -0.1    -0.1    -0.1    -0.0     0.0    -0.0     0.1    -0.0    -0.0    -0.1
     0.0     0.0     0.0    -0.0     0.1    -0.0    -0.0     0.0     0.1    -0.0
     0.0     0.2     0.2     0.0     0.1     0.1     0.1     0.1     0.1     0.2
     0.2     0.3     0.3     0.2     0.1     0.1     0.2     0.1     0.2     0.0
     0.1     0.1     0.1     0.1     0.2     0.0     0.1     0.1     0.1     0.1
     0.1     0.1     0.1     0.2     0.2     0.2     0.1     0.1     0.2     0.1
     0.1     0.2     0.1     0.2     0.1     0.1     0.2     0.2     0.3     0.2
     0.2     0.2     0.2     0.2     0.1     0.2     0.2     0.2     0.3     0.2
     0.1     0.1     0.1     0.1     0.2     0.1     0.1     0.1     0.1     0.1
     0.1     0.1     0.1     0.1     0.2     0.1     0.1     0.0     0.0     0.1
     0.1     0.0     0.1     0.0     0.0    -0.0     0.1    -0.0     0.0     0.0
    -0.0    -0.1     0.1     0.0     0.1    -0.0    -0.1    -0.0    -0.0     0.0
     0.1    -0.0    -0.0    -0.0    -0.1    -0.2    -0.1    -0.1     0.0    -0.0
    -0.1    -0.1    -0.1    -0.1    -0.0    -0.1    -0.1    -0.2    -0.1    -0.2
    -0.1    -0.1    -0.2    -0.2    -0.2    -0.1    -0.1    -0.1    -0.1    -0.2
    -0.1    -0.2    -0.1    -0.3    -0.2    -0.2    -0.2    -0.2    -0.1    -0.3
    -0.2    -0.2    -0.1    -0.2    -0.1    -0.2    -0.2    -0.2    -0.1    -0.2
    -0.2    -0.2    -0.2    -0.2    -0.1    -0.1     0.0    -0.2    -0.1    -0.2
    -0.0    -0.1    -0.1    -0.1    -0.0    -0.1    -0.0    -0.1     0.1    -0.1
     0.1    -0.0     0.0    -0.0     0.0     0.0     0.1     0.1     0.1    -0.1
     0.0    -0.0     0.1     0.0     0.1     0.1     0.2     0.0     0.1     0.1
     0.1     0.1     0.1     0.1     0.2     0.2     0.2     0.2     0.2     0.1
     0.3     0.3     0.2     0.3     0.3     0.3     0.5     0.4     0.3     0.5
     0.5     0.4     0.5     0.4     0.4     0.4     0.5     0.5     0.5     0.4
     0.5     0.5     0.5     0.5     0.5     0.5     0.5     0.5     0.5     0.5
     0.6     0.5     0.7     0.5     0.6     0.4     0.6     0.5     0.6     0.5
     0.6     0.4     0.6     0.5     0.5     0.6     0.6     0.6     0.6     0.4
     0.6     0.5     0.5     0.5     0.5     0.5     0.5     0.4     0.5     0.4
     0.4     0.3     0.4     0.3     0.4     0.3     0.4     0.2     0.3     0.3
     0.2     0.1     0.3     0.1     0.2     0.1     0.1     0.0     0.1     0.0
     0.0    -0.1    -0.1    -0.2    -0.0    -0.2    -0.1    -0.3    -0.2    -0.3
    -0.2    -0.3    -0.2    -0.3    -0.3    -0.4    -0.4    -0.5    -0.4    -0.5
    -0.6    -0.7    -0.6    -0.7    -0.7    -0.8    -0.8    -0.8    -0.7    -0.9
    -0.9    -0.9    -0.9    -1.0    -1.0    -1.0    -1.1    -1.1    -1.1    -1.2
    -1.1    -1.2    -1.2    -1.4    -1.4    -1.5    -1.4    -1.6    -1.5    -1.6
    -1.5    -1.7    -1.7    -1.6    -1.7    -1.8    -1.7    -1.9    -1.8    -1.9
    -1.9    -1.9    -1.8    -2.0    -1.9    -2.0    -2.0    -1.9    -2.0    -2.0
    -2.0    -2.1    -2.0    -2.0    -2.1    -2.1    -2.0    -2.1    -2.0    -2.1
    -2.0    -2.1    -2.1    -2.1    -2.0    -2.2    -2.0    -2.2    -2.0    -2.0
    -1.9    -2.0    -1.9    -2.1    -1.9    -2.1    -1.9    -2.0    -1.9    -2.0
    -1.8    -1.9    -1.8    -1.7    -1.8    -1.8    -1.7    -1.7    -1.6    -1.6
    -1.5    -1.5    -1.3    -1.4    -1.4    -1.3    -1.2    -1.2    -1.1    -1.1
    -1.0    -1.0    -0.8    -0.8    -0.8    -0.7    -0.6    -0.6    -0.3    -0.4
    -0.3    -0.2    -0.0    -0.1     0.0     0.0     0.1     0.2     0.3     0.3
     0.5     0.6     0.7     0.8     0.9     0.9     1.1     1.1     1.4     1.3
     1.5     1.4     1.8     1.7     1.9     2.0     2.1     2.2     2.4     2.5
     2.6     2.6     2.9     2.9     3.1     3.1     3.3     3.3     3.4     3.4
     3.6     3.7     3.9     3.9     4.0     4.1     4.3     4.3     4.5     4.5
     4.8     4.8     5.0     5.0     5.2     5.2     5.4     5.4     5.6     5.5
     5.8     5.9     6.1     6.0     6.2     6.1     6.5     6.4     6.7     6.6
     6.7     6.7     6.9     6.9     7.2     7.1     7.2     7.2     7.4     7.3
     7.5     7.5     7.7     7.6     7.7     7.7     7.9     7.8     8.0     7.9
     8.1     8.0     8.2     8.1     8.3     8.3     8.4     8.3     8.4     8.3
     8.4     8.4     8.4     8.3     8.4     8.3     8.4     8.3     8.4     8.3
     8.4     8.3     8.3     8.3     8.3     8.2     8.2     8.0     8.2     8.0
     8.0     7.9     7.9     7.8     7.7     7.6     7.7     7.5     7.4     7.5
     7.3     7.3     7.0     7.0     6.4     4.4    -1.5    -0.7    -0.0     2.3
     0.9   -15.0   -18.5   -20.9   -22.9   -10.3    -3.1    11.8    11.3   -12.9
