Corrected accelerogram 20160214_001343_IFPS_20 GNS Science
Site IFPS      42 43 36S  171 28 22E     Cusp file:  20160214_001408_IFPS
Inchbonnie Fitzsimmons
Instrument Cusp_42169
Resolution: 18-bit   Instr Period: 0.0050 s   Damping: 0.700
Accelerogram 20160214_001343_IFPS_20                 Processed 2016 February 22
11 km east of CHRISTCHURCH
2016 February 14         00:13:43 UT
Epicentre  43 29 50S 172 45 18E  Bearing S50E  Dist  135km  Depth    8km M  5.70
Number of points  8192    Duration 163.82 sec
Instrument corrected data at 0.020 sec intervals
Band-pass filter transition bands are .10-.25 Hz and 24.50-25.50 Hz
Component N00E  Horizontal Axis 1
Acceleration:  peak     19.8 mm/s/s at  62.88 sec     rms      3.1 mm/s/s
Velocity:      peak    -4.13 mm/s   at  62.44 sec     rms     0.61 mm/s
Displacement:  peak   -1.367 mm     at  79.78 sec     rms    0.259 mm
    2016       2      14       0      13     430       0       0    2016       2
      43      29      50     172      45      18       8       0      14       0
      42      43      36     171      28      22       0       0     130     135
   34900     250     250    8192    8192    8192       0       0      13   28909
   200.0    0.70    0.00   0.000  0.0000   0.000   0.000   1.000     0.0    0.00
  42.727 171.473   43.50  172.76    5.70    0.00    0.00    0.00      0.      0.
  174.50    5.00    5.00  163.82  0.0050  0.0200      0.      0.      0.  9806.6
    20.2   62.88     3.2   0.000      0.    19.8   62.88     3.1    19.8   0.720
   -4.13   62.44    0.61    4.13   0.290   -1.37   79.78    0.26    1.61   0.192
   0.100   0.150   0.250      0.      0.  24.500   1.000  25.500      0.      0.
   0.001  -0.002   0.001  -0.001   0.001  -0.001   0.001  -0.001   0.001  -0.001
   0.002  -0.001   0.002  -0.001   0.002  -0.001   0.002  -0.000   0.002  -0.000
   0.003  -0.000   0.003   0.000   0.003   0.000   0.003   0.001   0.003   0.001
   0.004   0.001   0.004   0.001   0.004   0.001   0.004   0.002   0.004   0.002
   0.005   0.002   0.005   0.002   0.005   0.002   0.005   0.003   0.005   0.003
   0.006   0.003   0.006   0.003   0.006   0.003   0.006   0.003   0.006   0.004
   0.007   0.004   0.007   0.004   0.007   0.004   0.007   0.004   0.007   0.004
   0.007   0.005   0.008   0.005   0.008   0.005   0.008   0.005   0.008   0.005
   0.008   0.005   0.008   0.005   0.008   0.005   0.008   0.005   0.008   0.005
   0.008   0.005   0.008   0.005   0.008   0.005   0.008   0.005   0.008   0.005
   0.008   0.005   0.008   0.005   0.008   0.005   0.008   0.005   0.008   0.005
   0.008   0.005   0.008   0.005   0.008   0.004   0.007   0.004   0.007   0.004
   0.007   0.004   0.007   0.003   0.007   0.003   0.006   0.003   0.006   0.003
   0.006   0.002   0.005   0.002   0.005   0.001   0.004   0.001   0.004   0.001
   0.004   0.000   0.003  -0.000   0.003  -0.001   0.002  -0.002   0.002  -0.002
   0.001  -0.003   0.000  -0.003  -0.000  -0.004  -0.001  -0.005  -0.002  -0.005
  -0.002  -0.006  -0.003  -0.007  -0.004  -0.008  -0.004  -0.008  -0.005  -0.009
  -0.006  -0.010  -0.007  -0.011  -0.008  -0.012  -0.008  -0.013  -0.009  -0.014
  -0.010  -0.014  -0.011  -0.015  -0.012  -0.016  -0.013  -0.017  -0.014  -0.018
  -0.015  -0.020  -0.016  -0.021  -0.017  -0.022  -0.018  -0.023  -0.019  -0.024
  -0.020  -0.025  -0.021  -0.026  -0.022  -0.027  -0.023  -0.029  -0.024  -0.030
  -0.025  -0.031  -0.026  -0.032  -0.027  -0.033  -0.028  -0.035  -0.029  -0.036
  -0.030  -0.037  -0.031  -0.039  -0.032  -0.040  -0.033  -0.041  -0.034  -0.043
  -0.035  -0.044  -0.035  -0.046  -0.036  -0.047  -0.037  -0.049  -0.037  -0.051
  -0.038  -0.053  -0.038  -0.055  -0.038  -0.058  -0.036  -0.064  -0.030  -0.080
   0.095   0.149  -0.008   0.044   0.041   0.078   0.075   0.054   0.027   0.035
   0.140  -0.013  -0.025   0.121   0.073  -0.059  -0.033   0.005  -0.029   0.158
  -0.011   0.114   0.090  -0.051   0.093   0.071   0.007   0.016   0.067   0.034
   0.161   0.194   0.007   0.179   0.119   0.015   0.063   0.000   0.028   0.114
   0.111   0.042   0.095   0.041   0.077   0.025   0.075   0.053   0.070   0.176
   0.016  -0.024   0.094   0.079  -0.035   0.013  -0.008   0.080  -0.099  -0.018
   0.159  -0.019  -0.000   0.049  -0.066   0.030  -0.026  -0.047   0.026  -0.054
  -0.054  -0.085  -0.094  -0.055  -0.011   0.013  -0.008   0.051   0.051   0.008
   0.057   0.046  -0.056   0.045  -0.028   0.001   0.004  -0.077  -0.069  -0.062
  -0.027  -0.154  -0.068  -0.053  -0.019  -0.066  -0.098   0.059  -0.019   0.008
  -0.070  -0.011  -0.150  -0.015   0.062  -0.043  -0.007  -0.171  -0.030  -0.066
  -0.054   0.029  -0.066  -0.053  -0.017   0.015   0.041   0.036   0.017   0.050
   0.042  -0.092  -0.029  -0.063  -0.006  -0.157  -0.071  -0.043  -0.018   0.009
   0.008   0.076   0.057  -0.044  -0.007  -0.018  -0.027   0.157  -0.034  -0.010
   0.083  -0.018   0.038   0.043   0.066   0.043  -0.035  -0.051  -0.019  -0.039
   0.155   0.021  -0.006  -0.011  -0.015   0.004  -0.045   0.078  -0.076  -0.013
   0.042  -0.032  -0.033   0.053   0.079  -0.003  -0.091  -0.092  -0.005   0.015
   0.022  -0.015   0.035  -0.003  -0.107  -0.058  -0.077  -0.039  -0.026  -0.034
   0.033   0.112   0.024   0.057   0.044  -0.110   0.004  -0.012   0.047  -0.093
  -0.023  -0.081   0.007   0.020  -0.040   0.075   0.108  -0.024  -0.062  -0.070
  -0.005   0.005   0.004  -0.086   0.109  -0.069   0.024   0.091  -0.050   0.082
   0.097  -0.067   0.009   0.024   0.034  -0.044  -0.012   0.050   0.040  -0.041
  -0.019  -0.081   0.051  -0.004   0.040  -0.077  -0.065   0.053  -0.061  -0.006
  -0.020  -0.015   0.020  -0.034   0.024   0.038  -0.047  -0.055  -0.071  -0.031
  -0.009   0.030   0.023  -0.032   0.045   0.016  -0.084   0.017  -0.063   0.146
   0.039  -0.025   0.054   0.076   0.161   0.033   0.142   0.029   0.051   0.087
   0.066   0.030   0.031   0.041   0.096   0.008   0.065   0.000   0.144   0.090
   0.150   0.012  -0.032   0.104  -0.034   0.055  -0.030   0.007  -0.005  -0.029
  -0.130   0.004   0.011  -0.030  -0.065   0.035  -0.051  -0.120   0.002   0.071
   0.049   0.003  -0.132  -0.003  -0.001   0.016  -0.017  -0.075  -0.052   0.014
  -0.011  -0.018  -0.140  -0.202  -0.110   0.007  -0.033  -0.057   0.054  -0.022
  -0.045  -0.075   0.128   0.001   0.052   0.007  -0.040   0.010   0.062   0.007
  -0.050   0.012  -0.101  -0.068  -0.012  -0.053  -0.062  -0.095   0.017   0.007
   0.022   0.018  -0.030   0.028   0.022   0.015  -0.020  -0.032   0.104  -0.091
   0.079   0.038   0.031  -0.077  -0.058   0.013   0.059  -0.002   0.021  -0.009
  -0.141  -0.016   0.083  -0.087   0.006   0.036  -0.069  -0.075  -0.059   0.100
  -0.067  -0.012   0.043   0.032  -0.060   0.036   0.071  -0.077  -0.069   0.057
  -0.027  -0.008  -0.034   0.008  -0.013  -0.009   0.009  -0.017   0.061  -0.015
  -0.007   0.048  -0.075   0.160   0.033   0.010   0.067   0.121   0.070  -0.008
   0.076  -0.123   0.006   0.117  -0.012  -0.020   0.088   0.015  -0.015   0.015
   0.097  -0.048   0.007   0.008  -0.025   0.029   0.039   0.024   0.014  -0.135
   0.003   0.045   0.129   0.094  -0.009  -0.073  -0.115  -0.037  -0.010  -0.015
  -0.015   0.062   0.071  -0.015  -0.073   0.004   0.014  -0.117   0.029   0.015
  -0.024   0.073   0.094  -0.050   0.025  -0.071  -0.078   0.020   0.012   0.018
   0.059   0.026   0.035   0.163   0.063   0.019   0.068   0.100   0.033  -0.063
   0.040   0.063   0.079   0.010  -0.034  -0.081  -0.003  -0.066   0.022   0.020
   0.015   0.017   0.015  -0.100   0.035  -0.033  -0.042  -0.061   0.041  -0.088
  -0.087   0.018  -0.055   0.001   0.013  -0.022  -0.023   0.006  -0.116  -0.064
  -0.066  -0.043   0.070   0.020   0.008   0.018   0.025   0.105  -0.021  -0.033
  -0.001  -0.072   0.011  -0.021   0.073  -0.047   0.016  -0.078  -0.106  -0.087
  -0.020  -0.068   0.044  -0.057  -0.012   0.019   0.017  -0.019   0.102  -0.041
   0.047  -0.144   0.011  -0.055   0.007  -0.094  -0.014  -0.048  -0.091  -0.008
  -0.072  -0.050   0.170  -0.064  -0.012  -0.014   0.074  -0.044  -0.008  -0.043
   0.036  -0.058   0.006   0.058   0.050  -0.008  -0.015  -0.057   0.000  -0.054
  -0.002   0.013   0.105   0.009   0.054  -0.061   0.123   0.004   0.022   0.074
   0.022   0.072   0.148  -0.041  -0.001  -0.024   0.121   0.096   0.044  -0.032
   0.012  -0.001   0.110   0.006   0.053  -0.042   0.037  -0.065   0.170  -0.061
   0.001   0.024   0.090   0.119   0.227  -0.103  -0.038   0.075  -0.114  -0.023
   0.039  -0.056   0.085   0.228   0.089  -0.007   0.132  -0.086  -0.097   0.025
  -0.167   0.131  -0.081  -0.073   0.062  -0.214  -0.039   0.103  -0.113  -0.048
  -0.033  -0.035  -0.071  -0.105  -0.003  -0.007  -0.025   0.108  -0.054   0.077
  -0.059  -0.001  -0.102   0.142  -0.180  -0.031  -0.027  -0.087   0.032  -0.152
   0.128  -0.096   0.014  -0.064  -0.117  -0.026   0.074  -0.013   0.075  -0.136
   0.082  -0.134  -0.057   0.097   0.057  -0.189   0.037  -0.122   0.013   0.099
   0.034  -0.006   0.114   0.091   0.098  -0.044   0.115   0.001   0.069   0.074
  -0.033  -0.017   0.016  -0.101   0.085  -0.239   0.057   0.116   0.114  -0.007
   0.067  -0.097   0.108  -0.079   0.101  -0.074   0.066   0.032   0.032  -0.142
   0.107  -0.126   0.095  -0.079   0.035  -0.232   0.132  -0.279   0.265  -0.088
   0.090  -0.020  -0.102   0.076   0.090   0.074   0.095  -0.305   0.007  -0.041
  -0.058  -0.105  -0.069  -0.055   0.083  -0.154   0.014  -0.068  -0.182   0.174
   0.006  -0.092   0.046   0.012  -0.063  -0.150   0.018   0.068  -0.225   0.218
  -0.123   0.041  -0.071   0.163  -0.053   0.101  -0.032   0.058  -0.035   0.195
   0.124   0.142   0.061  -0.038  -0.046   0.080  -0.174   0.357  -0.297   0.138
   0.032  -0.054  -0.039   0.042  -0.011   0.061  -0.151   0.289  -0.264   0.106
  -0.051   0.285  -0.245   0.220  -0.104   0.024  -0.170   0.224  -0.088   0.119
  -0.007   0.058  -0.190   0.333  -0.290   0.259  -0.395   0.262  -0.085   0.079
  -0.143   0.019  -0.018   0.096  -0.236   0.304  -0.279   0.225  -0.282   0.199
  -0.196   0.099  -0.088   0.059  -0.077  -0.080  -0.123   0.348   0.034  -0.192
   0.228  -0.079   0.029  -0.130   0.110   0.102  -0.143   0.098  -0.166   0.058
  -0.149   0.114  -0.169   0.091  -0.052   0.113  -0.155   0.121  -0.230   0.210
  -0.211   0.365  -0.260   0.147  -0.138   0.120  -0.045  -0.003  -0.211   0.187
  -0.151  -0.208   0.418  -0.449   0.415  -0.175   0.246  -0.253   0.501  -0.302
   0.321  -0.297   0.341  -0.399   0.528  -0.588   0.527  -0.270   0.327  -0.136
   0.258   0.064   0.092   0.166   0.132  -0.413   0.628  -0.328   0.110   0.185
   0.041  -0.082   0.166   0.026  -0.037  -0.127  -0.064   0.168   0.012  -0.085
   0.195  -0.089  -0.278   0.102  -0.071  -0.120   0.087  -0.019  -0.057   0.008
   0.029  -0.106   0.046   0.040   0.070  -0.162  -0.010   0.002  -0.382   0.406
  -0.300  -0.032   0.136  -0.016  -0.003  -0.040  -0.083  -0.055   0.128  -0.102
  -0.038   0.128  -0.138   0.099  -0.012   0.084  -0.135   0.168  -0.113   0.071
  -0.001   0.069  -0.076  -0.058  -0.045   0.021  -0.223   0.224  -0.172   0.105
  -0.033  -0.044  -0.067  -0.108   0.080  -0.170   0.054  -0.054  -0.002  -0.150
   0.132  -0.146  -0.076   0.074  -0.117   0.013   0.032  -0.175   0.004  -0.125
   0.008  -0.138  -0.118  -0.060  -0.088  -0.092  -0.010  -0.065  -0.093  -0.069
   0.079  -0.068   0.104  -0.167  -0.012   0.022  -0.007  -0.147   0.179   0.074
  -0.235   0.100   0.098   0.036   0.082   0.109   0.033   0.087   0.044  -0.050
   0.109   0.010  -0.131   0.121   0.044   0.097  -0.011   0.074  -0.009  -0.075
   0.040  -0.138  -0.017   0.117  -0.029   0.073  -0.015  -0.140   0.071  -0.064
   0.096   0.041  -0.132   0.086  -0.038   0.015  -0.096  -0.019  -0.009  -0.045
  -0.105   0.170  -0.145  -0.013   0.123  -0.174   0.177   0.009  -0.010   0.221
   0.024   0.062  -0.016   0.065   0.023  -0.102   0.078   0.128   0.024   0.003
   0.069   0.025   0.055  -0.001   0.138  -0.061  -0.039   0.099   0.106   0.139
   0.108  -0.249   0.221   0.082   0.018  -0.053   0.033   0.001  -0.036   0.063
   0.047  -0.027   0.055   0.067  -0.068   0.031   0.057  -0.006   0.092   0.137
  -0.092   0.059   0.098   0.074  -0.065   0.158  -0.040   0.126   0.043   0.091
  -0.089  -0.012  -0.012   0.014   0.027  -0.011   0.000  -0.037  -0.006  -0.078
   0.010  -0.074   0.122  -0.035  -0.018  -0.003  -0.092  -0.017  -0.071  -0.097
  -0.054  -0.200  -0.159  -0.098  -0.057  -0.012  -0.225  -0.044  -0.103  -0.007
  -0.024  -0.010  -0.097  -0.078   0.003  -0.009  -0.011  -0.002  -0.026  -0.007
   0.010   0.053  -0.031  -0.086  -0.069  -0.041   0.037   0.027  -0.064   0.014
  -0.055  -0.055   0.193   0.059  -0.048  -0.048   0.134  -0.122   0.006   0.056
   0.063  -0.022  -0.051   0.159   0.171   0.059   0.026   0.038   0.125   0.047
   0.014   0.079  -0.007   0.008  -0.029   0.028   0.014  -0.035  -0.006  -0.047
  -0.000   0.046   0.038   0.083  -0.068  -0.019   0.045  -0.035  -0.027   0.079
  -0.055  -0.086  -0.055   0.178   0.008   0.108   0.041   0.048   0.032   0.006
   0.083   0.033   0.048   0.017  -0.045   0.075   0.156   0.006  -0.029   0.075
   0.066  -0.059  -0.039   0.102  -0.228  -0.024  -0.020   0.080  -0.105  -0.087
  -0.104  -0.060  -0.027  -0.050   0.024  -0.150  -0.081  -0.023  -0.047  -0.007
  -0.034  -0.071  -0.133  -0.045  -0.032  -0.028   0.041  -0.027   0.062   0.027
  -0.014  -0.066   0.037  -0.006  -0.021  -0.052  -0.041  -0.018  -0.049   0.020
   0.019   0.054   0.025  -0.045   0.011  -0.013   0.030  -0.046  -0.062  -0.012
  -0.028  -0.052   0.101  -0.001  -0.071   0.031   0.005  -0.042   0.052   0.010
  -0.008  -0.067   0.070  -0.009  -0.096  -0.051  -0.038   0.030  -0.089  -0.051
   0.024   0.142  -0.072  -0.031   0.025   0.074   0.032   0.013  -0.036  -0.035
   0.067   0.043  -0.014   0.056   0.063   0.069   0.042   0.061   0.106   0.060
   0.087   0.019  -0.047  -0.002  -0.036  -0.109   0.053  -0.017  -0.029  -0.022
   0.013  -0.089  -0.087  -0.009   0.049  -0.028   0.001  -0.010  -0.025   0.083
   0.042  -0.045  -0.029   0.047   0.062   0.034  -0.071  -0.015  -0.013  -0.088
   0.045  -0.055  -0.016  -0.082  -0.047  -0.112  -0.065   0.034   0.042   0.069
  -0.022   0.037   0.085   0.129   0.041   0.024   0.031   0.001  -0.001   0.053
   0.067  -0.023   0.088   0.076   0.001  -0.015  -0.009   0.071   0.094   0.111
   0.075  -0.058   0.163   0.100  -0.085  -0.004   0.079   0.009  -0.015   0.147
   0.040  -0.046   0.000   0.020  -0.028   0.018  -0.089   0.037  -0.017  -0.109
  -0.020   0.001  -0.063  -0.013  -0.006  -0.063   0.015   0.028   0.043  -0.048
  -0.004  -0.085  -0.071  -0.056  -0.089  -0.082  -0.030   0.093  -0.003  -0.028
  -0.061  -0.126  -0.075   0.086  -0.073  -0.041  -0.061  -0.030  -0.072  -0.047
   0.003  -0.072   0.012  -0.057   0.031   0.063   0.165  -0.006  -0.025  -0.049
   0.001  -0.020   0.006  -0.001  -0.095   0.004   0.027   0.001   0.006  -0.121
  -0.090   0.044   0.025   0.105  -0.048   0.110   0.060   0.076   0.029   0.016
   0.180  -0.054  -0.040  -0.016   0.078   0.007   0.073  -0.019  -0.137   0.120
  -0.029  -0.029  -0.042   0.047  -0.009  -0.011  -0.094  -0.022   0.052  -0.051
  -0.111  -0.052   0.022   0.040   0.011  -0.062  -0.012   0.108  -0.143  -0.048
  -0.052  -0.029  -0.138  -0.024  -0.002   0.004   0.006   0.013   0.105  -0.018
   0.075  -0.057   0.065   0.114  -0.015  -0.017   0.107   0.043  -0.011  -0.059
  -0.019  -0.098   0.057   0.056   0.025   0.069   0.057   0.121  -0.057  -0.065
   0.129   0.053  -0.057   0.034   0.062  -0.050  -0.015   0.146   0.158  -0.110
  -0.011   0.073  -0.005   0.045   0.119  -0.012   0.053   0.075  -0.018   0.041
  -0.115   0.020   0.038   0.002  -0.071   0.003   0.063  -0.065   0.127   0.044
   0.053  -0.107   0.070  -0.155   0.109  -0.012  -0.066  -0.038   0.060  -0.072
   0.117  -0.046   0.074  -0.089   0.121   0.000  -0.016   0.087   0.096   0.028
  -0.051   0.067   0.029   0.043  -0.065  -0.012   0.004  -0.012  -0.053  -0.162
  -0.045   0.022  -0.038   0.039   0.005   0.049  -0.024   0.110   0.015  -0.086
  -0.052  -0.042   0.066   0.026   0.101  -0.023  -0.058   0.017  -0.075  -0.090
   0.002  -0.094  -0.003  -0.015  -0.024  -0.061   0.029  -0.150   0.073   0.114
  -0.232   0.028  -0.109   0.119  -0.043  -0.005  -0.108  -0.084  -0.020   0.016
   0.091  -0.089  -0.081  -0.126  -0.035  -0.026   0.045  -0.000  -0.032  -0.056
   0.029  -0.033  -0.016  -0.074  -0.045   0.075   0.069   0.032  -0.087  -0.026
  -0.046   0.126  -0.099  -0.095  -0.046  -0.042  -0.063  -0.042   0.136  -0.118
   0.115   0.018  -0.163   0.017   0.119   0.104  -0.283   0.026  -0.030  -0.003
   0.081   0.041  -0.163  -0.014   0.069  -0.032   0.095  -0.063   0.004   0.010
   0.093  -0.031  -0.120   0.047  -0.014  -0.067   0.021  -0.043   0.068  -0.065
  -0.054  -0.113   0.114  -0.080   0.006  -0.102  -0.132   0.210  -0.058   0.006
  -0.214   0.069  -0.136   0.283   0.028  -0.049  -0.124   0.175   0.060   0.219
  -0.056   0.147  -0.106   0.339   0.062   0.110   0.168   0.035   0.230  -0.067
   0.138   0.088   0.085  -0.256   0.359  -0.124  -0.175  -0.008   0.001  -0.114
   0.026   0.063  -0.140   0.107  -0.111   0.037  -0.136  -0.030   0.152  -0.021
   0.083  -0.121   0.077   0.132  -0.144   0.315  -0.131  -0.078   0.170   0.148
  -0.197   0.131   0.040  -0.088   0.053   0.014   0.005   0.208  -0.100   0.041
  -0.045   0.029   0.111   0.059   0.021  -0.094   0.318  -0.201   0.218  -0.048
   0.016   0.068   0.088   0.198   0.059   0.045   0.250  -0.120   0.024  -0.165
   0.061   0.033   0.011   0.169  -0.134   0.098  -0.101   0.160  -0.201  -0.055
   0.070   0.003   0.113  -0.087  -0.133   0.068   0.054  -0.070   0.047   0.050
   0.061  -0.102   0.043  -0.014   0.049  -0.204   0.129   0.011  -0.044   0.051
  -0.269   0.145  -0.114  -0.030  -0.128  -0.110  -0.176   0.033   0.130  -0.194
  -0.043  -0.171   0.057  -0.102   0.058  -0.177   0.010   0.038  -0.061  -0.184
  -0.020   0.064   0.052  -0.055  -0.018  -0.130  -0.123   0.049  -0.027  -0.026
  -0.183  -0.117   0.191  -0.272  -0.086  -0.200   0.223  -0.042  -0.031  -0.058
  -0.132  -0.276   0.370  -0.170  -0.213  -0.008  -0.198   0.073  -0.076  -0.188
  -0.010   0.004  -0.220   0.094   0.001  -0.267   0.197  -0.272  -0.003   0.040
  -0.100  -0.133  -0.120   0.127  -0.153   0.263  -0.237   0.068   0.019   0.114
  -0.282   0.288  -0.157   0.057  -0.061   0.121  -0.140   0.176  -0.010  -0.179
   0.052  -0.103   0.021   0.047  -0.148   0.054   0.017  -0.037   0.108  -0.085
   0.033  -0.117   0.178  -0.027   0.074   0.227  -0.132   0.010   0.199   0.124
  -0.027   0.102  -0.039   0.142   0.161  -0.079  -0.178  -0.190   0.359   0.070
  -0.100  -0.007   0.180  -0.096   0.176   0.023   0.022   0.280  -0.132   0.256
  -0.050   0.301   0.018  -0.042   0.176  -0.287   0.356   0.035   0.000  -0.155
   0.318  -0.208   0.440  -0.133  -0.023  -0.053   0.116   0.048   0.002   0.245
   0.019  -0.168   0.168  -0.084   0.207  -0.066   0.002   0.228   0.017   0.229
  -0.034   0.289  -0.010  -0.071   0.241  -0.023  -0.077   0.212   0.053   0.023
   0.015   0.120   0.091  -0.033  -0.002   0.091  -0.187   0.112   0.170  -0.125
   0.355  -0.247   0.484  -0.008   0.128   0.129  -0.363   0.330  -0.065   0.480
   0.114  -0.147  -0.134  -0.002  -0.229   0.116  -0.029  -0.036  -0.246  -0.139
   0.239   0.123   0.053   0.239  -0.027  -0.004  -0.089   0.058   0.044   0.107
   0.243  -0.036  -0.170   0.055   0.110  -0.202  -0.089  -0.017  -0.120  -0.195
   0.209  -0.017  -0.328  -0.525  -0.049  -0.149   0.146  -0.161  -0.325  -0.230
  -0.012  -0.098   0.130  -0.270  -0.079  -0.137  -0.436  -0.338  -0.172  -0.154
  -0.089  -0.198  -0.119  -0.098  -0.108   0.036   0.528   0.069   0.285   0.401
  -0.208  -0.174  -0.089  -0.039  -0.143  -0.463  -0.548  -0.625  -1.009  -0.267
   0.329   0.514  -0.521  -0.300  -0.466   0.268   0.703   0.811   0.128  -0.698
  -1.096   0.150   1.090   0.258  -0.863  -0.354  -0.449  -0.113   0.388   0.054
  -0.657  -0.740   0.440   0.976   1.085   0.899   0.050   0.604   0.422  -0.069
  -0.655  -1.686  -2.356  -2.003  -1.056  -0.486  -1.215  -0.747  -0.254   1.020
