Corrected accelerogram 20160214_001343_KEKS_20 GNS Science
Site KEKS      41 57 20S  173 58 53E     Basalt file:  20160214_001416_KEKS
Kekerengu Valley Road
Instrument Basalt_1763
Resolution: 24-bit   Instr Period: 0.0050 s   Damping: 0.700
Accelerogram 20160214_001343_KEKS_20                 Processed 2016 February 22
11 km east of CHRISTCHURCH
2016 February 14         00:13:43 UT
Epicentre  43 29 50S 172 45 18E  Bearing S30W  Dist  199km  Depth    8km M  5.70
Number of points  8192    Duration 163.82 sec
Instrument corrected data at 0.020 sec intervals
Band-pass filter transition bands are .10-.25 Hz and 24.50-25.50 Hz
Component N00E  Transverse Accelerometer Axis
Acceleration:  peak      5.1 mm/s/s at  80.64 sec     rms      0.9 mm/s/s
Velocity:      peak     0.85 mm/s   at  85.70 sec     rms     0.21 mm/s
Displacement:  peak   -0.452 mm     at 103.90 sec     rms    0.111 mm
    2016       2      14       0      13     430       0       0    2016       2
      43      29      50     172      45      18       8       0      14       0
      41      57      20     173      58      53       0       0     210     199
   32600     250     250    8192    8192    8192       0       0      13   36000
   200.0    0.70    0.00   0.000  0.0000   0.000   0.000   1.000     0.0    0.00
  41.956 173.981   43.50  172.76    5.70    0.00    0.00    0.00      0.      0.
  163.00    5.00    5.00  163.82  0.0050  0.0200      0.      0.      0.  9806.6
     5.3   80.63     0.9   0.000      0.     5.1   80.64     0.9     5.4   1.379
    0.85   85.70    0.21    1.18   0.247   -0.45  103.90    0.11    0.51   0.247
   0.100   0.150   0.250      0.      0.  24.500   1.000  25.500      0.      0.
  -0.000  -0.000  -0.000  -0.000  -0.000  -0.000  -0.000  -0.000  -0.000  -0.000
  -0.000  -0.000  -0.000  -0.000  -0.000  -0.000  -0.000  -0.000  -0.000  -0.000
  -0.000  -0.000  -0.000  -0.000  -0.000  -0.000  -0.000  -0.000  -0.000  -0.000
  -0.000  -0.000  -0.000  -0.000  -0.000  -0.000  -0.000  -0.000  -0.000  -0.000
  -0.000  -0.000  -0.000  -0.000  -0.000  -0.000  -0.000  -0.000  -0.000  -0.000
  -0.000  -0.000  -0.000  -0.000  -0.000  -0.000  -0.000  -0.000  -0.000  -0.000
  -0.000  -0.000  -0.000  -0.000  -0.000  -0.000  -0.000  -0.000  -0.000  -0.000
  -0.000  -0.000  -0.000  -0.000  -0.000  -0.000  -0.000  -0.000  -0.000  -0.000
  -0.000  -0.000  -0.000  -0.000  -0.000  -0.000  -0.000  -0.000  -0.000  -0.000
  -0.000  -0.000  -0.000  -0.000  -0.000  -0.000  -0.000  -0.000  -0.000  -0.000
  -0.000  -0.000  -0.000  -0.000  -0.000  -0.000  -0.000  -0.000  -0.000   0.000
  -0.000   0.000  -0.000   0.000   0.000   0.000   0.000   0.000   0.000   0.000
   0.000   0.000   0.000   0.000   0.000   0.000   0.000   0.000   0.000   0.000
   0.000   0.000   0.000   0.000   0.000   0.000   0.000   0.000   0.000   0.000
   0.000   0.000   0.000   0.000   0.000   0.000   0.000   0.000   0.000   0.000
   0.000   0.000   0.000   0.000   0.000   0.000   0.000   0.000   0.000   0.000
   0.000   0.000   0.000   0.000   0.000   0.000   0.000   0.000   0.000   0.000
   0.000   0.000   0.000   0.000   0.000   0.000   0.000   0.000   0.000   0.000
   0.000   0.000   0.000   0.000   0.000   0.000   0.000   0.000   0.000   0.000
   0.000   0.000   0.000   0.000   0.000   0.000   0.000   0.000   0.000   0.000
   0.000   0.000   0.000   0.000   0.000   0.000   0.000   0.000   0.000   0.000
   0.000   0.000   0.000   0.000   0.000   0.000   0.000   0.000   0.000   0.000
   0.000   0.000   0.000   0.000   0.000   0.000   0.000   0.000   0.000   0.000
   0.000   0.000   0.000   0.000   0.000   0.000   0.000   0.000   0.000   0.000
   0.000  -0.000   0.000  -0.000   0.001  -0.000   0.001  -0.000   0.001  -0.000
   0.001   0.000   0.002  -0.000   0.003  -0.002   0.005  -0.024  -0.003  -0.000
   0.015   0.020  -0.014  -0.017   0.003   0.000   0.001   0.001   0.001   0.000
   0.002  -0.001   0.004  -0.022  -0.006   0.004  -0.002   0.003  -0.001   0.002
  -0.001   0.002  -0.000   0.002  -0.000   0.001  -0.026   0.005  -0.003   0.006
  -0.010  -0.020   0.005  -0.001   0.002  -0.000   0.001   0.000   0.001   0.000
   0.001   0.001   0.001   0.001   0.001   0.001   0.001   0.001   0.001   0.001
   0.001   0.001   0.001   0.001   0.001   0.001   0.001   0.001   0.001   0.001
   0.001   0.001   0.001   0.001   0.000   0.001   0.000   0.001   0.000   0.001
   0.000   0.001   0.000   0.001   0.000   0.001   0.000   0.001   0.000   0.001
   0.000   0.001   0.000   0.001   0.000   0.001   0.000   0.001   0.000   0.001
   0.000   0.001   0.000   0.001   0.000   0.001  -0.000   0.002  -0.000   0.002
  -0.001   0.003  -0.002   0.005  -0.009  -0.021   0.006  -0.002   0.003  -0.001
   0.002  -0.000   0.002   0.000   0.001   0.000   0.001   0.000   0.001   0.000
   0.001   0.000   0.001   0.001   0.001   0.001   0.001   0.001   0.001   0.001
   0.001   0.001   0.001   0.001   0.001   0.001   0.001   0.001   0.001   0.001
   0.001   0.001   0.001   0.001   0.001   0.001   0.001   0.001   0.002   0.001
   0.002   0.001   0.002   0.001   0.002   0.001   0.002   0.001   0.002   0.000
   0.002   0.000   0.002   0.000   0.003  -0.000   0.004  -0.002   0.007  -0.016
  -0.013   0.007  -0.003  -0.022   0.001   0.002   0.001   0.002   0.001   0.001
   0.002   0.001   0.002   0.001   0.002   0.001   0.003  -0.000   0.005  -0.007
  -0.020   0.007  -0.001   0.004  -0.000   0.003   0.000   0.003   0.001   0.003
   0.001   0.003   0.001   0.003   0.001   0.003   0.001   0.003   0.001   0.003
   0.000   0.004  -0.001   0.007  -0.015  -0.013   0.008  -0.002   0.005  -0.001
   0.005  -0.001   0.005  -0.002  -0.020  -0.000   0.006  -0.008  -0.019   0.006
  -0.000   0.003   0.001   0.002   0.002   0.002   0.002   0.001   0.003  -0.000
   0.006  -0.014  -0.013   0.009  -0.003   0.008  -0.023  -0.002   0.003   0.002
   0.001  -0.023   0.004   0.001   0.003   0.001   0.003   0.001   0.004  -0.000
   0.006  -0.023  -0.029   0.006  -0.001   0.004   0.000   0.004   0.001   0.003
   0.001   0.004   0.001   0.004   0.000   0.005  -0.001   0.008  -0.016  -0.012
   0.007  -0.001   0.004   0.000   0.004   0.001   0.003   0.001   0.003   0.001
   0.003   0.001   0.003   0.001   0.004   0.000   0.004  -0.000   0.005  -0.001
   0.007  -0.009  -0.017   0.004   0.004  -0.013  -0.014   0.009  -0.003   0.006
  -0.002   0.006  -0.002   0.007  -0.008  -0.018   0.006  -0.000   0.003   0.001
   0.003   0.001   0.003   0.001   0.003   0.001   0.003   0.001   0.003   0.001
   0.003   0.001   0.003   0.000   0.004  -0.001   0.007  -0.016  -0.012   0.007
  -0.001   0.004   0.001   0.003   0.001   0.002  -0.024   0.004   0.000   0.003
   0.001   0.003   0.001   0.003   0.001   0.003   0.001   0.003   0.001   0.003
   0.001   0.003   0.001   0.003   0.001   0.003   0.001   0.003   0.001   0.003
   0.001   0.003   0.001   0.003   0.001   0.003   0.001   0.003   0.001   0.003
   0.001   0.003   0.001   0.004   0.001   0.004   0.000   0.005  -0.001   0.008
  -0.016  -0.012   0.007  -0.001   0.004  -0.000  -0.022   0.004   0.001   0.003
   0.001   0.004  -0.001   0.007  -0.015  -0.012   0.008  -0.001   0.005  -0.000
  -0.022   0.005  -0.005  -0.022   0.012  -0.010  -0.016   0.005   0.001   0.003
   0.002   0.003   0.002   0.002   0.003   0.002   0.003   0.002   0.003   0.002
   0.003   0.002   0.003   0.001   0.006  -0.021  -0.029   0.008  -0.002   0.006
  -0.002   0.008  -0.008  -0.017   0.006   0.001   0.003   0.002   0.002   0.003
   0.002   0.003   0.002   0.004   0.001   0.004   0.001   0.004   0.001   0.005
  -0.000   0.006  -0.002   0.009  -0.010  -0.014   0.001   0.019   0.016  -0.027
   0.006   0.003  -0.018  -0.005   0.007  -0.001   0.005   0.001   0.005   0.001
   0.004   0.002   0.004   0.002   0.004   0.002   0.003   0.002   0.003   0.003
   0.003   0.003   0.002   0.005  -0.005  -0.021  -0.016   0.001   0.005   0.001
   0.004   0.001   0.004   0.002   0.004   0.002   0.004   0.002   0.004   0.002
   0.004   0.002   0.004   0.001   0.005   0.000   0.008  -0.025  -0.041  -0.004
   0.004   0.003   0.002  -0.023   0.007  -0.020  -0.004   0.008  -0.021  -0.002
   0.005   0.001   0.005   0.000   0.007  -0.006  -0.019   0.008  -0.000   0.005
   0.001   0.005   0.001   0.004   0.001   0.004   0.001   0.005   0.001   0.005
  -0.000   0.006  -0.003  -0.015   0.003  -0.001  -0.017  -0.005   0.007  -0.000
   0.005   0.001   0.004   0.001   0.004   0.001   0.004   0.001   0.004   0.001
   0.004   0.001   0.004   0.000   0.007  -0.021  -0.003   0.005   0.001   0.004
   0.001   0.003   0.002   0.003   0.002   0.003   0.001   0.003   0.001   0.004
  -0.001   0.007  -0.015  -0.012   0.008  -0.001   0.005  -0.000   0.004   0.000
   0.004   0.000   0.004  -0.001   0.006  -0.007  -0.020   0.010  -0.023  -0.004
  -0.021   0.002   0.002   0.002   0.002   0.002   0.002   0.002   0.002   0.002
   0.002   0.002   0.002   0.001   0.002   0.001   0.002   0.001   0.002   0.001
   0.002   0.001   0.002   0.001   0.002   0.001   0.002   0.001   0.002   0.001
   0.001   0.001   0.001   0.001   0.001   0.001   0.001   0.001   0.001   0.001
   0.001   0.002   0.001   0.002  -0.000  -0.024   0.002   0.001   0.001   0.001
   0.001   0.001   0.001   0.001   0.001   0.001   0.001   0.002   0.000   0.002
   0.000   0.002  -0.001   0.005  -0.022  -0.005   0.004  -0.001   0.002   0.000
   0.002   0.000   0.001   0.001   0.001   0.001   0.001   0.001   0.001   0.001
   0.000   0.003   0.025   0.000   0.001   0.002  -0.001   0.005  -0.016  -0.014
   0.007  -0.003   0.005  -0.003  -0.022   0.000   0.002  -0.000   0.002  -0.000
   0.002  -0.000   0.002  -0.001   0.003  -0.001   0.003  -0.001   0.003  -0.001
   0.004  -0.003   0.007  -0.017  -0.013   0.006  -0.002   0.003  -0.001  -0.023
   0.002   0.000   0.002   0.001   0.002   0.000   0.002   0.000   0.002  -0.000
   0.003  -0.001   0.004  -0.002   0.007  -0.017  -0.013   0.006  -0.001   0.003
  -0.000   0.002   0.001   0.002   0.001   0.001   0.001   0.001   0.002   0.001
   0.003  -0.001   0.005  -0.008  -0.020   0.007  -0.002   0.004  -0.000   0.003
   0.000   0.003   0.001   0.002   0.001   0.002   0.001   0.002   0.001   0.002
   0.001   0.002   0.001   0.002   0.001   0.002   0.001   0.002   0.001   0.002
   0.001   0.002   0.002   0.002   0.002   0.002   0.002   0.002   0.002   0.002
   0.002   0.002   0.002   0.002   0.002   0.002   0.002   0.002   0.002   0.002
   0.002   0.002   0.002   0.002   0.002   0.002   0.001  -0.024   0.005  -0.000
   0.004  -0.001   0.006  -0.008  -0.019   0.006   0.001   0.002   0.004  -0.020
  -0.005   0.006  -0.000   0.004   0.000   0.004   0.001   0.003   0.001   0.003
   0.001   0.003   0.001   0.003   0.001  -0.023   0.004  -0.000   0.006  -0.014
  -0.014  -0.017  -0.000   0.005  -0.000   0.004   0.000   0.004   0.000   0.004
   0.000   0.004   0.000   0.004   0.000   0.004   0.000   0.004   0.000   0.004
  -0.000   0.005  -0.001   0.007  -0.008  -0.018   0.006   0.000   0.003   0.002
   0.002   0.002   0.002   0.002   0.001   0.003   0.001   0.003   0.001   0.004
  -0.001   0.007  -0.023  -0.028   0.005   0.000   0.003   0.001   0.002   0.002
   0.001   0.004  -0.006  -0.022  -0.017  -0.000   0.004  -0.000   0.004   0.000
   0.004  -0.000   0.004  -0.001   0.006  -0.008  -0.019   0.007  -0.001   0.004
   0.000   0.003   0.001   0.003   0.001   0.003   0.001   0.002   0.001   0.002
   0.001   0.002   0.001   0.003   0.001   0.003   0.000   0.003  -0.000   0.004
  -0.001   0.006  -0.008  -0.019   0.006  -0.001   0.003   0.001   0.001   0.004
  -0.012  -0.037   0.001   0.000   0.003   0.000   0.002   0.001   0.002   0.001
   0.002   0.001   0.002   0.001   0.002   0.001   0.002   0.001   0.002   0.001
   0.002   0.001   0.002   0.001   0.002   0.001   0.002   0.001   0.001   0.001
   0.001   0.001   0.001   0.001   0.001   0.001   0.001   0.001   0.001   0.001
   0.001   0.001   0.001   0.001   0.001   0.001   0.001   0.001   0.001   0.001
   0.001   0.001   0.001   0.000   0.001   0.000   0.001   0.000   0.002  -0.000
   0.003   0.025  -0.000   0.001   0.001   0.001   0.001   0.001   0.001   0.001
   0.001   0.001   0.001   0.000   0.001   0.000   0.001   0.000   0.001   0.000
   0.001   0.000   0.001   0.000   0.001  -0.000   0.002  -0.001   0.002  -0.002
   0.005  -0.023  -0.005   0.003  -0.001   0.001   0.000   0.001   0.001  -0.000
   0.004  -0.022  -0.006   0.004  -0.002   0.003  -0.001   0.002  -0.001   0.002
  -0.001   0.003  -0.002   0.003  -0.003   0.007  -0.017  -0.013   0.005  -0.002
   0.003  -0.001   0.002  -0.000   0.001   0.000   0.001   0.000   0.001   0.000
   0.001   0.000   0.001   0.001   0.001   0.001   0.001   0.001   0.001   0.001
   0.001   0.001   0.001   0.001   0.001   0.001   0.001   0.001   0.000   0.002
  -0.001   0.005  -0.023  -0.031   0.006  -0.003   0.004  -0.002   0.005  -0.003
   0.008  -0.017  -0.012   0.005  -0.001   0.003   0.001   0.002   0.001   0.002
   0.002   0.001   0.002   0.001   0.003  -0.000   0.005  -0.022  -0.004   0.004
  -0.000   0.003   0.001   0.003   0.001   0.003   0.001   0.003   0.000  -0.023
   0.003   0.001   0.002   0.002   0.002   0.002   0.002   0.002   0.003   0.002
   0.003   0.002   0.003   0.002   0.003   0.002   0.003   0.001   0.003   0.001
   0.004   0.001   0.004   0.001   0.004   0.000   0.005  -0.000   0.006  -0.002
   0.010  -0.011  -0.012  -0.012  -0.010  -0.014  -0.008   0.009  -0.002   0.006
  -0.000   0.006   0.001   0.005   0.001   0.005   0.001   0.004   0.002   0.004
   0.002   0.004   0.002   0.004   0.002   0.004   0.002   0.004   0.002   0.005
   0.002   0.005   0.000   0.008  -0.014  -0.011   0.009  -0.001   0.007  -0.000
   0.008  -0.005   0.007  -0.019   0.004   0.003   0.004   0.003   0.004   0.003
   0.004   0.003   0.004   0.003   0.003   0.005  -0.018  -0.005   0.009  -0.002
   0.010  -0.009  -0.015   0.005   0.004   0.000  -0.019   0.001   0.009  -0.015
  -0.009   0.005   0.005  -0.005  -0.017   0.001  -0.023   0.012  -0.003   0.008
  -0.001   0.007  -0.001   0.007  -0.002   0.010  -0.015  -0.010   0.008  -0.000
   0.008  -0.021  -0.003   0.006   0.001   0.005   0.001   0.005   0.001   0.005
   0.001   0.005   0.001   0.006  -0.001   0.010  -0.029  -0.018   0.002   0.001
   0.005  -0.029  -0.040   0.001   0.004   0.002   0.003   0.002   0.003   0.003
   0.003   0.003   0.002   0.003   0.002   0.004   0.000   0.007  -0.014  -0.013
   0.009  -0.002   0.006  -0.001   0.006  -0.002   0.008  -0.009  -0.018   0.006
   0.001   0.003   0.002   0.002   0.003   0.002   0.003   0.001   0.004   0.000
   0.006  -0.021  -0.003   0.004   0.001   0.003   0.001   0.003   0.001   0.002
   0.002   0.002   0.002   0.002   0.002   0.002   0.002   0.002   0.002   0.002
   0.002   0.002   0.002   0.002   0.002   0.001   0.002   0.000  -0.023   0.003
   0.001   0.002   0.001   0.002   0.001   0.002   0.001   0.002   0.001   0.003
  -0.001   0.006  -0.015  -0.014   0.009  -0.004   0.008  -0.007   0.030  -0.004
  -0.021   0.007  -0.002   0.003  -0.000   0.002   0.000   0.002   0.001   0.002
   0.001   0.001   0.001   0.001   0.001   0.001   0.001   0.001   0.001   0.001
   0.001   0.001   0.002   0.001   0.002   0.000   0.002  -0.000   0.003  -0.001
   0.005  -0.023  -0.004   0.003   0.000   0.001   0.002   0.008  -0.008   0.004
  -0.001   0.002  -0.000   0.002  -0.000   0.002   0.000   0.001   0.000   0.001
   0.000   0.001   0.000   0.001   0.000   0.001   0.000   0.001   0.000   0.001
   0.000   0.001   0.000   0.001   0.000   0.001   0.000   0.001   0.000   0.001
   0.000   0.001   0.000   0.001   0.000   0.000   0.000   0.000   0.000   0.000
   0.000   0.000   0.000   0.000   0.001   0.000   0.001   0.000   0.001  -0.000
   0.001  -0.000   0.001  -0.000   0.001  -0.000   0.001  -0.001   0.001  -0.001
   0.002  -0.002   0.004  -0.010  -0.021   0.005  -0.002   0.001  -0.000  -0.000
   0.002  -0.008  -0.023   0.007  -0.005   0.005   0.022   0.001  -0.001   0.002
  -0.003  -0.024   0.000   0.000  -0.000   0.001  -0.001   0.001  -0.001   0.001
  -0.001   0.001  -0.001   0.001  -0.002  -0.024   0.001  -0.000   0.000   0.000
  -0.000   0.000  -0.000   0.000  -0.000   0.000  -0.000   0.000  -0.000   0.000
  -0.000   0.001   0.000   0.001   0.000   0.001   0.000   0.001   0.000   0.001
   0.000   0.001   0.000   0.001   0.000   0.001   0.000   0.001   0.000   0.001
   0.001   0.001   0.001   0.001   0.001   0.001   0.001   0.000   0.001   0.000
   0.002  -0.001   0.004  -0.022  -0.005   0.004  -0.001   0.003  -0.000   0.002
  -0.000   0.002  -0.000   0.002  -0.000   0.003  -0.000   0.003  -0.001   0.005
  -0.008  -0.020   0.006  -0.001   0.003   0.000   0.003   0.001   0.003   0.001
   0.003   0.001   0.003   0.001   0.003  -0.000  -0.023   0.003   0.002   0.002
   0.002   0.002   0.002   0.002   0.002   0.002   0.003   0.002   0.003   0.001
  -0.022   0.004   0.002   0.003   0.002   0.003   0.002   0.003   0.003   0.003
   0.003   0.003   0.003   0.003   0.003   0.003   0.003   0.002   0.003   0.002
   0.003   0.002   0.003   0.002   0.003   0.002   0.004   0.002   0.004   0.002
   0.004   0.001   0.005   0.001   0.006  -0.029   0.026   0.000  -0.017   0.013
  -0.004   0.010  -0.003   0.012  -0.017  -0.008   0.006   0.003   0.002   0.006
  -0.020  -0.003   0.006   0.001   0.004   0.002   0.004   0.002   0.004   0.003
   0.004   0.003   0.004   0.003   0.003   0.003   0.003   0.003   0.003   0.003
   0.003   0.003   0.003   0.002   0.003   0.002   0.004   0.001  -0.022   0.004
   0.002   0.003   0.002   0.003   0.001  -0.023   0.004   0.001   0.004   0.002
   0.004   0.001   0.004   0.001   0.005  -0.001   0.008  -0.015  -0.012   0.007
  -0.001   0.004   0.000   0.004   0.001   0.003   0.001   0.003   0.001   0.003
   0.001   0.002   0.001   0.001   0.003  -0.020  -0.007   0.006  -0.003   0.006
  -0.005   0.009  -0.020  -0.008  -0.018  -0.007   0.005  -0.002   0.002  -0.001
   0.002  -0.000   0.001  -0.000   0.001  -0.000   0.000   0.000  -0.000   0.000
  -0.001   0.000  -0.001   0.001  -0.002   0.003  -0.009  -0.022   0.005  -0.004
   0.002  -0.003   0.001  -0.003   0.000  -0.002  -0.000  -0.002  -0.000  -0.002
  -0.001  -0.003  -0.001  -0.003  -0.001  -0.003  -0.001  -0.003  -0.001  -0.003
  -0.001  -0.003  -0.001  -0.003  -0.001  -0.004  -0.002  -0.004  -0.002  -0.004
  -0.002  -0.004  -0.002  -0.005  -0.002  -0.005  -0.002  -0.005  -0.002  -0.006
  -0.001  -0.006  -0.001  -0.007   0.001  -0.010   0.005  -0.027  -0.000   0.015
  -0.012   0.001  -0.008  -0.002  -0.006  -0.003  -0.005  -0.005  -0.031  -0.002
  -0.006  -0.003  -0.006  -0.004  -0.006  -0.004  -0.006  -0.004  -0.005  -0.005
  -0.005  -0.005  -0.005  -0.005  -0.005  -0.005  -0.005  -0.005  -0.005  -0.005
  -0.005  -0.005  -0.005  -0.005  -0.005  -0.006  -0.005  -0.007  -0.030  -0.004
  -0.006  -0.005  -0.006  -0.005  -0.006  -0.005  -0.006  -0.005  -0.006  -0.005
  -0.005  -0.005  -0.005  -0.005  -0.005  -0.005  -0.005  -0.004  -0.005  -0.004
  -0.006  -0.004  -0.006  -0.003  -0.006  -0.002  -0.008   0.001  -0.031   0.013
   0.004  -0.008  -0.001  -0.006  -0.002  -0.005  -0.003  -0.004  -0.004   0.001
   0.034   0.014   0.018   0.018  -0.003   0.018   0.033   0.016   0.029  -0.012
   0.020   0.008  -0.002  -0.005   0.022   0.004  -0.003   0.000  -0.002   0.002
  -0.015  -0.019   0.012  -0.015   0.050   0.097   0.050   0.112   0.081   0.060
   0.114   0.077   0.098   0.063  -0.008   0.007   0.008  -0.014  -0.039   0.006
  -0.001   0.007   0.019   0.029   0.031   0.029   0.105   0.105   0.143   0.191
   0.135   0.103   0.047  -0.025  -0.051  -0.079  -0.100  -0.086  -0.103  -0.048
   0.024   0.092   0.064   0.069   0.126   0.191   0.302   0.218   0.223   0.121
   0.001   0.016   0.006   0.016  -0.120  -0.322  -0.259  -0.196  -0.116   0.009
   0.078   0.111   0.057   0.163   0.221   0.199   0.073  -0.119  -0.213  -0.179
  -0.073  -0.069  -0.071  -0.188  -0.367  -0.251  -0.180  -0.274  -0.292  -0.336
  -0.298  -0.124   0.024  -0.023  -0.119  -0.139  -0.115  -0.181  -0.137   0.021
