Corrected accelerogram 20160214_001343_AMBC_20 GNS Science
Site AMBC      43 09 17S  172 43 51E     Cusp file:  20160214_001352_AMBC
Amberley HDC
Instrument Cusp_10417
Resolution: 18-bit   Instr Period: 0.0050 s   Damping: 0.700
Accelerogram 20160214_001343_AMBC_20                 Processed 2016 February 22
11 km east of CHRISTCHURCH
2016 February 14         00:13:43 UT
Epicentre  43 29 50S 172 45 18E  Bearing S03E  Dist   38km  Depth    8km M  5.70
Number of points  3740    Duration  74.78 sec
Instrument corrected data at 0.020 sec intervals
Band-pass filter transition bands are .10-.25 Hz and 24.50-25.50 Hz
Component N00E  Horizontal Axis 1
Acceleration:  peak    153.7 mm/s/s at  15.88 sec     rms     24.7 mm/s/s
Velocity:      peak    16.19 mm/s   at  21.30 sec     rms     3.74 mm/s
Displacement:  peak   -6.122 mm     at  20.90 sec     rms    1.552 mm
    2016       2      14       0      13     430       0       0    2016       2
      43      29      50     172      45      18       8       0      14       0
      43       9      17     172      43      51       0       0     177      38
   12961     250     250    3740    3740    3740       0       0      13   42759
   200.0    0.70    0.00   0.000  0.0000   0.000   0.000   1.000     0.0    0.00
  43.155 172.731   43.50  172.76    5.70    0.00    0.00    0.00      0.      0.
   64.80    5.00    5.00   74.78  0.0050  0.0200      0.      0.      0.  9806.6
   155.0   15.88    26.6   0.000      0.   153.7   15.88    24.7   221.3   1.947
   16.19   21.30    3.74   21.80   0.311   -6.12   20.90    1.55    7.52   0.262
   0.100   0.150   0.250      0.      0.  24.500   1.000  25.500      0.      0.
     0.0    -0.0     0.0    -0.0     0.0    -0.0     0.0    -0.0     0.0     0.0
     0.0     0.0     0.0     0.0     0.0     0.0     0.0     0.0     0.0     0.0
     0.0     0.0     0.0     0.0     0.0     0.0     0.0     0.0     0.0     0.0
     0.0     0.0     0.0     0.0     0.0     0.0     0.0     0.0     0.0     0.0
     0.0     0.0     0.0     0.0     0.0     0.0     0.0     0.0     0.0     0.0
     0.0     0.0     0.0     0.0     0.0     0.0     0.0     0.0     0.0     0.0
     0.0     0.0     0.0     0.0     0.0     0.0     0.0     0.0     0.0     0.0
     0.0     0.0     0.0     0.0     0.0     0.0     0.0     0.0     0.0     0.0
     0.0    -0.0     0.0    -0.0     0.0    -0.0     0.0    -0.0     0.0    -0.0
     0.0    -0.0     0.0    -0.0     0.0    -0.0     0.0    -0.0     0.0    -0.0
     0.0    -0.0     0.0    -0.0     0.0    -0.0     0.0    -0.0     0.0    -0.0
     0.0    -0.0     0.0    -0.0     0.0    -0.0     0.0    -0.0     0.0    -0.0
     0.0    -0.0     0.0    -0.0     0.0    -0.0     0.0    -0.0     0.0    -0.0
    -0.0    -0.0    -0.0    -0.0    -0.0    -0.0    -0.0    -0.0    -0.0    -0.0
    -0.0    -0.0    -0.0    -0.0    -0.0    -0.0    -0.0    -0.0    -0.0    -0.0
    -0.0    -0.0    -0.0    -0.0    -0.0    -0.0    -0.0    -0.0    -0.0    -0.0
    -0.0    -0.0    -0.0    -0.0    -0.0    -0.0    -0.0    -0.0    -0.0    -0.0
    -0.0    -0.0    -0.0    -0.0    -0.0    -0.0    -0.0    -0.0    -0.0    -0.0
    -0.0    -0.0    -0.0    -0.0    -0.0    -0.0    -0.0    -0.0    -0.0    -0.0
    -0.0    -0.0    -0.0    -0.0    -0.0    -0.0    -0.0    -0.0    -0.0    -0.0
    -0.0    -0.0    -0.0    -0.0    -0.0    -0.0    -0.0    -0.0    -0.0    -0.0
    -0.0    -0.0    -0.0    -0.0    -0.0    -0.0    -0.0    -0.0    -0.0    -0.0
    -0.0    -0.0    -0.0    -0.0    -0.0    -0.0    -0.0    -0.0    -0.0    -0.0
    -0.0    -0.0    -0.0    -0.0    -0.0    -0.0    -0.0    -0.0    -0.0    -0.0
    -0.0    -0.0    -0.0    -0.0    -0.0    -0.0    -0.1    -0.0    -0.1     0.0
    -0.3     0.3    -0.1     0.1     0.5     0.0     0.3    -0.7    -0.1    -0.2
     0.3     0.2     0.1     0.0     0.1     0.5     0.4     0.5     0.1     0.7
     0.1     0.1    -0.1     0.0     0.2    -0.5     0.4     0.0     0.0     0.3
     0.1     0.1     0.2     0.2    -0.1     0.1    -0.1    -0.1    -0.1     0.5
    -0.3    -0.2     0.6     0.3    -0.1    -0.3     0.1    -0.1     0.0     0.2
    -0.5     0.2     0.1    -0.1    -0.5    -0.2     0.3    -0.1     0.3     0.2
     0.1    -0.4     0.2     0.1     0.1     0.1    -0.0    -0.0     0.1     0.3
    -0.2     0.0     0.0    -0.0    -0.5    -0.1    -0.5    -0.0     0.0     0.2
     0.3     0.0    -0.2    -0.1    -0.1    -0.4    -0.5     0.3    -0.1     0.1
    -0.0    -0.7     0.4    -0.3    -0.2    -0.5     0.1    -0.4    -0.2     0.0
    -0.1    -0.5    -0.1     0.5     0.3    -0.2     0.2     0.3    -0.0    -0.3
     0.5    -0.3     0.0    -0.3     0.1    -0.4     0.1    -0.2    -0.2    -0.1
    -0.1     0.2     0.0     0.3    -0.2    -0.2     0.2     0.3    -0.2     0.3
    -0.5     0.0     0.2    -0.3    -0.3     0.1     0.1    -0.3    -0.4    -0.2
     0.5     0.4     0.1     0.2     0.2     0.3    -0.2     0.4    -0.1     0.0
    -0.0    -0.3     0.5    -0.2     0.4    -0.1    -0.2     0.4     0.3     0.1
     0.6    -0.2    -0.2     0.0     0.5    -0.2     0.3    -0.2    -0.0    -0.1
    -0.1    -0.0    -0.3    -0.3     0.4     0.3     0.2     0.2     0.2    -0.4
     0.5     0.2    -0.6     0.3    -0.3    -0.3     0.0    -0.0     0.2    -0.1
     0.4    -0.4     0.1    -0.4    -0.0    -0.2    -0.4     0.4     0.1    -0.1
    -0.2     0.1    -0.5    -0.1     0.1     0.1    -0.4    -0.2    -0.2    -0.0
    -0.1     0.0     0.3    -0.2     0.4     0.2     0.4     0.3     0.7    -0.2
    -0.2     0.4    -0.1     0.1     0.2     0.2    -0.0    -0.4     0.9    -0.1
     0.3    -0.2     0.3    -0.1    -0.1    -0.1    -0.1     0.5    -0.1    -0.0
     0.2     0.7     0.1    -0.0    -0.1    -0.3     0.1    -0.3     0.2     0.3
     0.2    -0.3    -0.2    -0.3     0.3     0.3    -0.4    -0.1    -0.2    -0.1
     0.1     0.7    -0.3    -0.2     0.3     0.1     0.1    -0.2     0.4    -0.2
    -0.1     0.1    -0.0     0.3     0.4     0.3    -0.1     0.2     0.0    -0.0
    -0.3     0.1     0.1    -0.1     0.5     0.1     0.3    -0.5     0.4     0.1
    -0.2     0.0    -0.0     0.5     0.1     0.5     0.2     0.6     0.1    -0.2
     0.3     0.4     0.3    -0.0     0.2     0.5     0.2     0.2    -0.3     0.1
     0.3    -0.1    -0.4    -0.4    -0.5     0.8    -0.2    -0.5     0.2     0.2
     0.4    -0.3    -0.7    -0.2    -0.5    -0.4     0.1    -0.6    -0.1    -0.0
     0.0     0.1     0.4     0.2    -0.4    -0.3     0.2    -0.2    -0.3    -0.2
    -0.5     0.2     0.1    -0.1     0.0    -0.2     0.0    -0.1    -0.6    -0.3
     0.0    -0.3    -0.1     0.1    -0.1    -0.1    -0.1    -0.0    -0.2    -0.1
    -0.6    -0.6    -0.0    -0.2    -0.3    -0.4    -0.3    -0.1    -0.5    -0.5
    -1.0    -0.6    -0.5     0.2    -0.5    -0.5    -0.9    -0.6    -0.5    -0.7
     0.1    -0.1    -0.2    -0.4    -0.4    -0.5    -0.0    -0.1    -0.2    -0.1
     0.2    -0.1    -0.4    -0.2    -0.5    -0.7    -0.1    -0.3    -0.7    -0.8
    -0.4    -0.7    -0.2    -0.5    -0.9    -1.4    -0.7    -0.6    -0.3    -0.8
    -0.6    -0.5    -0.7    -0.2     0.1     0.0    -0.5    -0.8    -0.2    -0.3
    -0.2    -1.0    -0.4    -0.3    -0.6    -0.7    -0.9    -0.3    -0.7    -0.6
    -0.6    -0.8    -0.2    -0.6    -0.2    -0.6     0.3     0.5     0.5     0.8
     0.2     2.3     2.0     1.4     2.7    -0.9    -2.1     4.9    -0.1     3.5
     3.6    -3.3    -2.1    -3.8    -2.8    -2.8    -2.2     0.4    -2.0     8.8
     0.0     8.2     9.3    -5.3     5.3    -7.8     4.5    -3.0     7.4    -9.2
    -4.2     2.4    -0.9     8.0    -7.0     4.7    -2.7    -1.8    23.3    -1.4
     3.1    -2.0    -4.1     5.7     8.2    14.4    -5.2     6.8    -7.7    -1.9
     0.0     2.3     0.2    23.9     3.7    14.3    11.5   -22.1    -9.4   -20.6
    -4.6    -8.4    -4.5    10.2     8.7    18.5    21.5    -5.0   -15.2    -5.3
   -12.9    -1.8    -4.9    -7.8     5.5     5.9    10.2    -2.0     2.5   -27.4
    13.0    27.3    27.0    17.8    -6.1    -0.1   -14.1     7.7    -5.9    11.0
   -10.9   -17.0   -26.5   -16.7     0.8   -43.7   -15.9    -1.7    20.2    11.3
     9.6     3.1     5.3   -10.8   -32.3    -2.2   -13.2     7.7    23.6    50.7
    13.4    -5.4     8.2   -13.3     3.9   -23.2   -40.3   -13.0    30.3    36.6
   -17.0   -21.4   -34.9   -24.2    27.1    33.0    27.4    15.4     6.8    -0.4
     9.6   -32.8   -62.9   -52.8   -27.1    21.9    24.2     8.6     9.4    15.6
    -0.2    -2.4    -0.7    -9.7    -3.3    20.9    28.7     6.7   -19.9   -30.3
   -15.3   -11.8    23.6    26.1     6.2    -4.9     9.0    23.1   -12.5   -22.3
     2.3    21.5    16.2    13.4    -0.8   -25.0   -58.8   -14.0    24.9    34.6
     5.5   -22.1    23.7    22.5     8.6    -5.2   -14.2   -15.6   -20.7     8.8
    27.5    21.9    27.6    18.2    37.8    48.0    14.2   -31.5   -43.7   -19.6
    -2.3    -1.5    -9.2    -6.6    -0.8    -9.0   -37.3     5.7    13.4     0.7
   -21.8    -9.7    15.7    10.8    27.8    14.1    -7.0     9.6    11.1     6.0
   -13.0   -30.1   -30.6    16.1    45.0    27.4    -2.5    -5.5     0.9   -15.6
    -7.8    -9.1     3.8   -20.3    -7.9     8.6    33.8    23.4    15.8    14.4
    27.8     6.3   -30.5   -24.2     7.5    29.6     1.9    -3.6    -8.4    11.5
    -2.8   -32.2   -41.0   -36.1   -50.8   -53.3   -35.0   -26.1    -6.4    -3.0
    14.3    33.8    -1.6   -18.8   -26.3   -10.0    18.3    12.3    14.7    13.5
    27.5    37.4    17.0     2.9    -9.7   -25.4   -33.4   -26.8   -40.5   -56.1
   -37.6   -17.7     4.8     4.6     8.1    -6.0   -12.9     8.7    21.2    17.9
    24.2    10.3   -10.7   -18.6     6.7    52.0    54.5    13.9   -27.3    -2.5
     6.0   -12.2    -7.1     0.3    18.6    38.2    48.8    53.9    43.6    33.7
    33.7    40.2    47.6    45.4    23.3    20.6    44.4    19.0   -25.4   -32.1
   -44.0   -79.5  -133.7  -152.7  -144.0  -125.9   -72.3   -36.1   -10.8    10.5
    22.9    19.3    27.0    56.2    63.2    61.8    38.7    37.6    64.3    83.2
    70.7    26.3    10.4    33.1    71.1    78.7    66.8     4.6   -74.3  -147.1
  -121.0   -24.5    -8.4   -35.1   -44.7   -33.9   -54.6   -50.7   -39.3    -3.0
    -7.8   -35.7    21.2   110.1   153.7    88.6    14.6    -2.3    -9.9   -52.2
   -94.7   -60.9   -19.9   -61.9   -90.2   -18.1    57.8    69.7    19.3   -19.9
    -7.0    -5.3   -15.3   -22.8    -7.0    43.1    83.0   103.7   129.3   135.5
   108.4    83.0    41.8    15.9   -12.6   -46.4   -76.4   -54.5   -23.2   -18.5
    -3.8   -46.7   -92.9  -132.9  -132.1   -91.3   -60.2   -38.4   -11.3    26.0
    46.2    65.6    81.5    70.4    35.1    26.5    62.5    84.7    60.9    20.5
     5.5     8.6    21.8    50.8    57.8    42.3    18.6   -33.3   -94.8  -123.1
  -118.4  -104.0   -78.8   -49.2   -11.3    32.7    67.9   107.9   113.9    81.7
    41.7    13.6     2.8    34.8    74.1    66.6    41.4    -4.7   -57.7  -110.6
  -121.2  -116.8  -108.6  -101.7   -97.9   -63.5   -12.1    62.6   102.2    87.1
    69.3    65.0    46.6    19.5    26.2    48.3    34.8    19.3     5.7     5.3
    18.1    -4.7   -45.6   -61.1   -50.3   -55.4   -49.8   -39.3   -36.4   -17.1
    17.4    57.2    74.6    73.0    58.6    30.7    19.7    11.9    -8.3   -29.2
   -36.9   -36.1   -36.0   -42.2   -31.9    12.8    59.6    46.4   -19.3   -67.0
   -85.1   -97.3   -97.7   -76.7   -64.7   -37.5     8.9    39.6    35.7    11.3
     1.4    11.1    42.6    78.8    86.4    92.6   104.6   103.0    61.5    19.4
    -7.2   -29.4   -36.9   -46.9   -51.0   -63.6   -77.5   -96.8   -81.4   -54.9
   -46.6   -45.5   -58.9   -64.8   -68.5   -49.2   -25.9    -8.5    -8.5   -29.5
   -15.6    38.6    80.8    84.2    63.6    56.5    85.5    91.5    74.7    47.2
    11.4     3.9    32.3    58.7    65.8    53.0   -11.4   -85.2  -125.9  -126.9
  -101.0   -66.6   -29.4   -17.6   -43.5   -78.6   -90.1   -68.3   -34.9   -10.6
    14.7    48.8    72.9    84.9    80.2    64.1    38.1     3.8   -21.5   -24.6
   -23.9   -44.7   -64.8   -70.6   -68.9   -62.5   -40.3    -8.5     6.1    24.6
    53.1    74.7    78.0    62.0    53.8    46.2    41.3    47.9    60.2    66.3
    50.3    25.0     2.5    -1.7     4.9     9.1    15.8     9.2   -30.6   -60.7
   -58.2   -33.7    -4.3    21.9    49.1    77.1    86.2    64.3    31.9     5.0
     2.2    30.1    61.7    90.6   111.7   102.3    72.0    42.8    36.7    34.1
    21.3     2.8    -5.3     1.6     6.2    -4.3   -31.4   -72.5   -95.3   -71.9
   -48.5   -35.0   -15.5    13.2    26.5    24.7    33.8    45.6    49.5    35.0
    22.7    14.2     4.9   -10.1   -40.4   -66.7   -81.9   -92.5   -97.9   -92.7
   -89.4   -98.4   -99.6   -93.7   -81.3   -59.9   -35.9    -9.2    14.7    39.2
    49.9    42.0    23.3    11.7     8.9    -4.6   -12.0     3.7    17.9    13.8
    22.2    38.8    47.1    38.5    23.4     0.1   -23.0    -8.5    15.8    29.0
    27.5    21.2     6.5   -10.3   -10.2   -15.6   -30.4   -35.8   -33.1   -36.1
   -42.1   -55.5   -62.7   -59.8   -45.6   -20.5     4.7    17.4    15.6    10.4
    -3.0   -14.3   -13.7    16.1    48.9    64.4    60.2    45.9    31.1    20.3
    30.5    51.6    66.1    60.6    44.9    26.8     6.9   -13.7   -28.7   -25.6
   -24.5   -36.7   -52.9   -74.5   -91.3   -75.2   -48.8   -42.1   -43.5   -43.9
   -35.2   -16.9     5.9    20.3    30.9    38.8    44.8    48.1    44.0    40.8
    39.2    33.0    24.5    23.8    35.5    41.0    32.8    14.7    -1.0   -11.4
   -10.5   -13.2   -18.2   -13.8    -6.8    -4.8    -3.6     3.5     7.1     6.5
     9.8    11.3    17.4    36.4    56.0    74.4    78.9    65.7    47.8    33.3
    20.1    16.5    12.4     8.0    -6.0   -29.5   -38.6   -48.2   -63.6   -77.6
   -79.3   -64.6   -42.1   -31.1   -35.0   -50.1   -64.1   -60.3   -50.3   -35.8
   -19.7   -12.2   -16.0   -24.7   -24.4   -18.9    -8.9    -6.6   -15.8   -19.3
   -18.6    -5.0     6.8    23.6    39.9    44.8    45.8    47.0    45.9    37.4
    23.7     8.4     1.1     1.8    11.7    15.3    13.1    12.0    17.0    20.5
    19.7    20.7    20.6    23.0    22.3    22.5    19.1    15.0    11.2     0.7
    -6.1    -8.7    -3.7    10.9    29.3    48.7    62.5    66.4    61.3    50.7
    37.4    25.8    14.9     5.8     4.1    -2.6   -14.1   -18.1   -21.1   -26.9
   -26.3   -25.2   -35.6   -54.1   -79.4   -95.6  -100.8   -98.5   -87.6   -76.6
   -64.1   -46.6   -30.4   -13.2     4.1    22.2    30.0    33.8    42.4    46.4
    45.2    33.1    16.4     2.8    -7.3   -10.3    -5.8    -0.6    -2.0    -5.2
    -1.1    15.1    36.8    51.2    49.0    35.1    19.4     3.2   -10.8   -19.6
   -29.1   -34.1   -37.9   -43.8   -48.0   -45.4   -32.7   -24.6   -24.0   -24.8
   -28.3   -28.4   -21.3    -3.5    16.7    27.6    26.7    21.4    10.7     0.2
    -7.0    -7.8    -6.1    -2.2    -1.6   -10.6   -21.8   -25.4   -24.6   -28.0
   -25.6   -16.0    -9.1    -0.9     7.7    13.8    18.3    16.2    13.7    15.1
    16.7    15.0     6.5    -8.0   -17.1   -20.6   -20.0    -8.8     2.1    13.4
    33.0    45.5    49.3    47.3    46.3    47.4    47.2    50.2    53.8    54.9
    56.6    50.1    39.9    31.3    21.5    10.4     0.7    -2.1     3.2    13.5
    20.0    19.3    15.8    11.3     6.8    10.5    19.4    28.3    34.9    33.3
    32.4    30.4    27.4    24.0    18.4    11.6     6.8     4.9     3.2    -2.0
   -11.4   -16.9   -21.5   -24.1   -30.6   -40.3   -45.3   -43.1   -39.4   -38.7
   -40.3   -38.9   -36.0   -35.8   -29.3   -15.9    -1.0     7.2     8.4     9.7
     9.4     8.3     6.4     4.3     1.7    -3.0   -11.9   -18.6   -14.5   -12.3
   -13.6   -13.7   -12.9   -11.7   -13.2   -12.5    -5.1     7.0    18.7    23.3
    21.9    23.1    24.4    21.2    10.5     2.4    -1.7    -7.9   -12.6   -17.9
   -21.0   -24.1   -25.0   -23.8   -18.0   -11.1   -11.8   -18.3   -24.5   -29.9
   -35.2   -36.7   -36.8   -32.8   -29.3   -22.7   -13.1    -8.5    -6.2    -4.4
    -1.9     0.0     1.4     3.4     5.5     8.9     9.6     8.7     8.9     7.2
     1.5    -3.9   -14.2   -22.7   -28.2   -31.7   -31.1   -30.2   -31.1   -30.5
   -30.1   -23.0   -12.7    -7.6    -1.7     6.6    17.7    25.5    30.0    31.1
    31.2    33.4    29.4    26.2    22.4    21.2    18.3    16.3    17.0    14.6
    14.3    12.6    12.3    10.4     8.1     4.8     3.8     3.5    -0.1    -7.0
   -10.6   -13.5   -11.7    -6.1     3.8    11.5    14.6    15.1    10.0     8.3
    10.7    13.9    15.1    15.6    15.6    14.5    14.4    20.0    20.6    17.8
    11.6     6.4     5.1     8.6     9.0     4.3    -1.6    -7.0    -9.6   -10.1
   -10.8   -12.0   -13.2   -15.3   -12.0    -4.8    -1.8    -2.5    -4.8    -2.6
     0.4     1.3     4.7     8.5    12.4    14.5    19.9    23.7    20.4    13.9
     4.2    -2.9    -6.8   -10.8   -20.0   -27.0   -32.2   -36.0   -34.8   -35.2
   -35.0   -36.0   -35.3   -39.2   -41.9   -41.8   -36.2   -26.8   -15.2     3.5
    21.9    34.7    40.2    40.9    38.7    33.7    30.7    35.4    42.0    47.7
    53.0    61.8    67.8    68.7    63.6    55.4    49.3    40.4    28.3    13.7
    -0.3   -13.9   -26.2   -32.0   -38.1   -40.9   -38.7   -37.1   -37.0   -40.5
   -43.6   -43.1   -41.4   -36.8   -29.3   -21.1   -14.0    -7.2    -4.6    -1.5
    -1.9    -5.6    -6.8    -4.9    -1.4    -0.8     2.1     7.7    12.6    15.0
    15.3    12.5     7.1     2.6    -4.2    -7.0    -7.3    -6.7    -4.3    -7.0
   -11.1   -14.1   -17.2   -24.0   -27.5   -23.8   -20.7   -17.6   -10.7    -2.9
     4.3    15.2    20.0    25.0    34.8    44.2    49.0    50.1    51.4    48.1
    43.2    36.5    28.6    20.5    11.3    -0.7   -10.1   -15.0   -23.1   -30.1
   -30.8   -24.7   -18.0   -14.5   -11.9    -8.7    -5.2     2.3     8.0    12.7
    15.3    13.6    12.1    12.5    15.1    17.9    21.9    25.0    24.6    21.5
    14.9     6.5    -0.7    -5.8    -9.5   -11.9   -16.3   -21.1   -27.3   -32.7
   -32.7   -29.8   -28.8   -28.7   -25.2   -22.1   -19.1   -15.7   -12.0   -11.8
   -14.2   -16.2   -17.0   -14.3   -13.4   -12.4   -10.9    -8.0    -6.6    -6.8
    -5.9    -5.2    -6.4    -7.6    -6.6    -7.3   -11.2   -13.3   -14.0   -13.8
    -9.3    -5.0    -4.8    -9.4   -14.5   -16.0   -15.8   -15.3   -15.6   -15.6
   -14.7   -15.2   -14.2   -11.1    -6.2    -2.8    -2.5    -0.1     4.0    10.7
    19.6    28.9    35.0    38.8    40.8    44.3    49.8    52.3    48.7    41.4
    34.4    29.8    22.9    16.9    13.3    11.5     7.5     1.5    -3.2    -3.8
    -2.2    -4.5    -9.4   -12.1   -12.0    -6.9    -5.2    -1.7     3.8     5.1
    -1.1    -9.0   -11.4   -14.9   -18.7   -21.2   -21.5   -16.8   -12.6   -12.6
   -12.4    -7.7    -4.6    -6.4    -2.8     4.3     9.8    10.8     8.5     3.1
     3.6     7.6    11.3    11.9    11.9    10.9     8.2     4.3    -0.2    -3.5
    -5.3    -8.5   -10.8   -12.0   -12.9   -13.9   -15.3   -18.0   -20.4   -20.2
   -20.2   -18.4   -13.1    -5.9     0.5     8.3    16.6    22.8    28.6    35.3
    39.2    42.8    45.4    46.4    47.6    45.1    44.7    43.2    41.6    38.7
    33.3    28.8    23.0    16.3     8.4     4.3     2.0    -0.6    -2.4    -4.7
    -7.2    -8.3    -8.7   -10.4   -13.3   -18.5   -22.4   -26.6   -30.7   -35.8
   -36.0   -33.1   -27.9   -23.7   -20.0   -15.2   -13.7   -12.9   -12.0   -10.8
    -9.3   -10.8   -13.3   -12.9   -11.5   -12.1   -14.6   -17.4   -19.0   -16.7
   -14.5   -14.2   -13.9   -14.0   -17.6   -20.2   -19.9   -17.5   -16.0   -15.1
   -10.3    -5.5    -1.1    -0.0    -3.4    -5.9    -5.5    -3.9    -3.3    -3.4
    -5.5    -7.3    -8.3    -7.4    -5.5    -3.6    -1.0     2.6     4.1     6.0
     9.3    12.2    15.8    20.8    24.8    26.7    30.3    35.3    39.2    41.5
    39.6    36.7    34.0    30.1    27.3    26.1    28.4    30.8    29.2    25.9
    22.7    21.0    18.1    14.7    11.7     4.7    -5.6   -14.3   -21.6   -27.7
   -33.5   -39.4   -41.5   -42.0   -40.4   -37.3   -32.4   -25.9   -20.9   -16.3
   -10.5    -2.6     4.3    10.2    18.3    25.5    32.9    35.5    34.2    32.2
    30.6    27.5    21.5    16.0    10.5     4.9     0.3    -0.1     0.6     0.2
    -3.2    -5.9    -5.2    -5.0    -6.0    -7.2    -6.6    -6.7    -7.4    -7.5
