Corrected accelerogram 20160214_001343_SACS_20 GNS Science
Site SACS      43 30 24S  172 36 58E     Cusp file:  20160214_001347_SACS
St Andrews College Christchurch
Instrument Cusp_42044
Resolution: 18-bit   Instr Period: 0.0050 s   Damping: 0.700
Accelerogram 20160214_001343_SACS_20                 Processed 2016 February 22
11 km east of CHRISTCHURCH
2016 February 14         00:13:43 UT
Epicentre  43 29 50S 172 45 18E  Bearing N85E  Dist   11km  Depth    8km M  5.70
Number of points  8192    Duration 163.82 sec
Instrument corrected data at 0.020 sec intervals
Band-pass filter transition bands are .10-.25 Hz and 24.50-25.50 Hz
Component N00E  Horizontal Axis 1
Acceleration:  peak   1197.2 mm/s/s at  44.66 sec     rms     80.1 mm/s/s
Velocity:      peak   112.53 mm/s   at  45.08 sec     rms    10.76 mm/s
Displacement:  peak  -40.385 mm     at  44.64 sec     rms    4.862 mm
    2016       2      14       0      13     430       0       0    2016       2
      43      29      50     172      45      18       8       0      14       0
      43      30      24     172      36      58       0       0      85      11
   36153     250     250    8192    8192    8192       0       0      13    7020
   200.0    0.70    0.00   0.000  0.0000   0.000   0.000   1.000     0.0    0.00
  43.507 172.616   43.50  172.76    5.70    0.00    0.00    0.00      0.      0.
  180.76    5.00    5.00  163.82  0.0050  0.0200      0.      0.      0.  9806.6
  1231.7   44.65    83.0   0.000      0.  1197.2   44.66    80.1  1467.3   2.914
  112.53   45.08   10.76  127.89   0.311  -40.38   44.64    4.86   40.39   0.311
   0.100   0.150   0.250      0.      0.  24.500   1.000  25.500      0.      0.
     0.0    -0.0     0.0    -0.0     0.0    -0.0     0.0    -0.0     0.0    -0.0
     0.0    -0.0     0.0    -0.0     0.0    -0.0     0.0    -0.0     0.0    -0.0
     0.0    -0.0     0.0    -0.0     0.0    -0.0     0.0    -0.0     0.0    -0.0
     0.0    -0.0     0.0    -0.0     0.0    -0.0     0.0    -0.0     0.0    -0.0
     0.0    -0.0     0.0    -0.0     0.0    -0.0     0.0    -0.0     0.0    -0.0
     0.0    -0.0     0.0    -0.0     0.0    -0.0     0.0    -0.0     0.0    -0.0
     0.0    -0.0     0.0    -0.0     0.0    -0.0     0.0    -0.0     0.0    -0.0
     0.0    -0.0     0.0    -0.0    -0.0    -0.0    -0.0    -0.0    -0.0    -0.0
    -0.0    -0.0    -0.0    -0.0    -0.0    -0.0    -0.0    -0.0    -0.0    -0.0
    -0.0    -0.0    -0.0    -0.0    -0.0    -0.0    -0.0    -0.0    -0.0    -0.0
    -0.0    -0.0    -0.0    -0.0    -0.0    -0.0    -0.0    -0.0    -0.0    -0.0
    -0.0    -0.0    -0.0    -0.0    -0.0    -0.0    -0.0    -0.0    -0.0    -0.0
    -0.0    -0.0    -0.0    -0.0    -0.0    -0.0    -0.0    -0.0    -0.0    -0.0
    -0.0    -0.0    -0.0    -0.0    -0.0    -0.0    -0.0    -0.0    -0.0    -0.0
    -0.0    -0.0    -0.0    -0.0    -0.0    -0.0    -0.0    -0.0    -0.0    -0.0
    -0.0    -0.0    -0.0    -0.0    -0.0    -0.0    -0.0    -0.0    -0.0    -0.0
    -0.0    -0.0    -0.0    -0.0    -0.0    -0.0     0.0    -0.0     0.0    -0.0
     0.0    -0.0     0.0    -0.0     0.0     0.0     0.0     0.0     0.0     0.0
     0.0     0.0     0.0     0.0     0.0     0.0     0.0     0.0     0.0     0.0
     0.0     0.0     0.0     0.0     0.0     0.0     0.0     0.0     0.0     0.0
     0.0     0.0     0.0     0.0     0.0     0.0     0.0     0.0     0.0     0.0
     0.0     0.0     0.0     0.0     0.0     0.0     0.0     0.0     0.0     0.0
     0.0     0.0     0.0     0.0     0.0     0.0     0.0     0.0     0.0     0.0
     0.0     0.0     0.0     0.0     0.0     0.0     0.0     0.0     0.0     0.0
     0.0     0.0     0.0     0.0     0.0     0.0     0.0     0.0     0.0     0.0
     0.1    -0.7    -0.3     1.0    -0.2    -0.8     0.2     0.1    -0.2    -0.0
    -0.3     0.1     0.3    -0.4     0.2     0.2     0.2    -0.0    -0.4     0.1
     0.0    -0.2    -0.1     0.5    -0.1    -0.4     0.3    -0.0     0.0    -0.1
     0.1     0.1    -0.2     0.2    -0.2    -0.0     0.3    -0.3    -0.5     0.4
     0.4    -0.1    -0.2    -0.5     1.1    -0.1    -0.9     0.4     0.5    -0.5
     0.1     0.6    -0.5    -0.1     0.3    -0.2     0.1     0.2     0.1    -0.4
    -0.1     0.5    -0.2    -0.0     0.1    -0.3    -0.0     0.3    -0.3     0.1
     0.7    -0.3    -0.7     0.5     0.2    -0.6    -0.1     0.6    -0.4    -0.1
     0.4    -0.3     0.3     0.3    -0.2    -0.3    -0.1     0.5    -0.4    -0.6
     0.1     0.5     0.2    -0.2    -0.1    -0.0     0.3    -0.2    -0.3    -0.0
     0.7    -0.0    -0.7     0.5     0.6    -1.2    -0.1     1.1    -0.3    -0.9
     0.7     0.6    -1.3    -0.0     1.0    -0.3    -0.3     0.0    -0.1     0.6
    -0.2    -1.1     0.1     1.1    -0.5    -0.8     0.5     0.4    -0.2    -0.2
    -0.2    -0.1     0.2     0.5    -0.6    -0.3     0.5     0.2    -0.4    -0.2
     0.2    -0.4     0.3     0.5    -0.4    -0.4     0.3     0.2    -0.1    -0.3
    -0.5     0.1     1.0     0.2    -1.1    -0.2     1.2     0.1    -1.0    -0.2
     0.7     0.5    -0.6    -0.3    -0.2     0.3     0.5    -0.2     0.1    -0.1
     0.0    -0.0     0.3    -0.6     0.1     0.3     0.1    -0.4    -0.4     0.5
     0.6    -0.5    -0.3     0.3     0.0     0.2    -0.1    -0.3    -0.0     0.2
    -0.1    -0.3     0.3     0.6    -0.4    -0.2     0.1     0.3     0.0    -0.1
     0.2     0.0    -0.1     0.0    -0.1     0.1    -0.1    -0.2     0.4     0.0
    -0.0    -0.3     0.8     0.3    -0.8    -0.5     0.5     0.5    -0.2    -0.3
    -0.5     0.6     0.4    -0.7    -0.3     0.8     0.2    -0.1    -0.4     0.2
     0.3     0.7    -0.6    -0.5     0.7     0.8    -0.7    -0.8     0.7     0.7
    -0.5    -0.4     0.3     0.1     0.3    -0.3    -0.4     0.5     0.7    -0.3
    -0.7    -0.0     1.0    -0.4    -0.8    -0.1     0.7     0.3    -0.2    -0.4
     0.0     0.0     0.6    -0.1    -0.3    -0.2    -0.1     0.4     0.3    -0.3
    -0.4     0.4     0.4    -0.6    -0.1     0.4    -0.4    -0.2     0.1    -0.2
     0.2     0.2    -0.2     0.1    -0.3    -0.2    -0.1     0.4    -0.0    -0.1
    -0.1     0.1     0.3     0.1    -0.5     0.0     0.1    -0.1     0.1    -0.2
     0.1     0.0    -0.2     0.1     0.2    -0.1    -0.1    -0.1    -0.2     0.2
     0.2     0.0    -0.3    -0.1     0.1     0.3    -0.2     0.1    -0.2     0.1
     0.2    -0.1    -0.2     0.1    -0.1    -0.1    -0.0     0.2    -0.1    -0.2
     0.2    -0.2    -0.1     0.0     0.2    -0.2    -0.0     0.2    -0.1    -0.1
     0.3     0.2    -0.5    -0.2     0.3     0.3    -0.1    -0.1     0.3    -0.1
    -0.3     0.0     0.3    -0.4    -0.4     0.4     0.2    -0.2    -0.2     0.5
     0.1    -0.3    -0.2     0.4    -0.2    -0.2     0.1     0.0     0.1     0.1
    -0.1     0.3    -0.0    -0.2     0.3     0.1    -0.4     0.2     0.2    -0.1
    -0.2    -0.2    -0.2     0.4     0.1    -0.2     0.2    -0.2     0.0    -0.1
    -0.3     0.2     0.1     0.0    -0.0    -0.3     0.2     0.1    -0.0     0.4
    -0.2    -0.5    -0.2     0.8    -0.1    -0.4    -0.0     0.2     0.4    -0.3
    -0.5     0.2     0.4    -0.1     0.1    -0.2    -0.0     0.3    -0.1    -0.3
    -0.2     0.1     0.3     0.0    -0.2    -0.0     0.3    -0.3     0.1    -0.1
    -0.2    -0.0     0.2     0.1     0.2    -0.2    -0.2     0.0    -0.1    -0.1
     0.3     0.0    -0.3    -0.3    -0.0     0.3     0.1    -0.3    -0.1     0.2
    -0.1     0.2    -0.1    -0.1    -0.0    -0.3    -0.2     0.2     0.2     0.2
     0.1     0.0     0.0     0.0     0.1    -0.1    -0.1    -0.2    -0.0     0.3
     0.3    -0.1    -0.4    -0.2     0.5     0.2    -0.2    -0.1     0.0    -0.0
     0.0     0.2    -0.1    -0.1     0.2     0.1     0.1    -0.2    -0.1    -0.3
     0.2     0.4    -0.1    -0.3    -0.1     0.3     0.0    -0.0    -0.3     0.0
     0.4     0.1    -0.2    -0.1    -0.0     0.3    -0.2    -0.3     0.0     0.1
    -0.2    -0.1    -0.1     0.2     0.2    -0.1     0.1     0.0    -0.2     0.2
     0.0    -0.1    -0.2     0.1     0.2     0.1    -0.2    -0.1     0.2     0.0
    -0.2    -0.0    -0.0     0.1    -0.0    -0.3    -0.1     0.1     0.4     0.0
    -0.3     0.1     0.3     0.0    -0.3     0.1     0.0     0.1    -0.1     0.0
     0.1     0.0     0.0    -0.1     0.1     0.1     0.1     0.2     0.2    -0.3
    -0.2     0.2    -0.0    -0.2    -0.1     0.2     0.2    -0.2    -0.2     0.2
     0.0    -0.2     0.1     0.2     0.1    -0.2    -0.0     0.2    -0.1    -0.1
     0.0    -0.1    -0.1     0.3     0.2    -0.3    -0.2     0.1     0.3    -0.1
    -0.1    -0.0     0.0     0.1    -0.1     0.1     0.1     0.0     0.0    -0.1
    -0.3     0.1     0.2     0.0     0.2    -0.3    -0.2     0.2     0.3    -0.0
    -0.2    -0.3    -0.2     0.4     0.1    -0.1    -0.1    -0.2     0.3     0.0
    -0.3    -0.4     0.3     0.3    -0.2    -0.6     0.4     0.4    -0.1    -0.3
     0.2     0.1    -0.2    -0.1     0.1     0.1    -0.3    -0.0     0.1     0.2
    -0.1    -0.3    -0.3     0.4     0.2    -0.3     0.0     0.1    -0.1    -0.2
    -0.1     0.2    -0.0    -0.1    -0.0    -0.0    -0.0     0.3    -0.1    -0.0
     0.1     0.0    -0.0    -0.0     0.1     0.2     0.2     0.0    -0.1    -0.1
     0.2    -0.1    -0.1     0.4    -0.1    -0.3    -0.0     0.2     0.0     0.1
    -0.2    -0.2     0.1    -0.1    -0.2     0.1     0.1     0.1     0.0    -0.2
     0.0     0.1     0.1     0.1    -0.1     0.1     0.1     0.0    -0.1     0.1
     0.1    -0.0    -0.2    -0.0     0.1    -0.1     0.2     0.1    -0.1    -0.1
    -0.0     0.2     0.1    -0.1    -0.2     0.2     0.3    -0.1    -0.4    -0.3
     0.2     0.6    -0.1    -0.5    -0.3     0.3     0.4    -0.2    -0.2    -0.2
     0.0    -0.0     0.4     0.1    -0.3    -0.2     0.3     0.1    -0.2    -0.2
     0.2     0.1     0.0    -0.2    -0.0     0.0     0.1     0.0    -0.1    -0.1
    -0.0     0.0     0.1     0.3    -0.1    -0.1    -0.1     0.2    -0.0    -0.2
    -0.1     0.1    -0.1     0.0     0.1     0.1     0.0     0.0    -0.0    -0.1
     0.0     0.4    -0.1    -0.3    -0.0     0.1     0.1    -0.1    -0.1     0.0
     0.1     0.0    -0.1    -0.0    -0.1     0.0    -0.2    -0.0     0.1    -0.1
    -0.1     0.0     0.0     0.0    -0.2    -0.1     0.1     0.1    -0.1    -0.1
     0.2     0.0     0.1     0.0    -0.2    -0.1     0.1     0.1    -0.0    -0.2
    -0.3     0.3     0.4    -0.0    -0.3    -0.2     0.4     0.2    -0.2    -0.2
    -0.0    -0.1     0.2     0.1    -0.1    -0.3     0.0     0.4    -0.1    -0.4
     0.2     0.4    -0.2    -0.2    -0.1     0.2    -0.0     0.1     0.0     0.0
     0.2    -0.1    -0.0     0.1    -0.0     0.1    -0.1     0.1     0.2    -0.2
    -0.0     0.2    -0.0    -0.0     0.0     0.2    -0.0    -0.2     0.1     0.0
     0.1    -0.0    -0.0    -0.1     0.2    -0.1     0.0    -0.0    -0.1     0.0
    -0.1    -0.1    -0.1     0.1    -0.0    -0.1     0.1     0.0    -0.2     0.0
     0.1     0.2    -0.2    -0.4     0.1     0.6    -0.1    -0.5    -0.1     0.6
     0.2    -0.6    -0.4     0.3     0.6    -0.1    -0.4     0.0     0.0     0.1
     0.1    -0.0    -0.2    -0.0     0.3    -0.1    -0.3    -0.0     0.3     0.1
    -0.2    -0.1    -0.0     0.2    -0.1    -0.2     0.0     0.0     0.0     0.1
    -0.2    -0.3     0.4     0.1    -0.2     0.1     0.1    -0.3    -0.1     0.0
     0.2     0.2    -0.3    -0.1     0.1     0.1     0.0    -0.2    -0.4     0.0
     0.3     0.1    -0.1    -0.2     0.1     0.1    -0.3    -0.4     0.2    -0.0
     0.0     0.3     0.1    -0.4    -0.2     0.0    -0.0     0.0     0.0    -0.2
    -0.2     0.5     0.3    -0.1     0.1    -0.4    -0.5     0.4     0.3    -0.4
    -0.2     0.2     0.4     0.1    -0.1    -0.1    -0.2     0.3     0.1    -0.2
    -0.0     0.4     0.2    -0.4    -0.0     0.6    -0.1    -0.4     0.2     0.3
     0.2    -0.1    -0.2    -0.0    -0.3     0.4     0.4    -0.3     0.0    -0.1
    -0.2     0.3    -0.1    -0.1     0.3    -0.1     0.1     0.3    -0.4     0.2
     0.2    -0.2    -0.1     0.2     0.1    -0.0     0.0     0.1    -0.0     0.1
    -0.0    -0.2     0.1     0.2     0.0    -0.1     0.0     0.0    -0.0    -0.3
     0.0    -0.0     0.1    -0.1    -0.1    -0.1    -0.0    -0.0    -0.0     0.1
     0.2    -0.1     0.1     0.0    -0.2     0.1     0.2    -0.1    -0.1     0.1
     0.0    -0.1    -0.0    -0.1    -0.0     0.3    -0.0    -0.2    -0.0     0.0
    -0.0     0.0    -0.0     0.1    -0.1     0.1     0.3    -0.2    -0.1    -0.0
     0.0     0.0     0.2     0.1    -0.3    -0.1     0.3     0.0     0.0    -0.0
    -0.4     0.2     0.6    -0.6    -0.2     0.3    -0.1     0.1     0.4    -0.3
    -0.2     0.2     0.1    -0.5     0.2     0.3    -0.4     0.2     0.7    -0.3
    -0.4     0.1    -0.4    -0.3     0.7    -0.3    -0.4     0.6     0.3    -0.5
     0.2    -0.0    -0.4     0.1     0.4    -0.7    -0.1     0.6    -0.4    -0.7
     0.4     0.1    -0.3     0.0     0.0    -0.5     0.1     0.5    -0.4    -0.1
     0.1     0.1    -0.2     0.0    -0.1    -0.1     0.3     0.0    -0.2    -0.0
    -0.1     0.3     0.3     0.0    -0.2    -0.0     0.2     0.2    -0.1    -0.1
     0.0     0.1     0.1     0.1    -0.1    -0.4     0.3     0.2    -0.2     0.2
    -0.1    -0.2     0.2     0.1     0.1    -0.0    -0.2     0.0     0.1    -0.1
     0.1     0.2    -0.0    -0.1    -0.0     0.2     0.1    -0.2     0.2    -0.1
    -0.0     0.1     0.2     0.0    -0.1    -0.0    -0.1     0.1     0.2    -0.0
     0.1    -0.0    -0.0    -0.1    -0.1     0.2     0.1    -0.0     0.1     0.2
    -0.0    -0.1     0.1     0.1    -0.1    -0.2     0.1    -0.0     0.1    -0.0
    -0.0     0.1     0.0     0.2     0.0    -0.1    -0.1    -0.0     0.1     0.2
     0.0    -0.0     0.0     0.1     0.0     0.2    -0.0    -0.0    -0.0     0.2
     0.1    -0.2     0.1     0.1     0.1     0.0     0.2    -0.2     0.0     0.2
    -0.0    -0.1     0.2     0.2     0.0    -0.0     0.0     0.1     0.1     0.1
    -0.0    -0.1     0.0     0.0     0.0    -0.1     0.0     0.2    -0.0     0.1
     0.0    -0.2     0.1    -0.3     0.1     0.1    -0.0     0.0     0.0    -0.0
    -0.2    -0.1     0.1     0.1     0.0     0.1    -0.2     0.2     0.1    -0.3
    -0.1     0.1     0.1     0.2    -0.1    -0.3     0.2    -0.0    -0.4    -0.1
     0.1    -0.2    -0.0    -0.1    -0.0     0.0    -0.1    -0.1    -0.2    -0.1
    -0.0    -0.2    -0.3     0.3     0.1    -0.1     0.1     0.1    -0.2     0.1
     0.0    -0.2     0.0    -0.0     0.0    -0.1    -0.2    -0.1     0.2    -0.2
     0.1    -0.2     0.0    -0.1    -0.1    -0.0    -0.2     0.0     0.0    -0.2
    -0.1     0.2    -0.3     0.1    -0.1     0.0    -0.2    -0.0    -0.1    -0.1
    -0.0     0.2    -0.0     0.0    -0.2     0.1     0.2    -0.1     0.2    -0.1
    -0.3     0.0     0.1     0.1    -0.1    -0.2     0.2    -0.0    -0.1     0.2
    -0.0     0.1     0.4    -0.3    -0.1     0.2    -0.3    -0.2     0.5    -0.2
     0.1    -0.2     0.1     0.3    -0.1     0.0    -0.3    -0.2     0.9     0.0
    -0.4     0.3    -0.2    -0.4     0.7    -0.1     0.2     0.2    -0.2     0.0
    -0.2     0.0     0.7    -0.1    -0.6     0.6     0.3    -0.2    -0.2    -0.3
     0.4     0.6    -0.6     0.0     0.6     0.1    -0.1    -0.2    -0.1     0.4
     0.3    -0.1     0.0    -0.1    -0.0     0.0     0.4     0.2    -0.2     0.2
     0.3    -0.0    -0.1     0.2     0.2    -0.0     0.3    -0.4     0.0    -0.0
     0.1    -0.2     0.2    -0.1     0.1     0.1     0.0     0.2    -0.3     0.1
     0.2    -0.3     0.1     0.4     0.0    -0.2    -0.3     0.1     0.2    -0.1
     0.3     0.1    -0.2     0.3    -0.0    -0.3     0.1    -0.1     0.0     0.1
    -0.2    -0.1     0.0    -0.0    -0.0    -0.2    -0.1     0.1    -0.0    -0.1
    -0.0    -0.1     0.2    -0.1    -0.2    -0.3    -0.1    -0.0    -0.1    -0.1
    -0.1     0.0    -0.2    -0.3    -0.1    -0.1    -0.0    -0.2    -0.1    -0.2
    -0.0     0.1    -0.2    -0.3    -0.2    -0.2    -0.1    -0.3    -0.3     0.1
    -0.1    -0.2    -0.4    -0.1     0.0    -0.0    -0.1    -0.3    -0.2    -0.1
    -0.0    -0.4    -0.1     0.1    -0.0    -0.3     0.0    -0.2    -0.2    -0.3
    -0.2     0.0    -0.0    -0.3    -0.1     0.1     0.1    -0.4    -0.1     0.2
    -0.1    -0.2     0.2    -0.2    -0.2    -0.1     0.2     0.1    -0.2     0.0
    -0.2    -0.1    -0.0    -0.3    -0.1    -0.0     0.1    -0.3     0.1    -0.0
    -0.2    -0.0     0.0     0.0    -0.1     0.0    -0.0     0.0     0.1     0.0
     0.1     0.0     0.1    -0.2     0.0     0.0     0.1     0.2     0.0    -0.2
     0.3     0.1     0.2     0.2    -0.3    -0.1     0.3     0.3     0.2     0.3
     0.1    -0.2     0.3     0.3    -0.5     0.7     0.7    -0.5     0.2     0.5
     0.0    -0.1     0.4     0.2     0.1     0.7    -0.0    -0.0     0.2     0.3
     0.3     0.2     0.3     0.1     0.5    -0.1    -0.1     0.4     0.6     0.4
    -0.1     0.1     0.1     0.5     0.1     0.2     0.1     0.2     0.3    -0.2
    -0.0     0.5     0.1    -0.0     0.1    -0.2     0.3     0.3    -0.0    -0.2
     0.6     0.2    -0.2     0.3     0.1    -0.2     0.2     0.1    -0.1     0.2
     0.3     0.0    -0.1     0.0     0.2    -0.3    -0.1     0.3     0.0     0.1
     0.3    -0.4    -0.2     0.2    -0.2    -0.1     0.1    -0.1    -0.1     0.2
    -0.5    -0.1     0.4    -0.6    -0.3     0.2    -0.2    -0.6     0.2     0.2
    -0.7    -0.5     0.1    -0.2    -0.2    -0.4    -0.3    -0.2    -0.0    -0.3
    -0.3    -0.3    -0.3    -0.1    -0.1    -0.4    -0.3    -0.0    -0.2    -0.6
    -0.2    -0.4    -0.2    -0.2    -0.8    -0.4    -0.1    -0.2    -0.6    -0.1
    -0.4    -0.5    -0.1    -0.5    -0.7    -0.3    -0.1    -0.3    -0.4    -0.1
    -0.4    -0.4    -0.2    -0.2    -0.3    -0.4    -0.1    -0.4    -0.2    -0.0
    -0.3    -0.5    -0.2    -0.4    -0.6     0.0     0.0    -0.5    -0.1     0.1
    -0.1    -0.4    -0.0    -0.2    -0.1     0.1     0.1    -0.3    -0.0    -0.1
    -0.2     0.1     0.3    -0.1     0.1     0.4    -0.0    -0.1     0.4     0.2
    -0.0    -0.1     0.4     0.1     0.1     0.5     0.3     0.2     0.5     0.4
     0.1     0.4     0.7     0.4     0.4     0.6     0.4     0.4     0.6     0.6
     0.8     0.5     0.6     0.8     0.7     0.6     0.9     0.7     0.7     1.1
     1.1     0.8     0.8     0.9     1.1     1.1     1.1     1.2     1.1     1.1
     1.1     0.9     1.1     1.4     1.3     1.0     1.3     1.3     1.2     1.3
     1.4     1.0     1.5     1.2     1.5     1.5     1.3     1.6     1.5     1.1
     1.3     1.6     1.4     1.3     1.5     1.3     1.2     1.4     1.6     1.3
     1.4     1.5     1.2     1.3     1.4     1.4     1.1     1.5     1.6     1.1
     1.3     1.3     1.0     1.3     1.7     1.2     1.0     1.3     1.4     0.8
     1.0     1.2     0.9     0.8     1.0     1.1     0.8     0.7     0.8     1.0
     0.8     0.3     0.7     0.7     0.2     0.5     0.9     0.3    -0.0     0.3
     0.3     0.1     0.3     0.0    -0.3    -0.3    -0.1    -0.2    -0.3    -0.3
    -0.4    -0.7    -0.5    -0.6    -0.7    -0.9    -1.1    -1.1    -1.0    -0.9
    -1.2    -1.4    -1.3    -1.5    -1.6    -1.4    -1.8    -1.7    -1.7    -1.9
    -1.9    -2.4    -2.1    -2.0    -2.6    -2.5    -2.3    -2.6    -2.6    -2.7
    -2.7    -3.3    -3.3    -3.0    -3.1    -3.3    -3.1    -3.5    -3.6    -3.4
    -3.7    -3.9    -3.9    -3.7    -3.7    -4.3    -4.2    -4.2    -4.4    -4.3
    -4.4    -4.4    -4.6    -4.9    -4.5    -4.8    -4.9    -5.0    -4.9    -4.7
    -5.0    -5.2    -5.1    -5.3    -5.1    -5.2    -5.2    -5.3    -5.6    -5.5
    -5.1    -5.6    -5.4    -5.6    -5.7    -5.6    -5.5    -5.7    -5.7    -5.7
    -5.6    -5.6    -5.7    -5.9    -5.4    -5.6    -6.1    -5.5    -5.3    -5.6
    -5.6    -5.9    -5.5    -5.6    -5.6    -5.1    -5.3    -5.7    -5.4    -4.9
    -5.1    -5.5    -5.1    -5.0    -4.8    -5.0    -4.7    -4.6    -4.8    -4.3
    -4.5    -4.3    -4.2    -4.1    -4.0    -4.2    -3.9    -3.4    -3.6    -3.5
    -3.0    -2.1    -1.2    -0.8    -1.1    -2.0    -2.5    -0.9     0.7     3.5
