Corrected accelerogram 20160214_001343_HSES_20 GNS Science
Site HSES      42 31 24S  172 49 50E     Basalt file:  20160214_001403_HSES
Hanmer Springs Emergency Centre
Instrument Basalt_2430
Resolution: 24-bit   Instr Period: 0.0050 s   Damping: 0.700
Accelerogram 20160214_001343_HSES_20                 Processed 2016 February 22
11 km east of CHRISTCHURCH
2016 February 14         00:13:43 UT
Epicentre  43 29 50S 172 45 18E  Bearing S03W  Dist  108km  Depth    8km M  5.70
Number of points  7400    Duration 147.98 sec
Instrument corrected data at 0.020 sec intervals
Band-pass filter transition bands are .10-.25 Hz and 24.50-25.50 Hz
Component N00E  Horizontal Axis 1
Acceleration:  peak     74.2 mm/s/s at  61.52 sec     rms      8.0 mm/s/s
Velocity:      peak   -10.14 mm/s   at  61.34 sec     rms     1.14 mm/s
Displacement:  peak   -1.941 mm     at  61.54 sec     rms    0.334 mm
    2016       2      14       0      13     430       0       0    2016       2
      43      29      50     172      45      18       8       0      14       0
      42      31      24     172      49      50       0       0     183     108
   27600     250     250    7400    7400    7400       0       0      13   23000
   200.0    0.70    0.00   0.000  0.0000   0.000   0.000   1.000     0.0    0.00
  42.523 172.830   43.50  172.76    5.70    0.00    0.00    0.00      0.      0.
  138.00    5.00    5.00  147.98  0.0050  0.0200      0.      0.      0.  9806.6
    74.6   61.52     8.3   0.000      0.    74.2   61.52     8.0    83.1   1.398
  -10.14   61.34    1.14   10.68   0.320   -1.94   61.54    0.33    2.52   0.296
   0.100   0.150   0.250      0.      0.  24.500   1.000  25.500      0.      0.
   0.000  -0.000   0.000  -0.000   0.000  -0.000   0.000  -0.000   0.000  -0.000
   0.000  -0.000   0.000  -0.000   0.000  -0.000   0.000  -0.000   0.000  -0.000
   0.000  -0.000   0.000   0.000   0.000   0.000   0.000   0.000   0.000   0.000
   0.000   0.000   0.000   0.000   0.000   0.000   0.000   0.000   0.000   0.000
   0.000   0.000   0.000   0.000   0.000   0.000   0.000   0.000   0.001   0.000
   0.001   0.000   0.001   0.000   0.001   0.000   0.001   0.000   0.001   0.000
   0.001   0.000   0.001   0.000   0.001   0.000   0.001   0.000   0.001   0.000
   0.001   0.001   0.001   0.001   0.001   0.001   0.001   0.001   0.001   0.001
   0.001   0.001   0.001   0.001   0.001   0.001   0.001   0.001   0.001   0.001
   0.001   0.001   0.001   0.001   0.001   0.001   0.001   0.001   0.001   0.001
   0.001   0.001   0.001   0.001   0.001   0.001   0.001   0.001   0.001   0.001
   0.001   0.001   0.001   0.001   0.001   0.001   0.001   0.001   0.001   0.001
   0.001   0.001   0.001   0.001   0.001   0.001   0.001   0.001   0.001   0.001
   0.001   0.000   0.001   0.000   0.001   0.000   0.001   0.000   0.001   0.000
   0.001   0.000   0.001   0.000   0.000   0.000   0.000   0.000   0.000   0.000
   0.000  -0.000   0.000  -0.000   0.000  -0.000   0.000  -0.000  -0.000  -0.000
  -0.000  -0.000  -0.000  -0.001  -0.000  -0.001  -0.000  -0.001  -0.000  -0.001
  -0.001  -0.001  -0.001  -0.001  -0.001  -0.001  -0.001  -0.001  -0.001  -0.001
  -0.001  -0.001  -0.001  -0.002  -0.001  -0.002  -0.001  -0.002  -0.002  -0.002
  -0.002  -0.002  -0.002  -0.002  -0.002  -0.002  -0.002  -0.002  -0.002  -0.003
  -0.002  -0.003  -0.003  -0.003  -0.003  -0.003  -0.003  -0.003  -0.003  -0.003
  -0.003  -0.003  -0.003  -0.004  -0.003  -0.004  -0.004  -0.004  -0.004  -0.004
  -0.004  -0.004  -0.004  -0.004  -0.004  -0.005  -0.004  -0.005  -0.005  -0.005
  -0.005  -0.005  -0.005  -0.005  -0.005  -0.005  -0.005  -0.005  -0.005  -0.006
  -0.006  -0.006  -0.006  -0.006  -0.006  -0.006  -0.006  -0.007  -0.005  -0.008
   0.023   0.015  -0.001   0.016  -0.007   0.027   0.036   0.033  -0.030  -0.035
   0.026   0.064   0.011  -0.014   0.018   0.012  -0.004   0.026   0.010  -0.081
   0.010   0.091  -0.047  -0.001   0.044  -0.024   0.006   0.011  -0.023   0.022
   0.022  -0.054  -0.010  -0.019   0.024   0.041   0.014  -0.041   0.035  -0.024
  -0.047   0.030   0.003  -0.055   0.033   0.067  -0.005  -0.001   0.014  -0.042
   0.018   0.041   0.030  -0.009  -0.045  -0.013   0.029  -0.001  -0.011  -0.010
  -0.002  -0.025  -0.016   0.014  -0.039  -0.018   0.073   0.030   0.006  -0.010
  -0.009   0.032  -0.048  -0.023   0.022   0.014  -0.016  -0.025   0.036  -0.001
   0.004   0.056  -0.033   0.001   0.002   0.023   0.019  -0.017   0.009   0.007
  -0.040   0.034   0.037   0.005   0.030  -0.041   0.020  -0.043  -0.007  -0.034
   0.049  -0.060  -0.025   0.006  -0.003   0.017  -0.016  -0.018   0.031  -0.003
  -0.031  -0.007  -0.033   0.032   0.005   0.005  -0.044   0.025  -0.009  -0.032
   0.019   0.045  -0.048  -0.020   0.023   0.012  -0.036  -0.050   0.052  -0.040
  -0.011   0.037   0.012   0.029  -0.009   0.040   0.011  -0.006   0.014  -0.001
  -0.025  -0.026  -0.031   0.042   0.013   0.009   0.012   0.034  -0.001   0.018
  -0.050   0.014  -0.018   0.015  -0.030  -0.021   0.033   0.005   0.023  -0.002
  -0.019   0.030   0.045   0.017  -0.002   0.023   0.001  -0.033   0.056  -0.035
  -0.048   0.057   0.005  -0.020  -0.026   0.018  -0.022  -0.025  -0.001   0.028
  -0.013  -0.017   0.045  -0.037  -0.022  -0.007  -0.065   0.041   0.042  -0.015
   0.023   0.006   0.010  -0.017  -0.010  -0.015  -0.057   0.001   0.027  -0.031
  -0.022   0.006   0.008  -0.027  -0.007  -0.020  -0.007  -0.024   0.004   0.004
   0.019   0.006  -0.023   0.030   0.005  -0.009  -0.026   0.000   0.013   0.008
  -0.020   0.020   0.039  -0.025  -0.036  -0.041   0.069   0.024   0.013  -0.014
  -0.016  -0.020  -0.018   0.016   0.024   0.037   0.027   0.004  -0.007   0.013
  -0.054   0.024  -0.011   0.001   0.036  -0.003   0.012  -0.000   0.025   0.050
  -0.040  -0.023   0.006  -0.013   0.009  -0.018  -0.002   0.050  -0.055  -0.053
   0.043   0.011  -0.006  -0.007   0.012   0.003   0.022   0.011  -0.020   0.013
  -0.011  -0.011   0.015  -0.004  -0.038  -0.011  -0.027  -0.003  -0.027   0.011
   0.046   0.005   0.018   0.018   0.059  -0.047  -0.063  -0.016   0.017  -0.002
   0.037   0.010  -0.010  -0.035   0.004  -0.029   0.014  -0.009   0.017   0.030
   0.004   0.017   0.003  -0.094  -0.026   0.056  -0.006  -0.005  -0.010  -0.020
  -0.036   0.017  -0.011   0.025  -0.006   0.004   0.012  -0.026  -0.000  -0.015
  -0.007   0.029   0.019   0.039   0.024   0.007  -0.023   0.005   0.029  -0.007
  -0.038  -0.036   0.009   0.050  -0.023  -0.048   0.031   0.040  -0.019   0.018
   0.031   0.027  -0.075   0.035   0.035  -0.012   0.010   0.035  -0.008  -0.035
  -0.019   0.000   0.022  -0.003   0.045   0.005   0.007  -0.028  -0.034   0.039
  -0.047  -0.046   0.039   0.036  -0.029  -0.006   0.026   0.012   0.005   0.071
   0.020  -0.057   0.007  -0.017   0.018  -0.010   0.033   0.047   0.030  -0.030
  -0.050   0.037   0.002  -0.049  -0.016   0.044  -0.000  -0.049   0.004   0.007
  -0.010  -0.033   0.014   0.025   0.006  -0.037   0.014   0.050  -0.033   0.018
  -0.020   0.018  -0.022  -0.015   0.008  -0.001   0.010   0.005   0.004   0.014
  -0.006  -0.013  -0.024   0.035   0.030  -0.045  -0.018  -0.024  -0.011   0.011
  -0.005   0.006  -0.005  -0.004   0.043  -0.023  -0.021   0.010  -0.010  -0.020
  -0.019  -0.014  -0.012  -0.011   0.028  -0.007   0.021   0.002   0.027  -0.021
  -0.015  -0.024   0.006  -0.016   0.003  -0.017   0.007   0.005  -0.047  -0.019
   0.002   0.017  -0.010   0.028   0.019   0.021  -0.032   0.016  -0.005  -0.040
   0.023   0.051   0.010   0.026  -0.022  -0.019   0.047  -0.012  -0.032   0.014
   0.010   0.043  -0.016  -0.070  -0.046   0.044   0.041  -0.012  -0.003   0.023
   0.041   0.016  -0.026  -0.007  -0.020   0.014  -0.007   0.003  -0.022   0.009
  -0.060  -0.006  -0.010   0.011   0.092  -0.064  -0.019   0.114   0.010  -0.072
   0.004   0.009  -0.009   0.009   0.044  -0.062  -0.015   0.009   0.052  -0.069
   0.002   0.019  -0.043  -0.035   0.072  -0.030  -0.049   0.063  -0.045  -0.010
   0.062  -0.005   0.002  -0.007   0.063   0.006  -0.023  -0.026   0.033   0.035
  -0.096   0.039   0.022  -0.059   0.080   0.012  -0.110   0.011   0.036   0.006
   0.017   0.054  -0.018  -0.038  -0.012   0.117  -0.031  -0.087   0.107  -0.006
  -0.132   0.108   0.024  -0.085   0.010   0.040  -0.036  -0.006   0.003   0.006
   0.008   0.021   0.013  -0.013  -0.015  -0.019  -0.021  -0.038  -0.014   0.019
   0.017  -0.019   0.021   0.009  -0.021  -0.029   0.016   0.021   0.006  -0.023
  -0.005  -0.020   0.033   0.005  -0.011  -0.036   0.007   0.031  -0.042  -0.012
   0.069   0.013  -0.066   0.007   0.001  -0.034  -0.058  -0.037   0.037   0.004
  -0.016   0.005   0.048   0.000  -0.020   0.064   0.023  -0.025   0.009  -0.027
  -0.009   0.076  -0.001  -0.052   0.037   0.026  -0.053   0.043  -0.001   0.021
  -0.014  -0.031  -0.013   0.037   0.021   0.009  -0.022  -0.017   0.043  -0.043
   0.012   0.032  -0.018   0.013   0.062  -0.025  -0.006   0.010   0.021  -0.019
   0.041  -0.003  -0.012   0.009  -0.028  -0.007   0.012   0.003   0.006  -0.002
   0.039   0.021  -0.018   0.017   0.005   0.009  -0.026  -0.019  -0.022  -0.033
  -0.006   0.021   0.001   0.009  -0.043  -0.011  -0.011  -0.013  -0.046  -0.004
   0.022  -0.031   0.056  -0.015  -0.052  -0.003   0.010  -0.034   0.025   0.030
   0.009  -0.003  -0.007   0.042   0.002  -0.030   0.007  -0.002  -0.005   0.022
   0.022   0.025  -0.007   0.001  -0.051  -0.001   0.010   0.055   0.009  -0.034
  -0.033   0.018   0.018   0.005  -0.037  -0.003   0.029  -0.013   0.011   0.019
   0.010  -0.030  -0.011  -0.024   0.005  -0.008   0.015  -0.024   0.076   0.020
  -0.026  -0.007  -0.041   0.010  -0.021   0.039   0.025  -0.007  -0.018  -0.035
   0.007   0.023  -0.018  -0.010  -0.001   0.014  -0.027   0.009   0.080   0.004
  -0.027  -0.024   0.015  -0.010  -0.015  -0.051   0.010   0.061  -0.019  -0.022
   0.021   0.055  -0.002   0.006   0.007  -0.005  -0.001  -0.003   0.011  -0.011
   0.029   0.015  -0.030  -0.012   0.011  -0.012   0.016   0.013   0.008  -0.017
   0.000   0.036   0.004  -0.042   0.028   0.005  -0.030  -0.002   0.003  -0.011
   0.009  -0.033   0.041   0.016   0.005   0.005   0.001  -0.040  -0.032   0.033
   0.020   0.019  -0.007   0.009  -0.063  -0.002  -0.012  -0.028   0.002   0.048
  -0.029  -0.000  -0.008  -0.012  -0.023   0.016  -0.008  -0.011   0.032  -0.032
  -0.036   0.063   0.019  -0.043  -0.035  -0.019  -0.011   0.010  -0.016  -0.031
   0.043   0.007   0.012  -0.021   0.033  -0.003   0.034  -0.039  -0.076  -0.002
   0.086  -0.027  -0.024   0.013   0.001  -0.017  -0.028   0.005  -0.010   0.024
   0.045  -0.069  -0.049   0.080   0.050  -0.050  -0.039   0.054   0.040   0.002
  -0.019  -0.015   0.015  -0.008   0.003  -0.008  -0.012  -0.018   0.019   0.007
  -0.076   0.039   0.045   0.024  -0.048  -0.001  -0.006  -0.008   0.013  -0.008
  -0.002   0.023  -0.019  -0.006   0.009   0.004  -0.023   0.024   0.012  -0.062
   0.022   0.093  -0.027  -0.044   0.023  -0.031   0.025  -0.000  -0.006  -0.044
   0.026   0.051  -0.047   0.017   0.086  -0.024  -0.034   0.033   0.068  -0.025
  -0.036  -0.012  -0.006   0.039   0.018  -0.006   0.020  -0.045   0.022   0.057
  -0.008  -0.029   0.052   0.000  -0.000   0.024  -0.010  -0.008   0.018   0.002
  -0.050  -0.032   0.024  -0.031  -0.081   0.046  -0.002  -0.008  -0.019   0.072
   0.006  -0.020   0.042   0.048  -0.004   0.018   0.022  -0.016  -0.058   0.073
  -0.036  -0.014   0.021   0.015  -0.007  -0.027  -0.016  -0.042  -0.000   0.010
   0.054   0.039   0.010   0.027   0.001  -0.034  -0.011  -0.014  -0.026   0.039
   0.007  -0.010  -0.033  -0.056   0.037  -0.000  -0.024  -0.006   0.068  -0.055
   0.010  -0.022   0.017  -0.010  -0.014  -0.007  -0.013  -0.008   0.024  -0.021
  -0.038   0.033   0.039  -0.027   0.057  -0.008   0.019  -0.026   0.014  -0.027
   0.004  -0.014  -0.043   0.000   0.034   0.001   0.010   0.032  -0.056  -0.010
   0.032   0.003  -0.001   0.026  -0.001   0.019  -0.010   0.044   0.003  -0.028
   0.022   0.005  -0.035  -0.008  -0.018   0.027  -0.034  -0.034   0.010   0.031
  -0.014  -0.024   0.036   0.014  -0.014  -0.004  -0.014  -0.006  -0.011  -0.005
   0.004  -0.021  -0.017   0.016  -0.017  -0.025  -0.019  -0.012   0.005  -0.000
  -0.035  -0.020  -0.007  -0.008   0.025   0.001   0.022  -0.015   0.005  -0.007
  -0.010   0.020  -0.023   0.022   0.016  -0.012   0.016  -0.010  -0.004  -0.011
   0.024   0.005  -0.022  -0.003   0.044   0.025  -0.013  -0.003  -0.020   0.021
   0.002   0.024  -0.018  -0.025   0.002   0.029  -0.073   0.002   0.002   0.002
   0.011   0.013   0.013   0.030   0.008  -0.029  -0.001  -0.022   0.019   0.024
   0.026   0.002   0.014   0.008   0.027  -0.020  -0.002  -0.011   0.003  -0.022
  -0.002  -0.001   0.027  -0.015  -0.001   0.011  -0.007  -0.025   0.019  -0.030
  -0.061  -0.002   0.042   0.035   0.006   0.006   0.021  -0.003  -0.025  -0.012
  -0.001   0.008   0.015  -0.042  -0.034  -0.016  -0.004   0.021  -0.018   0.051
  -0.020   0.004   0.006  -0.042  -0.005  -0.005  -0.022  -0.004   0.028  -0.006
  -0.001  -0.016  -0.037   0.016  -0.039   0.016   0.007   0.024   0.034   0.033
   0.004  -0.027   0.018  -0.027   0.020  -0.012   0.003   0.012  -0.015  -0.015
  -0.005   0.037   0.052   0.009  -0.023   0.043   0.002  -0.045   0.033  -0.018
  -0.015   0.018   0.035  -0.008  -0.015   0.008   0.038   0.029  -0.036   0.007
   0.033  -0.046   0.008   0.053  -0.011  -0.001   0.028  -0.005   0.028  -0.043
  -0.069   0.037   0.019   0.008   0.022   0.014  -0.007  -0.034   0.033  -0.015
  -0.016  -0.018   0.006   0.001   0.013   0.011   0.003  -0.021   0.004  -0.011
   0.008   0.019  -0.021  -0.011   0.022   0.017   0.001   0.012  -0.013   0.019
   0.031   0.007   0.025  -0.019  -0.026   0.011  -0.022  -0.047   0.020  -0.008
  -0.006   0.029   0.005   0.003   0.012  -0.057  -0.043  -0.000   0.058  -0.011
   0.010  -0.003   0.008   0.010  -0.020   0.021  -0.039  -0.023   0.020  -0.036
  -0.031  -0.010   0.012   0.011  -0.005  -0.011  -0.028  -0.018  -0.014   0.012
   0.030  -0.059   0.013  -0.019  -0.005  -0.000   0.019   0.002  -0.039   0.055
   0.020   0.003  -0.010  -0.009   0.009  -0.036   0.001  -0.005  -0.030   0.028
   0.007   0.008  -0.014   0.021   0.001   0.035  -0.012  -0.017   0.017  -0.010
  -0.020   0.015   0.001  -0.014   0.013   0.007  -0.010   0.026  -0.011   0.025
  -0.015   0.018  -0.000  -0.067   0.016  -0.001  -0.005  -0.009  -0.004   0.004
   0.016   0.001   0.020  -0.012  -0.035   0.012   0.050  -0.030  -0.027   0.043
  -0.001   0.028  -0.008  -0.034  -0.005  -0.009   0.042   0.001  -0.022   0.048
  -0.001  -0.022  -0.018   0.002  -0.002   0.011   0.002   0.016  -0.007   0.006
   0.040   0.015   0.018  -0.050  -0.016   0.007   0.038   0.040  -0.002  -0.022
  -0.043   0.037   0.033   0.011  -0.034   0.019   0.003   0.008   0.029   0.010
  -0.003  -0.032   0.019   0.055  -0.050  -0.033  -0.001  -0.001  -0.035  -0.013
  -0.010   0.013   0.020   0.039   0.018  -0.041  -0.000  -0.003  -0.014  -0.014
  -0.005  -0.005   0.021  -0.021  -0.000   0.005  -0.018   0.021   0.022  -0.028
  -0.018  -0.012  -0.009  -0.005   0.022  -0.007  -0.024   0.021   0.059   0.033
  -0.033  -0.042   0.030  -0.011  -0.080   0.017   0.076  -0.031  -0.062   0.075
  -0.034  -0.076   0.104   0.035  -0.031   0.030   0.023  -0.018  -0.022   0.039
   0.045  -0.046  -0.006   0.080   0.006  -0.047  -0.025   0.043  -0.045  -0.017
  -0.002   0.008   0.023   0.005  -0.039   0.042   0.004  -0.074   0.051   0.044
  -0.121  -0.007   0.072  -0.039  -0.016   0.042   0.017  -0.058   0.010   0.046
  -0.068  -0.011   0.095  -0.025  -0.140   0.035   0.063  -0.020  -0.021  -0.005
  -0.024  -0.046   0.045   0.000  -0.068   0.016   0.046  -0.055  -0.029   0.031
   0.013  -0.021  -0.011  -0.007   0.004   0.025   0.015  -0.034  -0.020   0.012
  -0.015   0.001  -0.024   0.014   0.040   0.018  -0.006  -0.004  -0.005  -0.025
  -0.020   0.010   0.031   0.047   0.010  -0.006  -0.042  -0.001   0.025   0.010
  -0.010  -0.021  -0.006   0.026   0.040   0.004  -0.044  -0.037   0.022   0.018
   0.001   0.020  -0.019   0.010  -0.002  -0.003   0.036  -0.001  -0.003   0.001
   0.024   0.025   0.004  -0.000  -0.011   0.016  -0.022  -0.022   0.029   0.051
   0.006  -0.003  -0.000  -0.009   0.023   0.004  -0.006  -0.005   0.004   0.046
   0.023  -0.006   0.018  -0.000  -0.025  -0.018  -0.003  -0.008  -0.009  -0.011
   0.012   0.024   0.003   0.031   0.034  -0.055  -0.038   0.044   0.042  -0.002
   0.035  -0.010  -0.006   0.003   0.004   0.003  -0.014  -0.042   0.002  -0.031
   0.001   0.029   0.014   0.011  -0.006  -0.032  -0.007   0.017   0.009  -0.035
   0.007  -0.009   0.001  -0.010   0.001  -0.038  -0.021   0.031   0.001  -0.022
   0.004   0.017  -0.041   0.005   0.015   0.002  -0.034   0.047   0.005   0.001
   0.006  -0.009  -0.026  -0.030  -0.064   0.001   0.032  -0.011  -0.006   0.050
   0.013  -0.069   0.009   0.000  -0.009   0.025  -0.042  -0.028   0.019   0.006
   0.008  -0.024  -0.013  -0.021  -0.012  -0.046   0.002  -0.007   0.009   0.022
   0.008  -0.010  -0.014   0.004  -0.024  -0.030   0.020  -0.051   0.001   0.011
  -0.007  -0.016   0.032  -0.012  -0.044  -0.015   0.013  -0.018   0.043  -0.009
  -0.000  -0.014  -0.019  -0.008  -0.016   0.001   0.057   0.002  -0.021   0.012
  -0.003  -0.007   0.050  -0.024  -0.040   0.022  -0.028  -0.012   0.034   0.011
  -0.007  -0.014  -0.041   0.012   0.031  -0.001  -0.051  -0.014  -0.009  -0.011
  -0.001  -0.030  -0.025   0.017   0.019  -0.012  -0.019   0.037   0.016   0.009
   0.034  -0.029  -0.026  -0.010  -0.011   0.041  -0.023   0.034   0.044  -0.011
   0.002   0.040   0.009   0.032   0.035  -0.055  -0.008   0.009  -0.002  -0.008
  -0.004   0.006   0.034  -0.013  -0.008   0.025   0.012   0.003   0.022   0.007
  -0.002  -0.002  -0.000  -0.015  -0.015   0.031   0.031   0.017  -0.003   0.019
  -0.028  -0.012   0.028   0.028   0.002   0.025   0.004   0.013   0.042  -0.004
   0.028  -0.003   0.012   0.053   0.051   0.005   0.027   0.010   0.064   0.038
  -0.003   0.054   0.022   0.003  -0.012   0.043   0.030  -0.015   0.018   0.040
   0.037   0.014   0.084  -0.011   0.030   0.084   0.058  -0.040  -0.002   0.067
  -0.040   0.004   0.044   0.033  -0.003   0.052   0.003  -0.028  -0.031   0.080
  -0.036  -0.069   0.057   0.086  -0.002  -0.042   0.056   0.020   0.012   0.027
   0.007  -0.027  -0.041   0.028  -0.029  -0.010   0.076  -0.006   0.009  -0.001
   0.001   0.010  -0.037   0.041   0.000  -0.001   0.007   0.024  -0.026  -0.023
   0.032   0.040  -0.025  -0.030   0.027  -0.003  -0.033  -0.007  -0.014  -0.008
   0.045  -0.017  -0.001   0.009   0.038  -0.039  -0.064  -0.028   0.013   0.031
  -0.022  -0.029   0.006   0.026  -0.008  -0.070  -0.003  -0.013  -0.026  -0.012
  -0.007  -0.044  -0.036  -0.014   0.002  -0.002   0.011  -0.072  -0.058  -0.053
  -0.026  -0.011  -0.006  -0.044  -0.047   0.006  -0.003  -0.027  -0.003  -0.031
  -0.069  -0.056  -0.055  -0.073  -0.069  -0.025  -0.032  -0.013  -0.056  -0.028
  -0.057  -0.028  -0.062  -0.062  -0.045  -0.020  -0.061  -0.074  -0.031  -0.024
  -0.019  -0.044  -0.051  -0.040  -0.064  -0.049  -0.065  -0.037  -0.031  -0.032
  -0.094  -0.079  -0.024  -0.083  -0.054  -0.009  -0.045  -0.078  -0.069  -0.028
  -0.034  -0.104  -0.092  -0.057  -0.030  -0.053  -0.045  -0.024  -0.032  -0.052
  -0.075  -0.047  -0.105  -0.044  -0.017  -0.006  -0.081  -0.139  -0.017  -0.012
  -0.045  -0.036   0.009  -0.044  -0.039  -0.099  -0.049  -0.060  -0.086   0.003
  -0.023  -0.034  -0.118  -0.030   0.030  -0.065  -0.083  -0.038  -0.049  -0.019
  -0.007  -0.018  -0.058   0.011  -0.030  -0.084  -0.039   0.013  -0.007  -0.029
  -0.006  -0.041  -0.025  -0.022   0.018  -0.051  -0.020  -0.006  -0.031  -0.072
   0.052  -0.016  -0.029  -0.013  -0.010  -0.032  -0.000  -0.059  -0.034   0.049
   0.017  -0.015  -0.054  -0.011   0.022   0.002   0.037  -0.003  -0.038   0.023
   0.046   0.039   0.008   0.003   0.133   0.143   0.145   0.164   0.193   0.257
   0.252   0.300   0.351   0.424   0.454   0.543   0.546   0.574   0.622   0.685
