Corrected accelerogram 20160214_001343_MORS_20 GNS Science
Site MORS      43 32 22S  172 37 17E     Cusp file:  20160214_001347_MORS
Moorhouse Ave Christchurch
Instrument Cusp_42147
Resolution: 18-bit   Instr Period: 0.0050 s   Damping: 0.700
Accelerogram 20160214_001343_MORS_20                 Processed 2016 February 22
11 km east of CHRISTCHURCH
2016 February 14         00:13:43 UT
Epicentre  43 29 50S 172 45 18E  Bearing N67E  Dist   12km  Depth    8km M  5.70
Number of points  8192    Duration 163.82 sec
Instrument corrected data at 0.020 sec intervals
Band-pass filter transition bands are .10-.25 Hz and 24.50-25.50 Hz
Component N00E  Longitudinal Accelerometer Axis
Acceleration:  peak    919.1 mm/s/s at  45.94 sec     rms     79.5 mm/s/s
Velocity:      peak   132.56 mm/s   at  44.86 sec     rms    11.67 mm/s
Displacement:  peak  -49.054 mm     at  44.16 sec     rms    4.510 mm
    2016       2      14       0      13     430       0       0    2016       2
      43      29      50     172      45      18       8       0      14       0
      43      32      22     172      37      17       0       0      67      12
   36161     250     250    8192    8192    8192       0       0      13    7325
   200.0    0.70    0.00   0.000  0.0000   0.000   0.000   1.000     0.0    0.00
  43.539 172.621   43.50  172.76    5.70    0.00    0.00    0.00      0.      0.
  180.80    5.00    5.00  163.82  0.0050  0.0200      0.      0.      0.  9806.6
   918.2   45.94    82.1   0.000      0.   919.1   45.94    79.5   950.0   1.645
  132.56   44.86   11.67  136.93   0.375  -49.05   44.16    4.51   51.53   0.281
   0.100   0.150   0.250      0.      0.  24.500   1.000  25.500      0.      0.
     0.0     0.0     0.0     0.0     0.0     0.0     0.0     0.0     0.0     0.0
     0.0     0.0     0.0     0.0     0.0     0.0     0.0     0.0     0.0     0.0
     0.0     0.0     0.0     0.0     0.0     0.0     0.0     0.0     0.0     0.0
     0.0     0.0    -0.0     0.0    -0.0     0.0    -0.0     0.0    -0.0     0.0
    -0.0     0.0    -0.0     0.0    -0.0     0.0    -0.0     0.0    -0.0     0.0
    -0.0     0.0    -0.0     0.0    -0.0     0.0    -0.0     0.0    -0.0     0.0
    -0.0     0.0    -0.0     0.0    -0.0     0.0    -0.0     0.0    -0.0     0.0
    -0.0     0.0    -0.0     0.0    -0.0     0.0    -0.0     0.0    -0.0     0.0
    -0.0     0.0    -0.0     0.0    -0.0     0.0    -0.0     0.0    -0.0    -0.0
    -0.0    -0.0    -0.0    -0.0    -0.0    -0.0    -0.0    -0.0    -0.0    -0.0
    -0.0    -0.0    -0.0    -0.0    -0.0    -0.0    -0.0    -0.0    -0.0    -0.0
    -0.0    -0.0    -0.0    -0.0    -0.0    -0.0    -0.0    -0.0    -0.0    -0.0
    -0.0    -0.0    -0.0    -0.0    -0.0    -0.0    -0.0    -0.0    -0.0    -0.0
    -0.0    -0.0    -0.0    -0.0    -0.0    -0.0    -0.0    -0.0    -0.0    -0.0
    -0.0    -0.0    -0.0    -0.0    -0.0    -0.0    -0.0     0.0    -0.0     0.0
    -0.0     0.0    -0.0     0.0    -0.0     0.0    -0.0     0.0    -0.0     0.0
    -0.0     0.0    -0.0     0.0    -0.0     0.0    -0.0     0.0    -0.0     0.0
    -0.0     0.0    -0.0     0.0    -0.0     0.0    -0.0     0.0    -0.0     0.0
    -0.0     0.0    -0.0     0.0    -0.0     0.0    -0.0     0.0    -0.0     0.0
    -0.0     0.0    -0.0     0.0    -0.0     0.0    -0.0     0.0    -0.0     0.0
    -0.0     0.0    -0.0     0.0    -0.0     0.0    -0.0     0.0    -0.0     0.0
    -0.0     0.0    -0.0     0.0    -0.0     0.0    -0.0     0.0    -0.0     0.0
    -0.0     0.0    -0.0     0.0    -0.0     0.0    -0.0     0.0    -0.0     0.0
    -0.0     0.0    -0.0     0.0    -0.0     0.0    -0.0     0.0    -0.0     0.0
    -0.0     0.0    -0.0     0.0    -0.0     0.0    -0.0     0.0    -0.0     0.0
     0.2     0.2    -0.3     0.1     0.1     0.1    -0.0     0.2    -0.1     0.1
     0.1    -0.2    -0.0     0.1     0.2    -0.1     0.1    -0.0     0.0     0.0
     0.1    -0.2    -0.1    -0.2     0.0     0.2     0.1     0.1    -0.1     0.1
    -0.1    -0.1    -0.2    -0.1     0.4     0.1    -0.1     0.0     0.1     0.0
    -0.0    -0.1     0.0    -0.0    -0.1    -0.2     0.0    -0.1    -0.1     0.2
    -0.2    -0.2     0.0    -0.1     0.2     0.1    -0.0    -0.1    -0.1     0.1
    -0.2     0.1     0.1     0.0     0.1    -0.1     0.0    -0.1    -0.1     0.1
     0.0     0.1     0.1     0.1    -0.1     0.1    -0.1     0.0     0.0    -0.0
    -0.0     0.0    -0.0     0.1     0.1    -0.1    -0.0    -0.1     0.1     0.0
     0.1     0.0     0.0     0.0    -0.1     0.1     0.0    -0.0    -0.1     0.1
     0.3     0.0    -0.0    -0.1    -0.3     0.0    -0.0    -0.0    -0.2    -0.1
     0.3     0.1    -0.2    -0.1    -0.1     0.0     0.1    -0.0    -0.1    -0.1
    -0.1     0.2    -0.0    -0.2     0.1    -0.1     0.2     0.0     0.0    -0.0
    -0.0    -0.3    -0.0     0.3    -0.1     0.0     0.1    -0.0     0.1    -0.1
     0.0    -0.2     0.2     0.3     0.2     0.0     0.0     0.1    -0.2    -0.2
    -0.1    -0.2     0.0     0.1    -0.0     0.1    -0.0    -0.0     0.0    -0.0
    -0.1     0.2     0.0     0.0     0.1    -0.1     0.0     0.2    -0.3    -0.0
     0.1     0.0     0.1     0.1    -0.1     0.0    -0.0    -0.3     0.1     0.1
    -0.1     0.2     0.0    -0.1    -0.0    -0.0    -0.1     0.1    -0.1     0.0
     0.2    -0.0     0.0     0.1    -0.2    -0.2     0.0    -0.0     0.0     0.1
     0.2     0.0    -0.0     0.0    -0.2     0.1    -0.1     0.2     0.1     0.1
    -0.1     0.2    -0.2    -0.3     0.1     0.1     0.1     0.1     0.1     0.1
    -0.0    -0.0    -0.1    -0.2     0.0     0.0     0.1    -0.0     0.1     0.1
    -0.0    -0.4     0.2    -0.0    -0.4     0.1     0.2     0.2     0.1    -0.3
    -0.2     0.0    -0.0     0.1    -0.1    -0.2    -0.0     0.0     0.1     0.1
    -0.4    -0.1     0.1    -0.0    -0.0     0.0     0.0    -0.1     0.1    -0.3
    -0.1     0.1     0.1     0.0    -0.0    -0.1     0.1    -0.0    -0.2    -0.0
     0.0     0.2     0.1    -0.1     0.0     0.2    -0.0    -0.2     0.0     0.0
    -0.0    -0.0    -0.0     0.0     0.2    -0.0    -0.2    -0.0    -0.0     0.0
    -0.1     0.0    -0.0    -0.1    -0.1     0.1     0.1     0.1    -0.2     0.0
     0.0     0.1    -0.1     0.0    -0.2     0.0     0.5    -0.1    -0.1    -0.1
     0.2     0.0    -0.1    -0.0    -0.2     0.0     0.3     0.1    -0.1    -0.1
    -0.1     0.0    -0.1    -0.1    -0.1     0.1     0.2     0.2     0.0     0.0
    -0.1    -0.2    -0.1     0.1     0.1    -0.1    -0.0     0.2    -0.0    -0.1
     0.0     0.0    -0.1     0.1     0.0     0.3     0.1    -0.2    -0.1     0.0
    -0.1    -0.0    -0.1     0.1     0.1     0.1     0.2     0.0    -0.0    -0.2
     0.0    -0.2    -0.2     0.3     0.2    -0.3     0.1     0.0    -0.3    -0.0
     0.3     0.3    -0.0     0.2     0.3     0.0    -0.2    -0.1     0.0    -0.2
    -0.1     0.1    -0.0    -0.1    -0.1    -0.0    -0.0    -0.2    -0.0     0.1
    -0.0     0.1    -0.2     0.2     0.2    -0.1    -0.1     0.2     0.3    -0.1
     0.0     0.0    -0.2     0.1    -0.0    -0.1     0.0     0.1     0.1    -0.0
     0.3     0.2    -0.1     0.0    -0.1    -0.0     0.1    -0.1    -0.0     0.2
    -0.1     0.1    -0.1    -0.0    -0.0     0.0    -0.2     0.2     0.0    -0.1
    -0.0    -0.3    -0.2     0.1    -0.0    -0.0     0.1     0.0     0.1    -0.1
    -0.2    -0.2     0.0    -0.0     0.2     0.1    -0.0     0.0     0.1    -0.2
    -0.2    -0.2    -0.0    -0.1    -0.0    -0.0     0.1     0.1    -0.1    -0.2
    -0.1    -0.2     0.2     0.1    -0.2     0.0     0.0    -0.2    -0.1     0.2
     0.0     0.1    -0.1    -0.2     0.1     0.2    -0.0    -0.1     0.1     0.1
     0.1    -0.1     0.0     0.2    -0.3    -0.0    -0.1    -0.2    -0.1     0.0
    -0.1     0.1    -0.0    -0.0     0.0    -0.1    -0.1    -0.1     0.0     0.1
    -0.0     0.0    -0.0    -0.2    -0.0     0.1    -0.0    -0.1    -0.1     0.0
     0.2     0.3     0.2    -0.1    -0.3     0.0    -0.0     0.1     0.1     0.1
     0.0     0.0    -0.1    -0.0    -0.2     0.1     0.1     0.1     0.1    -0.0
     0.0     0.0     0.0    -0.1     0.1     0.1     0.1     0.2    -0.1     0.2
    -0.1    -0.1     0.1     0.2    -0.1     0.1     0.0    -0.0    -0.1    -0.1
    -0.0    -0.1     0.2     0.1     0.1     0.0    -0.1    -0.1    -0.1     0.2
    -0.2    -0.1     0.1     0.1     0.2     0.1    -0.0    -0.0    -0.1    -0.1
     0.1    -0.1     0.0     0.2     0.0    -0.0     0.2    -0.0     0.0    -0.0
     0.2     0.1    -0.2     0.1     0.1    -0.2     0.0    -0.1    -0.1     0.1
     0.1     0.1     0.0    -0.0     0.1    -0.1     0.1     0.0    -0.0     0.0
    -0.0     0.1     0.0    -0.0     0.0    -0.1    -0.0     0.0     0.1     0.1
     0.1    -0.2    -0.0    -0.0     0.0    -0.0     0.2    -0.0    -0.1     0.1
     0.0     0.1    -0.1    -0.0    -0.2     0.1    -0.0    -0.1    -0.1     0.1
    -0.0    -0.3    -0.0    -0.1     0.2     0.1    -0.1     0.2    -0.1     0.0
    -0.2     0.0    -0.1    -0.1    -0.1     0.2    -0.1     0.1    -0.1    -0.1
    -0.1    -0.1    -0.1     0.3     0.2    -0.0     0.2    -0.0    -0.2    -0.0
    -0.0    -0.1     0.0     0.2    -0.1     0.0    -0.2    -0.3    -0.2     0.1
     0.0     0.0     0.1    -0.1     0.2     0.1    -0.0    -0.1    -0.1    -0.1
    -0.0     0.2    -0.0     0.0    -0.1    -0.0     0.0    -0.2    -0.2     0.0
     0.1    -0.0     0.1    -0.1    -0.0    -0.1    -0.1     0.0     0.3     0.1
    -0.1     0.0     0.1    -0.1    -0.3    -0.1     0.0     0.1    -0.0    -0.1
     0.1     0.1     0.0    -0.0    -0.0     0.4     0.2     0.2     0.1     0.1
     0.1    -0.0     0.0    -0.1    -0.1     0.2     0.1    -0.0     0.1    -0.1
     0.1    -0.0     0.1     0.0     0.3     0.0    -0.0     0.2     0.1    -0.1
    -0.0    -0.1     0.0     0.1     0.0     0.0     0.1    -0.1     0.1     0.1
    -0.1     0.1     0.1     0.0     0.2     0.1    -0.0    -0.0    -0.1    -0.2
    -0.2     0.1    -0.1     0.3     0.1     0.1     0.0     0.0    -0.0    -0.0
    -0.1     0.0    -0.2     0.1    -0.0    -0.1    -0.1    -0.2    -0.3     0.1
    -0.0    -0.2     0.1    -0.0    -0.0    -0.1    -0.1    -0.1     0.1     0.2
    -0.1     0.1     0.0     0.1    -0.1    -0.3    -0.2     0.1    -0.1     0.0
    -0.0     0.1     0.1    -0.1    -0.1    -0.3    -0.2    -0.1    -0.0    -0.1
     0.0     0.0     0.1     0.0    -0.0    -0.0    -0.0     0.0     0.1    -0.0
     0.0    -0.1    -0.0    -0.1     0.1     0.1     0.1     0.1     0.1    -0.0
    -0.1     0.0    -0.0     0.1    -0.0     0.1     0.1    -0.1    -0.2    -0.0
    -0.2     0.0    -0.0    -0.0    -0.1     0.1     0.2     0.2     0.1    -0.1
    -0.2    -0.1     0.0    -0.2    -0.0    -0.0     0.2    -0.0    -0.1    -0.0
     0.0     0.0     0.1     0.0     0.2     0.1    -0.1    -0.3    -0.1    -0.1
    -0.2    -0.1    -0.0     0.0     0.4     0.1     0.0     0.0    -0.2    -0.1
     0.1     0.1     0.1     0.1    -0.1     0.0    -0.1    -0.1    -0.0     0.1
    -0.1     0.1    -0.0     0.0     0.1    -0.0    -0.3    -0.0     0.1     0.1
     0.0     0.1    -0.1    -0.0    -0.1    -0.1     0.1     0.1     0.0     0.1
    -0.0     0.1    -0.1     0.1    -0.1    -0.0     0.0     0.1     0.4    -0.1
    -0.2     0.0    -0.1     0.1    -0.0     0.0    -0.1     0.1     0.0     0.0
     0.1     0.1    -0.1    -0.3     0.1     0.3     0.1    -0.1    -0.1    -0.1
     0.1     0.0    -0.0    -0.0     0.0     0.0     0.1     0.1     0.1     0.1
     0.0    -0.0     0.0    -0.2     0.2     0.3     0.0     0.1    -0.0    -0.1
     0.2     0.2    -0.1     0.1    -0.0     0.3     0.0    -0.1     0.0    -0.0
     0.1     0.1    -0.1    -0.1    -0.0     0.0    -0.0    -0.0    -0.0    -0.1
     0.0     0.1     0.0    -0.2    -0.0    -0.1    -0.2    -0.2    -0.1     0.1
    -0.0    -0.1    -0.0     0.3    -0.1    -0.1    -0.2     0.1     0.1    -0.1
    -0.1    -0.0     0.2     0.1     0.1    -0.3     0.2     0.1     0.1    -0.1
     0.1    -0.0    -0.3     0.0    -0.3     0.1    -0.2     0.1     0.2    -0.0
     0.1     0.1     0.0    -0.1     0.0     0.0    -0.1     0.0    -0.0     0.0
    -0.0    -0.0    -0.1     0.1    -0.2     0.1     0.2    -0.1    -0.0     0.1
    -0.0    -0.1    -0.1    -0.1     0.1    -0.0    -0.0     0.1     0.1    -0.1
    -0.0    -0.2     0.1    -0.0    -0.1    -0.1     0.1    -0.0    -0.2    -0.1
    -0.2    -0.2     0.0    -0.1    -0.0     0.1    -0.0    -0.2    -0.2    -0.0
    -0.2     0.3     0.0     0.1    -0.1     0.0    -0.2    -0.0    -0.2     0.1
     0.0    -0.0     0.1     0.2    -0.1     0.0    -0.1    -0.0    -0.2    -0.0
    -0.1     0.1     0.0     0.4     0.1    -0.0    -0.0    -0.0    -0.2     0.1
    -0.1     0.2    -0.0    -0.1    -0.1    -0.0     0.2     0.1     0.2    -0.0
    -0.1     0.1    -0.1    -0.0     0.1     0.1     0.1    -0.1     0.0     0.3
     0.3    -0.0     0.0    -0.1     0.1     0.1     0.2     0.1     0.0     0.2
    -0.1    -0.1    -0.2    -0.2     0.0    -0.0    -0.0     0.3     0.2     0.1
    -0.3    -0.0    -0.0     0.0     0.1     0.2     0.2     0.1    -0.0    -0.1
     0.0    -0.1     0.1    -0.1     0.2    -0.0     0.1     0.0    -0.1    -0.2
     0.0     0.0     0.2     0.0     0.1     0.2     0.1     0.0     0.0    -0.0
     0.2     0.1     0.0     0.0     0.0     0.1     0.0    -0.0    -0.0    -0.1
     0.1     0.1     0.1     0.1     0.1     0.1     0.1     0.0    -0.1     0.1
    -0.1     0.1     0.2    -0.2     0.0    -0.2    -0.1     0.1    -0.0    -0.1
     0.0     0.2    -0.1     0.0    -0.1     0.1    -0.2    -0.1    -0.0     0.0
    -0.1    -0.1     0.2    -0.2    -0.0     0.0    -0.1    -0.2     0.1    -0.1
    -0.1    -0.0    -0.1    -0.1    -0.2    -0.0     0.2    -0.0     0.1     0.1
    -0.1     0.0    -0.3     0.1    -0.1     0.0     0.1     0.1    -0.0    -0.2
     0.0    -0.1     0.1    -0.0     0.1    -0.2    -0.1    -0.1    -0.0    -0.1
    -0.0    -0.2    -0.1     0.0    -0.0    -0.1    -0.1     0.1    -0.0    -0.1
     0.0     0.1    -0.1     0.2    -0.2     0.1    -0.1    -0.1    -0.2    -0.1
    -0.0     0.0     0.0     0.2    -0.1    -0.0     0.0    -0.2    -0.0    -0.1
    -0.0     0.1    -0.0    -0.2     0.1     0.0    -0.2    -0.2    -0.1    -0.1
     0.0     0.0    -0.0     0.1     0.0    -0.2     0.0     0.1    -0.0     0.0
     0.0     0.1    -0.1    -0.1    -0.1    -0.2    -0.0     0.0     0.1    -0.2
    -0.1    -0.1     0.1     0.0    -0.3     0.1    -0.1    -0.1     0.0     0.1
     0.2    -0.1    -0.1     0.0     0.1     0.0    -0.0    -0.1    -0.1     0.2
     0.1     0.1     0.1     0.0     0.1     0.1     0.2     0.1    -0.1     0.1
    -0.0    -0.1    -0.0    -0.0     0.0     0.1     0.2     0.2     0.2     0.0
    -0.3     0.1    -0.1     0.0     0.2     0.2     0.0    -0.0     0.0     0.0
    -0.2    -0.1     0.2     0.3     0.1     0.0     0.3     0.0     0.0     0.1
    -0.0    -0.1     0.4     0.3    -0.1     0.3    -0.0    -0.2     0.1    -0.1
    -0.1     0.4     0.1     0.1     0.4    -0.0    -0.0     0.2    -0.1     0.2
     0.1     0.0     0.1     0.3    -0.2    -0.3     0.3    -0.1    -0.1     0.2
     0.1     0.1     0.5     0.0    -0.1     0.1    -0.1     0.1     0.1    -0.2
    -0.1     0.0     0.2    -0.1    -0.1     0.1    -0.0     0.2     0.1    -0.0
    -0.1     0.1     0.1     0.1     0.1     0.1    -0.3     0.0     0.2     0.0
     0.1    -0.5    -0.2    -0.3    -0.2     0.0    -0.1    -0.3     0.1     0.2
    -0.3     0.2    -0.4     0.0     0.3    -0.4    -0.1    -0.3     0.1     0.1
    -0.3    -0.6    -0.4    -0.3     0.1    -0.0    -0.3    -0.1     0.0    -0.1
    -0.2    -0.5    -0.1     0.1    -0.5     0.0    -0.3     0.0    -0.3    -0.3
    -0.1     0.0    -0.3    -0.3    -0.3    -0.1    -0.1    -0.2    -0.1    -0.5
    -0.2     0.1    -0.1    -0.1    -0.1    -0.1     0.0    -0.4    -0.5     0.1
    -0.2    -0.4     0.1     0.1    -0.2    -0.0    -0.2    -0.0     0.1    -0.1
     0.1    -0.0    -0.3     0.2    -0.3     0.0    -0.2    -0.1     0.1    -0.3
    -0.0     0.5    -0.3     0.1    -0.1    -0.1    -0.3     0.4    -0.1    -0.3
     0.2    -0.2     0.0     0.3    -0.4     0.3     0.1    -0.0     0.3     0.1
     0.3     0.0     0.0    -0.1     0.1     0.1     0.3     0.2     0.1    -0.2
     0.3     0.1    -0.1     0.2     0.3     0.0     0.3     0.3     0.4     0.3
    -0.1     0.2     0.2     0.1     0.5     0.5    -0.1     0.0     0.2     0.2
     0.1     0.0     0.4     0.4     0.2     0.4     0.2    -0.1     0.2     0.0
     0.4     0.1     0.4     0.1     0.4     0.5     0.4     0.2    -0.2    -0.2
     0.2     0.5     0.5    -0.0     0.3     0.3    -0.2     0.2     0.5     0.5
     0.3     0.2    -0.1     0.3     0.6    -0.0    -0.2     0.2     0.2    -0.1
     0.1     0.3     0.2    -0.0     0.3     0.1     0.4     0.0    -0.1     0.2
     0.4     0.0     0.1     0.2    -0.1    -0.2     0.1    -0.2    -0.1     0.3
    -0.2     0.1     0.1    -0.1     0.1     0.1    -0.5     0.0     0.1    -0.5
     0.4    -0.2    -0.2    -0.4    -0.4     0.1    -0.1     0.1    -0.1     0.0
    -0.4    -0.6     0.3    -0.5    -0.2    -0.1    -0.6    -0.1     0.1    -0.5
    -0.2    -0.3    -0.6     0.1     0.0    -0.4    -0.4    -0.3    -0.2    -0.2
    -0.4    -0.0    -0.4    -0.8    -0.3    -0.2    -0.1    -0.6    -0.2    -0.5
    -0.5    -0.0    -0.3    -0.4    -0.1    -0.3    -0.5    -0.1    -0.4    -0.4
    -0.5    -0.4    -0.3    -0.5    -0.5    -0.1    -0.4    -0.3    -0.4    -0.3
    -0.2    -0.0    -0.3    -0.4    -0.1    -0.5    -0.1    -0.4    -0.7    -0.1
    -0.1    -0.2    -0.1     0.2    -0.4    -0.4     0.0    -0.2     0.5     0.0
    -0.5    -0.0     0.1     0.2     0.1    -0.4    -0.1    -0.1     0.1     0.7
    -0.2    -0.1    -0.2    -0.0     0.9     0.3    -0.3    -0.0     0.3     0.7
    -0.0     0.4     0.2    -0.2     0.7     0.5     0.6     0.2     0.1     0.8
     0.9     0.7     0.4     0.1     0.6     0.7     0.5     0.6     0.6     0.6
     0.7     0.3     0.8     1.1     0.4     0.6     1.1     1.0     0.9     0.6
     0.7     0.8     0.3     0.9     1.1     0.8     0.7     1.0     0.7     1.3
     1.0     0.7     0.9     1.1     1.1     0.9     1.0     0.9     1.0     0.8
     1.1     1.1     1.0     1.0     1.1     0.8     1.3     0.9     0.7     1.2
     0.8     1.2     1.2     1.0     0.9     0.6     0.8     1.1     1.3     0.5
     0.7     1.2     1.0     0.8     0.7     0.8     1.1     0.8     0.5     0.6
     1.1     0.8     0.4     0.6     0.2     0.5     0.6     0.2     0.5     0.4
     0.3     0.5     0.6     0.4    -0.1     0.4     0.0     0.3     0.4    -0.2
    -0.3     0.0    -0.1    -0.2    -0.0    -0.3    -0.4    -0.3    -0.1    -0.6
    -0.2    -0.5    -0.9    -0.5    -0.7    -0.8    -0.6    -0.9    -0.8    -1.0
    -1.2    -0.9    -1.3    -0.9    -1.2    -1.4    -1.5    -1.8    -1.0    -1.3
    -1.7    -1.4    -1.7    -1.7    -1.9    -1.7    -1.9    -1.7    -1.9    -2.1
    -2.2    -2.1    -2.1    -2.2    -1.9    -2.4    -2.5    -2.4    -2.7    -2.5
    -2.6    -2.5    -2.6    -2.8    -2.7    -2.9    -3.0    -3.0    -2.9    -3.2
    -2.8    -3.2    -3.3    -2.7    -3.2    -3.3    -3.6    -3.3    -2.8    -3.5
    -3.4    -3.3    -3.1    -3.3    -2.9    -3.6    -3.8    -3.6    -3.3    -3.4
    -3.7    -3.2    -3.2    -3.5    -3.3    -3.0    -3.5    -3.3    -3.3    -3.2
    -3.2    -3.6    -3.2    -3.1    -3.1    -3.1    -3.0    -3.3    -3.1    -2.8
    -2.8    -3.0    -2.8    -3.1    -2.8    -2.5    -2.6    -2.9    -2.5    -2.3
    -2.7    -2.5    -2.1    -2.1    -2.2    -1.9    -1.9    -1.8    -1.7    -1.8
    -1.8    -1.7    -1.4    -1.5    -1.4    -1.1    -1.1    -0.7    -0.9    -0.7
    -0.8    -0.8    -0.2    -0.3    -0.1    -0.1     0.3    -0.0    -0.0     0.2
     0.3     0.6     0.8     0.9     1.1     0.8     1.7     1.4     1.3     1.6
     1.8     2.1     2.2     1.9     2.9     2.1     3.5     2.2     4.3     2.4
     3.8     5.5     1.3     3.8     6.0     2.6     7.0     5.1     4.5     7.8
