Corrected accelerogram 20160214_001343_GVZ_20 GNS Science
Site GVZ       42 58 03S  173 02 05E     Basalt file:  20160214_001356_GVZ
Greta Valley
Instrument Basalt_1278
Resolution: 24-bit   Instr Period: 0.0050 s   Damping: 0.700
Accelerogram 20160214_001343_GVZ_20                  Processed 2016 February 22
11 km east of CHRISTCHURCH
2016 February 14         00:13:43 UT
Epicentre  43 29 50S 172 45 18E  Bearing S21W  Dist   63km  Depth    8km M  5.70
Number of points  6750    Duration 134.98 sec
Instrument corrected data at 0.020 sec intervals
Band-pass filter transition bands are .10-.25 Hz and 24.50-25.50 Hz
Component N00E  Transverse Accelerometer Axis
Acceleration:  peak    -80.7 mm/s/s at  50.90 sec     rms      7.4 mm/s/s
Velocity:      peak    -6.46 mm/s   at  51.14 sec     rms     1.02 mm/s
Displacement:  peak   -1.633 mm     at  58.52 sec     rms    0.424 mm
    2016       2      14       0      13     430       0       0    2016       2
      43      29      50     172      45      18       8       0      14       0
      42      58       3     173       2       5       0       0     201      63
   25000     250     250    6750    6750    6750       0       0      13   16000
   200.0    0.70    0.00   0.000  0.0000   0.000   0.000   1.000     0.0    0.00
  42.967 173.035   43.50  172.76    5.70    0.00    0.00    0.00      0.      0.
  125.00    5.00    5.00  134.98  0.0050  0.0200      0.      0.      0.  9806.6
   -81.8   50.90     7.7   0.000      0.   -80.7   50.90     7.4    92.5   1.257
   -6.46   51.14    1.02    8.15   0.275   -1.63   58.52    0.42    1.84   0.275
   0.100   0.150   0.250      0.      0.  24.500   1.000  25.500      0.      0.
   0.004  -0.004   0.004  -0.004   0.004  -0.004   0.004  -0.004   0.004  -0.004
   0.004  -0.004   0.004  -0.004   0.004  -0.004   0.004  -0.004   0.004  -0.004
   0.004  -0.004   0.004  -0.004   0.004  -0.004   0.004  -0.004   0.004  -0.004
   0.004  -0.004   0.004  -0.004   0.004  -0.004   0.004  -0.004   0.004  -0.004
   0.004  -0.004   0.004  -0.004   0.004  -0.004   0.004  -0.004   0.004  -0.004
   0.004  -0.004   0.004  -0.004   0.004  -0.004   0.004  -0.004   0.004  -0.004
   0.004  -0.004   0.004  -0.004   0.004  -0.004   0.004  -0.004   0.004  -0.004
   0.004  -0.004   0.004  -0.004   0.004  -0.004   0.004  -0.004   0.004  -0.004
   0.004  -0.004   0.004  -0.004   0.004  -0.004   0.004  -0.004   0.004  -0.004
   0.004  -0.004   0.004  -0.004   0.004  -0.004   0.004  -0.004   0.004  -0.004
   0.004  -0.004   0.004  -0.004   0.004  -0.004   0.004  -0.004   0.004  -0.004
   0.004  -0.004   0.004  -0.004   0.004  -0.004   0.004  -0.004   0.004  -0.004
   0.004  -0.004   0.004  -0.004   0.004  -0.004   0.004  -0.004   0.004  -0.004
   0.004  -0.004   0.004  -0.004   0.004  -0.004   0.004  -0.004   0.004  -0.004
   0.004  -0.004   0.004  -0.004   0.004  -0.004   0.004  -0.004   0.004  -0.004
   0.004  -0.004   0.004  -0.004   0.004  -0.004   0.004  -0.004   0.004  -0.004
   0.004  -0.004   0.004  -0.004   0.004  -0.004   0.004  -0.004   0.004  -0.004
   0.004  -0.004   0.004  -0.004   0.004  -0.004   0.004  -0.004   0.004  -0.004
   0.004  -0.004   0.004  -0.004   0.004  -0.004   0.004  -0.004   0.004  -0.004
   0.004  -0.004   0.004  -0.004   0.004  -0.004   0.004  -0.004   0.004  -0.005
   0.004  -0.005   0.004  -0.005   0.004  -0.005   0.004  -0.005   0.004  -0.005
   0.004  -0.005   0.004  -0.005   0.004  -0.005   0.004  -0.005   0.003  -0.005
   0.003  -0.005   0.003  -0.005   0.003  -0.005   0.003  -0.005   0.003  -0.005
   0.002  -0.005   0.002  -0.004   0.002  -0.004   0.001  -0.003   0.001  -0.003
  -0.000  -0.002  -0.002   0.000  -0.004   0.003  -0.008   0.009  -0.017   0.023
  -0.119   0.125   0.186  -0.146  -0.316   0.156   0.429  -0.359   0.473  -0.536
  -0.015   0.353  -0.199   0.245  -0.047  -0.379  -0.111   0.609  -0.225  -0.063
  -0.067  -0.127   0.160   0.052   0.110  -0.216  -0.091  -0.087   0.245   0.143
  -0.108  -0.149  -0.124   0.205  -0.032   0.184  -0.111  -0.336   0.028   0.263
   0.075  -0.075  -0.297  -0.031   0.239   0.036   0.054  -0.145  -0.172   0.084
   0.029   0.311  -0.232  -0.117   0.015  -0.060   0.276  -0.008  -0.085  -0.027
  -0.049  -0.078   0.298   0.074  -0.194  -0.141   0.077   0.228   0.002  -0.099
  -0.087  -0.122   0.134   0.192  -0.001  -0.183  -0.131   0.122   0.265  -0.174
   0.004  -0.132   0.007   0.094   0.096   0.004  -0.099  -0.193   0.205   0.198
  -0.117  -0.076  -0.085   0.109  -0.023   0.195  -0.122  -0.071  -0.171   0.280
  -0.065   0.207  -0.223  -0.211   0.320  -0.025  -0.109   0.065  -0.007  -0.126
   0.148   0.100  -0.013  -0.177   0.075   0.021   0.172  -0.065  -0.137   0.019
   0.062  -0.093   0.202   0.067  -0.346   0.096   0.086   0.200  -0.209  -0.114
   0.145  -0.031   0.074   0.028   0.053  -0.256   0.167  -0.022   0.080  -0.024
  -0.250   0.095   0.190  -0.161  -0.012   0.123  -0.141   0.013   0.057  -0.002
  -0.029  -0.122   0.082   0.112  -0.113   0.026   0.074  -0.101  -0.007   0.037
   0.032  -0.007  -0.143  -0.007   0.062   0.136  -0.185  -0.067   0.177  -0.169
   0.092  -0.042  -0.002  -0.067  -0.081   0.060   0.009   0.169  -0.201  -0.020
  -0.005   0.098   0.157  -0.231   0.177  -0.311   0.086   0.360  -0.202   0.055
  -0.308   0.157   0.077   0.152  -0.170  -0.040  -0.121   0.215   0.047  -0.050
  -0.031  -0.232   0.246   0.044  -0.052  -0.025  -0.086  -0.081   0.245   0.019
  -0.057  -0.141  -0.068   0.281  -0.046  -0.008  -0.048  -0.059   0.034   0.004
   0.181  -0.176  -0.109   0.057   0.122   0.101  -0.177  -0.068   0.015   0.071
   0.039   0.057  -0.157   0.050   0.018   0.030   0.027  -0.030  -0.066  -0.042
   0.108   0.005  -0.084   0.036   0.026  -0.096   0.083  -0.015   0.045   0.017
  -0.031  -0.009  -0.013   0.027  -0.018   0.004   0.014  -0.048   0.007   0.033
   0.048   0.045  -0.121   0.005   0.100  -0.108   0.063   0.032  -0.101   0.056
  -0.012  -0.087   0.094  -0.078   0.013   0.063  -0.062  -0.020   0.117  -0.081
   0.040  -0.013   0.029   0.001   0.019  -0.024  -0.037   0.084  -0.093   0.085
   0.034  -0.071  -0.004   0.045  -0.070   0.093  -0.014  -0.078   0.053  -0.135
   0.214  -0.017  -0.071   0.017  -0.025  -0.056   0.161  -0.068  -0.145   0.102
  -0.078   0.102   0.060  -0.068  -0.107   0.057   0.051   0.100  -0.061  -0.055
  -0.105   0.139  -0.040   0.109  -0.074  -0.114   0.008   0.140   0.149  -0.226
   0.116  -0.126   0.050   0.096   0.113  -0.161  -0.045   0.124  -0.005   0.156
  -0.169   0.044  -0.099   0.104   0.059  -0.031   0.059  -0.212   0.021   0.184
   0.017  -0.190   0.051  -0.025  -0.006   0.069  -0.027  -0.071   0.090  -0.175
   0.207   0.003  -0.223   0.040   0.116  -0.176   0.231  -0.130  -0.170   0.282
  -0.209   0.069   0.091  -0.149   0.151  -0.241   0.136   0.081   0.012  -0.048
  -0.008  -0.091   0.104  -0.015   0.029   0.034  -0.003  -0.094   0.047   0.175
  -0.118   0.009  -0.104   0.076  -0.028   0.031   0.067  -0.095  -0.174   0.204
   0.055  -0.234   0.294  -0.292   0.096   0.070  -0.171   0.190  -0.089  -0.207
   0.195   0.096  -0.181   0.060  -0.104   0.143  -0.046  -0.107   0.117  -0.124
  -0.019   0.235  -0.069  -0.171   0.081   0.028   0.107  -0.140  -0.042   0.160
  -0.066  -0.099  -0.011   0.143   0.070  -0.316   0.321   0.032  -0.107  -0.057
   0.020   0.005   0.009   0.007  -0.174   0.223  -0.197   0.020   0.220  -0.112
  -0.208   0.139   0.161  -0.274   0.021   0.216  -0.193   0.069  -0.019   0.112
   0.083  -0.129  -0.092   0.198  -0.148  -0.045   0.130  -0.009   0.007  -0.277
   0.343  -0.015  -0.135  -0.057   0.098   0.040  -0.071  -0.074   0.190   0.002
  -0.290   0.308   0.017  -0.198   0.185  -0.084   0.107   0.032  -0.260   0.344
  -0.113  -0.243   0.163   0.125  -0.177  -0.028   0.034   0.050  -0.025  -0.137
   0.201  -0.154   0.033   0.001   0.019  -0.039   0.043   0.121  -0.009  -0.065
  -0.099   0.096   0.032  -0.011  -0.013  -0.032   0.098  -0.073   0.017   0.083
  -0.070  -0.108   0.155   0.036  -0.096   0.159  -0.122  -0.094   0.170  -0.112
   0.096   0.032  -0.207   0.082   0.124  -0.061  -0.078   0.084  -0.090   0.042
  -0.009   0.116  -0.079  -0.005  -0.031   0.081  -0.002  -0.056   0.073  -0.091
   0.075  -0.061   0.032   0.088  -0.062  -0.149   0.194  -0.081   0.024   0.046
  -0.066   0.055  -0.064  -0.003   0.156  -0.019  -0.209   0.134   0.012  -0.053
   0.004  -0.115   0.102  -0.077   0.042   0.068  -0.045  -0.151   0.028   0.074
   0.009  -0.004   0.005  -0.059  -0.043   0.079   0.115  -0.152  -0.018  -0.010
   0.094  -0.027   0.041  -0.118   0.053  -0.046  -0.047   0.177  -0.111  -0.080
   0.113   0.035   0.004  -0.025  -0.158   0.074   0.135  -0.092   0.146  -0.153
  -0.043  -0.040   0.158   0.026  -0.161   0.012  -0.084   0.138  -0.028   0.110
  -0.129  -0.056   0.016  -0.038   0.232  -0.194   0.058   0.005  -0.018   0.059
  -0.007   0.032  -0.002  -0.040  -0.026   0.121  -0.150   0.114  -0.088   0.046
   0.038  -0.114   0.178  -0.102   0.096  -0.089  -0.036   0.131  -0.095   0.020
   0.080  -0.136   0.051   0.162  -0.207   0.084  -0.005  -0.002   0.137  -0.307
   0.180   0.014  -0.018   0.036  -0.065   0.003  -0.006   0.028   0.024   0.124
  -0.219   0.074   0.021  -0.017   0.040  -0.125   0.116  -0.129   0.094  -0.002
  -0.006  -0.060   0.014  -0.033   0.083   0.062  -0.217   0.153  -0.090   0.043
   0.093  -0.132   0.121  -0.046  -0.062   0.179  -0.119  -0.017   0.035  -0.040
   0.097  -0.020  -0.154   0.246  -0.139  -0.026   0.185  -0.183   0.132  -0.158
   0.176   0.004  -0.104  -0.011   0.012  -0.022   0.022   0.111  -0.090   0.097
  -0.259   0.191   0.088  -0.210   0.117  -0.127   0.080  -0.037   0.052  -0.045
  -0.047   0.090   0.008   0.013  -0.122   0.062   0.030   0.067  -0.074  -0.088
   0.055  -0.012   0.021   0.002   0.083  -0.189   0.016   0.203  -0.031  -0.033
  -0.076  -0.011   0.111   0.070  -0.006  -0.032  -0.092  -0.020   0.124   0.072
  -0.104  -0.032   0.001   0.003   0.160  -0.154  -0.038  -0.028   0.001   0.069
  -0.046  -0.127   0.010   0.035   0.023   0.065  -0.145  -0.031   0.077  -0.089
   0.162  -0.050  -0.047   0.010   0.004   0.027   0.017   0.041  -0.169   0.085
   0.022   0.060   0.129  -0.252  -0.065   0.121   0.026  -0.100   0.071  -0.066
  -0.012   0.094  -0.057   0.049   0.003  -0.102   0.109   0.073  -0.154   0.080
  -0.034   0.001  -0.015   0.082  -0.046   0.085  -0.014  -0.077   0.120  -0.085
   0.021  -0.074   0.086  -0.108   0.172  -0.089  -0.011  -0.022  -0.015   0.094
   0.015  -0.109   0.091  -0.013  -0.177   0.141  -0.111   0.237  -0.196  -0.074
   0.116   0.119  -0.060  -0.075   0.079  -0.073   0.050   0.034   0.030  -0.109
  -0.021   0.109   0.035  -0.053  -0.102   0.140  -0.008  -0.030   0.038   0.050
  -0.033  -0.145   0.076   0.063  -0.060   0.008  -0.033   0.013  -0.007   0.021
  -0.058  -0.009  -0.114   0.149   0.072  -0.118   0.019  -0.034   0.092   0.011
  -0.017   0.015   0.014  -0.135   0.134   0.001  -0.016  -0.004   0.015   0.009
   0.016  -0.043   0.119  -0.129  -0.016   0.037  -0.006   0.006  -0.012   0.058
  -0.024   0.012  -0.066   0.082   0.011  -0.089   0.062   0.110  -0.128   0.051
   0.011  -0.038   0.084  -0.118   0.175  -0.110  -0.037  -0.087   0.226  -0.145
  -0.014   0.027   0.003   0.021   0.018   0.014   0.065  -0.105  -0.059   0.140
   0.027  -0.127   0.094  -0.001  -0.105   0.067   0.052   0.050  -0.158   0.013
   0.053   0.070  -0.079  -0.069   0.076  -0.093   0.062   0.077  -0.021  -0.082
  -0.023   0.017   0.124  -0.049  -0.066   0.089  -0.121   0.062   0.075  -0.002
  -0.084  -0.087   0.074   0.095  -0.059  -0.058  -0.062   0.024   0.071  -0.057
   0.014  -0.102   0.012   0.112   0.001   0.028  -0.120   0.007  -0.005   0.051
  -0.029  -0.010  -0.029  -0.042   0.078  -0.031   0.089  -0.159   0.068   0.094
  -0.082   0.130  -0.093  -0.034   0.003   0.066  -0.050   0.077  -0.164  -0.016
   0.162  -0.169   0.087  -0.051  -0.083   0.052   0.063  -0.011  -0.049   0.033
  -0.095   0.136  -0.009  -0.108   0.162  -0.127   0.008   0.082   0.020  -0.117
   0.044  -0.103   0.096   0.064  -0.209   0.117   0.049  -0.137   0.069  -0.046
   0.003   0.010   0.054  -0.060   0.059  -0.176   0.095   0.051   0.003  -0.095
   0.140  -0.118   0.059   0.139  -0.161   0.040  -0.073   0.093   0.090  -0.159
  -0.025   0.061   0.012   0.012   0.017  -0.043  -0.011   0.055   0.067  -0.045
  -0.059  -0.010   0.026   0.071  -0.007  -0.087  -0.060   0.052   0.025   0.116
  -0.009  -0.170   0.080   0.053   0.121   0.072  -0.198   0.014  -0.013   0.255
  -0.074  -0.119  -0.009  -0.053   0.091   0.122   0.005  -0.171  -0.040   0.070
   0.079   0.094  -0.159  -0.018   0.037  -0.022   0.132   0.006  -0.019  -0.196
   0.167   0.104  -0.021  -0.063  -0.033  -0.037   0.100  -0.006  -0.044   0.012
  -0.191   0.164   0.077  -0.060  -0.048  -0.090   0.142  -0.041   0.040  -0.029
  -0.085   0.012   0.010   0.092  -0.023   0.039  -0.192   0.083   0.059  -0.078
   0.136  -0.189   0.017   0.056  -0.008   0.058  -0.011  -0.185   0.144   0.051
  -0.085   0.140  -0.168   0.010   0.125  -0.047   0.057  -0.042  -0.093  -0.021
   0.092   0.064  -0.073  -0.045   0.097  -0.114   0.059   0.092  -0.048  -0.094
  -0.002   0.149   0.057  -0.195  -0.011   0.047  -0.055  -0.027   0.123  -0.100
  -0.041   0.031   0.082   0.084  -0.143  -0.057   0.133   0.005   0.007  -0.008
   0.005  -0.109  -0.039   0.095   0.097  -0.158   0.019   0.020   0.036   0.021
   0.010  -0.053   0.027  -0.023   0.074   0.036  -0.059  -0.068   0.014   0.022
   0.081  -0.067   0.121  -0.124  -0.114   0.170   0.102  -0.233   0.029   0.020
  -0.050   0.199  -0.094  -0.001  -0.027  -0.117   0.112   0.107  -0.009  -0.187
   0.044   0.025   0.036   0.001  -0.039  -0.097   0.002   0.063   0.200  -0.183
  -0.143   0.098  -0.015   0.122  -0.038  -0.075  -0.065  -0.045   0.067   0.142
  -0.098  -0.128   0.102  -0.075   0.199  -0.082  -0.159   0.134  -0.134   0.138
   0.059  -0.133  -0.076   0.026   0.054   0.059   0.009  -0.131   0.045  -0.066
   0.200  -0.081  -0.037   0.019  -0.080   0.074   0.075  -0.059  -0.009  -0.078
   0.040   0.119  -0.012  -0.031   0.005  -0.103   0.025   0.150   0.020  -0.105
  -0.056   0.042   0.066  -0.020  -0.026   0.029  -0.045  -0.035   0.133  -0.029
  -0.096  -0.039   0.092   0.086  -0.084  -0.006   0.020  -0.126   0.175  -0.131
   0.057  -0.011  -0.131   0.158   0.034   0.012  -0.053  -0.030  -0.043   0.188
   0.011  -0.074   0.075  -0.184   0.105   0.078  -0.058  -0.058  -0.018   0.055
   0.144  -0.105  -0.092   0.205  -0.113   0.018   0.101  -0.030   0.030  -0.094
   0.048   0.094  -0.110   0.022   0.088  -0.016   0.020   0.015   0.028  -0.048
  -0.061   0.038   0.103  -0.057  -0.047  -0.026   0.110  -0.090  -0.042   0.110
  -0.056   0.022   0.001   0.056   0.046  -0.117   0.093   0.001  -0.021   0.046
   0.008  -0.023   0.074  -0.206   0.204  -0.008  -0.141   0.084  -0.020  -0.008
   0.021  -0.061  -0.025   0.024  -0.003   0.020   0.063  -0.171   0.114  -0.008
   0.068  -0.084   0.015   0.010  -0.069   0.107   0.013  -0.063   0.046  -0.152
   0.058   0.119  -0.115   0.015   0.053  -0.061   0.092  -0.006  -0.087   0.069
  -0.042  -0.000   0.045  -0.052   0.029  -0.059   0.023  -0.026  -0.002  -0.003
  -0.002  -0.044   0.074  -0.024  -0.091   0.058   0.000   0.012  -0.030   0.001
   0.065  -0.052  -0.045   0.070  -0.002  -0.060  -0.098   0.046   0.056  -0.110
   0.012   0.004   0.026  -0.099   0.086  -0.041   0.039  -0.121   0.093  -0.046
  -0.014  -0.038   0.001   0.027  -0.125   0.030   0.081  -0.098  -0.029   0.087
  -0.043   0.028  -0.020  -0.005   0.012  -0.049  -0.000   0.029   0.079  -0.179
   0.086   0.068  -0.089  -0.100   0.117  -0.050   0.022  -0.091   0.004   0.113
  -0.143   0.029   0.086  -0.061  -0.085   0.095   0.040  -0.085  -0.018   0.053
   0.046  -0.083   0.053   0.052   0.023  -0.148   0.078   0.041  -0.084  -0.042
   0.052   0.033  -0.063   0.007   0.061   0.024  -0.075   0.017   0.149  -0.073
  -0.031   0.060   0.063  -0.093   0.033   0.040   0.020  -0.024   0.033   0.023
  -0.018  -0.002   0.004   0.043   0.007  -0.025   0.062   0.046  -0.082   0.017
   0.031  -0.043   0.034  -0.015   0.083   0.008  -0.038  -0.003   0.024  -0.055
  -0.013   0.063   0.045  -0.059  -0.003   0.041   0.057  -0.018   0.006  -0.018
  -0.004  -0.039   0.084   0.018  -0.051  -0.004   0.001   0.080  -0.050   0.035
   0.078  -0.097   0.054  -0.041   0.083   0.018  -0.035   0.014   0.018   0.018
  -0.015   0.042  -0.035  -0.080   0.079   0.011   0.026  -0.111   0.021   0.014
   0.056  -0.058  -0.007  -0.020   0.010  -0.024   0.078  -0.052  -0.072   0.011
   0.045   0.089  -0.059  -0.017  -0.030   0.012   0.053  -0.035   0.049  -0.133
   0.005   0.021   0.028  -0.034  -0.020  -0.036   0.019   0.024  -0.045   0.020
  -0.031  -0.032   0.069  -0.069   0.015  -0.034  -0.034   0.058  -0.024  -0.031
   0.065  -0.059  -0.025   0.064  -0.006  -0.094   0.033  -0.035  -0.009   0.024
  -0.044  -0.083   0.127  -0.154   0.086   0.041  -0.091   0.000  -0.057   0.033
  -0.011  -0.032  -0.058   0.118  -0.120   0.068  -0.013  -0.133   0.114  -0.116
   0.063  -0.061   0.034  -0.095   0.082  -0.131   0.024   0.008  -0.082   0.005
   0.040  -0.107   0.019   0.003  -0.120   0.070  -0.055  -0.030  -0.016  -0.019
   0.040  -0.074   0.042  -0.123   0.090   0.005  -0.031  -0.106   0.004  -0.016
   0.133  -0.083   0.022  -0.019  -0.152   0.135   0.002  -0.054   0.080  -0.175
   0.099   0.075  -0.069   0.008   0.034  -0.010   0.001  -0.007   0.103  -0.057
  -0.037   0.036   0.076  -0.117   0.081  -0.059   0.116   0.003  -0.065   0.129
  -0.056  -0.019   0.014   0.091  -0.021  -0.097   0.096  -0.004   0.039   0.031
  -0.009   0.050   0.007  -0.042   0.219  -0.059  -0.050   0.063   0.064  -0.050
   0.066  -0.011   0.106   0.034  -0.057   0.130   0.045  -0.048   0.048   0.079
   0.029  -0.071   0.129  -0.013   0.050  -0.029   0.008   0.063   0.023  -0.018
   0.199   0.036  -0.078   0.042   0.145   0.022   0.026   0.043   0.089  -0.034
   0.066   0.035   0.119   0.024  -0.064   0.130  -0.021   0.056   0.065   0.030
   0.097  -0.075   0.035   0.186   0.025  -0.067   0.156  -0.054   0.136  -0.025
   0.139  -0.056   0.088  -0.029   0.085   0.176  -0.087   0.030   0.123  -0.047
   0.161   0.082  -0.042   0.027  -0.039   0.063   0.115  -0.081   0.072  -0.051
   0.106   0.083  -0.125   0.046   0.065  -0.097   0.237  -0.077  -0.002  -0.002
   0.010   0.053   0.150  -0.085  -0.000   0.086  -0.020   0.059   0.068  -0.069
  -0.026   0.010   0.118  -0.005   0.051  -0.123   0.024   0.042   0.033  -0.041
   0.026  -0.063  -0.016   0.098   0.003  -0.107   0.037  -0.065   0.097  -0.002
  -0.033  -0.038  -0.009  -0.121   0.045  -0.039  -0.072  -0.086  -0.012   0.042
  -0.068  -0.084   0.010  -0.121   0.018  -0.022  -0.079  -0.158   0.037  -0.061
  -0.063   0.027  -0.182  -0.025  -0.070  -0.113   0.039  -0.078  -0.077  -0.140
   0.022  -0.172   0.001  -0.127  -0.082  -0.064  -0.144  -0.100   0.038  -0.208
  -0.051  -0.124  -0.013  -0.084  -0.129  -0.031  -0.176  -0.093  -0.076  -0.084
  -0.034  -0.249  -0.049  -0.078  -0.018  -0.188  -0.144  -0.129  -0.097  -0.161
   0.005  -0.227  -0.096  -0.232  -0.026  -0.104  -0.172  -0.200  -0.068  -0.145
  -0.113  -0.142  -0.042  -0.251  -0.104  -0.083  -0.125  -0.161  -0.189  -0.118
  -0.085  -0.248   0.060  -0.290  -0.085  -0.110  -0.052  -0.246   0.053  -0.332
   0.024  -0.213  -0.187  -0.010  -0.200  -0.181  -0.063  -0.173  -0.071  -0.148
  -0.133  -0.150  -0.091  -0.224  -0.051  -0.227  -0.094  -0.183  -0.109  -0.218
   0.009  -0.242  -0.089  -0.102  -0.153  -0.153  -0.078  -0.169  -0.090  -0.207
  -0.036  -0.128  -0.057  -0.207  -0.050  -0.233  -0.003  -0.178  -0.102  -0.125
  -0.090  -0.122  -0.058  -0.187   0.009  -0.208  -0.131  -0.043  -0.066  -0.203
   0.007  -0.199  -0.032  -0.069  -0.060  -0.147  -0.089  -0.128  -0.031  -0.040
  -0.074  -0.105  -0.096  -0.065  -0.037  -0.047  -0.105  -0.109  -0.003  -0.069
  -0.071   0.004   0.070   0.110   0.191   0.387   0.264   0.689   0.401   1.164
   0.805   1.325   0.481   1.526   2.279   2.951   2.599   1.554   0.726  -1.312
