Corrected accelerogram 20160214_001343_HHSS_20 GNS Science
Site HHSS      43 33 27S  172 35 34E     Cusp file:  20160214_001347_HHSS
Hillmorton High School
Instrument Cusp_42116
Resolution: 18-bit   Instr Period: 0.0050 s   Damping: 0.700
Accelerogram 20160214_001343_HHSS_20                 Processed 2016 February 22
11 km east of CHRISTCHURCH
2016 February 14         00:13:43 UT
Epicentre  43 29 50S 172 45 18E  Bearing N63E  Dist   15km  Depth    8km M  5.70
Number of points  8192    Duration 163.82 sec
Instrument corrected data at 0.020 sec intervals
Band-pass filter transition bands are .10-.25 Hz and 24.50-25.50 Hz
Component N00E  Horizontal Axis 1
Acceleration:  peak    678.1 mm/s/s at  44.48 sec     rms     46.9 mm/s/s
Velocity:      peak   -62.55 mm/s   at  44.16 sec     rms     6.25 mm/s
Displacement:  peak  -29.374 mm     at  44.50 sec     rms    2.773 mm
    2016       2      14       0      13     430       0       0    2016       2
      43      29      50     172      45      18       8       0      14       0
      43      33      27     172      35      34       0       0      63      15
   38841     250     250    8192    8192    8192       0       0      13    7598
   200.0    0.70    0.00   0.000  0.0000   0.000   0.000   1.000     0.0    0.00
  43.557 172.593   43.50  172.76    5.70    0.00    0.00    0.00      0.      0.
  194.20    5.00    5.00  163.82  0.0050  0.0200      0.      0.      0.  9806.6
   688.4   44.49    48.5   0.000      0.   678.1   44.48    46.9   679.0   3.229
  -62.55   44.16    6.25   66.84   0.244  -29.37   44.50    2.77   30.16   0.244
   0.100   0.150   0.250      0.      0.  24.500   1.000  25.500      0.      0.
    -0.0     0.0    -0.0     0.0    -0.0     0.0    -0.0     0.0    -0.0     0.0
    -0.0     0.0    -0.0     0.0    -0.0     0.0    -0.0     0.0     0.0     0.0
     0.0     0.0     0.0     0.0     0.0     0.0     0.0     0.0     0.0     0.0
     0.0     0.0     0.0     0.0     0.0     0.0     0.0     0.0     0.0     0.0
     0.0     0.0     0.0     0.0     0.0     0.0     0.0     0.0     0.0     0.0
     0.0     0.0     0.0     0.0     0.0     0.0     0.0     0.0     0.0     0.0
     0.0     0.0     0.0     0.0     0.0     0.0     0.0     0.0     0.0     0.0
     0.0     0.0     0.0     0.0     0.0     0.0     0.0     0.0     0.0     0.0
     0.0     0.0     0.0     0.0     0.0     0.0     0.0     0.0     0.0     0.0
     0.0     0.0     0.0     0.0     0.0     0.0     0.0     0.0     0.0     0.0
     0.0     0.0     0.0     0.0     0.0     0.0     0.0     0.0     0.0     0.0
     0.0     0.0     0.0     0.0     0.0     0.0     0.0     0.0     0.0     0.0
     0.0     0.0     0.0     0.0     0.0     0.0     0.0     0.0     0.0     0.0
    -0.0     0.0    -0.0     0.0    -0.0     0.0    -0.0     0.0    -0.0     0.0
    -0.0     0.0    -0.0     0.0    -0.0     0.0    -0.0     0.0    -0.0     0.0
    -0.0     0.0    -0.0     0.0    -0.0     0.0    -0.0    -0.0    -0.0    -0.0
    -0.0    -0.0    -0.0    -0.0    -0.0    -0.0    -0.0    -0.0    -0.0    -0.0
    -0.0    -0.0    -0.0    -0.0    -0.0    -0.0    -0.0    -0.0    -0.0    -0.0
    -0.0    -0.0    -0.0    -0.0    -0.0    -0.0    -0.0    -0.0    -0.0    -0.0
    -0.0    -0.0    -0.0    -0.0    -0.0    -0.0    -0.0    -0.0    -0.0    -0.0
    -0.0    -0.0    -0.0    -0.0    -0.0    -0.0    -0.0    -0.0    -0.0    -0.0
    -0.0    -0.0    -0.0    -0.0    -0.0    -0.0    -0.0    -0.0    -0.0    -0.0
    -0.0    -0.0    -0.0    -0.0    -0.0    -0.0    -0.0    -0.0    -0.0    -0.0
    -0.0    -0.0    -0.0    -0.0    -0.0    -0.0    -0.0    -0.0    -0.0    -0.0
    -0.0    -0.0    -0.0    -0.0    -0.0    -0.0    -0.0    -0.0    -0.0    -0.0
     0.1    -0.0    -0.0    -0.1     0.1     0.0     0.1     0.1     0.1    -0.0
     0.0    -0.1     0.0    -0.0     0.0     0.1     0.0    -0.1    -0.1     0.1
    -0.1    -0.1    -0.0     0.2     0.0     0.1     0.1     0.1     0.1     0.1
    -0.1    -0.1    -0.1     0.0     0.0    -0.0     0.0     0.2    -0.0     0.1
     0.0    -0.1     0.1     0.1     0.1    -0.1     0.1     0.1    -0.1     0.1
     0.0     0.1     0.0     0.1     0.1     0.2     0.0    -0.2    -0.0     0.0
     0.1     0.0     0.1     0.1    -0.0     0.2     0.2     0.1     0.0    -0.0
    -0.1     0.1     0.0    -0.0     0.0     0.2     0.1    -0.0     0.1     0.1
     0.2    -0.0    -0.1    -0.0    -0.0    -0.0    -0.2    -0.2     0.0    -0.0
     0.0     0.1     0.1    -0.0    -0.1     0.1    -0.1     0.1     0.0    -0.0
    -0.1    -0.1    -0.1    -0.2    -0.1     0.1    -0.1    -0.0    -0.0    -0.2
    -0.1    -0.0     0.0     0.1    -0.1    -0.1    -0.1     0.1    -0.1    -0.0
     0.0    -0.1    -0.2     0.0    -0.0    -0.0    -0.0     0.1    -0.1    -0.1
    -0.1    -0.1    -0.0    -0.1    -0.0     0.1    -0.1    -0.1     0.1    -0.0
     0.1     0.2    -0.1    -0.1    -0.0     0.1    -0.1    -0.1     0.1     0.1
     0.1    -0.1     0.0     0.0     0.1    -0.1    -0.1    -0.1     0.0     0.2
     0.2    -0.0     0.0     0.0    -0.1     0.0     0.0     0.0    -0.0    -0.1
     0.1     0.1    -0.0     0.0     0.1    -0.1     0.1     0.0    -0.0    -0.1
     0.1     0.1     0.2     0.1    -0.0    -0.1    -0.1    -0.1    -0.1     0.0
    -0.0    -0.0    -0.0     0.1     0.1    -0.1    -0.2     0.1    -0.1    -0.1
     0.0     0.1     0.1    -0.0    -0.1    -0.1    -0.2    -0.0     0.0     0.0
    -0.0     0.2     0.0    -0.2    -0.1     0.0    -0.1     0.0     0.0    -0.1
     0.0    -0.1     0.1     0.1    -0.0    -0.1    -0.1    -0.1    -0.1     0.0
    -0.0    -0.0     0.2     0.1    -0.1     0.1     0.1    -0.0     0.0    -0.1
    -0.1     0.1     0.1    -0.1    -0.0     0.2     0.3     0.0    -0.0    -0.0
    -0.1    -0.1     0.0    -0.1    -0.0     0.0     0.0    -0.2    -0.1     0.1
    -0.0     0.2     0.1     0.0    -0.2    -0.1     0.1    -0.1    -0.1    -0.1
    -0.1     0.2    -0.0     0.1    -0.1    -0.0    -0.1     0.1    -0.0     0.0
     0.1    -0.0     0.0     0.1     0.1    -0.1    -0.0    -0.1    -0.0     0.0
    -0.1     0.0     0.1    -0.0     0.0     0.0    -0.1     0.0     0.1    -0.0
    -0.0     0.1     0.0    -0.0    -0.0    -0.1    -0.0     0.1    -0.2    -0.0
     0.2     0.1     0.0    -0.1    -0.0     0.0    -0.0     0.0     0.0     0.0
    -0.1    -0.1    -0.0    -0.1    -0.1     0.1     0.1     0.0    -0.2     0.1
     0.1    -0.1     0.0     0.0     0.1     0.0    -0.1     0.0     0.1     0.1
     0.1    -0.1     0.0     0.1    -0.0     0.1     0.1    -0.1     0.0     0.1
    -0.0    -0.0    -0.1    -0.1     0.1    -0.0     0.1    -0.1    -0.1     0.1
     0.0    -0.0    -0.1     0.0     0.1    -0.0     0.0    -0.0    -0.1    -0.1
    -0.0     0.0     0.1    -0.1     0.0     0.1     0.1    -0.1    -0.1    -0.0
    -0.0     0.0     0.1     0.1    -0.1     0.2     0.1    -0.0    -0.2     0.1
     0.1     0.0    -0.0     0.1     0.1     0.1     0.0     0.0     0.0    -0.1
    -0.0    -0.1     0.1     0.1    -0.0     0.1    -0.0    -0.0    -0.0    -0.1
     0.2     0.1    -0.1    -0.1    -0.0     0.1    -0.1    -0.1    -0.0    -0.1
     0.1    -0.0     0.1     0.0     0.1    -0.1     0.1     0.1    -0.0    -0.1
    -0.0     0.1    -0.1    -0.0     0.1    -0.0     0.1     0.1    -0.0    -0.1
    -0.1     0.1    -0.0     0.0     0.2    -0.0    -0.1     0.1    -0.2    -0.1
     0.1     0.1     0.0    -0.1    -0.0    -0.1    -0.1    -0.0    -0.1    -0.1
     0.1     0.1    -0.0     0.1     0.1     0.0    -0.0    -0.1     0.0    -0.0
    -0.1    -0.0    -0.2    -0.1    -0.0     0.1    -0.0    -0.1     0.0     0.0
    -0.2    -0.2    -0.1    -0.0    -0.1    -0.1    -0.0     0.0     0.0    -0.0
    -0.2     0.0    -0.1    -0.1     0.0     0.0    -0.1    -0.1    -0.0     0.0
     0.0    -0.1     0.1     0.0    -0.0     0.1    -0.1     0.1     0.2     0.1
     0.1    -0.0    -0.0    -0.1     0.1     0.1    -0.0    -0.1     0.1    -0.1
    -0.0     0.0     0.1     0.0     0.0    -0.0     0.0    -0.1    -0.1     0.0
     0.1     0.0    -0.1     0.1     0.1    -0.1     0.1     0.0     0.1     0.2
     0.1    -0.0     0.0     0.0     0.0    -0.1     0.0     0.1     0.0    -0.0
    -0.1     0.0    -0.0     0.1     0.1     0.1     0.1     0.0    -0.1    -0.0
    -0.0     0.0     0.1     0.1     0.1     0.1    -0.3    -0.1     0.0     0.0
     0.0     0.0     0.0     0.0     0.1     0.0    -0.1     0.1     0.2     0.0
    -0.1    -0.0    -0.1    -0.1    -0.0    -0.0    -0.1    -0.0     0.1     0.1
    -0.0    -0.0     0.0    -0.0    -0.1     0.1     0.1     0.0    -0.0     0.0
    -0.0     0.1    -0.1     0.0     0.1    -0.0    -0.1     0.1    -0.1    -0.1
     0.1     0.1    -0.0     0.1    -0.0    -0.1    -0.0     0.1    -0.0    -0.0
     0.1     0.2     0.0     0.1    -0.0    -0.0    -0.0     0.1     0.1     0.0
     0.0     0.1    -0.1    -0.0    -0.0    -0.1    -0.0     0.1     0.1    -0.1
     0.0     0.0     0.0     0.1     0.2    -0.1    -0.2    -0.0    -0.1    -0.2
    -0.2     0.0     0.0     0.1     0.1     0.0     0.0     0.1    -0.1    -0.1
     0.2     0.1    -0.1    -0.1     0.1     0.0    -0.1    -0.1    -0.1    -0.2
    -0.2    -0.0     0.1     0.0     0.1     0.0     0.0     0.0     0.1    -0.1
    -0.2    -0.1     0.1     0.1     0.1     0.1     0.0     0.0    -0.1    -0.0
    -0.0     0.1     0.1    -0.0     0.1     0.1    -0.2    -0.1    -0.1     0.0
     0.2    -0.1     0.0    -0.0    -0.1    -0.1     0.0     0.0    -0.1    -0.1
    -0.1    -0.0    -0.1    -0.3    -0.1     0.0    -0.0     0.0    -0.1    -0.1
     0.1    -0.1    -0.0     0.1    -0.1    -0.1     0.0    -0.0    -0.0     0.0
     0.0    -0.1    -0.0    -0.0    -0.1     0.1     0.1    -0.1     0.0    -0.1
    -0.3    -0.4    -0.0     0.1     0.1     0.1     0.0     0.0     0.3     0.1
     0.0     0.1     0.1     0.0     0.1     0.1     0.2     0.1    -0.0    -0.0
     0.0     0.1    -0.0     0.1     0.1     0.1    -0.1    -0.1    -0.1    -0.1
     0.1     0.1     0.1    -0.0    -0.1     0.0     0.1     0.0     0.1    -0.1
     0.1    -0.0    -0.1    -0.1    -0.1     0.1    -0.0     0.0     0.2     0.1
    -0.0     0.1     0.1     0.1    -0.1    -0.1     0.0     0.1     0.0    -0.0
     0.1    -0.2     0.0     0.0     0.2     0.0     0.0     0.0    -0.2     0.0
     0.0    -0.1     0.0     0.1     0.0    -0.1    -0.0     0.1     0.1    -0.0
     0.2     0.2    -0.0    -0.0    -0.1    -0.1     0.0    -0.0     0.0     0.1
     0.0     0.1    -0.0     0.1     0.1     0.0     0.0    -0.1    -0.1    -0.1
    -0.0    -0.1     0.0     0.1    -0.0     0.2     0.0     0.0    -0.1    -0.0
     0.0     0.0    -0.0    -0.0    -0.1     0.1     0.1    -0.1     0.0     0.0
    -0.0     0.0     0.0    -0.0    -0.1    -0.1    -0.0    -0.0    -0.1    -0.0
    -0.2    -0.1     0.0     0.2     0.0    -0.1    -0.0    -0.0    -0.1    -0.1
    -0.0    -0.1     0.0    -0.0     0.0    -0.0    -0.1    -0.0     0.0    -0.2
    -0.0     0.1     0.1    -0.0    -0.1    -0.0     0.0    -0.1    -0.1     0.1
     0.0    -0.2    -0.1     0.1     0.1    -0.0    -0.2     0.0     0.1    -0.0
    -0.2     0.1     0.1     0.1     0.1     0.1    -0.0    -0.0     0.0     0.1
    -0.0     0.1    -0.0    -0.0    -0.1    -0.0    -0.0    -0.3     0.0     0.1
    -0.0    -0.0     0.0     0.1    -0.1    -0.1     0.0     0.1    -0.0    -0.0
     0.1     0.0     0.0    -0.1    -0.0    -0.0     0.1     0.1     0.1    -0.0
    -0.1    -0.0     0.0    -0.2    -0.1    -0.1    -0.1    -0.1    -0.2     0.1
     0.0    -0.0    -0.1    -0.1    -0.2    -0.1    -0.1    -0.2    -0.1     0.1
    -0.0    -0.1    -0.0     0.1     0.0    -0.1    -0.1     0.1     0.1     0.1
     0.0     0.0     0.1     0.1     0.1     0.1     0.0     0.1     0.0     0.1
     0.1     0.2     0.2    -0.0     0.1     0.0    -0.2     0.1     0.1     0.0
     0.1     0.0     0.1     0.0    -0.0     0.1     0.1    -0.1     0.2     0.2
    -0.0     0.0    -0.1    -0.0    -0.1    -0.1    -0.0     0.1     0.2     0.1
    -0.2    -0.0     0.1    -0.0    -0.1    -0.2     0.1     0.0    -0.1     0.0
     0.2     0.1    -0.0    -0.1     0.2     0.0    -0.0    -0.1     0.1     0.2
     0.1     0.1     0.0    -0.1     0.0     0.1     0.0     0.1    -0.1    -0.0
     0.0     0.2    -0.1     0.1     0.0    -0.1    -0.2     0.2     0.2    -0.1
    -0.0     0.1    -0.1    -0.1    -0.1    -0.1     0.0    -0.1     0.0     0.1
    -0.0    -0.1    -0.0     0.1    -0.2    -0.1     0.0    -0.4    -0.0     0.0
    -0.1    -0.1    -0.0     0.0    -0.2    -0.1    -0.1     0.1     0.1    -0.1
     0.1    -0.1    -0.0     0.0     0.0     0.0    -0.1    -0.2    -0.1     0.0
    -0.1     0.1     0.0    -0.0     0.0     0.0     0.2     0.1     0.0    -0.0
    -0.2    -0.1    -0.0     0.0     0.0    -0.0     0.1     0.1     0.0    -0.0
    -0.0    -0.1     0.0    -0.1     0.1    -0.0    -0.1     0.1    -0.0     0.0
     0.1    -0.0    -0.2    -0.1    -0.0    -0.1    -0.0     0.1    -0.1    -0.1
    -0.0    -0.0     0.0     0.1     0.1     0.2    -0.1    -0.0    -0.0    -0.0
     0.1    -0.0     0.1     0.1    -0.0     0.1     0.1    -0.1     0.1     0.1
    -0.0    -0.1     0.1    -0.0     0.0     0.1     0.0    -0.0     0.2     0.2
    -0.1    -0.1     0.0    -0.1     0.1     0.2     0.1     0.1    -0.0     0.1
     0.0    -0.1    -0.1    -0.1     0.1    -0.0    -0.0     0.1    -0.0    -0.1
     0.0     0.0    -0.0     0.2     0.2     0.0    -0.0     0.0    -0.2    -0.0
     0.1     0.0     0.1     0.1    -0.0     0.0     0.0    -0.2     0.1     0.0
     0.1    -0.1     0.1    -0.0    -0.0    -0.0    -0.0     0.3    -0.0     0.1
     0.1     0.0    -0.0     0.0     0.1    -0.0     0.1    -0.1    -0.1    -0.0
    -0.0     0.1     0.1     0.0     0.1     0.0    -0.0     0.0    -0.2    -0.0
     0.2     0.2    -0.0     0.0    -0.1    -0.1    -0.1    -0.1    -0.0     0.1
     0.2     0.2    -0.1    -0.0    -0.0    -0.1    -0.0    -0.0     0.0    -0.0
    -0.1    -0.1    -0.1    -0.1    -0.0    -0.2    -0.1     0.2     0.1    -0.1
    -0.1    -0.2     0.1     0.1    -0.1     0.1    -0.2    -0.1     0.1    -0.1
    -0.2    -0.1    -0.0    -0.1    -0.1     0.1    -0.0    -0.0    -0.1    -0.3
    -0.2    -0.0     0.1    -0.1    -0.0     0.0    -0.0    -0.2     0.0    -0.0
     0.1    -0.0    -0.1     0.1     0.1    -0.3     0.1    -0.2     0.0    -0.0
    -0.0     0.2     0.0     0.2     0.0    -0.1     0.1     0.1     0.0    -0.1
    -0.1     0.0    -0.0     0.1     0.0    -0.0    -0.0    -0.1    -0.1    -0.0
    -0.1    -0.1     0.1    -0.0    -0.0     0.1     0.0     0.2    -0.1    -0.0
     0.2     0.0    -0.2    -0.0    -0.1     0.2    -0.0     0.1    -0.1    -0.1
     0.1     0.1    -0.1    -0.1     0.1     0.0     0.1     0.0    -0.1    -0.1
     0.1     0.1     0.2    -0.1    -0.1     0.2    -0.1     0.1     0.1    -0.0
    -0.1    -0.1     0.1     0.1     0.0     0.1     0.2     0.2     0.1     0.1
     0.1     0.1    -0.0     0.0     0.2    -0.0    -0.0    -0.1     0.0     0.1
     0.2     0.1     0.0    -0.0    -0.0    -0.1    -0.1     0.0     0.0     0.1
     0.1     0.0     0.1     0.2    -0.1     0.0     0.1     0.1    -0.0    -0.2
     0.0     0.1    -0.0     0.1     0.2     0.1     0.1    -0.0    -0.0    -0.1
     0.0     0.1     0.2     0.1     0.0    -0.0     0.1     0.1     0.1     0.1
    -0.0     0.2     0.1     0.1    -0.0     0.1     0.1     0.1    -0.0    -0.1
     0.0    -0.1     0.1     0.1    -0.0     0.0     0.0     0.0    -0.1    -0.2
    -0.1    -0.0    -0.1    -0.1    -0.0     0.1    -0.1    -0.1     0.0    -0.2
    -0.0    -0.1    -0.2    -0.1    -0.0    -0.2    -0.1    -0.1     0.1     0.0
    -0.2    -0.1    -0.2    -0.2    -0.2    -0.1    -0.1    -0.2    -0.2     0.0
    -0.1    -0.3    -0.1    -0.1    -0.1     0.0    -0.2    -0.1    -0.0    -0.2
    -0.3    -0.2    -0.1     0.0    -0.2    -0.1     0.1    -0.0    -0.1    -0.1
    -0.2    -0.0    -0.0    -0.3     0.1    -0.0    -0.2     0.0     0.0     0.2
    -0.2    -0.3    -0.0    -0.1    -0.2    -0.1     0.0    -0.4    -0.0     0.5
    -0.2    -0.1     0.1    -0.2    -0.0    -0.4    -0.2     0.2    -0.1    -0.3
     0.2     0.1     0.0    -0.1     0.1     0.2    -0.1    -0.0     0.1    -0.0
    -0.1    -0.1    -0.2     0.0    -0.1     0.3    -0.1     0.0     0.3    -0.1
     0.1     0.2    -0.3     0.1     0.3    -0.2    -0.0     0.2     0.3    -0.2
     0.1     0.3     0.1     0.1    -0.0     0.1     0.2     0.1     0.1     0.3
     0.0     0.2     0.0    -0.1     0.2     0.2     0.2     0.0     0.2     0.1
     0.1    -0.0     0.2     0.1     0.0     0.2     0.1     0.3     0.1     0.1
     0.4     0.3     0.2     0.1     0.2     0.2     0.2     0.4     0.3     0.1
     0.2     0.3     0.0     0.3     0.4     0.3     0.1     0.3     0.1     0.1
     0.2     0.2     0.0     0.3     0.4     0.1     0.0    -0.0     0.2     0.1
     0.0    -0.2    -0.1     0.1    -0.0     0.2     0.1     0.2     0.0    -0.1
     0.0    -0.0    -0.1     0.2    -0.2     0.1     0.1    -0.2     0.3    -0.1
    -0.1     0.1     0.1    -0.1    -0.0     0.1     0.0    -0.3    -0.1     0.1
    -0.0    -0.2    -0.1    -0.1    -0.0    -0.1     0.0    -0.0     0.1    -0.1
    -0.2    -0.0    -0.3    -0.2    -0.2    -0.1    -0.3    -0.2    -0.1    -0.1
    -0.2    -0.1    -0.0    -0.2    -0.4    -0.4    -0.2    -0.1    -0.2    -0.3
    -0.3    -0.1    -0.3    -0.3    -0.2    -0.2    -0.2    -0.1    -0.3    -0.3
    -0.2    -0.3    -0.2    -0.4    -0.3    -0.3    -0.3    -0.3    -0.1    -0.3
    -0.2    -0.3    -0.3    -0.2    -0.3    -0.3    -0.2    -0.2    -0.2    -0.2
    -0.2    -0.2    -0.2    -0.2    -0.2    -0.3    -0.3    -0.1    -0.1    -0.3
    -0.2     0.0     0.0    -0.0    -0.2    -0.2    -0.0    -0.1    -0.1    -0.2
    -0.2    -0.0     0.0     0.1     0.0    -0.0     0.0     0.1     0.2     0.1
    -0.1     0.1     0.2    -0.0     0.2     0.1     0.1     0.3     0.3     0.3
     0.2     0.2     0.1     0.2     0.2     0.3     0.2     0.3     0.3     0.3
     0.4     0.5     0.4     0.3     0.3     0.4     0.4     0.5     0.4     0.5
     0.5     0.5     0.6     0.5     0.5     0.6     0.5     0.5     0.7     0.7
     0.7     0.5     0.7     0.7     0.6     0.7     0.7     0.7     0.8     0.7
     0.6     0.7     0.8     0.9     1.0     0.9     0.7     0.7     0.6     0.9
     0.7     0.7     0.8     0.9     1.0     0.8     0.8     0.9     0.9     0.5
     0.7     0.6     0.7     0.8     0.9     0.7     0.8     0.8     0.8     0.8
     0.6     0.8     0.8     0.6     0.7     0.7     0.6     0.5     0.5     0.7
     0.6     0.5     0.5     0.6     0.5     0.5     0.4     0.5     0.4     0.5
     0.3     0.2     0.2     0.3     0.2     0.2     0.1     0.2     0.1     0.1
     0.2     0.1    -0.1     0.1    -0.0    -0.2    -0.3    -0.4    -0.2    -0.2
    -0.4    -0.3    -0.2    -0.3    -0.5    -0.7    -0.6    -0.7    -0.5    -0.7
    -0.9    -0.9    -0.9    -0.9    -0.9    -0.8    -0.8    -0.8    -1.0    -1.1
    -1.2    -1.4    -1.4    -1.3    -1.3    -1.5    -1.5    -1.5    -1.3    -1.6
    -1.7    -1.7    -1.6    -1.7    -1.7    -1.8    -1.9    -1.8    -1.8    -1.9
    -2.0    -2.0    -2.1    -2.2    -2.2    -2.1    -2.1    -2.1    -2.2    -2.3
    -2.4    -2.6    -2.3    -2.2    -2.5    -2.5    -2.6    -2.5    -2.6    -2.8
    -2.7    -2.7    -2.6    -2.8    -2.9    -2.6    -2.7    -2.7    -2.8    -2.7
    -2.9    -2.8    -2.8    -2.8    -2.6    -2.7    -2.9    -2.8    -2.7    -2.8
    -2.8    -2.8    -2.6    -2.6    -2.7    -2.6    -2.6    -2.6    -2.5    -2.7
    -2.7    -2.4    -2.5    -2.5    -2.5    -2.6    -2.3    -2.3    -2.3    -2.2
    -2.2    -2.0    -2.0    -2.0    -2.0    -2.0    -1.9    -1.9    -1.8    -1.8
    -1.7    -1.5    -1.6    -1.5    -1.3    -1.3    -1.3    -1.3    -1.1    -1.0
    -0.9    -0.8    -0.9    -0.8    -0.7    -0.5    -0.5     0.0    -0.4    -0.1
     0.3     0.5     0.4    -0.9     1.7     0.3     1.2     0.4     0.9     1.0
     1.4     1.5     2.1     2.6     3.1     4.0    -2.3     3.7     0.9     1.6
