Corrected accelerogram 20160214_001343_CACS_20 GNS Science
Site CACS      43 28 59S  172 31 48E     Cusp file:  20160214_001348_CACS
Christchurch Canterbury Aero Club
Instrument Cusp_42278
Resolution: 18-bit   Instr Period: 0.0050 s   Damping: 0.700
Accelerogram 20160214_001343_CACS_20                 Processed 2016 February 22
11 km east of CHRISTCHURCH
2016 February 14         00:13:43 UT
Epicentre  43 29 50S 172 45 18E  Bearing S85E  Dist   18km  Depth    8km M  5.70
Number of points  8192    Duration 163.82 sec
Instrument corrected data at 0.020 sec intervals
Band-pass filter transition bands are .10-.25 Hz and 24.50-25.50 Hz
Component N00E  Horizontal Axis 1
Acceleration:  peak    273.9 mm/s/s at  46.40 sec     rms     23.7 mm/s/s
Velocity:      peak    34.90 mm/s   at  49.36 sec     rms     5.05 mm/s
Displacement:  peak   17.091 mm     at  57.56 sec     rms    3.208 mm
    2016       2      14       0      13     430       0       0    2016       2
      43      29      50     172      45      18       8       0      14       0
      43      28      59     172      31      48       0       0      95      18
   36060     250     250    8192    8192    8192       0       0      13    8013
   200.0    0.70    0.00   0.000  0.0000   0.000   0.000   1.000     0.0    0.00
  43.483 172.530   43.50  172.76    5.70    0.00    0.00    0.00      0.      0.
  180.30    5.00    5.00  163.82  0.0050  0.0200      0.      0.      0.  9806.6
   285.6   46.40    25.2   0.000      0.   273.9   46.40    23.7   380.2   0.363
   34.90   49.36    5.05   55.54   0.180   17.09   57.56    3.21   22.61   0.180
   0.100   0.150   0.250      0.      0.  24.500   1.000  25.500      0.      0.
     0.0     0.0     0.0     0.0     0.0     0.0     0.0     0.0     0.0     0.0
     0.0     0.0     0.0     0.0     0.0    -0.0     0.0    -0.0     0.0    -0.0
     0.0    -0.0     0.0    -0.0    -0.0    -0.0    -0.0    -0.0    -0.0    -0.0
    -0.0    -0.0    -0.0    -0.0    -0.0    -0.0    -0.0    -0.0    -0.0    -0.0
    -0.0    -0.0    -0.0    -0.0    -0.0    -0.0    -0.0    -0.0    -0.0    -0.0
    -0.0    -0.0    -0.0    -0.0    -0.0    -0.0    -0.0    -0.0    -0.0    -0.0
    -0.0    -0.0    -0.0    -0.0    -0.0    -0.0    -0.0    -0.0    -0.0    -0.0
    -0.0    -0.0    -0.0    -0.0    -0.0    -0.0    -0.0    -0.0    -0.0    -0.0
    -0.0    -0.0    -0.0    -0.0    -0.0    -0.0    -0.0    -0.0    -0.0    -0.0
    -0.0    -0.0    -0.0    -0.0    -0.0    -0.0    -0.0    -0.0    -0.0    -0.0
    -0.0    -0.0    -0.0    -0.0    -0.0    -0.0    -0.0    -0.0    -0.0    -0.0
    -0.0    -0.0    -0.0    -0.0    -0.0    -0.0    -0.0    -0.0    -0.0    -0.0
    -0.0    -0.0    -0.0    -0.0    -0.0    -0.0    -0.0    -0.0    -0.0    -0.0
    -0.0    -0.0    -0.0    -0.0    -0.0    -0.0    -0.0    -0.0    -0.0    -0.0
    -0.0    -0.0    -0.0    -0.0    -0.0    -0.0    -0.0    -0.0    -0.0    -0.0
    -0.0    -0.0     0.0    -0.0     0.0    -0.0     0.0    -0.0     0.0    -0.0
     0.0     0.0     0.0     0.0     0.0     0.0     0.0     0.0     0.0     0.0
     0.0     0.0     0.0     0.0     0.0     0.0     0.0     0.0     0.0     0.0
     0.0     0.0     0.0     0.0     0.0     0.0     0.0     0.0     0.0     0.0
     0.0     0.0     0.0     0.0     0.0     0.0     0.0     0.0     0.0     0.0
     0.0     0.0     0.0     0.0     0.0     0.0     0.0     0.0     0.0     0.0
     0.0     0.0     0.0     0.0     0.0     0.0     0.0     0.0     0.0     0.0
     0.0     0.0     0.0     0.0     0.0     0.0     0.0     0.0     0.0     0.0
     0.0     0.0     0.0     0.0     0.0     0.0     0.0     0.0     0.0     0.0
     0.0     0.0     0.0     0.0     0.0     0.0     0.0     0.0     0.0     0.0
    -0.0     0.0    -0.2     0.0     0.1     0.0    -0.0    -0.1    -0.0     0.1
    -0.1    -0.1    -0.1    -0.1     0.0     0.0    -0.1    -0.1     0.1     0.1
     0.1    -0.1     0.0     0.0     0.0     0.1    -0.0    -0.1     0.1     0.0
     0.0     0.0     0.0     0.0     0.1    -0.1    -0.1    -0.1    -0.1     0.0
    -0.0    -0.0    -0.1     0.0    -0.0     0.0    -0.1    -0.1    -0.0     0.1
     0.1    -0.0    -0.0    -0.1     0.0    -0.1     0.0     0.0    -0.0    -0.0
    -0.0    -0.0     0.1    -0.0    -0.0    -0.0    -0.0    -0.0    -0.1     0.0
    -0.0     0.0    -0.2    -0.0    -0.1     0.1    -0.1     0.0    -0.1    -0.0
     0.0     0.1    -0.0    -0.1     0.1    -0.1     0.1     0.0     0.0     0.0
    -0.1    -0.1    -0.1    -0.0    -0.0    -0.1     0.1    -0.1     0.0     0.0
    -0.1     0.1    -0.1    -0.0     0.1     0.0     0.1    -0.1    -0.1     0.1
     0.0    -0.1     0.0    -0.1    -0.0    -0.1     0.0     0.0     0.0    -0.1
    -0.1     0.0    -0.0    -0.0    -0.0     0.0     0.1     0.0     0.0     0.1
     0.0     0.0    -0.1    -0.0    -0.1    -0.0    -0.0     0.1    -0.0     0.0
     0.0     0.0     0.0     0.0     0.0    -0.0     0.1    -0.0     0.1     0.0
    -0.1    -0.0     0.0     0.0    -0.1    -0.0     0.0    -0.0    -0.0    -0.1
    -0.0    -0.1     0.1     0.1    -0.0     0.1    -0.0    -0.0     0.1    -0.0
    -0.0    -0.1    -0.0     0.0    -0.0     0.0     0.0    -0.0     0.0     0.0
     0.0     0.1     0.0     0.0     0.1     0.1    -0.0    -0.0     0.1     0.1
     0.1     0.1    -0.0     0.0     0.1     0.0     0.1    -0.0     0.0    -0.0
     0.1     0.0     0.1     0.1     0.1     0.0     0.0    -0.1    -0.0    -0.0
     0.0    -0.0     0.0    -0.1    -0.0    -0.0    -0.1    -0.1     0.0    -0.0
     0.0     0.1    -0.1     0.1    -0.0     0.0     0.0    -0.1    -0.0    -0.0
     0.1    -0.0    -0.0     0.2     0.1     0.1     0.0     0.1     0.1     0.1
     0.0    -0.1     0.0     0.1    -0.1    -0.1    -0.1    -0.1    -0.1    -0.0
    -0.0    -0.0     0.0     0.0     0.0    -0.0    -0.1    -0.1     0.0     0.0
     0.1    -0.0    -0.0    -0.0    -0.1    -0.0    -0.1     0.0    -0.0    -0.0
    -0.0    -0.0    -0.0    -0.1    -0.0    -0.1    -0.0    -0.1     0.0    -0.0
    -0.0    -0.0    -0.0    -0.0     0.1     0.0    -0.1     0.0    -0.0    -0.1
     0.0    -0.1    -0.1    -0.0     0.1    -0.0    -0.1    -0.0    -0.0    -0.1
    -0.1     0.0    -0.1     0.0    -0.0    -0.0    -0.0     0.0    -0.0    -0.0
     0.1     0.0    -0.0     0.0    -0.0    -0.0    -0.0    -0.1    -0.0    -0.1
    -0.1    -0.1    -0.1    -0.0     0.0     0.1     0.0     0.1    -0.1    -0.0
    -0.1    -0.0    -0.1     0.0    -0.1    -0.0    -0.1    -0.0     0.1     0.1
     0.0     0.0     0.1     0.1     0.0    -0.0    -0.0    -0.1     0.1    -0.0
     0.0    -0.0    -0.0     0.0     0.0     0.0    -0.0    -0.0    -0.0     0.1
     0.1     0.1     0.1     0.0    -0.0     0.0     0.1     0.1    -0.0    -0.0
    -0.0     0.1     0.0     0.1     0.0    -0.1    -0.1     0.0     0.2     0.0
     0.1     0.1     0.1     0.1     0.1    -0.0     0.0    -0.0     0.0    -0.1
    -0.1     0.0     0.0    -0.1     0.0     0.0    -0.0     0.0    -0.1    -0.1
     0.1    -0.0    -0.1    -0.1    -0.1    -0.1     0.0     0.0    -0.1    -0.1
    -0.0    -0.2     0.0    -0.1    -0.0     0.0     0.1    -0.0    -0.1    -0.0
    -0.0     0.0     0.1     0.0    -0.1     0.0    -0.1     0.1     0.1    -0.1
    -0.0     0.0     0.0    -0.1    -0.1    -0.0    -0.1    -0.1    -0.0    -0.0
    -0.0     0.0     0.0     0.1    -0.0     0.2     0.0     0.1     0.1    -0.0
    -0.0     0.0     0.0    -0.0    -0.1    -0.1    -0.0    -0.1     0.1     0.0
     0.1     0.1    -0.1     0.0     0.1     0.0     0.0    -0.1     0.1     0.1
     0.0     0.0    -0.0    -0.0    -0.0    -0.0    -0.1     0.1     0.1     0.1
    -0.0     0.0     0.1     0.0     0.0     0.1     0.1     0.1     0.1     0.1
     0.0    -0.0     0.0    -0.1    -0.0     0.0     0.1    -0.0    -0.1     0.0
    -0.1    -0.0    -0.0     0.0    -0.0     0.0    -0.0    -0.0     0.1     0.0
    -0.1    -0.0     0.0     0.0    -0.0     0.1    -0.0     0.0    -0.0     0.1
    -0.0     0.0     0.0    -0.0    -0.1     0.0    -0.1    -0.0    -0.1    -0.1
    -0.1    -0.1    -0.1    -0.0    -0.1    -0.1    -0.1    -0.1    -0.1     0.0
     0.1     0.0     0.0    -0.1     0.1    -0.1    -0.0     0.1    -0.1    -0.1
     0.1    -0.0     0.0    -0.0    -0.0     0.1     0.0     0.1    -0.0     0.1
     0.0    -0.0     0.0     0.1    -0.0    -0.0     0.1     0.0    -0.0     0.1
    -0.0     0.1     0.0     0.0    -0.0     0.1    -0.0    -0.1    -0.1    -0.1
     0.1    -0.0    -0.0    -0.1     0.1    -0.0    -0.0    -0.1     0.0    -0.1
     0.0    -0.0    -0.0    -0.1    -0.1    -0.1    -0.1     0.0    -0.1     0.0
    -0.1    -0.0     0.0    -0.1    -0.1    -0.1    -0.1    -0.0    -0.0     0.0
     0.1    -0.1     0.1    -0.0    -0.0    -0.0    -0.1    -0.1     0.1    -0.0
     0.0    -0.0     0.0    -0.0    -0.0    -0.1     0.1    -0.0     0.0    -0.2
    -0.0     0.0     0.1     0.1    -0.0     0.0    -0.1     0.1     0.1    -0.1
    -0.0     0.2     0.0     0.0     0.1     0.1    -0.0    -0.1     0.1     0.1
     0.1     0.0    -0.0    -0.1     0.0    -0.0    -0.1     0.1     0.0     0.1
     0.0     0.1    -0.0     0.0     0.1     0.0     0.1     0.0     0.1     0.0
     0.0     0.2    -0.0     0.1     0.1     0.0     0.0     0.1     0.0     0.0
     0.0    -0.0     0.0     0.0     0.1    -0.0     0.0    -0.1     0.0    -0.1
     0.1     0.0     0.0     0.1     0.1     0.1     0.1     0.1     0.1    -0.0
     0.1     0.0     0.1    -0.0    -0.0     0.0    -0.0    -0.0     0.1    -0.1
     0.0     0.0    -0.1     0.0    -0.0     0.1     0.0    -0.1     0.0     0.0
    -0.1     0.1    -0.1     0.0     0.1     0.0    -0.1    -0.1    -0.1     0.0
     0.1     0.1    -0.1    -0.0     0.2    -0.0    -0.1     0.1    -0.0    -0.1
    -0.0     0.0    -0.2     0.1    -0.0    -0.2     0.1     0.1    -0.1    -0.0
     0.1    -0.0    -0.1     0.1    -0.1    -0.1    -0.0    -0.0     0.0    -0.1
    -0.0     0.1    -0.0    -0.0    -0.1    -0.1     0.1    -0.1    -0.0    -0.0
    -0.0    -0.1    -0.1     0.1    -0.1    -0.1    -0.0    -0.1    -0.0     0.0
    -0.0    -0.1    -0.1     0.0    -0.1     0.1     0.1    -0.1    -0.0    -0.0
     0.0    -0.0     0.1    -0.0    -0.0    -0.0    -0.1    -0.0     0.0    -0.2
    -0.0    -0.0    -0.1    -0.1     0.0    -0.1    -0.1     0.0     0.0    -0.0
    -0.0    -0.1     0.1     0.2    -0.0    -0.1     0.0     0.0    -0.0     0.0
    -0.1     0.2    -0.0    -0.1    -0.0    -0.0    -0.0    -0.0    -0.0    -0.0
    -0.1    -0.1     0.0     0.1    -0.0    -0.1    -0.0    -0.0     0.1    -0.2
     0.0    -0.0     0.0    -0.1     0.0    -0.0    -0.0    -0.1    -0.0     0.0
     0.1    -0.0     0.1     0.0    -0.1    -0.0    -0.1    -0.1    -0.1     0.0
    -0.0     0.0     0.1    -0.1     0.1     0.1     0.0     0.1     0.1    -0.0
     0.0    -0.0     0.1     0.1     0.0     0.1     0.1     0.0     0.1     0.1
     0.0     0.0     0.1    -0.0     0.1     0.1     0.0     0.0    -0.0     0.0
     0.0     0.1    -0.0    -0.0     0.0     0.1     0.1     0.1    -0.1     0.1
    -0.0     0.1     0.0     0.1     0.1     0.1     0.1     0.0     0.0     0.1
    -0.0     0.0     0.1    -0.0     0.0    -0.0     0.0     0.0    -0.1     0.0
     0.1     0.1    -0.0    -0.1     0.0     0.0     0.1    -0.0    -0.0    -0.1
    -0.1     0.0    -0.0    -0.0     0.1    -0.0    -0.0     0.0     0.1    -0.0
     0.0    -0.0     0.1    -0.0     0.1     0.0    -0.0     0.0    -0.1    -0.0
    -0.1    -0.0    -0.0    -0.1     0.0    -0.0    -0.1    -0.0    -0.0    -0.1
    -0.0    -0.0     0.1    -0.1    -0.0     0.1     0.0     0.0     0.1     0.1
     0.0     0.0     0.1    -0.0     0.0     0.0    -0.1     0.1    -0.0     0.1
    -0.0     0.0    -0.0    -0.0    -0.0    -0.0    -0.1    -0.1     0.0     0.0
    -0.0     0.0    -0.1    -0.1     0.0    -0.0    -0.1    -0.0     0.0    -0.1
    -0.0    -0.1    -0.1    -0.0    -0.0     0.0    -0.0    -0.1     0.1     0.0
    -0.0    -0.0    -0.0    -0.1    -0.0    -0.1    -0.0    -0.1    -0.1     0.0
    -0.0     0.1    -0.0    -0.1    -0.0    -0.1    -0.0    -0.0    -0.0    -0.1
    -0.0     0.1    -0.0     0.0     0.1    -0.0     0.1    -0.1     0.1    -0.1
     0.0    -0.0    -0.0    -0.0    -0.0    -0.1    -0.1     0.1    -0.0     0.0
    -0.1     0.1     0.1    -0.0    -0.1     0.0     0.1     0.1    -0.0    -0.0
    -0.1     0.1     0.1    -0.0    -0.1     0.1     0.0     0.0    -0.0    -0.0
    -0.1    -0.0     0.0     0.0     0.0     0.0     0.1    -0.0     0.0     0.0
     0.0     0.1    -0.0     0.0    -0.1     0.0    -0.0     0.1     0.1    -0.0
    -0.1    -0.0    -0.1    -0.0     0.1    -0.0     0.0     0.1     0.0     0.1
    -0.0     0.1    -0.1    -0.1    -0.0     0.0    -0.0    -0.0     0.0     0.1
    -0.0    -0.0     0.1     0.1     0.0     0.1     0.1     0.1     0.0    -0.0
     0.1     0.1     0.0     0.0    -0.0     0.0    -0.0     0.0     0.1     0.1
     0.0     0.0     0.0    -0.0    -0.1    -0.0     0.1    -0.0     0.1     0.0
     0.0     0.0    -0.0    -0.0    -0.0     0.0     0.0    -0.1    -0.1    -0.0
    -0.0    -0.0     0.1    -0.1    -0.1    -0.1    -0.2    -0.1    -0.1     0.0
     0.0    -0.1    -0.1     0.1     0.0    -0.1     0.1     0.0    -0.0     0.0
     0.1     0.1     0.0     0.1    -0.0     0.0     0.0     0.1     0.1     0.0
     0.1     0.0    -0.0     0.1     0.1    -0.0     0.1     0.0     0.2    -0.1
    -0.1     0.1    -0.0     0.1     0.0     0.1     0.1    -0.0    -0.0     0.0
    -0.0     0.0     0.1     0.1    -0.0    -0.0    -0.0     0.1     0.1     0.0
     0.1    -0.0     0.0    -0.0    -0.0     0.1    -0.0     0.0     0.1     0.0
     0.1     0.1    -0.0     0.1     0.0     0.0     0.0     0.1    -0.0     0.0
     0.1     0.0     0.1    -0.1    -0.0    -0.0    -0.0    -0.1    -0.1    -0.0
     0.1    -0.0     0.0    -0.2    -0.0     0.1     0.1    -0.1    -0.0    -0.1
    -0.1    -0.0    -0.1    -0.1    -0.1    -0.0    -0.1     0.0    -0.0    -0.0
     0.0    -0.1    -0.1     0.1    -0.0    -0.0    -0.0    -0.0    -0.1    -0.1
     0.1    -0.1    -0.0     0.0     0.0     0.0    -0.2    -0.0     0.0    -0.1
    -0.1     0.0    -0.1    -0.0     0.0    -0.0     0.0     0.1     0.1    -0.0
    -0.0     0.1     0.0     0.0    -0.0     0.0     0.0    -0.0     0.1     0.1
     0.1    -0.0     0.0     0.0     0.0     0.0    -0.0     0.0     0.1    -0.0
     0.0    -0.0     0.0     0.0     0.1    -0.0     0.0    -0.0     0.1    -0.1
     0.0    -0.1    -0.1    -0.0     0.1     0.1     0.0    -0.0    -0.0    -0.1
    -0.1     0.0    -0.1     0.0     0.0    -0.0    -0.0    -0.1    -0.1     0.0
    -0.0     0.0    -0.1     0.1     0.1     0.0     0.0    -0.1     0.0    -0.1
     0.1     0.0    -0.0    -0.0     0.1    -0.0     0.0    -0.0    -0.0    -0.0
     0.0    -0.0    -0.1    -0.1    -0.1     0.0    -0.0     0.1    -0.1     0.1
    -0.1    -0.0     0.0    -0.0     0.0    -0.0    -0.1     0.0     0.0     0.0
     0.0    -0.1     0.1     0.1    -0.0     0.0     0.1     0.0     0.1     0.1
     0.0     0.1     0.1     0.1     0.0     0.1     0.1     0.0    -0.0     0.0
     0.1     0.1     0.0     0.1    -0.1     0.1     0.1     0.1    -0.0     0.0
    -0.0     0.0    -0.0    -0.1    -0.1     0.1     0.1    -0.1     0.0     0.0
    -0.0    -0.0     0.0    -0.0    -0.0    -0.1     0.1    -0.0     0.0     0.1
     0.1    -0.0     0.0     0.1    -0.0     0.0     0.1    -0.0     0.1    -0.0
    -0.0    -0.0     0.1    -0.0     0.0     0.0    -0.1    -0.0    -0.0     0.0
    -0.1    -0.1    -0.0    -0.1    -0.1     0.0    -0.0    -0.0    -0.0     0.0
     0.1    -0.1     0.0     0.1     0.0    -0.0     0.0    -0.1    -0.0     0.0
    -0.2     0.0    -0.0    -0.0    -0.1    -0.0    -0.0     0.0    -0.0     0.1
     0.0    -0.0    -0.0    -0.0     0.1    -0.0    -0.0    -0.0    -0.1     0.1
     0.0     0.0    -0.0    -0.0     0.1    -0.1     0.0     0.0    -0.0    -0.1
    -0.1    -0.1    -0.1    -0.1     0.0    -0.0    -0.0    -0.0    -0.1    -0.0
    -0.1     0.0    -0.1    -0.1    -0.2    -0.0    -0.0    -0.0    -0.1    -0.0
    -0.1    -0.0    -0.0     0.0    -0.0    -0.1    -0.0    -0.0     0.1    -0.1
    -0.2     0.1    -0.0    -0.1    -0.0     0.1    -0.0    -0.1     0.1    -0.0
    -0.1    -0.1     0.0    -0.1     0.0    -0.0     0.0     0.0     0.0    -0.0
    -0.0    -0.0     0.0    -0.0    -0.1    -0.1    -0.1    -0.1    -0.1     0.0
     0.1    -0.0    -0.2    -0.1    -0.1     0.0    -0.1    -0.0    -0.1    -0.0
    -0.1    -0.0    -0.0    -0.0    -0.1     0.0    -0.1     0.1     0.0     0.0
     0.1     0.0    -0.0     0.0     0.0     0.1    -0.1     0.0     0.1     0.0
     0.0     0.0     0.1     0.1    -0.1     0.1     0.1     0.0     0.1     0.1
     0.1     0.1     0.1     0.0     0.1    -0.0     0.2     0.2    -0.0    -0.0
     0.0     0.0    -0.0     0.0     0.1    -0.0     0.1     0.1     0.1     0.1
     0.1    -0.0     0.1     0.0    -0.1     0.0    -0.0    -0.0    -0.0    -0.0
     0.0     0.1     0.1     0.1     0.1    -0.0     0.1     0.1     0.1     0.0
     0.0     0.1     0.1     0.1     0.0     0.0     0.1    -0.1     0.0    -0.1
     0.0    -0.1    -0.0     0.0    -0.1    -0.0     0.0     0.1     0.1    -0.0
     0.1     0.1    -0.0     0.1    -0.0     0.1    -0.0     0.0    -0.0    -0.1
    -0.1    -0.1     0.1     0.0    -0.0    -0.1    -0.0    -0.0    -0.1    -0.1
    -0.1    -0.0    -0.1     0.1     0.0    -0.1     0.0    -0.1    -0.0     0.0
    -0.0    -0.1    -0.0    -0.1    -0.0    -0.0    -0.3    -0.1     0.0    -0.0
    -0.2    -0.0    -0.1    -0.1    -0.0    -0.1    -0.1    -0.1    -0.2    -0.1
    -0.1    -0.0    -0.2    -0.1    -0.1    -0.2    -0.0    -0.1     0.0    -0.1
    -0.0    -0.0    -0.1     0.0    -0.2    -0.0    -0.3    -0.0    -0.0    -0.0
    -0.1     0.0    -0.1    -0.1    -0.1    -0.0    -0.0    -0.1    -0.1    -0.1
    -0.2    -0.1    -0.1    -0.0     0.0    -0.0     0.0     0.1    -0.1    -0.0
     0.0     0.0     0.1     0.0    -0.0     0.0     0.0    -0.0    -0.0     0.1
     0.0     0.2     0.1     0.0     0.0    -0.1     0.0    -0.0     0.0     0.0
    -0.0     0.0     0.1    -0.0     0.0     0.1     0.1     0.2     0.2     0.1
     0.0     0.1     0.1     0.2     0.1     0.1    -0.0     0.1     0.1     0.2
     0.1     0.1    -0.0     0.1     0.1     0.1     0.1     0.2     0.1     0.1
     0.2     0.1     0.1     0.1     0.2     0.1     0.2     0.2     0.3     0.3
     0.3     0.2     0.2     0.2     0.2     0.2     0.2     0.3     0.3     0.3
     0.2     0.3     0.2     0.2     0.3     0.2     0.2     0.3     0.3     0.4
     0.2     0.3     0.2     0.3     0.2     0.2     0.4     0.4     0.4     0.4
     0.4     0.4     0.4     0.5     0.4     0.4     0.3     0.5     0.3     0.4
     0.3     0.3     0.3     0.4     0.2     0.4     0.3     0.3     0.4     0.3
     0.3     0.4     0.3     0.4     0.3     0.4     0.3     0.4     0.4     0.3
     0.2     0.3     0.2     0.3     0.2     0.2     0.2     0.2     0.3     0.2
     0.3     0.2     0.1     0.1     0.1     0.2     0.1     0.1     0.2     0.2
     0.2     0.1     0.1     0.2     0.0     0.0     0.1     0.1    -0.0     0.1
     0.0    -0.0    -0.1    -0.1    -0.1    -0.0    -0.2     0.0    -0.1    -0.1
    -0.2    -0.1    -0.1    -0.2    -0.3    -0.1    -0.3    -0.2    -0.2    -0.2
    -0.3    -0.3    -0.4    -0.4    -0.4    -0.4    -0.4    -0.3    -0.5    -0.5
    -0.5    -0.4    -0.5    -0.5    -0.6    -0.6    -0.6    -0.6    -0.6    -0.6
    -0.7    -0.7    -0.7    -0.7    -0.8    -0.7    -0.8    -0.8    -0.9    -0.8
    -1.0    -0.8    -1.0    -0.8    -1.0    -1.0    -1.0    -0.9    -1.1    -1.0
    -1.2    -1.0    -1.1    -1.0    -1.2    -1.0    -1.3    -1.1    -1.3    -1.1
    -1.3    -1.1    -1.4    -1.2    -1.3    -1.2    -1.4    -1.1    -1.4    -1.1
    -1.4    -1.2    -1.4    -1.2    -1.5    -1.1    -1.5    -1.2    -1.6    -1.1
    -1.6    -1.2    -1.7    -1.1    -1.8    -1.4    -2.2    -1.7    -2.2    -1.3
