Corrected accelerogram 20160214_001343_RKAC_20 GNS Science
Site RKAC      43 45 05S  172 01 23E     Cusp file:  20160214_001407_RKAC
Rakaia School
Instrument Cusp_220
Resolution: 18-bit   Instr Period: 0.0050 s   Damping: 0.700
Accelerogram 20160214_001343_RKAC_20                 Processed 2016 February 22
11 km east of CHRISTCHURCH
2016 February 14         00:13:43 UT
Epicentre  43 29 50S 172 45 18E  Bearing N65E  Dist   66km  Depth    8km M  5.70
Number of points  1588    Duration  31.74 sec
Instrument corrected data at 0.020 sec intervals
Band-pass filter transition bands are .10-.25 Hz and 24.50-25.50 Hz
Component N00E  Horizontal Axis 1
Acceleration:  peak    -93.1 mm/s/s at  11.60 sec     rms     16.4 mm/s/s
Velocity:      peak     8.29 mm/s   at  11.42 sec     rms     1.79 mm/s
Displacement:  peak    2.117 mm     at   7.60 sec     rms    0.780 mm
    2016       2      14       0      13     430       0       0    2016       2
      43      29      50     172      45      18       8       0      14       0
      43      45       5     172       1      23       0       0      65      66
    4350     250     250    1588    1588    1588       0       0      13   58355
   200.0    0.70    0.00   0.000  0.0000   0.000   0.000   1.000     0.0    0.00
  43.751 172.023   43.50  172.76    5.70    0.00    0.00    0.00      0.      0.
   21.75    5.00    5.00   31.74  0.0050  0.0200      0.      0.      0.  9806.6
  -108.1   11.59    22.6   0.000      0.   -93.1   11.60    16.4   121.6   1.208
    8.29   11.42    1.79   10.40   0.439    2.12    7.60    0.78    4.09   0.146
   0.100   0.150   0.250      0.      0.  24.500   1.000  25.500      0.      0.
     0.1     0.1     0.1     0.0     0.1     0.0     0.1     0.0     0.0     0.0
     0.0     0.0     0.0     0.0     0.0    -0.0     0.0    -0.0    -0.0    -0.0
    -0.0    -0.0    -0.0    -0.1    -0.0    -0.1    -0.1    -0.1    -0.1    -0.1
    -0.1    -0.1    -0.1    -0.1    -0.1    -0.1    -0.1    -0.1    -0.1    -0.2
    -0.1    -0.2    -0.2    -0.2    -0.2    -0.2    -0.2    -0.2    -0.2    -0.2
    -0.2    -0.2    -0.2    -0.3    -0.3    -0.3    -0.3    -0.3    -0.3    -0.3
    -0.3    -0.3    -0.3    -0.3    -0.3    -0.4    -0.3    -0.4    -0.4    -0.4
    -0.4    -0.4    -0.4    -0.4    -0.4    -0.4    -0.4    -0.4    -0.4    -0.5
    -0.4    -0.5    -0.5    -0.5    -0.5    -0.5    -0.5    -0.5    -0.5    -0.5
    -0.5    -0.5    -0.5    -0.5    -0.5    -0.5    -0.5    -0.5    -0.5    -0.5
    -0.5    -0.6    -0.5    -0.6    -0.5    -0.6    -0.5    -0.6    -0.5    -0.6
    -0.5    -0.6    -0.5    -0.6    -0.5    -0.5    -0.5    -0.5    -0.5    -0.5
    -0.5    -0.5    -0.5    -0.5    -0.5    -0.5    -0.5    -0.5    -0.5    -0.5
    -0.5    -0.5    -0.4    -0.4    -0.4    -0.4    -0.4    -0.4    -0.4    -0.4
    -0.4    -0.3    -0.3    -0.3    -0.3    -0.3    -0.3    -0.3    -0.2    -0.2
    -0.2    -0.2    -0.2    -0.1    -0.1    -0.1    -0.1    -0.1    -0.0    -0.0
    -0.0     0.0     0.0     0.1     0.1     0.1     0.1     0.2     0.2     0.2
     0.2     0.3     0.3     0.3     0.4     0.4     0.4     0.5     0.5     0.5
     0.5     0.6     0.6     0.7     0.7     0.7     0.7     0.8     0.8     0.9
     0.9     0.9     0.9     1.0     1.0     1.1     1.1     1.2     1.2     1.2
     1.2     1.3     1.3     1.4     1.4     1.5     1.5     1.6     1.6     1.7
     1.6     1.8     1.7     1.8     1.8     1.9     1.9     2.0     2.0     2.1
     2.0     2.2     2.1     2.3     2.2     2.4     2.3     2.5     2.4     2.6
     2.4     2.7     2.5     2.7     2.6     2.8     2.7     2.9     2.8     3.0
     2.9     3.1     2.9     3.2     3.0     3.2     3.1     3.3     3.3     3.2
     2.9     3.2     7.9    -0.0    -0.4    -7.9     3.3     6.8    -5.2     1.7
    10.0     4.5   -22.2    -3.7     2.5   -14.1    -7.8    -4.6    -8.1    -0.1
     3.4     6.9    16.7    10.9    13.9     3.8   -13.7    -4.9   -25.4   -15.2
     4.8    -7.9    -9.1    -9.6    -7.2     7.4     0.6   -24.2   -11.3    -7.5
    -5.6     3.7     5.0    -3.4    -6.0    -1.7     3.1     7.1     4.5     1.4
    15.8   -11.9   -12.1    -4.7     4.4     4.4    -9.4   -13.0   -18.5     9.8
    25.0    23.8    25.2    -5.0     9.5     2.4     7.9     7.9    -1.2   -13.6
   -13.3   -12.2    -2.9     9.7    11.7    -9.8   -23.1   -11.3   -15.4    -5.6
     5.7     1.4     8.4     7.8    -3.9    -7.0    -0.2    -3.5   -13.3   -15.3
    15.1    -2.5    13.6     8.0    -6.1   -18.4   -11.4     4.3    -8.6     6.2
    11.2     3.5    -1.7    17.1     4.1    -7.6    -4.3     4.1    15.2     3.5
    -9.1   -34.6   -22.6   -13.1     6.9    -2.1   -16.5   -26.2   -21.8    -6.8
    21.1    20.1    -3.3   -21.6   -11.3    -4.6   -10.8     8.4     5.8     3.6
   -10.2    -7.7   -19.5   -14.8   -11.5    12.1    18.5    -6.6    10.4     8.8
     9.6    -1.1     6.7     6.2     1.0     2.0    15.5     3.9    11.2    20.0
    13.7     1.2     5.8     9.5     2.2     2.4   -15.6    12.4    26.2    16.2
     3.0     9.2    -0.6   -15.2    -7.4    -2.2     6.8     7.6     9.0     3.8
     1.2   -10.4   -19.2   -10.9    14.2     6.8    19.0    22.2    17.5    -1.9
    -1.2   -11.6   -21.3   -15.1     1.0    12.2    -0.3     1.3   -21.5    -1.5
     8.8     2.0    -5.7    -4.9    -2.0     7.1    10.9    19.5    -5.4    -5.8
    -3.6    -3.2     1.3    15.9     5.0    -7.6    -7.1     0.5     6.2     8.6
   -16.3    -0.1    -6.3    -0.1    -1.1    -1.4    10.3    10.7    -4.6    -3.9
   -16.6     6.1     5.0    -2.5     2.0     7.3    -0.2     3.5    -6.2    -6.0
     2.3     3.1    -3.0     5.1    -3.5    -4.8     1.4    -3.5     2.8   -15.8
   -22.5    -8.9    -9.4   -10.9    -4.5     9.9    20.5    10.6     8.9    16.0
    -2.2    -7.0     3.2     6.6     4.3     0.3    18.2    12.3   -11.9   -24.6
    -7.8    -3.8     7.9    -3.5     4.5     6.1    11.6    16.2     5.9     8.9
     1.5     4.6    -6.7     0.5    -0.8     2.2   -15.2   -10.1   -11.4    -0.0
    10.3    17.3     1.5    -5.9     2.9    -5.2    12.7    -1.5    -4.2    -4.7
   -12.4   -10.9    -9.6   -17.3    -0.9     1.3    10.3    19.8    -5.7    -1.6
     2.6    -2.6    16.1    11.7     4.9     2.9    -4.3     7.5    11.2    -4.2
     9.8   -15.5     6.5   -12.9   -17.4    -6.3    -9.6    -5.1     3.2    -0.9
    -2.8     2.6    28.2    24.4    20.1     3.5    -8.2   -17.5    -1.8    -1.3
     1.7   -13.5    -6.4     1.4     7.9    -0.4     2.8    -4.4     2.8     5.4
    21.1    20.9    -0.9    21.4    -5.3     6.6     1.3     4.4    -3.3     3.5
    10.9     7.5     4.8    -4.9    -3.0    -3.3    -0.2     7.8    11.3    19.2
   -18.2    -1.8   -17.7   -22.7    -2.3   -16.1    15.1    -7.5     1.9   -12.7
   -18.7    -5.2    -5.9     6.1     2.5     6.3   -10.3   -17.5    -5.1   -26.8
   -21.8    -6.0    -4.7     9.4     9.4    -4.0     7.1    -1.5   -18.8    -6.3
     2.1     8.2   -18.1    -5.9    -2.3     5.6   -13.7   -10.1   -11.6    -9.1
     2.9     0.8   -22.6   -28.9   -23.3   -12.0   -13.8   -14.1     1.6   -16.1
   -13.0   -15.0   -12.2    11.8     4.9     4.1     4.6    -1.5     5.9    -6.1
     8.5     1.3    11.3    17.1    28.0    21.5     1.3     9.6    -8.4    -1.6
    21.1    37.0    27.5    19.8    15.9    27.4    -1.0   -31.4   -13.5   -10.0
   -16.8    -6.0     5.0     1.0   -24.7   -40.3   -50.3   -73.0   -50.2   -17.4
    12.5   -12.1     9.2    19.4    20.4    25.3    33.4    12.0     7.6   -19.1
    -2.1    37.2    46.5    58.0    12.4    -4.1    -1.3     9.6     6.6    34.4
    39.3    36.8    50.1    27.5     9.3    -2.9    -4.5   -26.1     6.0    13.7
    39.0    92.5    68.5    12.9   -56.0   -79.6   -42.6    -2.2    -2.3   -19.7
     7.6     0.4    -8.3   -23.6   -64.5   -45.6   -23.9    37.6    60.3    18.3
   -33.7   -41.4   -44.1   -30.7    -2.3     1.0    17.8    59.4    55.0    25.8
   -34.2   -49.4   -21.5     8.0    27.4    19.4    16.6    -9.8   -32.6   -33.1
     5.1    58.2    44.4    -6.2   -34.0   -32.1    -2.3    11.1    37.0    42.9
    20.7   -32.0   -76.1   -62.5   -27.6   -23.2   -29.6   -50.8   -28.1   -13.7
   -21.9   -21.1    -1.4    20.4    34.6    14.8     9.7    18.4     1.0    13.7
    14.4    -2.8   -25.5   -15.8    12.0    29.1    58.4    53.5    48.5    42.5
    25.3    29.0    12.1    14.1    32.5    25.2     3.8     4.1    23.3    60.1
    78.3     2.5   -71.3   -79.4   -51.9   -55.2   -47.9   -24.7   -49.2   -88.6
   -93.1   -77.0   -37.3     7.6    52.1    78.4    58.2    14.6   -38.9   -45.3
   -15.4    24.4    26.7    24.6     6.5   -10.0   -54.5   -56.9   -19.1     9.9
    36.4    22.2   -17.8   -14.0    16.5    36.5    63.4    48.4    29.4    38.3
    32.7     6.0     6.7    -8.8    -4.1    -1.8    -8.5   -22.7   -18.5   -25.1
   -10.9     2.2   -15.9   -21.3    -6.6    12.6    -6.3     9.0    -8.0    -9.2
   -12.8    12.4     2.0   -18.1   -16.2   -32.4   -25.8     3.0    25.9    36.4
    24.8    22.4    18.0    14.5     7.4     5.0    -2.0     8.6    14.0    28.2
    30.5    11.7    -7.7   -20.7   -23.7     2.4    11.1     9.8   -14.3   -22.5
   -22.9    -9.5     4.3    31.6    24.8     6.3   -21.4   -47.4   -28.4   -18.9
   -12.8     0.4     7.7     1.1    -3.9    26.5    44.7    41.5    44.7    24.1
     7.2     7.2     3.6     3.7   -14.0   -21.7    -7.2     8.4   -17.8   -16.0
     2.7     5.3    10.7   -13.4    -5.8    -5.3    -0.6   -15.3    -1.8    -4.6
    17.0    26.8    30.3    -3.4   -20.7   -40.4   -30.4   -24.9   -28.9   -22.6
   -22.2     1.4    17.4     9.1     5.5    13.0    15.0    32.3    28.1    30.7
    22.2     3.0     2.1    11.8    -7.4    -0.2   -13.0    -9.6     6.8     4.7
   -12.1    -9.6   -16.9    -8.6     4.8   -18.5   -45.5   -36.7   -14.2   -17.7
   -33.0   -26.5   -16.0   -20.1   -36.5   -17.6     0.9    17.4    14.6     8.7
    20.9   -14.5   -15.6    13.9    28.2    15.4    13.5     4.7    11.9    41.7
    43.0    47.0    43.4    16.5     9.1   -26.0   -20.4    -4.2     5.7    16.6
    17.1    28.1    26.6    -5.4   -21.0   -27.9   -28.4   -35.4   -44.5   -42.2
   -53.7   -40.6   -32.8   -41.1    -3.4     7.6   -16.5   -13.3    -8.7     0.7
    18.9    33.2    36.6     7.4    25.6     4.8    19.6    -6.4    14.1    34.6
    40.9    29.3     9.9     6.7    19.6    29.8    43.4    28.3    23.2     3.8
   -11.8    -1.4    -5.2   -12.8   -23.5   -19.9   -25.3   -16.1     2.5    16.3
     2.4    -3.6    -5.7     1.2     8.3    -9.5   -14.8   -21.4   -33.8   -14.7
   -13.3     0.1    -7.2     7.0    -3.1   -26.3   -12.9    -3.9    -2.1   -16.2
   -10.5    -2.1    13.6     5.6     6.0     2.0     1.1   -10.9   -25.3   -26.4
   -13.3    -8.6    -2.9     8.0     2.2    -7.3     3.7    -3.4    -7.7     2.9
   -13.0   -13.2     0.2    15.5    19.3    19.1    15.7    13.0    22.1    -1.9
   -10.9    -6.6    -3.9     4.5    -4.1     1.7     2.7    14.3     3.7    -6.8
    19.2    16.7     2.1    14.3     6.3     9.1     4.4    -7.7    -3.3    -3.1
    21.0     4.3     4.0    14.0     1.5    -3.5     0.9     4.9     5.9     4.6
    -0.6    -3.7    29.4    21.3     5.0     8.3    20.6    23.0     5.9     1.9
    -2.8    -3.7    -1.5    12.6    12.8    37.3    23.3     5.5    -9.2    -8.3
   -17.2    -3.3   -12.4    -7.6   -13.2    -8.2    -5.5     1.7     8.9    19.6
     7.2    -1.4    14.0     7.8    19.2    17.3     5.9    -2.3   -26.1   -21.9
   -19.7   -13.3    -5.9   -23.4   -25.0   -22.8    -1.3    -3.8   -13.2     5.3
    -0.1     6.9     9.7     7.3    16.5    -5.2    -8.6   -15.8   -27.9   -13.0
   -10.5   -17.9   -23.0    -5.8   -31.2   -36.3   -16.6   -21.5    -7.0   -13.0
     3.0    -7.7    10.6     5.3     6.4     0.1     8.7    -2.6    -2.3   -18.1
   -28.7    -5.4   -10.7    -1.5    10.2    -4.3    12.2    18.4     8.5    -7.8
    -2.0    11.8    -0.2     7.8     1.8    -0.5    14.1    21.6    29.6    28.1
    12.3    19.1    -3.2     8.4    13.3    22.5    22.8    16.1     5.5     6.5
    -5.5    -2.0    -4.4     8.4    21.7     7.3     2.2    -3.3    -7.5     4.5
    -6.6    -2.9     5.0    -8.5     2.0    -3.7    -8.3   -18.5    -2.4    -9.0
   -15.7    -8.7    -9.8    -7.5    -2.5    13.9    12.1     3.1    10.4     6.7
    16.5     3.9    -5.1    10.3     0.6    -9.7    -8.5     1.3    -9.6     6.2
     0.2     5.4    12.4     9.3    -9.9    -1.3    -4.5    -5.4   -11.9    -1.2
    -6.0   -11.6   -12.6    -4.5    14.7    -4.9    -9.6     3.8    10.8    -7.2
     4.2    -8.0   -15.1   -12.3    -0.6    -1.2    -9.8     3.3     7.6     3.0
     7.8     2.5     3.7    -0.9    -4.0     5.4    -6.6     1.2    -1.9    -0.2
    -1.8    -0.3    -1.7    -0.3    -1.5    -0.3    -1.4    -0.3    -1.3    -0.3
    -1.2    -0.3    -1.1    -0.3    -1.0    -0.3    -0.9    -0.2    -0.8    -0.2
    -0.8    -0.2    -0.7    -0.1    -0.6    -0.1    -0.6    -0.1    -0.5    -0.0
    -0.5    -0.0    -0.4     0.0    -0.4     0.1    -0.3     0.1    -0.3     0.1
    -0.3     0.1    -0.2     0.2    -0.2     0.2    -0.1     0.2    -0.1     0.2
    -0.1     0.3    -0.0     0.3    -0.0     0.3     0.0     0.3     0.0     0.3
     0.1     0.4     0.1     0.4     0.1     0.4     0.1     0.4     0.1     0.4
     0.2     0.4     0.2     0.4     0.2     0.4     0.2     0.5     0.2     0.5
     0.2     0.5     0.2     0.5     0.2     0.5     0.2     0.5     0.3     0.5
     0.3     0.5     0.3     0.5     0.3     0.5     0.3     0.5     0.3     0.5
     0.3     0.5     0.3     0.5     0.3     0.5     0.3     0.5     0.3     0.5
     0.3     0.5     0.3     0.5     0.3     0.5     0.3     0.5     0.3     0.4
     0.2     0.4     0.2     0.4     0.2     0.4     0.2     0.4     0.2     0.4
     0.2     0.4     0.2     0.4     0.2     0.4     0.2     0.4     0.2     0.4
     0.2     0.3     0.2     0.3     0.2     0.3     0.1     0.3     0.1     0.3
     0.1     0.3     0.1     0.3     0.1     0.3     0.1     0.3     0.1     0.3
     0.1     0.2     0.1     0.2     0.1     0.2     0.1     0.2     0.0     0.2
     0.0     0.2     0.0     0.2     0.0     0.2     0.0     0.2    -0.0     0.1
    -0.0     0.1    -0.0     0.1    -0.0     0.1    -0.0     0.1    -0.0     0.1
    -0.1     0.1    -0.1     0.1    -0.1     0.1    -0.1     0.1    -0.1     0.1
    -0.1     0.1    -0.1     0.0    -0.1     0.0    -0.1     0.0    -0.1     0.0
    -0.1     0.0    -0.1     0.0    -0.1     0.0    -0.1     0.0    -0.1    -0.0
    -0.1    -0.0    -0.1    -0.0    -0.1    -0.0    -0.2    -0.0    -0.2    -0.0
    -0.2    -0.0    -0.2    -0.0    -0.2    -0.0    -0.2    -0.0    -0.2    -0.0
    -0.2    -0.0    -0.2    -0.0    -0.2    -0.0    -0.2    -0.1
  0.1922  0.1930  0.1948  0.1954  0.1972  0.1976  0.1992  0.1995  0.2008  0.2010
  0.2022  0.2021  0.2031  0.2029  0.2037  0.2032  0.2038  0.2032  0.2036  0.2027
  0.2029  0.2017  0.2017  0.2003  0.2001  0.1984  0.1979  0.1960  0.1953  0.1931
  0.1921  0.1897  0.1884  0.1857  0.1842  0.1812  0.1794  0.1761  0.1740  0.1705
  0.1681  0.1642  0.1615  0.1573  0.1544  0.1499  0.1466  0.1418  0.1382  0.1331
  0.1292  0.1238  0.1196  0.1139  0.1094  0.1033  0.0985  0.0921  0.0870  0.0803
  0.0749  0.0679  0.0621  0.0548  0.0487  0.0411  0.0347  0.0268  0.0201  0.0119
  0.0050 -0.0036 -0.0108 -0.0196 -0.0272 -0.0363 -0.0441 -0.0534 -0.0615 -0.0711
 -0.0794 -0.0894 -0.0979 -0.1081 -0.1168 -0.1272 -0.1362 -0.1468 -0.1560 -0.1668
 -0.1762 -0.1872 -0.1968 -0.2079 -0.2176 -0.2290 -0.2388 -0.2503 -0.2603 -0.2719
 -0.2819 -0.2936 -0.3038 -0.3155 -0.3257 -0.3376 -0.3478 -0.3596 -0.3699 -0.3818
 -0.3920 -0.4038 -0.4140 -0.4258 -0.4359 -0.4476 -0.4576 -0.4693 -0.4791 -0.4907
 -0.5004 -0.5118 -0.5213 -0.5324 -0.5417 -0.5527 -0.5617 -0.5725 -0.5812 -0.5916
 -0.6001 -0.6102 -0.6183 -0.6280 -0.6357 -0.6451 -0.6523 -0.6613 -0.6681 -0.6766
 -0.6829 -0.6909 -0.6966 -0.7041 -0.7092 -0.7161 -0.7207 -0.7270 -0.7309 -0.7365
 -0.7397 -0.7447 -0.7472 -0.7514 -0.7531 -0.7566 -0.7575 -0.7601 -0.7602 -0.7620
 -0.7611 -0.7621 -0.7603 -0.7603 -0.7576 -0.7567 -0.7529 -0.7510 -0.7462 -0.7432
 -0.7373 -0.7333 -0.7263 -0.7211 -0.7129 -0.7067 -0.6973 -0.6898 -0.6792 -0.6705
 -0.6586 -0.6487 -0.6355 -0.6243 -0.6097 -0.5972 -0.5813 -0.5674 -0.5501 -0.5348
 -0.5161 -0.4994 -0.4791 -0.4610 -0.4393 -0.4197 -0.3965 -0.3754 -0.3506 -0.3280
 -0.3016 -0.2775 -0.2494 -0.2238 -0.1941 -0.1669 -0.1355 -0.1068 -0.0737 -0.0433
 -0.0086  0.0234  0.0599  0.0935  0.1318  0.1670  0.2070  0.2438  0.2857  0.3241
  0.3677  0.4078  0.4533  0.4949  0.5422  0.5855  0.6347  0.6795  0.7306  0.7770
  0.8300  0.8779  0.9328  0.9822  1.0391  1.0899  1.1488  1.2010  1.2620  1.3154
  1.3786  1.4331  1.4986  1.5540  1.6221  1.6780  1.7491  1.8049  1.8799  1.9344
  2.0085  2.0490  2.1804  2.2597  2.2525  2.1715  2.0842  2.2452  2.2376  2.1873
  2.3052  2.5073  2.3057  1.9745  2.0513  1.9055  1.6658  1.5620  1.4300  1.3280
  1.3874  1.4611  1.7196  2.0036  2.2354  2.4636  2.3187  2.1370  1.8736  1.3624
  1.3350  1.3018  1.1213  0.9313  0.7544  0.7354  0.9004  0.6135  0.2309  0.0706
 -0.0752 -0.1006  0.0185  0.0279 -0.0710 -0.1672 -0.1353 -0.0499  0.1104  0.1084
  0.3279  0.3933  0.0858 -0.0602 -0.0802  0.0531 -0.0089 -0.2350 -0.5690 -0.7170
 -0.2802  0.1587  0.7269  0.8918  0.9039  1.0666  1.1251  1.3248  1.3877  1.2427
  0.9454  0.7021  0.5216  0.6065  0.8435  0.9025  0.5082  0.1694 -0.0811 -0.3342
 -0.2920 -0.2279 -0.1380  0.0466  0.0959 -0.0519 -0.1066 -0.1421 -0.2788 -0.6479
 -0.6119 -0.4517 -0.4107 -0.0999 -0.1283 -0.3411 -0.7268 -0.7211 -0.7893 -0.8347
 -0.6320 -0.4651 -0.4895 -0.3348 -0.0570 -0.1472 -0.2542 -0.2934 -0.0536  0.1335
  0.1101 -0.3578 -0.9720 -1.3190 -1.3879 -1.2732 -1.4901 -1.9114 -2.4320 -2.7254
 -2.5959 -2.0967 -1.9403 -2.1975 -2.5955 -2.6773 -2.8900 -2.8951 -2.7406 -2.6296
 -2.7059 -2.8925 -3.1483 -3.5307 -3.7749 -3.8308 -3.4067 -3.3448 -3.3253 -3.1048
 -2.9220 -2.8315 -2.8091 -2.6429 -2.5848 -2.5728 -2.3923 -2.1612 -2.0782 -1.7122
 -1.3805 -1.2128 -1.2041 -0.9855 -0.9138 -0.8136 -0.9892 -1.0706 -0.6209 -0.1782
 -0.0051  0.0967  0.2383  0.0357 -0.1999 -0.2975 -0.2471 -0.0948  0.0736  0.2067
  0.2572  0.1788 -0.1338 -0.4835 -0.4253 -0.1841  0.0244  0.4869  0.8775  1.0613
  0.9686  0.9160  0.5127  0.1766 -0.0297  0.1974  0.2649  0.3291  0.0917 -0.1817
 -0.0661  0.0632  0.0006 -0.0952 -0.1953 -0.1166  0.0305  0.3883  0.5358  0.3814
  0.2981  0.2345  0.1843  0.3787  0.6200  0.5819  0.4007  0.3541  0.3909  0.6078
  0.4953  0.3032  0.2801  0.1752  0.2019  0.1433  0.2277  0.4838  0.5265  0.4491
  0.2304  0.0800  0.2695  0.2516  0.2480  0.3464  0.4310  0.4433  0.4533  0.2781
  0.2644  0.3220  0.3277  0.3233  0.3951  0.2452  0.2601  0.2048  0.2256  0.1175
 -0.3131 -0.6322 -0.7805 -1.0097 -1.1628 -1.1348 -0.7889 -0.4680 -0.3009 -0.0372
  0.1403 -0.0204 -0.0341  0.0511  0.1983  0.1955  0.3899  0.7373  0.7622  0.3295
  0.0083 -0.1063 -0.0547  0.0124 -0.0267  0.1259  0.2521  0.5892  0.7774  0.9435
  1.0313  1.1077  1.0813  1.0030  1.0104  1.0328  0.9207  0.6197  0.4412  0.2719
  0.4180  0.6771  0.9376  0.7979  0.8334  0.7568  0.8557  0.9963  0.9061  0.8335
  0.6670  0.4022  0.2351 -0.0672 -0.2607 -0.2277 -0.1518  0.2024  0.3653  0.2127
  0.2926  0.2346  0.3865  0.6903  0.8517  0.9201  0.9231  0.8875  1.1761  1.1658
  1.2791  1.2019  1.0772  1.1020  0.7040  0.5068  0.3435  0.1784  0.1740  0.2056
  0.1682  0.1235  0.4447  1.0104  1.4495  1.7047  1.6460  1.3666  1.1534  1.1546
  1.1529  1.0599  0.7986  0.7855  0.8663  0.9750  0.9568  0.9871  0.9042  1.0473
  1.2237  1.7878  1.8695  2.1354  2.2980  2.2683  2.3851  2.4187  2.4555  2.4084
  2.5909  2.7663  2.9042  2.8989  2.7983  2.7561  2.6875  2.7928  2.9457  3.3187
  3.3304  3.0427  2.9776  2.4223  2.2776  2.0222  2.0362  2.1627  2.0355  2.0222
  1.6053  1.4173  1.2749  1.2981  1.3849  1.4769  1.4754  1.1317  0.9356  0.6491
  0.0757 -0.1536 -0.2806 -0.2331 -0.0090  0.0382  0.0271  0.1725 -0.1053 -0.3455
 -0.4147 -0.2399 -0.3623 -0.6393 -0.7043 -0.6601 -0.7119 -1.0079 -1.1774 -1.4340
 -1.4753 -1.4119 -1.6070 -2.1809 -2.6905 -3.0672 -3.2672 -3.6162 -3.6913 -3.8262
 -4.1546 -4.4014 -4.7250 -4.7181 -4.4980 -4.4620 -4.3238 -4.3417 -4.2594 -4.2832
