Corrected accelerogram 20160214_001343_WDFS_20 GNS Science
Site WDFS      41 49 39S  174 08 18E     Basalt file:  20160214_001427_WDFS
Ward Fire Station
Instrument Basalt_2408
Resolution: 24-bit   Instr Period: 0.0050 s   Damping: 0.700
Accelerogram 20160214_001343_WDFS_20                 Processed 2016 February 22
11 km east of CHRISTCHURCH
2016 February 14         00:13:43 UT
Epicentre  43 29 50S 172 45 18E  Bearing S31W  Dist  218km  Depth    8km M  5.70
Number of points  8192    Duration 163.82 sec
Instrument corrected data at 0.020 sec intervals
Band-pass filter transition bands are .10-.25 Hz and 24.50-25.50 Hz
Component N00E  Horizontal Axis 1
Acceleration:  peak      7.0 mm/s/s at  78.98 sec     rms      1.0 mm/s/s
Velocity:      peak     1.48 mm/s   at  79.22 sec     rms     0.28 mm/s
Displacement:  peak   -0.617 mm     at  78.92 sec     rms    0.133 mm
    2016       2      14       0      13     430       0       0    2016       2
      43      29      50     172      45      18       8       0      14       0
      41      49      39     174       8      18       0       0     211     218
   31800     250     250    8192    8192    8192       0       0      13   47000
   200.0    0.70    0.00   0.000  0.0000   0.000   0.000   1.000     0.0    0.00
  41.827 174.138   43.50  172.76    5.70    0.00    0.00    0.00      0.      0.
  159.00    5.00    5.00  163.82  0.0050  0.0200      0.      0.      0.  9806.6
     7.0   78.97     1.1   0.000      0.     7.0   78.98     1.0     7.0   0.726
    1.48   79.22    0.28    1.56   0.266   -0.62   78.92    0.13    0.65   0.266
   0.100   0.150   0.250      0.      0.  24.500   1.000  25.500      0.      0.
   0.000   0.000   0.000   0.000   0.000   0.000   0.000  -0.000   0.000  -0.000
   0.000  -0.000   0.000  -0.000   0.000  -0.000   0.000  -0.000   0.000  -0.000
   0.000  -0.000  -0.000  -0.000  -0.000  -0.000  -0.000  -0.000  -0.000  -0.000
  -0.000  -0.000  -0.000  -0.000  -0.000  -0.000  -0.000  -0.000  -0.000  -0.000
  -0.000  -0.000  -0.000  -0.000  -0.000  -0.000  -0.000  -0.001  -0.000  -0.001
  -0.000  -0.001  -0.000  -0.001  -0.000  -0.001  -0.000  -0.001  -0.001  -0.001
  -0.001  -0.001  -0.001  -0.001  -0.001  -0.001  -0.001  -0.001  -0.001  -0.001
  -0.001  -0.001  -0.001  -0.001  -0.001  -0.001  -0.001  -0.001  -0.001  -0.001
  -0.001  -0.001  -0.001  -0.001  -0.001  -0.001  -0.001  -0.001  -0.001  -0.001
  -0.001  -0.001  -0.001  -0.001  -0.001  -0.001  -0.001  -0.001  -0.001  -0.001
  -0.001  -0.001  -0.001  -0.001  -0.001  -0.001  -0.001  -0.001  -0.001  -0.001
  -0.001  -0.001  -0.001  -0.001  -0.001  -0.001  -0.001  -0.001  -0.001  -0.001
  -0.001  -0.001  -0.001  -0.001  -0.001  -0.001  -0.001  -0.001  -0.001  -0.001
  -0.001  -0.001  -0.001  -0.001  -0.001  -0.001  -0.001  -0.001  -0.001  -0.001
  -0.000  -0.001  -0.000  -0.001  -0.000  -0.001  -0.000  -0.001  -0.000  -0.000
  -0.000  -0.000  -0.000  -0.000  -0.000  -0.000   0.000  -0.000   0.000  -0.000
   0.000   0.000   0.000   0.000   0.000   0.000   0.001   0.000   0.001   0.000
   0.001   0.001   0.001   0.001   0.001   0.001   0.001   0.001   0.001   0.001
   0.001   0.001   0.002   0.001   0.002   0.001   0.002   0.002   0.002   0.002
   0.002   0.002   0.002   0.002   0.002   0.002   0.003   0.002   0.003   0.002
   0.003   0.002   0.003   0.003   0.003   0.003   0.004   0.003   0.004   0.003
   0.004   0.003   0.004   0.003   0.004   0.004   0.005   0.004   0.005   0.004
   0.005   0.004   0.005   0.004   0.005   0.004   0.006   0.004   0.006   0.005
   0.006   0.005   0.006   0.005   0.007   0.005   0.007   0.005   0.007   0.005
   0.008   0.005   0.008   0.005   0.009   0.005   0.009   0.004   0.011   0.002
   0.024  -0.007  -0.031  -0.034  -0.012   0.012  -0.019  -0.003  -0.009  -0.001
  -0.003   0.002   0.011  -0.006  -0.027   0.003   0.004  -0.002  -0.016  -0.032
   0.015  -0.016  -0.001  -0.010  -0.016  -0.000  -0.033  -0.003  -0.002  -0.007
   0.022  -0.001  -0.014   0.015  -0.007  -0.007  -0.020   0.012   0.002   0.010
  -0.017   0.001   0.014   0.022  -0.005   0.004  -0.036   0.004   0.013  -0.010
   0.034  -0.019  -0.010   0.012  -0.007  -0.015   0.000  -0.008  -0.015  -0.016
  -0.029   0.004  -0.010   0.001   0.013  -0.025   0.003  -0.008  -0.006   0.000
   0.003   0.011   0.023  -0.000  -0.003   0.040  -0.001  -0.004  -0.017   0.007
   0.005   0.023  -0.040  -0.034   0.031   0.023  -0.033  -0.040   0.022  -0.031
   0.006   0.035  -0.006  -0.004   0.008   0.026  -0.043   0.022  -0.015   0.021
  -0.001   0.009  -0.010   0.008   0.033   0.014  -0.043   0.030   0.003  -0.069
  -0.005   0.035   0.010  -0.029   0.011   0.011  -0.038   0.013  -0.010   0.001
   0.010   0.014  -0.015  -0.007   0.037   0.031  -0.004  -0.023   0.014   0.015
   0.017  -0.032  -0.003  -0.009  -0.026   0.014   0.009   0.016  -0.004  -0.002
  -0.009  -0.003  -0.017   0.002   0.033   0.006  -0.002   0.010   0.007  -0.007
  -0.010   0.001   0.014  -0.010   0.022  -0.013   0.042  -0.032   0.007  -0.009
   0.008  -0.026   0.001  -0.015  -0.021   0.021   0.011  -0.005  -0.005  -0.006
   0.019   0.003  -0.018  -0.030  -0.016   0.009   0.009  -0.022   0.045   0.020
  -0.016  -0.006   0.014  -0.051   0.028  -0.044  -0.014   0.037  -0.020   0.008
   0.011   0.008   0.016  -0.009   0.007  -0.008  -0.000   0.011  -0.016   0.001
  -0.021   0.035  -0.019   0.030  -0.040  -0.013   0.044  -0.018   0.014   0.012
   0.007   0.007   0.017   0.002   0.032  -0.013  -0.012  -0.000   0.033  -0.008
  -0.008   0.035  -0.010   0.020  -0.019   0.014   0.006   0.009  -0.002  -0.004
  -0.009   0.030  -0.007   0.029   0.014  -0.013  -0.007   0.014   0.009   0.005
   0.003   0.003   0.017   0.008   0.016   0.031  -0.000  -0.006  -0.035  -0.008
  -0.007   0.013  -0.023   0.033  -0.014   0.003   0.000  -0.023   0.010  -0.005
  -0.055   0.014  -0.022  -0.004   0.002   0.020  -0.014  -0.016   0.002  -0.016
  -0.003  -0.019   0.017   0.003   0.011  -0.009   0.022   0.005  -0.005  -0.015
   0.057   0.005  -0.015   0.017  -0.036  -0.015   0.001  -0.023  -0.012  -0.005
   0.016  -0.022   0.006   0.002  -0.004  -0.031  -0.004   0.006   0.019  -0.022
  -0.006  -0.021   0.019  -0.038  -0.018   0.004  -0.021  -0.001   0.019   0.028
   0.008  -0.042  -0.019   0.037  -0.006  -0.018   0.017  -0.000  -0.002   0.006
  -0.021  -0.003  -0.008   0.020  -0.009   0.011   0.018   0.011  -0.037  -0.026
   0.017  -0.035  -0.006   0.011   0.011   0.021  -0.000  -0.015  -0.002   0.029
  -0.011   0.048  -0.020  -0.002  -0.021   0.012  -0.003  -0.016  -0.019   0.024
  -0.016   0.024   0.026  -0.014   0.027   0.011   0.012   0.023  -0.007  -0.014
   0.067  -0.046   0.037   0.045  -0.024   0.000  -0.005   0.016  -0.019  -0.020
  -0.003  -0.052   0.013  -0.009  -0.058  -0.004   0.002   0.018   0.019  -0.033
   0.003   0.008  -0.016  -0.008   0.006   0.004   0.007   0.017   0.008   0.017
  -0.010   0.011   0.009  -0.012  -0.018   0.003   0.023   0.022  -0.028   0.028
   0.029  -0.025   0.024   0.005  -0.029   0.000  -0.016   0.000  -0.004   0.008
   0.022   0.000   0.013   0.014  -0.026  -0.003  -0.008  -0.013   0.028   0.004
   0.010  -0.022   0.002  -0.031   0.005   0.003   0.032  -0.028   0.007   0.011
  -0.006  -0.008  -0.008   0.013  -0.001   0.003   0.039  -0.046  -0.016   0.013
  -0.019  -0.016   0.004   0.001  -0.000   0.002   0.027   0.016  -0.012  -0.005
  -0.021  -0.018  -0.029   0.020  -0.027   0.009   0.012   0.030   0.010   0.002
   0.026   0.011  -0.001   0.005   0.002   0.001  -0.014   0.004  -0.036  -0.014
   0.011   0.008  -0.004   0.012   0.009   0.011  -0.010  -0.031   0.008   0.003
   0.011   0.004   0.006  -0.006   0.013  -0.013  -0.017  -0.012  -0.010   0.013
   0.000   0.006  -0.022  -0.001   0.021   0.007   0.006   0.034  -0.011   0.024
   0.017  -0.020   0.001   0.014  -0.031   0.004   0.000  -0.012  -0.034  -0.009
  -0.010   0.013  -0.007  -0.043   0.009   0.030  -0.019   0.002   0.005   0.006
   0.006   0.025   0.006  -0.021   0.005   0.031  -0.022   0.002   0.001   0.003
  -0.019   0.016  -0.006  -0.009   0.006  -0.008  -0.035   0.003   0.013  -0.019
  -0.000  -0.007   0.026  -0.020   0.027   0.003   0.004  -0.026   0.042  -0.014
   0.012  -0.009   0.001  -0.000   0.026   0.050   0.000   0.016  -0.010  -0.033
  -0.002  -0.001  -0.030   0.005   0.001  -0.017  -0.000   0.018  -0.007   0.011
   0.007   0.004  -0.012  -0.009   0.016   0.000   0.018  -0.013  -0.004   0.007
  -0.018  -0.026   0.008   0.005  -0.015   0.003  -0.033  -0.004   0.053  -0.020
  -0.017   0.018  -0.011  -0.028   0.056  -0.003  -0.025  -0.007   0.004   0.003
   0.006  -0.001  -0.010   0.018   0.003  -0.022  -0.014   0.000  -0.007   0.061
   0.002  -0.012  -0.011   0.001   0.021  -0.002   0.016   0.050  -0.046   0.002
   0.005   0.013   0.008   0.023   0.012  -0.006  -0.019   0.004   0.027  -0.016
   0.007   0.004  -0.016   0.019  -0.014  -0.026  -0.003  -0.032  -0.004  -0.016
   0.002  -0.003  -0.004   0.017  -0.006  -0.014  -0.004  -0.005   0.024  -0.013
  -0.014   0.016  -0.023  -0.000   0.031  -0.010   0.014  -0.038  -0.027   0.029
  -0.036   0.016   0.013   0.003   0.008   0.009  -0.030   0.019  -0.016  -0.006
   0.034  -0.003   0.021   0.003   0.028  -0.032   0.012  -0.013   0.019   0.009
  -0.040   0.016   0.009   0.005   0.011   0.008   0.025  -0.019   0.006  -0.012
  -0.049   0.042   0.007  -0.019  -0.008  -0.006   0.027  -0.030   0.022   0.028
  -0.005  -0.007   0.015  -0.011  -0.022   0.006   0.020  -0.026   0.031   0.015
  -0.009  -0.041   0.017   0.012   0.004  -0.044   0.002  -0.033   0.025   0.017
  -0.027  -0.002  -0.010  -0.011   0.012  -0.004  -0.001   0.044   0.039  -0.028
  -0.005  -0.010   0.033  -0.029   0.010  -0.031   0.033  -0.042   0.003  -0.014
   0.022  -0.012  -0.002  -0.005   0.027  -0.009  -0.021   0.013  -0.033   0.017
   0.004   0.008   0.019   0.003   0.004   0.017  -0.002   0.014  -0.023   0.004
  -0.029  -0.022  -0.001   0.006   0.009   0.001   0.021  -0.046  -0.010   0.016
   0.005  -0.004   0.006  -0.019   0.035  -0.025   0.035   0.007  -0.008   0.046
  -0.021  -0.024  -0.003  -0.016   0.019   0.003  -0.020  -0.025   0.013   0.010
   0.006  -0.034  -0.018  -0.018   0.028   0.021  -0.044   0.028  -0.008   0.016
   0.015  -0.032   0.024   0.055  -0.029  -0.027   0.039  -0.016  -0.013   0.038
  -0.012   0.001  -0.000  -0.000   0.017   0.031  -0.018  -0.042   0.056   0.052
  -0.021  -0.014   0.005  -0.001   0.029  -0.041  -0.018   0.050  -0.020  -0.040
   0.003   0.047  -0.022   0.018   0.013  -0.011  -0.032   0.047  -0.075   0.033
  -0.039   0.026  -0.008   0.005   0.003  -0.033   0.009   0.065  -0.030   0.023
  -0.012   0.017  -0.036  -0.027  -0.006   0.015  -0.067   0.035  -0.020   0.003
   0.017   0.024  -0.018   0.016   0.015   0.010   0.021   0.020  -0.076   0.031
  -0.003  -0.012   0.020   0.021  -0.077   0.022   0.069  -0.026   0.018  -0.018
   0.059   0.040  -0.041  -0.036   0.044  -0.018   0.000  -0.046   0.018   0.023
  -0.026   0.014  -0.014   0.002  -0.042  -0.011   0.025  -0.022  -0.026   0.031
   0.036  -0.029  -0.018   0.032  -0.011   0.038   0.004   0.006  -0.039   0.001
   0.017  -0.070   0.018   0.039  -0.013   0.003  -0.022  -0.007   0.017   0.011
   0.021   0.003  -0.084   0.021   0.015  -0.009   0.014  -0.027   0.027  -0.022
   0.000   0.052  -0.028   0.010  -0.051  -0.011   0.023   0.006   0.006  -0.024
   0.048  -0.039   0.019   0.013  -0.031   0.029  -0.022   0.012  -0.081   0.010
   0.039  -0.025   0.004  -0.026  -0.006   0.001   0.057   0.010  -0.076   0.043
  -0.014   0.017   0.039  -0.060   0.029   0.028  -0.050   0.018  -0.038   0.018
   0.062  -0.014  -0.054  -0.023   0.070  -0.030  -0.026   0.047  -0.044   0.007
   0.056  -0.018  -0.015  -0.029   0.022  -0.004  -0.016  -0.030   0.014   0.022
  -0.022   0.005  -0.040   0.010   0.043  -0.029  -0.007   0.029  -0.024   0.003
   0.041  -0.026  -0.025   0.057   0.002  -0.020   0.023   0.007   0.005   0.026
   0.013  -0.010   0.032   0.004  -0.053  -0.017   0.050  -0.000  -0.026   0.052
   0.001  -0.039   0.022   0.045  -0.015  -0.019   0.037   0.045  -0.019   0.019
  -0.002  -0.016  -0.004   0.013   0.003  -0.013   0.004  -0.008  -0.006   0.007
   0.005  -0.012  -0.044   0.012   0.024  -0.021   0.007   0.022   0.005  -0.009
  -0.023   0.008   0.011   0.014  -0.028  -0.022   0.031   0.040  -0.013  -0.028
  -0.040   0.030   0.022  -0.023   0.021  -0.017   0.045  -0.026  -0.028   0.017
  -0.026  -0.016   0.062  -0.031  -0.078   0.042   0.076  -0.062  -0.022   0.010
  -0.025  -0.023   0.033  -0.008   0.002  -0.020   0.040  -0.028  -0.016  -0.010
   0.018   0.020  -0.078   0.035   0.085  -0.102  -0.002   0.075  -0.018  -0.035
   0.065   0.023  -0.076   0.074   0.026  -0.092   0.046   0.015  -0.056   0.019
   0.015  -0.045   0.067  -0.027  -0.059   0.053   0.014  -0.081   0.081   0.010
  -0.055   0.055  -0.009  -0.057   0.089  -0.031  -0.099   0.092   0.051  -0.070
   0.059   0.036  -0.105   0.035   0.021  -0.062   0.020   0.036  -0.019  -0.031
  -0.013  -0.029   0.010   0.036  -0.055   0.047   0.019  -0.059   0.001  -0.029
  -0.035   0.021  -0.044  -0.001   0.033  -0.014  -0.012   0.014  -0.002   0.012
   0.005  -0.017  -0.010   0.027  -0.049  -0.006   0.034  -0.019   0.005   0.019
  -0.018  -0.004   0.026   0.003   0.018   0.015  -0.052   0.015   0.030   0.035
   0.009  -0.017  -0.013   0.015   0.013  -0.017   0.009  -0.017   0.019   0.032
  -0.025  -0.018   0.017   0.019  -0.009   0.021   0.029  -0.018   0.001   0.018
  -0.035  -0.026   0.054  -0.032  -0.035   0.048  -0.049   0.005   0.023  -0.043
  -0.013   0.041  -0.028  -0.043   0.020   0.010  -0.006  -0.004   0.025  -0.003
  -0.020   0.030  -0.006   0.030   0.005  -0.000   0.009  -0.002   0.006  -0.014
   0.027   0.030  -0.016  -0.018  -0.002  -0.010   0.019   0.011  -0.002  -0.001
   0.017   0.017  -0.022   0.030  -0.025  -0.018   0.001   0.012   0.012   0.043
  -0.008   0.011   0.034  -0.021  -0.030   0.057   0.029  -0.036   0.003   0.006
   0.009   0.012  -0.035  -0.011   0.018   0.064   0.013  -0.031  -0.018   0.049
   0.022  -0.033  -0.020   0.024   0.005   0.027  -0.085  -0.012   0.072   0.004
  -0.012  -0.043   0.039  -0.019  -0.021   0.070  -0.000  -0.048   0.028   0.059
  -0.065  -0.003   0.032  -0.025   0.019   0.017  -0.030   0.003   0.048  -0.014
  -0.042   0.057  -0.045  -0.011   0.018  -0.061   0.083  -0.070  -0.049   0.016
   0.026   0.044  -0.041   0.042  -0.020   0.008   0.017  -0.041   0.006   0.010
  -0.006  -0.009   0.031   0.032  -0.031   0.010   0.009  -0.001  -0.010   0.008
  -0.044  -0.017   0.021  -0.031  -0.000  -0.044   0.000   0.075  -0.051  -0.014
   0.017  -0.010  -0.051   0.002   0.031  -0.082  -0.007   0.004   0.050  -0.018
   0.017   0.019  -0.025  -0.005  -0.022  -0.004  -0.004  -0.010   0.068  -0.019
  -0.032   0.037  -0.009  -0.024  -0.008   0.011  -0.028  -0.007  -0.010   0.002
   0.045  -0.052  -0.050   0.075  -0.064  -0.035   0.051   0.029  -0.065  -0.066
   0.058  -0.048  -0.076   0.020   0.025  -0.075   0.012   0.011  -0.072   0.028
   0.008  -0.051   0.033  -0.014  -0.018  -0.006   0.069  -0.077  -0.004   0.077
  -0.083  -0.037   0.039   0.036  -0.058  -0.000   0.022  -0.022  -0.022   0.041
   0.005  -0.019   0.071  -0.043  -0.054   0.064  -0.058   0.000  -0.118   0.004
   0.151  -0.038  -0.189   0.175   0.011  -0.069   0.030   0.018  -0.097   0.085
   0.031  -0.038  -0.026   0.041  -0.002  -0.051  -0.029   0.024  -0.074   0.086
  -0.057  -0.101   0.195  -0.168  -0.017   0.166  -0.136   0.032   0.061  -0.036
   0.052  -0.111   0.119  -0.017  -0.114   0.170  -0.123   0.051   0.060  -0.139
  -0.019   0.149  -0.021  -0.061  -0.040   0.137  -0.014  -0.091   0.138   0.005
  -0.135   0.111   0.118  -0.057   0.049   0.049   0.126  -0.082   0.019   0.083
   0.032  -0.090   0.164  -0.107  -0.041   0.104  -0.016  -0.054  -0.014   0.078
   0.074  -0.154   0.113   0.046   0.014   0.087  -0.091   0.186   0.116  -0.057
   0.148   0.041   0.040   0.120  -0.099   0.111   0.068  -0.046   0.135  -0.079
   0.148  -0.073   0.041   0.061  -0.071   0.095  -0.004   0.011   0.175   0.082
  -0.033   0.284  -0.167   0.016   0.024  -0.052   0.172  -0.172   0.133   0.027
  -0.020   0.066   0.102  -0.008   0.061   0.024   0.096   0.062  -0.153   0.199
   0.120  -0.162   0.083   0.036  -0.004   0.130  -0.018  -0.050  -0.007  -0.027
  -0.111  -0.070  -0.020  -0.108  -0.101  -0.192  -0.068  -0.071  -0.060  -0.094
  -0.086  -0.144  -0.147  -0.175  -0.213  -0.225  -0.251  -0.233  -0.275  -0.286
  -0.262  -0.275  -0.156  -0.059  -0.080  -0.131  -0.034  -0.025   0.107   0.050
   0.084   0.158  -0.041  -0.008   0.028   0.264   0.028   0.085  -0.012  -0.030
  -0.140   0.023  -0.229  -0.093  -0.116  -0.205   0.063   0.151   0.237   0.258
   0.127   0.196   0.255   0.200   0.189   0.269   0.178  -0.037   0.211   0.218
   0.069   0.082  -0.214  -0.289  -0.274  -0.132  -0.193  -0.304  -0.375  -0.081
  -0.127   0.001   0.182   0.168   0.313   0.218   0.194   0.203   0.230   0.302
   0.170   0.166   0.097   0.090   0.057  -0.118  -0.182  -0.118  -0.219  -0.112
  -0.240  -0.312  -0.302  -0.095   0.216   0.004  -0.132   0.061   0.188   0.144
  -0.079   0.029   0.142  -0.008  -0.022  -0.015   0.028  -0.045  -0.118  -0.268
  -0.120  -0.153   0.131  -0.069  -0.354  -0.278  -0.114   0.008   0.145   0.293
   0.198   0.023   0.051   0.180   0.118   0.353  -0.009  -0.128  -0.272  -0.088
   0.266   0.027   0.077  -0.053  -0.278  -0.098  -0.282  -0.278  -0.229  -0.215
   0.013  -0.010  -0.134   0.136   0.490   0.482   0.032  -0.078   0.275   0.146
  -0.285  -0.110   0.112   0.242   0.096  -0.102   0.139   0.308   0.399   0.591
   0.286   0.088   0.245   0.158  -0.110   0.261   0.546   0.403   0.129   0.184
   0.287   0.488  -0.006  -0.460  -0.396  -0.581  -0.761  -0.716  -0.777  -0.313
   0.201   0.291   0.122  -0.120   0.016   0.528   0.603   0.064  -0.097  -0.012
  -0.001  -0.028  -0.235  -0.107   0.464   0.674   0.483   0.177   0.155   0.242
   0.172  -0.285  -0.495  -0.218   0.207   0.184   0.155  -0.235  -0.411  -0.327
  -0.227  -0.360  -0.539  -0.642  -0.531  -0.415  -0.306   0.304   0.626   0.485
   0.274  -0.179  -0.466  -0.576  -0.474  -0.189  -0.408  -0.706  -0.525  -0.377
  -0.471  -0.397   0.268   0.529   0.418   0.465   0.373   0.173   0.442   0.415
  -0.043  -0.256  -0.474  -0.184   0.242   0.161  -0.173  -0.399  -0.267   0.116
  -0.058  -0.458  -0.572  -0.030   0.364   0.400   0.149   0.143   0.172  -0.054
  -0.101  -0.027   0.034   0.319   0.358   0.093  -0.158   0.408   0.833   0.774
   0.412   0.119  -0.050  -0.195  -0.258  -0.651  -1.083  -1.002  -0.462   0.012
  -0.023  -0.469  -0.326   0.103   0.256   0.157  -0.161  -0.176   0.083   0.157
   0.195   0.229   0.234   0.279   0.466   0.370  -0.250  -0.467  -0.311   0.058
   0.246   0.488   0.322   0.215   0.504   0.455   0.169   0.194   0.224   0.198
   0.061   0.141   0.225   0.012  -0.238  -0.286  -0.105   0.023  -0.182  -0.182
   0.061   0.204   0.066  -0.143  -0.293  -0.082   0.164   0.190   0.193   0.466
   0.405   0.310   0.503   0.806   0.713   0.164  -0.306  -0.480  -0.380   0.072
   0.428   0.358   0.130   0.075   0.106   0.233   0.129  -0.268  -0.636  -0.600
  -0.028   0.319   0.405   0.248   0.023  -0.256  -0.296  -0.081   0.199   0.045
  -0.077  -0.307  -0.437  -0.434  -0.182  -0.201  -0.276  -0.035   0.193   0.022
  -0.178  -0.132  -0.177  -0.205  -0.177   0.073   0.071  -0.057  -0.195  -0.229
  -0.169  -0.117  -0.080   0.157   0.444   0.258   0.061  -0.327  -0.678  -0.530
  -0.268  -0.117  -0.130   0.021   0.557   0.746   0.463   0.320   0.373   0.129
   0.246   0.451   0.600   0.548   0.356   0.291   0.042  -0.221  -0.394  -0.665
  -0.884  -0.397   0.129   0.306   0.584   0.534   0.039  -0.294  -0.191  -0.142
  -0.056   0.259   0.482   0.405   0.187   0.356   0.197  -0.327  -0.739  -0.647
  -0.256  -0.097  -0.494  -0.844  -0.657  -0.346  -0.196  -0.149  -0.017  -0.068
  -0.125  -0.065  -0.257  -0.311  -0.096  -0.029  -0.193  -0.296  -0.165  -0.187
  -0.500  -0.760  -0.775  -0.729  -0.739  -0.533  -0.349  -0.166   0.003   0.139
