Corrected accelerogram 20160214_001343_HUNS_20 GNS Science
Site HUNS      43 34 46S  172 39 26E     Basalt file:  20160214_001347_HUNS
Huntsbury
Instrument Basalt_2412
Resolution: 24-bit   Instr Period: 0.0050 s   Damping: 0.700
Accelerogram 20160214_001343_HUNS_20                 Processed 2016 February 22
11 km east of CHRISTCHURCH
2016 February 14         00:13:43 UT
Epicentre  43 29 50S 172 45 18E  Bearing N41E  Dist   12km  Depth    8km M  5.70
Number of points  8192    Duration 163.82 sec
Instrument corrected data at 0.020 sec intervals
Band-pass filter transition bands are .10-.25 Hz and 24.50-25.50 Hz
Component N00E  Horizontal Axis 1
Acceleration:  peak    474.9 mm/s/s at  43.74 sec     rms     30.4 mm/s/s
Velocity:      peak   -46.04 mm/s   at  42.92 sec     rms     3.26 mm/s
Displacement:  peak  -14.767 mm     at  43.54 sec     rms    1.591 mm
    2016       2      14       0      13     430       0       0    2016       2
      43      29      50     172      45      18       8       0      14       0
      43      34      46     172      39      26       0       0      41      12
   34800     250     250    8192    8192    8192       0       0      13    7000
   200.0    0.70    0.00   0.000  0.0000   0.000   0.000   1.000     0.0    0.00
  43.579 172.657   43.50  172.76    5.70    0.00    0.00    0.00      0.      0.
  174.00    5.00    5.00  163.82  0.0050  0.0200      0.      0.      0.  9806.6
   505.0   43.75    31.4   0.000      0.   474.9   43.74    30.4   731.0   1.874
  -46.04   42.92    3.26   57.66   0.253  -14.77   43.54    1.59   15.58   0.211
   0.100   0.150   0.250      0.      0.  24.500   1.000  25.500      0.      0.
     0.0    -0.0     0.0    -0.0     0.0    -0.0     0.0    -0.0     0.0    -0.0
     0.0    -0.0     0.0    -0.0     0.0    -0.0     0.0    -0.0     0.0    -0.0
     0.0    -0.0     0.0    -0.0     0.0    -0.0     0.0    -0.0     0.0    -0.0
     0.0    -0.0     0.0    -0.0     0.0    -0.0     0.0    -0.0     0.0    -0.0
     0.0    -0.0     0.0    -0.0     0.0    -0.0     0.0    -0.0     0.0    -0.0
     0.0    -0.0     0.0    -0.0     0.0    -0.0     0.0    -0.0     0.0    -0.0
     0.0    -0.0     0.0    -0.0     0.0    -0.0     0.0    -0.0     0.0    -0.0
     0.0    -0.0     0.0    -0.0     0.0    -0.0     0.0    -0.0     0.0    -0.0
     0.0    -0.0     0.0    -0.0     0.0    -0.0     0.0    -0.0     0.0    -0.0
     0.0    -0.0     0.0    -0.0     0.0    -0.0     0.0    -0.0     0.0    -0.0
     0.0    -0.0     0.0    -0.0     0.0    -0.0     0.0    -0.0     0.0    -0.0
     0.0    -0.0     0.0    -0.0     0.0    -0.0     0.0    -0.0     0.0    -0.0
     0.0    -0.0     0.0    -0.0     0.0    -0.0     0.0    -0.0     0.0    -0.0
     0.0    -0.0     0.0    -0.0     0.0    -0.0     0.0    -0.0     0.0    -0.0
     0.0    -0.0     0.0    -0.0     0.0    -0.0     0.0    -0.0     0.0    -0.0
     0.0    -0.0     0.0    -0.0     0.0    -0.0     0.0    -0.0     0.0    -0.0
     0.0    -0.0     0.0    -0.0     0.0    -0.0     0.0    -0.0     0.0    -0.0
     0.0    -0.0     0.0    -0.0     0.0    -0.0     0.0    -0.0     0.0    -0.0
     0.0    -0.0     0.0    -0.0     0.0    -0.0     0.0    -0.0     0.0    -0.0
     0.0    -0.0     0.0    -0.0     0.0    -0.0     0.0    -0.0     0.0    -0.0
     0.0    -0.0     0.0    -0.0     0.0    -0.0     0.0    -0.0     0.0    -0.0
     0.0    -0.0     0.0    -0.0     0.0    -0.0     0.0    -0.0     0.0    -0.0
     0.0    -0.0     0.0    -0.0     0.0    -0.0     0.0    -0.0     0.0    -0.0
     0.0    -0.0     0.0    -0.0     0.0    -0.0     0.0    -0.0     0.0    -0.0
     0.0    -0.0     0.0    -0.0     0.0    -0.0     0.0    -0.0     0.0    -0.0
     0.1     0.0     0.0    -0.0     0.1    -0.0     0.0    -0.0     0.0    -0.0
     0.0    -0.0     0.0    -0.0     0.0    -0.0     0.0     0.0     0.0     0.0
     0.0    -0.0     0.0    -0.0     0.0    -0.0     0.0    -0.0     0.1    -0.0
     0.0    -0.0     0.0    -0.0     0.0    -0.0     0.0    -0.0     0.0    -0.0
     0.0    -0.0     0.0    -0.0     0.0    -0.0     0.0    -0.0     0.0    -0.0
     0.1    -0.0     0.0    -0.0     0.1    -0.0     0.0    -0.0     0.0     0.0
     0.0    -0.0     0.0    -0.0     0.0    -0.0    -0.0    -0.0     0.0    -0.0
     0.0    -0.0     0.0    -0.0     0.0    -0.0     0.0    -0.0     0.0    -0.0
     0.0     0.0     0.0    -0.0     0.0    -0.0     0.0    -0.0     0.0    -0.0
     0.0    -0.0     0.0    -0.0     0.0    -0.0     0.0    -0.0     0.0    -0.0
     0.0    -0.0     0.0    -0.0     0.0    -0.0     0.0    -0.0     0.0    -0.0
     0.0     0.0     0.0    -0.0     0.0    -0.0     0.0    -0.0     0.0    -0.0
     0.0    -0.0     0.0    -0.0     0.0    -0.0     0.0    -0.0     0.0     0.0
     0.0    -0.0     0.0    -0.0     0.0    -0.0     0.0     0.0     0.0    -0.0
     0.0    -0.0     0.0    -0.0     0.0    -0.0     0.0    -0.0     0.1    -0.0
     0.1    -0.0     0.0    -0.0     0.0    -0.0     0.0    -0.0     0.0    -0.0
     0.0    -0.0     0.1     0.0     0.0    -0.0     0.0    -0.0     0.0    -0.0
     0.0    -0.0     0.0    -0.0     0.0    -0.0     0.0    -0.0     0.0    -0.0
     0.0    -0.0     0.0    -0.0     0.0    -0.0     0.0    -0.0     0.0    -0.0
     0.0    -0.0     0.0    -0.0     0.0    -0.0     0.0    -0.0     0.0    -0.0
     0.0    -0.0    -0.0    -0.0     0.0    -0.0     0.0    -0.0     0.0    -0.0
     0.0    -0.0     0.0    -0.0     0.0    -0.0     0.0    -0.0     0.0    -0.0
     0.0    -0.0     0.0    -0.0     0.0    -0.0     0.1     0.0     0.0    -0.0
     0.0    -0.0     0.0    -0.0     0.0    -0.0     0.0    -0.0     0.0    -0.0
     0.0    -0.0     0.0    -0.0     0.0    -0.0     0.0    -0.0     0.0    -0.0
     0.0    -0.0     0.0    -0.0     0.0    -0.0     0.0    -0.0     0.0    -0.0
     0.1    -0.0     0.0    -0.0     0.0    -0.0     0.0    -0.0     0.0    -0.0
     0.0    -0.0     0.0    -0.0     0.0    -0.0     0.0    -0.0     0.0    -0.0
     0.0    -0.0     0.0    -0.0     0.0    -0.0     0.0    -0.0     0.0    -0.0
     0.0    -0.0     0.0    -0.0     0.0    -0.0     0.1    -0.0     0.0    -0.0
     0.0    -0.0     0.0    -0.0     0.0     0.0     0.0    -0.0     0.0    -0.0
     0.0    -0.0     0.0    -0.0     0.0    -0.0     0.0    -0.0     0.1    -0.0
     0.0    -0.0     0.0    -0.0     0.0    -0.0     0.0    -0.0     0.0    -0.0
     0.0     0.0     0.0    -0.0     0.0    -0.0     0.0    -0.0     0.0    -0.0
     0.0    -0.0     0.0     0.0     0.0    -0.0     0.0    -0.0     0.0    -0.0
     0.0    -0.0     0.0    -0.0     0.0    -0.0     0.0    -0.0     0.0    -0.0
     0.0    -0.0     0.0    -0.0     0.0    -0.0     0.0    -0.0     0.0    -0.0
     0.0    -0.0     0.0     0.0     0.0    -0.0     0.0    -0.0     0.0    -0.0
     0.1    -0.0     0.1    -0.0     0.0    -0.0     0.0    -0.0     0.0    -0.0
     0.0    -0.0     0.0    -0.0     0.0    -0.0     0.0     0.0     0.0    -0.0
     0.0    -0.0     0.0    -0.0     0.0    -0.0     0.0    -0.0     0.1    -0.0
     0.0    -0.0     0.0    -0.0     0.0    -0.0     0.0    -0.0     0.0    -0.0
     0.0    -0.0     0.0    -0.0     0.0    -0.0     0.0    -0.0     0.0     0.0
     0.0    -0.0     0.0    -0.0     0.0    -0.0     0.0    -0.0     0.0    -0.0
     0.0    -0.0     0.0    -0.0     0.0    -0.0     0.0    -0.0     0.0    -0.0
     0.0    -0.0     0.0    -0.0     0.0    -0.0     0.0    -0.0     0.0    -0.0
     0.0    -0.0     0.0    -0.0     0.0    -0.0     0.0    -0.0     0.0    -0.0
     0.0    -0.0     0.0    -0.0     0.0    -0.0     0.0    -0.0     0.0    -0.0
     0.0    -0.0     0.0    -0.0     0.0     0.0     0.0    -0.0     0.0    -0.0
     0.0    -0.0     0.0    -0.0     0.0    -0.0     0.0    -0.0     0.0    -0.0
     0.0    -0.0     0.0    -0.0     0.0    -0.0     0.0    -0.0     0.0    -0.0
     0.0    -0.0     0.0    -0.0     0.0    -0.0     0.1     0.0     0.0    -0.0
     0.0    -0.0     0.0    -0.0     0.0    -0.0     0.0    -0.0     0.0    -0.0
     0.1    -0.0     0.0    -0.0     0.0    -0.0     0.0    -0.0     0.0    -0.0
     0.1    -0.0     0.0    -0.0     0.1    -0.0     0.0    -0.0     0.0     0.0
     0.0    -0.0     0.0    -0.0     0.0    -0.0     0.0     0.0     0.0    -0.0
     0.0    -0.0     0.0    -0.0     0.0    -0.0     0.0    -0.0     0.0    -0.0
     0.1     0.0     0.0    -0.0     0.0    -0.0     0.0    -0.0     0.0    -0.0
     0.0    -0.0     0.1    -0.0     0.0    -0.0     0.1    -0.0     0.0    -0.0
     0.0    -0.0     0.0    -0.0     0.0    -0.0     0.0    -0.0     0.0    -0.0
     0.0    -0.0     0.0    -0.0     0.0    -0.0     0.0    -0.0     0.0    -0.0
     0.0    -0.0     0.0    -0.0     0.0    -0.0     0.0    -0.0     0.0    -0.0
     0.0    -0.0     0.0    -0.0     0.0    -0.0     0.0    -0.0     0.1    -0.0
     0.0    -0.0     0.0    -0.0     0.0    -0.0     0.0    -0.0     0.0    -0.1
     0.0    -0.0     0.0    -0.0     0.1    -0.0     0.1    -0.0     0.0    -0.0
     0.0    -0.0     0.0    -0.0     0.0    -0.0     0.0    -0.0     0.0    -0.0
     0.0    -0.0     0.0    -0.0     0.0    -0.0     0.0    -0.0     0.0    -0.0
     0.0    -0.0     0.0    -0.0     0.0    -0.0     0.0    -0.0     0.0    -0.0
     0.0    -0.0     0.0    -0.0     0.0    -0.0     0.0    -0.0     0.1    -0.0
     0.0    -0.0     0.0    -0.0     0.0    -0.0     0.1    -0.0     0.0    -0.0
     0.0    -0.0     0.0    -0.0     0.0    -0.0     0.0    -0.0     0.1    -0.0
     0.0    -0.0     0.0    -0.0     0.0    -0.0     0.0    -0.0     0.0    -0.0
     0.0    -0.0     0.0    -0.0     0.0    -0.0     0.0    -0.0     0.0    -0.0
     0.0    -0.0     0.0    -0.0     0.1    -0.0     0.0    -0.0     0.0    -0.0
     0.0    -0.0     0.0    -0.0     0.0    -0.0     0.0     0.0     0.1    -0.0
     0.0    -0.0     0.1    -0.0     0.0    -0.0     0.1    -0.0     0.0    -0.0
     0.0    -0.0     0.0    -0.0     0.0    -0.0     0.0    -0.0     0.0    -0.0
     0.1    -0.0     0.0    -0.0     0.0    -0.0     0.0    -0.0     0.0    -0.1
     0.0    -0.0     0.0    -0.0     0.0    -0.0     0.0    -0.0     0.0    -0.0
     0.0    -0.1     0.0    -0.1     0.0    -0.0     0.0    -0.0     0.0    -0.0
     0.0    -0.0     0.0    -0.1     0.0    -0.0     0.0    -0.0     0.0    -0.0
     0.0    -0.0     0.0    -0.0     0.0    -0.0     0.0    -0.0     0.0    -0.1
     0.0    -0.0     0.0    -0.0     0.0    -0.0     0.0    -0.0     0.0    -0.0
     0.0    -0.0     0.1    -0.1     0.0    -0.0     0.0    -0.0     0.0    -0.0
     0.0    -0.1     0.0    -0.0     0.1    -0.0     0.0    -0.0     0.0    -0.0
     0.0    -0.1     0.0    -0.1     0.0    -0.0     0.0    -0.0     0.0    -0.0
     0.0    -0.0     0.0    -0.1     0.0    -0.1     0.0    -0.1     0.0    -0.0
     0.0    -0.1     0.1    -0.0     0.1    -0.0     0.0    -0.0     0.0    -0.0
     0.0    -0.1     0.0    -0.0     0.0    -0.0     0.0    -0.0     0.1    -0.0
     0.0    -0.0     0.0    -0.0     0.0    -0.0     0.0    -0.0     0.0    -0.0
     0.0    -0.0     0.0    -0.0     0.1    -0.0     0.1    -0.0     0.0    -0.0
     0.0    -0.0     0.0    -0.0     0.0    -0.0     0.0    -0.0     0.0    -0.0
     0.0    -0.0     0.0    -0.0     0.0    -0.0     0.0    -0.0     0.0    -0.0
     0.1    -0.1     0.1    -0.0     0.1    -0.0     0.1    -0.0     0.0    -0.0
     0.0    -0.0     0.0    -0.0     0.0    -0.0     0.1    -0.0     0.0    -0.0
     0.0    -0.0     0.0    -0.0     0.1    -0.0     0.1    -0.0     0.0    -0.0
     0.1    -0.0     0.0    -0.0     0.0    -0.0     0.1    -0.0     0.1    -0.0
     0.0    -0.0     0.0    -0.0     0.0    -0.0     0.0    -0.0     0.0    -0.0
     0.0    -0.0     0.0    -0.0     0.0    -0.0     0.0    -0.0     0.0    -0.0
     0.0    -0.1     0.0    -0.0     0.1    -0.0     0.1    -0.0     0.1    -0.1
     0.0    -0.1     0.0    -0.0     0.0    -0.0     0.0    -0.0     0.0    -0.0
     0.0    -0.1     0.0    -0.1     0.0    -0.1     0.0    -0.1     0.0    -0.1
     0.0    -0.1     0.0    -0.1     0.0    -0.1     0.0    -0.0     0.1    -0.0
     0.0    -0.1     0.0    -0.1     0.0    -0.1     0.0    -0.1     0.0    -0.1
     0.0    -0.1     0.0    -0.1     0.0    -0.1     0.0    -0.1     0.1    -0.0
     0.0    -0.0     0.0    -0.1     0.0    -0.0     0.0    -0.0     0.0    -0.1
     0.1    -0.0     0.0    -0.1     0.0    -0.0     0.0    -0.1     0.0    -0.1
     0.0    -0.1     0.1    -0.0     0.1    -0.0     0.0    -0.0     0.1    -0.0
     0.0    -0.0     0.1    -0.0     0.1    -0.0     0.1    -0.0     0.0    -0.0
     0.1    -0.0     0.1    -0.0     0.1    -0.0     0.1    -0.0     0.1    -0.0
     0.1    -0.0     0.1    -0.0     0.1    -0.0     0.1    -0.0     0.1    -0.0
     0.1    -0.0     0.1     0.0     0.1    -0.0     0.1    -0.0     0.1    -0.0
     0.1    -0.0     0.1    -0.0     0.1    -0.0     0.1    -0.0     0.1    -0.0
     0.1    -0.0     0.1    -0.0     0.1    -0.0     0.1    -0.0     0.1    -0.0
     0.1    -0.0     0.1    -0.0     0.1    -0.0     0.1    -0.0     0.1    -0.0
     0.1    -0.0     0.1    -0.0     0.1    -0.0     0.1    -0.0     0.1    -0.0
     0.1    -0.0     0.0    -0.0     0.0    -0.0     0.0    -0.0     0.1    -0.0
     0.0    -0.1     0.1    -0.0     0.1    -0.1     0.0    -0.0     0.1    -0.0
     0.1    -0.1     0.0    -0.1     0.1    -0.0     0.0    -0.1     0.0    -0.1
     0.1    -0.1     0.0    -0.1     0.1    -0.1     0.0    -0.1     0.0    -0.1
     0.0    -0.1     0.0    -0.1     0.0    -0.0     0.0    -0.1     0.1    -0.0
     0.0    -0.1     0.0    -0.1     0.0    -0.1     0.0    -0.1     0.1    -0.0
     0.0    -0.1     0.0    -0.1     0.0    -0.1     0.0    -0.1     0.0    -0.1
     0.0    -0.1     0.0    -0.1     0.0    -0.0     0.0    -0.1     0.0    -0.1
     0.0    -0.1     0.0    -0.1     0.0    -0.1     0.0    -0.1     0.0    -0.1
     0.0    -0.1     0.1    -0.1     0.0    -0.1     0.0    -0.1     0.0    -0.1
     0.1    -0.1     0.0    -0.1     0.0    -0.1     0.0    -0.1     0.0    -0.1
     0.0    -0.1     0.0    -0.1     0.0    -0.1     0.0    -0.1     0.0    -0.0
     0.1    -0.1     0.1    -0.1     0.1    -0.1     0.0    -0.1     0.1    -0.0
     0.1    -0.1     0.1    -0.1     0.1    -0.0     0.1    -0.1     0.1    -0.1
     0.1    -0.0     0.1    -0.1     0.1    -0.0     0.1    -0.0     0.1    -0.0
     0.1    -0.0     0.1    -0.0     0.1    -0.1     0.1    -0.1     0.1    -0.1
     0.1    -0.1     0.1    -0.0     0.1    -0.0     0.1    -0.0     0.1    -0.0
     0.1    -0.0     0.1    -0.0     0.1    -0.0     0.1    -0.0     0.1    -0.0
     0.1    -0.0     0.1    -0.1     0.1    -0.0     0.1    -0.0     0.1    -0.1
     0.1    -0.1     0.1    -0.1     0.1    -0.1     0.1    -0.1     0.1    -0.1
     0.1    -0.1     0.1    -0.1     0.0    -0.1     0.1    -0.1     0.1    -0.1
     0.1    -0.1     0.0    -0.1     0.0    -0.1     0.0    -0.1     0.0    -0.1
     0.1    -0.1     0.0    -0.1     0.0    -0.1     0.1    -0.1     0.0    -0.1
     0.0    -0.1     0.0    -0.1     0.0    -0.1     0.0    -0.1     0.1    -0.1
     0.0    -0.1     0.0    -0.1     0.0    -0.1     0.0    -0.1     0.0    -0.1
     0.0    -0.1     0.0    -0.1     0.0    -0.1     0.0    -0.1     0.0    -0.1
     0.0    -0.1    -0.0    -0.1     0.0    -0.1     0.0    -0.1     0.0    -0.1
     0.0    -0.1     0.0    -0.1     0.0    -0.1     0.0    -0.1     0.0    -0.1
     0.1    -0.1     0.0    -0.1     0.0    -0.1     0.0    -0.1     0.0    -0.1
     0.1    -0.1     0.0    -0.1     0.0    -0.1     0.1    -0.1     0.0    -0.1
     0.0    -0.1     0.1    -0.1     0.1    -0.1     0.1    -0.1     0.1    -0.1
     0.0    -0.1     0.1    -0.1     0.1    -0.1     0.1    -0.1     0.1    -0.1
     0.1    -0.1     0.1    -0.1     0.1    -0.1     0.1    -0.0     0.1    -0.0
     0.1    -0.0     0.1    -0.0     0.1    -0.0     0.2    -0.0     0.1    -0.0
     0.1    -0.0     0.1    -0.0     0.1    -0.0     0.2    -0.0     0.1     0.0
     0.2    -0.0     0.2     0.0     0.2    -0.0     0.1     0.0     0.2    -0.0
     0.2     0.0     0.2     0.0     0.2     0.0     0.2     0.0     0.2    -0.0
     0.2     0.0     0.2     0.0     0.2     0.0     0.2     0.0     0.2     0.0
     0.2     0.0     0.2    -0.0     0.2    -0.0     0.2    -0.0     0.2    -0.0
     0.2    -0.0     0.2    -0.0     0.2    -0.0     0.2    -0.0     0.2    -0.0
     0.2    -0.0     0.1     0.0     0.1    -0.0     0.2    -0.1     0.1    -0.1
     0.1    -0.1     0.1    -0.0     0.1    -0.1     0.1    -0.1     0.1    -0.1
     0.1    -0.1     0.1    -0.1     0.1    -0.1     0.1    -0.1     0.1    -0.1
     0.1    -0.1     0.1    -0.1     0.1    -0.1     0.1    -0.1     0.1    -0.1
     0.1    -0.1     0.1    -0.1     0.1    -0.1     0.1    -0.1     0.1    -0.2
     0.0    -0.1     0.1    -0.2     0.1    -0.1     0.0    -0.2     0.0    -0.2
     0.0    -0.1     0.1    -0.2     0.0    -0.2     0.0    -0.2     0.1    -0.2
     0.0    -0.2     0.0    -0.2     0.1    -0.2     0.0    -0.1     0.0    -0.1
     0.1    -0.2     0.0    -0.2     0.1    -0.2     0.1    -0.2     0.1    -0.1
     0.1    -0.1     0.1    -0.2     0.1    -0.1     0.1    -0.1     0.1    -0.1
     0.1    -0.1     0.1    -0.1     0.1    -0.1     0.2    -0.1     0.1    -0.1
     0.2    -0.1     0.2    -0.1     0.2    -0.1     0.2    -0.0     0.2    -0.0
     0.2    -0.0     0.2     0.0     0.3     0.0     0.2    -0.0     0.3     0.0
     0.3     0.0     0.3     0.0     0.3     0.1     0.3     0.0     0.3     0.1
     0.3     0.1     0.3     0.1     0.3     0.1     0.3     0.1     0.4     0.1
     0.4     0.1     0.4     0.1     0.4     0.2     0.4     0.1     0.4     0.1
     0.4     0.1     0.4     0.1     0.4     0.1     0.4     0.1     0.4     0.1
     0.4     0.1     0.4     0.1     0.4     0.1     0.4     0.1     0.4     0.1
     0.4     0.1     0.4     0.1     0.4     0.1     0.4     0.1     0.3     0.0
     0.3     0.0     0.3    -0.0     0.3    -0.0     0.3    -0.0     0.3    -0.1
     0.2    -0.1     0.2    -0.1     0.2    -0.1     0.2    -0.1     0.2    -0.2
     0.1    -0.2     0.1    -0.3     0.0    -0.3     0.0    -0.3    -0.0    -0.4
    -0.1    -0.4    -0.1    -0.4    -0.1    -0.5    -0.2    -0.5    -0.2    -0.6
    -0.2    -0.6    -0.3    -0.6    -0.3    -0.7    -0.4    -0.7    -0.4    -0.8
    -0.4    -0.8    -0.5    -0.8    -0.5    -0.9    -0.6    -0.9    -0.6    -1.0
    -0.6    -1.0    -0.7    -1.1    -0.7    -1.1    -0.7    -1.1    -0.8    -1.2
    -0.8    -1.2    -0.8    -1.2    -0.9    -1.3    -0.9    -1.3    -0.9    -1.4
    -0.9    -1.4    -1.0    -1.4    -1.0    -1.4    -1.0    -1.5    -1.0    -1.5
    -1.1    -1.5    -1.1    -1.5    -1.1    -1.5    -1.1    -1.5    -1.1    -1.6
    -1.1    -1.6    -1.1    -1.6    -1.1    -1.6    -1.1    -1.5    -1.1    -1.5
    -1.0    -1.5    -1.0    -1.5    -1.0    -1.5    -1.0    -1.4    -0.9    -1.4
    -0.9    -1.4    -0.8    -1.3    -0.8    -1.3    -0.7    -1.2    -0.7    -1.2
    -0.6    -1.1    -0.5    -1.0    -0.5    -1.0    -0.4    -0.9    -0.3    -0.8
    -0.2    -0.8    -0.1    -0.6    -0.1    -0.6     0.1    -0.5     0.1    -0.4
     0.3    -0.3     0.4    -0.2     0.5    -0.1     0.6     0.0     0.7     0.1
     0.9     0.2     1.0     0.4     1.2     0.5     1.3     0.6     1.4     0.8
     1.6     0.9     1.7     1.0     1.9     1.2     2.0     1.3     2.2     1.4
     2.3     1.6     2.5     1.7     2.7     1.9     2.8     2.0     3.0     2.2
     3.2     2.3     3.3     2.4     3.5     2.6     3.6     2.7     3.8     2.9
     4.0     3.0     4.1     3.1     4.3     3.3     4.5     3.4     4.6     3.5
     4.8     3.7     4.9     3.8     5.1     3.9     5.3     4.0     5.4     4.1
     5.5     4.2     5.7     4.3     5.8     4.4     6.0     4.5     6.1     4.6
     6.2     4.7     6.3     4.7     6.5     4.7     6.6     4.8     6.7     4.8
     6.8     4.9     6.9     4.9     7.0     4.9     7.1     4.9     7.0     4.7
     6.4     3.5     6.3     3.9     4.0     2.0    -0.7    -4.8    -3.1    -1.7
