Corrected accelerogram 20160214_001343_FDCS_20 GNS Science
Site FDCS      44 05 55S  170 49 43E     Basalt file:  20160214_001413_FDCS
Fairlie District Council Garage
Instrument Basalt_2416
Resolution: 24-bit   Instr Period: 0.0050 s   Damping: 0.700
Accelerogram 20160214_001343_FDCS_20                 Processed 2016 February 22
11 km east of CHRISTCHURCH
2016 February 14         00:13:43 UT
Epicentre  43 29 50S 172 45 18E  Bearing N67E  Dist  169km  Depth    8km M  5.70
Number of points  8192    Duration 163.82 sec
Instrument corrected data at 0.020 sec intervals
Band-pass filter transition bands are .10-.25 Hz and 24.50-25.50 Hz
Component N00E  Horizontal Axis 1
Acceleration:  peak    -36.0 mm/s/s at  67.00 sec     rms      4.5 mm/s/s
Velocity:      peak     5.17 mm/s   at  66.76 sec     rms     0.82 mm/s
Displacement:  peak   -1.301 mm     at  68.18 sec     rms    0.256 mm
    2016       2      14       0      13     430       0       0    2016       2
      43      29      50     172      45      18       8       0      14       0
      44       5      55     170      49      43       0       0      67     169
   31600     250     250    8192    8192    8192       0       0      13   33000
   200.0    0.70    0.00   0.000  0.0000   0.000   0.000   1.000     0.0    0.00
  44.099 170.829   43.50  172.76    5.70    0.00    0.00    0.00      0.      0.
  158.00    5.00    5.00  163.82  0.0050  0.0200      0.      0.      0.  9806.6
    35.9   66.38     4.6   0.000      0.   -36.0   67.00     4.5    60.1   1.065
    5.17   66.76    0.82    7.11   0.500   -1.30   68.18    0.26    1.59   0.500
   0.100   0.150   0.250      0.      0.  24.500   1.000  25.500      0.      0.
   0.000  -0.000   0.000  -0.000   0.000  -0.000   0.000  -0.000   0.000  -0.000
   0.000  -0.000   0.000  -0.000   0.000  -0.000   0.000  -0.000   0.000  -0.000
   0.000  -0.000   0.000  -0.000   0.000  -0.000   0.000  -0.000   0.000  -0.000
   0.000  -0.000   0.000  -0.000   0.000  -0.000   0.000  -0.000   0.000  -0.000
   0.000  -0.000   0.000  -0.000   0.000  -0.000   0.000  -0.000   0.000  -0.000
   0.000  -0.000   0.000  -0.000   0.000  -0.000   0.000  -0.000   0.000  -0.000
   0.000  -0.000   0.000  -0.000   0.000  -0.001   0.000  -0.001   0.000  -0.001
   0.000  -0.001   0.000  -0.001   0.000  -0.001   0.000  -0.001   0.000  -0.001
   0.000  -0.001   0.000  -0.001   0.000  -0.001   0.000  -0.001   0.000  -0.001
   0.000  -0.001   0.000  -0.001   0.000  -0.001   0.000  -0.001   0.000  -0.001
   0.000  -0.001   0.000  -0.001   0.000  -0.001   0.000  -0.001   0.000  -0.000
   0.000  -0.000   0.000  -0.000   0.000  -0.000   0.000  -0.000   0.000  -0.000
   0.000  -0.000   0.000  -0.000   0.000  -0.000   0.000  -0.000   0.000  -0.000
   0.000  -0.000   0.000  -0.000   0.000  -0.000   0.000  -0.000   0.000  -0.000
   0.000  -0.000   0.000  -0.000   0.000  -0.000   0.000  -0.000   0.000  -0.000
   0.000  -0.000   0.000  -0.000   0.001  -0.000   0.001  -0.000   0.001  -0.000
   0.001   0.000   0.001   0.000   0.001   0.000   0.001   0.000   0.001   0.000
   0.001   0.000   0.001   0.000   0.001   0.000   0.001   0.000   0.001   0.000
   0.001   0.000   0.001   0.000   0.001   0.000   0.001   0.000   0.001   0.001
   0.001   0.001   0.001   0.001   0.001   0.001   0.001   0.001   0.001   0.001
   0.001   0.001   0.001   0.001   0.001   0.001   0.001   0.001   0.001   0.001
   0.002   0.001   0.002   0.001   0.002   0.001   0.002   0.001   0.002   0.001
   0.002   0.001   0.002   0.001   0.002   0.001   0.002   0.001   0.002   0.001
   0.002   0.002   0.002   0.002   0.002   0.002   0.002   0.002   0.002   0.002
   0.002   0.002   0.002   0.002   0.002   0.003   0.001   0.003   0.000   0.006
  -0.025  -0.012  -0.005  -0.006  -0.006  -0.004   0.028   0.008   0.007  -0.030
  -0.015  -0.017  -0.000  -0.025  -0.031  -0.003   0.000  -0.007   0.007  -0.005
  -0.016   0.001  -0.006   0.000  -0.009   0.001  -0.008  -0.004  -0.007  -0.001
  -0.019   0.022   0.027   0.029   0.027  -0.003  -0.009   0.002   0.013   0.003
  -0.012   0.018   0.011   0.034  -0.053   0.036  -0.045  -0.022   0.003  -0.038
   0.001  -0.021   0.024  -0.028  -0.000  -0.008   0.024  -0.008   0.002  -0.000
   0.026   0.010   0.030  -0.011   0.011  -0.003  -0.007   0.020  -0.016   0.004
  -0.015   0.007  -0.013   0.012   0.011  -0.000  -0.014   0.035   0.016  -0.011
   0.022   0.001  -0.037   0.008  -0.028  -0.039   0.027   0.003  -0.008  -0.001
  -0.008   0.009   0.005   0.023   0.023   0.000   0.011  -0.019   0.032  -0.041
   0.010  -0.017   0.036  -0.000  -0.014  -0.001   0.026  -0.026  -0.012  -0.005
   0.001  -0.011   0.029  -0.013   0.036  -0.002  -0.013  -0.006   0.035  -0.018
   0.012   0.009  -0.032  -0.021  -0.007   0.001  -0.008   0.000   0.022   0.003
   0.024  -0.013  -0.011   0.018   0.017  -0.024  -0.003  -0.013  -0.012   0.008
   0.057  -0.030  -0.019  -0.007   0.026  -0.012   0.007  -0.033   0.008  -0.036
   0.007  -0.005  -0.007  -0.007   0.061   0.005  -0.016   0.032  -0.019   0.007
  -0.010   0.003   0.026  -0.031   0.003   0.018   0.017  -0.012   0.006   0.020
   0.013  -0.030  -0.006   0.035   0.001   0.007  -0.031  -0.027  -0.005   0.021
   0.009  -0.002   0.002   0.009  -0.009  -0.050  -0.031   0.033   0.008   0.032
  -0.011  -0.000   0.032  -0.057  -0.001   0.012  -0.004   0.003   0.005   0.021
  -0.018   0.009  -0.007   0.009  -0.031   0.021   0.009  -0.002   0.007   0.010
  -0.029   0.023   0.011  -0.008  -0.002   0.014  -0.005   0.014  -0.009   0.015
  -0.014   0.027  -0.055   0.012  -0.006   0.008  -0.032  -0.004  -0.013   0.010
  -0.010   0.009   0.021  -0.007   0.014  -0.005  -0.017  -0.012  -0.010  -0.014
   0.003   0.031  -0.037  -0.016   0.017  -0.008   0.018  -0.012  -0.013   0.008
   0.050  -0.033  -0.022   0.027   0.037   0.001   0.004  -0.008   0.017   0.005
   0.013   0.012  -0.009   0.006  -0.015   0.022   0.010  -0.003   0.003  -0.028
   0.010   0.035  -0.019   0.000  -0.004  -0.017  -0.003   0.022   0.033  -0.033
   0.016   0.004  -0.020  -0.029  -0.017  -0.002   0.019   0.026  -0.010  -0.047
   0.011  -0.003   0.013  -0.038   0.018  -0.017   0.013  -0.035   0.023  -0.001
  -0.023  -0.024   0.021  -0.016  -0.024  -0.018  -0.011  -0.004  -0.003  -0.053
   0.029   0.006  -0.020  -0.004  -0.004   0.013  -0.021   0.047  -0.010  -0.013
   0.021  -0.030  -0.042   0.031   0.002   0.011   0.021   0.017   0.018  -0.015
   0.013   0.005  -0.039   0.001   0.027   0.015  -0.018  -0.001  -0.007   0.015
   0.015   0.007   0.027   0.010   0.001   0.035   0.011   0.016  -0.028  -0.017
   0.013   0.011   0.001   0.057  -0.035   0.034   0.035  -0.009  -0.017  -0.010
   0.013   0.007   0.004  -0.042   0.061  -0.006  -0.051   0.010  -0.003  -0.005
  -0.015   0.006   0.025  -0.012  -0.015  -0.001  -0.017   0.029  -0.002  -0.031
   0.011   0.014   0.018   0.009   0.012  -0.006  -0.005  -0.032  -0.007   0.013
  -0.032   0.027  -0.009   0.019  -0.022   0.008   0.001  -0.039   0.033   0.025
  -0.019  -0.014   0.056  -0.019  -0.031  -0.003   0.005   0.018  -0.019   0.031
  -0.034   0.003  -0.014   0.028  -0.018  -0.010  -0.013   0.012  -0.020   0.024
  -0.018   0.005  -0.029  -0.009   0.024   0.014  -0.017  -0.032   0.017   0.004
  -0.009  -0.034  -0.006  -0.006  -0.002  -0.033   0.007   0.035  -0.000  -0.015
   0.048  -0.021   0.006  -0.015   0.011  -0.003  -0.022   0.029   0.001  -0.034
   0.028  -0.008  -0.001  -0.008  -0.001   0.040  -0.001  -0.029   0.008   0.046
  -0.025  -0.010   0.033   0.002   0.007   0.012  -0.010  -0.043   0.032  -0.019
   0.028   0.005   0.051  -0.026  -0.020   0.008   0.008   0.017  -0.002  -0.020
  -0.021   0.022   0.039  -0.019   0.016   0.002  -0.009  -0.005   0.025   0.003
   0.025   0.012   0.015  -0.039   0.024  -0.004  -0.003  -0.010   0.024  -0.003
  -0.020   0.009  -0.022  -0.028  -0.042   0.035  -0.033  -0.012   0.004  -0.022
   0.042   0.037  -0.018  -0.010   0.019   0.028  -0.037  -0.007  -0.005   0.002
   0.035  -0.017   0.022  -0.016  -0.047  -0.038   0.027   0.015  -0.004  -0.002
   0.057  -0.032   0.030   0.015  -0.045  -0.038   0.015  -0.011   0.016  -0.003
  -0.022  -0.025   0.004   0.024  -0.005  -0.011  -0.022   0.008  -0.011   0.021
   0.002  -0.082  -0.037   0.075  -0.050  -0.016   0.054  -0.051  -0.022   0.033
   0.047  -0.010  -0.061  -0.026   0.046   0.028  -0.086   0.007   0.044   0.015
   0.007  -0.019   0.039   0.002   0.044  -0.047  -0.032  -0.020   0.029  -0.007
  -0.014  -0.016   0.024   0.027  -0.004   0.061  -0.017   0.017  -0.012   0.005
   0.006   0.026   0.016  -0.006  -0.033   0.012   0.017   0.013   0.013   0.009
   0.018   0.009  -0.028   0.003  -0.008  -0.008  -0.014   0.025  -0.022   0.038
   0.001  -0.016   0.019  -0.018  -0.015   0.015   0.033  -0.009   0.023   0.032
  -0.063   0.062   0.001  -0.031   0.055  -0.032  -0.040   0.001   0.038  -0.041
   0.003   0.008  -0.029   0.029   0.029  -0.037   0.016   0.048  -0.041  -0.017
   0.039  -0.058   0.009   0.015  -0.022  -0.039   0.049  -0.007  -0.033   0.044
   0.012  -0.057   0.080  -0.066  -0.010  -0.018  -0.020   0.006   0.033  -0.031
  -0.006   0.023  -0.029  -0.033  -0.032   0.011   0.018   0.032  -0.021   0.035
  -0.032   0.022   0.001  -0.047   0.026   0.030  -0.005   0.019   0.015  -0.003
   0.018   0.037  -0.023   0.013   0.056  -0.032   0.010  -0.002  -0.005  -0.005
  -0.047  -0.001   0.047  -0.034   0.034   0.025  -0.064   0.067  -0.043  -0.004
  -0.006  -0.008   0.030  -0.035   0.020  -0.010  -0.014   0.019   0.029  -0.050
   0.055  -0.057   0.034  -0.048   0.032   0.042  -0.014   0.024  -0.060   0.041
  -0.023  -0.032   0.003  -0.025  -0.009   0.004   0.041  -0.018  -0.007   0.022
  -0.022  -0.019   0.013  -0.019  -0.011  -0.020  -0.026  -0.018  -0.020  -0.025
   0.027  -0.052  -0.017   0.000   0.006  -0.012   0.018  -0.021   0.023   0.004
  -0.035   0.021  -0.055   0.047  -0.054   0.029   0.025  -0.023   0.003   0.074
  -0.065  -0.004  -0.003   0.055  -0.016   0.008   0.053  -0.049   0.072  -0.038
   0.015  -0.026   0.053  -0.018   0.018  -0.036   0.048  -0.010   0.024   0.026
  -0.026   0.037   0.013  -0.031   0.008  -0.014  -0.026   0.046   0.018  -0.030
   0.038  -0.005  -0.027  -0.015   0.028   0.008  -0.006  -0.002   0.020  -0.051
   0.020   0.052  -0.067  -0.003   0.045  -0.017   0.018   0.039  -0.023   0.005
   0.006   0.016  -0.012   0.006  -0.009  -0.007   0.012   0.030  -0.033   0.042
   0.015  -0.017  -0.058   0.050   0.005   0.000   0.022   0.011  -0.027   0.025
  -0.045  -0.006   0.012   0.028   0.003  -0.002  -0.017   0.016   0.025  -0.024
  -0.022  -0.023   0.044  -0.015   0.009   0.007  -0.011  -0.011   0.020  -0.014
  -0.010  -0.009   0.040   0.040  -0.038  -0.004   0.012   0.030  -0.014   0.003
   0.022   0.026   0.035   0.015   0.013  -0.025   0.051   0.007  -0.024  -0.006
   0.000  -0.009   0.022  -0.006  -0.026  -0.042   0.050   0.004  -0.073  -0.029
   0.041  -0.001   0.022  -0.028  -0.038  -0.010   0.001   0.016  -0.026   0.025
   0.005  -0.045   0.004   0.030  -0.055   0.002  -0.013  -0.013  -0.000  -0.010
  -0.019   0.001   0.019   0.018  -0.042  -0.010   0.030   0.002  -0.068  -0.025
  -0.031   0.043  -0.013  -0.009  -0.046   0.007  -0.006   0.023   0.012  -0.020
  -0.018   0.001   0.059  -0.012  -0.024  -0.059   0.039   0.008  -0.024  -0.018
  -0.008   0.041  -0.000  -0.067   0.017   0.026  -0.091   0.039  -0.032  -0.013
  -0.012   0.048  -0.013  -0.012   0.004  -0.008  -0.032   0.038   0.001  -0.019
  -0.020   0.026   0.040  -0.023   0.010   0.013  -0.006   0.007  -0.023  -0.007
   0.009   0.046  -0.002  -0.002   0.015  -0.044   0.007   0.020   0.010  -0.029
  -0.029   0.040   0.026  -0.032   0.022   0.041  -0.004  -0.029  -0.000  -0.011
   0.027   0.060  -0.061   0.021   0.024  -0.049   0.080  -0.004  -0.074   0.068
  -0.012  -0.070   0.058   0.014  -0.006   0.009  -0.050   0.010   0.045  -0.068
   0.037   0.008  -0.032   0.039  -0.002   0.013   0.043  -0.057   0.074   0.015
  -0.048   0.077   0.024  -0.088   0.093  -0.024  -0.052   0.055  -0.013  -0.028
   0.049  -0.028   0.027   0.052  -0.004   0.062  -0.018  -0.005   0.034  -0.009
  -0.034   0.022  -0.005   0.011   0.014   0.022  -0.031   0.010   0.006  -0.021
   0.027  -0.036  -0.021   0.058  -0.043  -0.023   0.056  -0.036  -0.007   0.058
  -0.059   0.010   0.039  -0.017  -0.001   0.057  -0.030  -0.053  -0.009  -0.008
   0.025  -0.056   0.018   0.026  -0.044   0.050  -0.009  -0.007   0.017  -0.012
   0.012  -0.013  -0.050   0.065  -0.001  -0.001   0.062  -0.037   0.006   0.022
  -0.013  -0.033  -0.012   0.020  -0.034  -0.006  -0.001   0.020  -0.007  -0.003
  -0.005  -0.003   0.000   0.001  -0.006  -0.029   0.011  -0.011   0.017  -0.038
  -0.011  -0.006   0.007   0.021  -0.029  -0.032   0.013   0.068  -0.065  -0.015
  -0.027   0.007  -0.036   0.028  -0.018  -0.018   0.017   0.010   0.002  -0.016
  -0.002  -0.004  -0.029  -0.005  -0.010   0.018  -0.023  -0.006  -0.003   0.010
   0.042  -0.021   0.006   0.027  -0.002  -0.013  -0.011  -0.009   0.059  -0.024
   0.019   0.035  -0.072  -0.026   0.071  -0.038   0.021   0.057  -0.059   0.027
  -0.001   0.007  -0.023   0.007   0.001   0.026  -0.021   0.001   0.023  -0.063
   0.015   0.034  -0.001  -0.030   0.076   0.012  -0.012   0.025  -0.040   0.008
   0.044  -0.012  -0.048   0.006  -0.002   0.012  -0.028   0.023   0.008  -0.004
  -0.003  -0.000  -0.003  -0.002   0.048  -0.001  -0.060   0.011  -0.004  -0.004
  -0.010   0.004  -0.005  -0.000   0.002  -0.019  -0.005  -0.001  -0.015  -0.001
   0.007  -0.011   0.025  -0.011   0.015   0.016   0.020  -0.025  -0.018  -0.000
  -0.020  -0.040  -0.001   0.003  -0.004   0.002  -0.004   0.016  -0.045   0.019
  -0.008   0.038  -0.008   0.026  -0.024  -0.007   0.001  -0.013  -0.032   0.007
  -0.002  -0.036   0.021   0.039  -0.042  -0.026   0.005   0.040  -0.036   0.018
   0.068  -0.027  -0.017   0.039   0.043  -0.042   0.034   0.035   0.006  -0.027
   0.001  -0.003  -0.017  -0.030   0.020   0.009   0.020   0.018   0.017  -0.013
  -0.012   0.059   0.018  -0.040   0.016   0.015  -0.027   0.027   0.048  -0.070
  -0.072   0.064  -0.010   0.003   0.020  -0.030  -0.015   0.051   0.054  -0.012
  -0.078   0.010   0.070  -0.017  -0.017   0.032  -0.021  -0.042   0.077   0.030
  -0.064  -0.039   0.012   0.028   0.049  -0.012  -0.029   0.033  -0.115   0.044
   0.050  -0.090   0.002   0.052  -0.036   0.052   0.048  -0.058  -0.022   0.068
  -0.093  -0.020   0.058  -0.065   0.055   0.039  -0.016  -0.023   0.001  -0.013
  -0.042   0.007  -0.012   0.004  -0.018   0.034  -0.014  -0.035  -0.001   0.021
  -0.066   0.033   0.003  -0.028   0.064   0.013  -0.043  -0.005  -0.015   0.023
  -0.034   0.050  -0.042  -0.006   0.075  -0.044   0.039  -0.009  -0.059   0.028
   0.039  -0.080   0.019  -0.040   0.050   0.048  -0.006  -0.003  -0.029   0.004
   0.051   0.016  -0.021  -0.008  -0.012   0.017   0.019  -0.010  -0.011   0.018
   0.015   0.013   0.016  -0.037   0.016   0.033  -0.015   0.022  -0.013   0.014
   0.041  -0.062   0.010  -0.016   0.025   0.060  -0.020  -0.046  -0.019   0.061
   0.014  -0.012  -0.017  -0.001   0.043   0.015   0.065  -0.052  -0.048   0.016
   0.013  -0.033   0.011   0.010  -0.018   0.036   0.000  -0.032  -0.019  -0.003
  -0.023   0.002  -0.026  -0.001  -0.006   0.001   0.027   0.014  -0.040   0.017
  -0.004   0.000   0.004  -0.031  -0.006   0.018   0.005  -0.011  -0.009   0.026
  -0.024   0.011  -0.068   0.015  -0.010  -0.007   0.014  -0.002   0.007   0.000
   0.000  -0.011  -0.020   0.017  -0.012   0.031   0.036   0.007  -0.002   0.003
   0.024  -0.004   0.023  -0.013   0.006  -0.011   0.006  -0.024  -0.015   0.014
   0.027  -0.034  -0.017   0.016  -0.026   0.007   0.005   0.011  -0.046  -0.002
   0.021  -0.024   0.004  -0.002   0.021   0.010  -0.034   0.000  -0.005   0.008
   0.002  -0.028   0.041  -0.049  -0.027   0.036  -0.015   0.012  -0.012   0.038
  -0.040  -0.030  -0.003   0.000   0.003  -0.020   0.030  -0.010   0.020   0.021
   0.018  -0.026  -0.001  -0.016   0.010   0.016   0.003  -0.021   0.022   0.015
   0.005  -0.001   0.028  -0.032  -0.013   0.025  -0.014  -0.029   0.006   0.007
  -0.035   0.000  -0.008   0.029  -0.008   0.002  -0.005   0.003  -0.011   0.005
  -0.010   0.002  -0.017   0.021  -0.031   0.023   0.017  -0.022  -0.001   0.004
  -0.024   0.007   0.008   0.011   0.006   0.013   0.003  -0.027   0.048  -0.018
   0.011  -0.006   0.012   0.021  -0.007   0.010   0.012   0.011  -0.017   0.019
   0.000  -0.008   0.001  -0.030   0.014   0.002   0.016  -0.027   0.018  -0.024
   0.054  -0.030  -0.014   0.008   0.003   0.007   0.020   0.023   0.041  -0.030
  -0.000   0.006   0.004  -0.017  -0.011   0.025  -0.018   0.003  -0.015   0.047
   0.012  -0.021  -0.010   0.020   0.012  -0.028  -0.009   0.020  -0.051   0.036
  -0.030  -0.010  -0.008   0.002  -0.004  -0.002  -0.004  -0.000  -0.006   0.039
  -0.034  -0.011   0.007   0.019  -0.043   0.022   0.002   0.006  -0.008   0.020
  -0.007   0.063  -0.032  -0.018  -0.000   0.049  -0.022  -0.000   0.029  -0.022
   0.029   0.004   0.021  -0.012   0.033  -0.017  -0.011   0.025  -0.018   0.002
  -0.014   0.007  -0.017   0.040  -0.011  -0.008   0.013  -0.036  -0.006   0.000
   0.015  -0.061   0.027   0.027   0.007   0.004  -0.025  -0.017   0.011  -0.023
  -0.034   0.019  -0.005   0.032   0.025  -0.054   0.021  -0.002  -0.020  -0.014
   0.035  -0.048   0.031   0.022  -0.051  -0.011   0.007   0.012   0.029  -0.008
  -0.025  -0.009   0.008  -0.015  -0.020  -0.011  -0.027  -0.001   0.029  -0.019
  -0.013   0.028   0.032  -0.032  -0.015   0.001   0.021  -0.008  -0.024  -0.045
   0.035  -0.018   0.022   0.016   0.030  -0.017   0.003  -0.018  -0.008  -0.006
  -0.008   0.028  -0.028   0.013   0.022  -0.004  -0.004  -0.013  -0.097   0.050
   0.013   0.008  -0.010  -0.013   0.004  -0.021  -0.008   0.031  -0.004  -0.005
   0.030  -0.017   0.054   0.020   0.043  -0.041   0.040  -0.023   0.014   0.036
  -0.008   0.011  -0.010  -0.038   0.033   0.083  -0.036  -0.003  -0.044   0.067
   0.019  -0.026  -0.007  -0.016   0.022   0.002  -0.022   0.045   0.046   0.016
  -0.047  -0.025   0.062   0.020   0.028  -0.021  -0.012  -0.015   0.038   0.038
   0.006  -0.031   0.002   0.011   0.018  -0.022   0.032  -0.001  -0.016   0.043
  -0.020  -0.003  -0.009  -0.003   0.010  -0.014  -0.019   0.010   0.022  -0.009
   0.003  -0.033   0.022   0.002  -0.020  -0.012  -0.034   0.027   0.024   0.006
  -0.035  -0.012  -0.002  -0.019   0.010   0.008   0.020  -0.008  -0.029  -0.026
   0.013  -0.042   0.016  -0.007   0.022   0.013   0.001   0.001  -0.030   0.021
  -0.008   0.023  -0.003  -0.056  -0.018   0.013  -0.031   0.002   0.016   0.019
  -0.043  -0.028  -0.011  -0.014  -0.007  -0.010  -0.069   0.003   0.000   0.016
  -0.020  -0.048   0.007  -0.010   0.010   0.006  -0.006   0.004  -0.020  -0.032
   0.008  -0.059  -0.003  -0.022  -0.017   0.038  -0.003  -0.022  -0.029  -0.003
   0.024  -0.016  -0.062   0.006   0.001  -0.039  -0.018  -0.009   0.016   0.041
  -0.044  -0.026   0.009   0.019  -0.001  -0.016  -0.032  -0.018  -0.029   0.015
  -0.004   0.012  -0.017  -0.023  -0.033   0.032  -0.054   0.043  -0.025  -0.010
  -0.023  -0.027   0.043  -0.032  -0.013   0.045   0.003   0.026   0.025  -0.008
  -0.075   0.065   0.022  -0.004  -0.054   0.012  -0.005   0.008  -0.039   0.011
   0.002   0.008   0.042   0.051  -0.008  -0.044  -0.033   0.100   0.044  -0.039
   0.016   0.046   0.069   0.075   0.023  -0.150  -0.030   0.090   0.077   0.050
   0.107   0.024   0.118   0.056  -0.140  -0.029   0.026  -0.095   0.009   0.019
   0.104   0.073   0.026   0.003  -0.007  -0.078   0.029   0.126  -0.031  -0.113
  -0.000   0.113  -0.002   0.004   0.030   0.067   0.142   0.058   0.012   0.104
  -0.162  -0.083  -0.032  -0.113  -0.039   0.228   0.077  -0.041   0.157  -0.169
   0.087   0.077  -0.307  -0.037   0.190   0.022  -0.004   0.100  -0.053   0.107
   0.039   0.033   0.076  -0.022  -0.005  -0.155   0.060  -0.029  -0.143   0.011
   0.049   0.092   0.248  -0.062   0.021  -0.045   0.034   0.107  -0.034   0.099
