Corrected accelerogram 20160214_001343_MNZS_20 GNS Science
Site MNZS      43 38 15S  172 58 26E     Basalt file:  20160214_001349_MNZS
Menzies Bay Banks Peninsula
Instrument Basalt_2030
Resolution: 24-bit   Instr Period: 0.0050 s   Damping: 0.700
Accelerogram 20160214_001343_MNZS_20                 Processed 2016 February 22
11 km east of CHRISTCHURCH
2016 February 14         00:13:43 UT
Epicentre  43 29 50S 172 45 18E  Bearing N49W  Dist   24km  Depth    8km M  5.70
Number of points  6700    Duration 133.98 sec
Instrument corrected data at 0.020 sec intervals
Band-pass filter transition bands are .10-.25 Hz and 24.50-25.50 Hz
Component N00E  Horizontal Axis 1
Acceleration:  peak   -474.7 mm/s/s at  45.54 sec     rms     34.3 mm/s/s
Velocity:      peak    37.08 mm/s   at  45.42 sec     rms     3.29 mm/s
Displacement:  peak   -6.705 mm     at  45.28 sec     rms    0.855 mm
    2016       2      14       0      13     430       0       0    2016       2
      43      29      50     172      45      18       8       0      14       0
      43      38      15     172      58      26       0       0     311      24
   24800     250     250    6700    6700    6700       0       0      13    9000
   200.0    0.70    0.00   0.000  0.0000   0.000   0.000   1.000     0.0    0.00
  43.637 172.974   43.50  172.76    5.70    0.00    0.00    0.00      0.      0.
  124.00    5.00    5.00  133.98  0.0050  0.0200      0.      0.      0.  9806.6
  -470.5   45.54    35.7   0.000      0.  -474.7   45.54    34.3   475.0   2.170
   37.08   45.42    3.29   47.49   0.998   -6.70   45.28    0.86    8.46   0.177
   0.100   0.150   0.250      0.      0.  24.500   1.000  25.500      0.      0.
     0.0    -0.0     0.0    -0.0     0.0    -0.0     0.0    -0.0     0.0    -0.0
     0.0    -0.0     0.0    -0.0     0.0    -0.0     0.0    -0.0     0.0    -0.0
     0.0    -0.0     0.0    -0.0     0.0    -0.0     0.0    -0.0     0.0    -0.0
     0.0    -0.0     0.0    -0.0     0.0    -0.0     0.0    -0.0     0.0    -0.0
     0.0    -0.0     0.0    -0.0     0.0    -0.0     0.0    -0.0     0.0    -0.0
     0.0    -0.0     0.0    -0.0     0.0    -0.0     0.0    -0.0     0.0    -0.0
     0.0    -0.0     0.0    -0.0     0.0    -0.0     0.0    -0.0     0.0    -0.0
     0.0    -0.0     0.0    -0.0     0.0    -0.0     0.0    -0.0     0.0    -0.0
     0.0    -0.0     0.0    -0.0     0.0    -0.0     0.0    -0.0     0.0    -0.0
     0.0    -0.0     0.0    -0.0     0.0    -0.0     0.0    -0.0     0.0    -0.0
     0.0    -0.0     0.0    -0.0     0.0    -0.0     0.0    -0.0     0.0    -0.0
     0.0    -0.0     0.0    -0.0     0.0    -0.0     0.0    -0.0     0.0    -0.0
     0.0    -0.0     0.0    -0.0     0.0    -0.0     0.0    -0.0     0.0    -0.0
     0.0    -0.0     0.0    -0.0     0.0    -0.0     0.0    -0.0     0.0    -0.0
     0.0    -0.0     0.0    -0.0     0.0    -0.0     0.0    -0.0     0.0    -0.0
     0.0    -0.0     0.0    -0.0     0.0    -0.0     0.0    -0.0     0.0    -0.0
     0.0    -0.0     0.0    -0.0     0.0    -0.0     0.0    -0.0     0.0    -0.0
     0.0    -0.0     0.0    -0.0     0.0    -0.0     0.0    -0.0     0.0    -0.0
     0.0    -0.0     0.0    -0.0     0.0    -0.0     0.0    -0.0     0.0    -0.0
     0.0    -0.0     0.0    -0.0     0.0    -0.0     0.0    -0.0     0.0    -0.0
     0.0    -0.0     0.0    -0.0     0.0    -0.0     0.0    -0.0     0.0    -0.0
     0.0    -0.0     0.0    -0.0     0.0    -0.0     0.0    -0.0     0.0    -0.0
     0.0    -0.0     0.0    -0.0     0.0     0.0     0.0     0.0     0.0     0.0
     0.0     0.0     0.0     0.0     0.0     0.0     0.0     0.0     0.0     0.0
     0.0     0.0     0.0     0.0     0.0     0.0     0.0     0.0     0.0     0.0
    -0.0    -0.0    -0.0    -0.0     0.0    -0.0    -0.0    -0.0    -0.0    -0.0
     0.0     0.0     0.0    -0.0    -0.0    -0.0    -0.0     0.0    -0.0    -0.0
     0.0    -0.0    -0.0    -0.0     0.0    -0.0    -0.0    -0.0    -0.0    -0.0
     0.0    -0.0     0.0    -0.0    -0.0    -0.0    -0.0     0.0     0.0    -0.0
    -0.0     0.0    -0.0    -0.0    -0.0     0.0    -0.0    -0.0     0.0    -0.0
     0.0    -0.0     0.0    -0.0    -0.0    -0.0     0.0     0.0     0.0    -0.0
     0.0    -0.0     0.0    -0.0     0.0    -0.0     0.0    -0.0     0.0    -0.0
    -0.0    -0.0     0.0     0.0     0.0     0.0    -0.0    -0.0     0.0    -0.0
     0.0     0.0     0.0    -0.0     0.0    -0.0    -0.0    -0.0    -0.0    -0.0
    -0.0     0.0     0.0     0.0    -0.0    -0.0    -0.0     0.0     0.0     0.0
    -0.0    -0.0    -0.0     0.0    -0.0    -0.0     0.0    -0.0     0.0     0.0
     0.0     0.0    -0.0    -0.0    -0.0    -0.0     0.0    -0.0    -0.0    -0.0
     0.0     0.0     0.0    -0.0    -0.0    -0.0     0.0    -0.0     0.0    -0.0
     0.0    -0.0    -0.0    -0.0    -0.0     0.0     0.0     0.0     0.0    -0.0
     0.0    -0.0     0.0     0.0     0.0    -0.0    -0.0     0.0     0.0    -0.0
     0.0     0.0     0.0    -0.0    -0.0     0.0    -0.0     0.0    -0.0     0.0
     0.0    -0.0     0.0    -0.0    -0.0    -0.0    -0.0    -0.0     0.0    -0.0
     0.0    -0.0     0.0    -0.0     0.0    -0.0     0.0    -0.0    -0.0     0.0
     0.0    -0.0    -0.0    -0.0    -0.0    -0.0     0.0     0.0     0.0    -0.0
    -0.0     0.0     0.0     0.0     0.0    -0.0    -0.0     0.0    -0.0    -0.0
     0.0     0.0     0.0    -0.0    -0.0    -0.0    -0.0     0.0     0.0     0.0
     0.0    -0.0    -0.0     0.0     0.0    -0.0     0.0    -0.0     0.0     0.0
     0.0     0.0     0.0    -0.0     0.0    -0.0     0.0    -0.0     0.0    -0.0
     0.0    -0.0    -0.0    -0.0    -0.0    -0.0     0.0    -0.0     0.0    -0.0
     0.0    -0.0    -0.0    -0.0    -0.0    -0.0     0.0    -0.0    -0.0     0.0
    -0.0    -0.0    -0.0     0.0     0.0    -0.0     0.0    -0.0     0.0    -0.0
     0.0    -0.0     0.0    -0.0     0.0    -0.0    -0.0     0.0     0.0     0.0
    -0.0    -0.0     0.0     0.0     0.0     0.0    -0.0    -0.0     0.0     0.0
     0.0     0.0    -0.0     0.0    -0.0     0.0    -0.0    -0.0     0.0    -0.0
     0.0    -0.0     0.0    -0.0     0.0    -0.0     0.0     0.0    -0.0    -0.0
    -0.0    -0.0     0.0     0.0     0.0    -0.0    -0.0    -0.0     0.0    -0.0
    -0.0    -0.0     0.0     0.0    -0.0    -0.0    -0.0    -0.0     0.0     0.0
     0.0    -0.0     0.0     0.0    -0.0    -0.0     0.0     0.0     0.0    -0.0
    -0.0    -0.0     0.0    -0.0     0.0     0.0     0.0    -0.0    -0.0     0.0
     0.1     0.0     0.0    -0.0     0.0     0.0     0.0     0.0    -0.0     0.0
     0.0     0.0    -0.0    -0.0     0.0     0.0    -0.0    -0.0    -0.0    -0.0
     0.0    -0.0     0.0     0.0    -0.0    -0.0    -0.0    -0.0     0.0    -0.0
     0.0     0.0     0.0    -0.0     0.0     0.0     0.0     0.0     0.0    -0.0
    -0.0    -0.0    -0.0     0.0     0.0    -0.0     0.0     0.0    -0.0    -0.0
    -0.0    -0.0     0.0    -0.0     0.0    -0.0    -0.0    -0.0    -0.0     0.0
    -0.0    -0.0    -0.0     0.0     0.0     0.0     0.0    -0.0    -0.0    -0.0
    -0.0     0.0     0.0     0.0    -0.0    -0.0     0.0     0.0     0.0     0.0
     0.0    -0.0    -0.0    -0.0    -0.0    -0.0    -0.0     0.0     0.0    -0.0
     0.0    -0.0     0.0     0.0     0.0     0.0     0.0     0.0     0.0    -0.0
    -0.0    -0.0     0.0    -0.0     0.0     0.0    -0.0    -0.0    -0.0    -0.0
     0.0    -0.0     0.0    -0.0    -0.0    -0.0     0.0    -0.0     0.0    -0.0
     0.0    -0.0     0.0     0.0     0.0    -0.0     0.0    -0.0     0.0    -0.0
     0.0     0.0     0.0    -0.0    -0.0    -0.0     0.0    -0.0     0.0    -0.0
    -0.0    -0.0    -0.0    -0.0     0.0    -0.0     0.0    -0.0    -0.0    -0.0
     0.0    -0.0     0.0    -0.0     0.0    -0.0    -0.0    -0.0    -0.0    -0.0
    -0.0     0.0     0.0     0.0    -0.0    -0.0     0.0    -0.0     0.0    -0.0
     0.0    -0.0     0.0    -0.0    -0.0     0.0     0.0     0.0     0.0    -0.0
     0.0    -0.0     0.0     0.0     0.0    -0.0    -0.0     0.0     0.0     0.0
     0.0     0.0    -0.0    -0.0     0.0    -0.0     0.0    -0.0     0.0    -0.0
    -0.0    -0.0     0.0    -0.0     0.0    -0.0    -0.0    -0.0     0.0    -0.0
    -0.0    -0.0     0.0    -0.0    -0.0    -0.0     0.0    -0.0     0.0     0.0
     0.0    -0.0     0.0     0.0     0.0    -0.0     0.0    -0.0    -0.0    -0.0
    -0.0    -0.0    -0.0     0.0    -0.0    -0.0     0.0     0.0    -0.0    -0.0
     0.0    -0.0     0.0     0.0    -0.0    -0.0    -0.0    -0.0     0.0    -0.0
     0.0    -0.0     0.0    -0.0     0.0    -0.0     0.0    -0.0     0.0     0.0
     0.0     0.0     0.0    -0.0     0.0     0.0     0.0     0.0     0.0    -0.0
     0.0     0.0     0.0    -0.0     0.0    -0.0     0.0    -0.0     0.0    -0.0
     0.0    -0.0     0.0     0.0    -0.0    -0.0     0.0    -0.0    -0.0    -0.0
     0.0    -0.0    -0.0     0.0    -0.0    -0.0    -0.0    -0.0     0.0    -0.0
     0.0     0.0     0.0    -0.0     0.0    -0.0    -0.0    -0.0     0.1     0.0
     0.0    -0.0     0.0    -0.0     0.0    -0.0     0.0    -0.0     0.0    -0.0
    -0.0    -0.0     0.0    -0.0     0.0     0.0    -0.0    -0.0    -0.0    -0.0
    -0.0    -0.0     0.1    -0.0     0.0    -0.0     0.0     0.0     0.0    -0.0
     0.0     0.0    -0.0    -0.0     0.0    -0.0     0.0     0.0    -0.0     0.0
     0.0    -0.0    -0.0    -0.0     0.0    -0.0     0.0     0.0     0.0    -0.0
    -0.0    -0.0     0.0    -0.0    -0.0     0.0    -0.0    -0.0     0.0     0.0
     0.0     0.0     0.0    -0.0     0.0    -0.0     0.0    -0.0     0.0    -0.0
     0.0     0.0     0.0    -0.0     0.0     0.0     0.0    -0.0     0.0    -0.0
    -0.0     0.0     0.0    -0.0     0.0    -0.0     0.0    -0.0     0.0    -0.0
     0.0     0.0     0.0    -0.0     0.0    -0.0     0.0     0.0     0.0    -0.0
    -0.0     0.0     0.0     0.0     0.0     0.0    -0.0    -0.0    -0.0    -0.0
    -0.0    -0.0     0.0    -0.0    -0.0    -0.0    -0.0     0.0    -0.0    -0.0
     0.0    -0.0     0.0    -0.0     0.0    -0.0     0.0    -0.0    -0.0    -0.0
     0.0    -0.0     0.0     0.0     0.0    -0.0     0.0    -0.0     0.0     0.0
     0.0    -0.0     0.0    -0.0    -0.0     0.0     0.0    -0.0    -0.0     0.0
    -0.0     0.0     0.0     0.0     0.0    -0.0    -0.0    -0.0     0.0    -0.0
    -0.0     0.0     0.0    -0.0     0.1    -0.0     0.0     0.0    -0.0    -0.0
    -0.0     0.0     0.0    -0.0    -0.0    -0.0     0.0     0.0     0.0    -0.0
     0.1    -0.0     0.0    -0.0     0.0    -0.0     0.0    -0.0    -0.0    -0.0
     0.0     0.0     0.0     0.0    -0.0    -0.0     0.0    -0.0     0.0    -0.0
     0.0     0.0     0.0    -0.1     0.1     0.0     0.0    -0.0     0.0    -0.0
     0.0    -0.0    -0.0     0.0     0.0    -0.0     0.0    -0.0     0.0     0.0
     0.0    -0.0     0.0    -0.0     0.0    -0.0    -0.0    -0.0     0.0    -0.0
    -0.0    -0.0    -0.0    -0.0    -0.0    -0.0    -0.0    -0.0     0.0    -0.0
     0.0    -0.0     0.0    -0.0     0.0    -0.0     0.0     0.0     0.0     0.0
    -0.0    -0.0    -0.0    -0.0     0.0     0.0     0.0    -0.0    -0.0    -0.0
     0.0    -0.0     0.0    -0.0     0.0    -0.0     0.0    -0.0    -0.0    -0.0
     0.0    -0.0    -0.0    -0.0     0.0    -0.0     0.0     0.0    -0.0     0.0
     0.0    -0.0     0.0    -0.0     0.0    -0.0     0.0    -0.0    -0.0    -0.0
     0.0    -0.0     0.0    -0.0     0.0    -0.0     0.0    -0.0     0.0    -0.0
    -0.0    -0.0    -0.0    -0.0    -0.0     0.0     0.0    -0.0     0.0    -0.0
     0.0     0.0     0.0     0.0     0.0    -0.0    -0.0    -0.0     0.0    -0.0
     0.0    -0.0     0.0    -0.0     0.0    -0.0     0.0    -0.0    -0.0    -0.0
     0.0    -0.0     0.0    -0.0    -0.0     0.0     0.0    -0.0     0.0    -0.0
     0.0    -0.0     0.0    -0.0    -0.0    -0.0    -0.0    -0.0     0.0     0.0
     0.0     0.0     0.0    -0.0     0.0    -0.0     0.0    -0.0     0.0    -0.0
     0.0     0.0     0.0     0.0     0.0    -0.0     0.0    -0.0     0.0    -0.0
     0.0    -0.0    -0.0    -0.0     0.1    -0.0     0.0    -0.0     0.0     0.0
    -0.0    -0.0    -0.0    -0.0     0.0    -0.0     0.0    -0.1     0.0    -0.0
     0.0    -0.0    -0.0     0.0     0.0     0.0    -0.0     0.0     0.0    -0.0
     0.0    -0.0     0.0    -0.0     0.0    -0.0     0.0    -0.0    -0.0    -0.0
     0.0    -0.0     0.0    -0.0     0.0    -0.0     0.0    -0.0     0.0    -0.0
     0.0    -0.0     0.0    -0.0     0.0    -0.0     0.0    -0.0     0.0    -0.0
     0.0    -0.0     0.0    -0.0    -0.0    -0.0     0.0    -0.0    -0.0    -0.0
    -0.0    -0.0     0.0    -0.0    -0.0    -0.0    -0.0    -0.0     0.0     0.0
     0.0    -0.0     0.0    -0.0    -0.0    -0.0     0.0    -0.0     0.0    -0.1
     0.0     0.0     0.0    -0.0     0.0    -0.0     0.0    -0.0     0.0    -0.0
     0.0    -0.0     0.0    -0.0     0.0    -0.0    -0.0     0.0    -0.0     0.0
     0.0    -0.0     0.0    -0.0     0.0    -0.0     0.0    -0.0     0.0    -0.0
     0.0    -0.0     0.0     0.0    -0.0    -0.0    -0.0    -0.0     0.0    -0.0
     0.0    -0.0    -0.0    -0.0     0.0    -0.0     0.1     0.0     0.0     0.0
     0.0    -0.0     0.0    -0.0     0.0    -0.0     0.0    -0.0     0.0     0.0
    -0.0     0.0     0.0     0.0     0.0    -0.0     0.0    -0.0     0.0    -0.0
     0.0     0.0    -0.0     0.0     0.0    -0.0     0.0    -0.0     0.0    -0.0
     0.0    -0.0     0.0    -0.0     0.0    -0.0     0.0    -0.0    -0.0     0.0
     0.0    -0.0     0.0    -0.0     0.0    -0.0     0.0    -0.0    -0.0    -0.0
     0.0    -0.0     0.1    -0.0     0.0    -0.0     0.0    -0.0     0.0    -0.0
     0.0    -0.0     0.0    -0.0     0.0    -0.0     0.0     0.0     0.0     0.0
    -0.0     0.0     0.1    -0.0     0.0    -0.0     0.0    -0.0     0.0    -0.0
     0.0    -0.0    -0.0     0.0     0.0     0.0    -0.0    -0.0    -0.0    -0.0
     0.0     0.0     0.0    -0.0    -0.0     0.0     0.0     0.0     0.0    -0.0
     0.0    -0.0     0.0    -0.0     0.0    -0.0     0.0    -0.0     0.0    -0.0
     0.0    -0.0     0.0     0.0     0.0     0.0     0.0    -0.0     0.0     0.0
     0.0    -0.0     0.0    -0.0     0.0    -0.0    -0.0    -0.0     0.0    -0.0
     0.0    -0.0     0.0    -0.0     0.0    -0.0     0.0    -0.0     0.0    -0.0
     0.0    -0.0    -0.0     0.0    -0.0    -0.0     0.0    -0.0     0.0     0.0
     0.0    -0.0    -0.0     0.0    -0.0    -0.0     0.1    -0.0     0.0    -0.0
    -0.0    -0.0     0.0    -0.0     0.0    -0.0    -0.0    -0.0     0.0    -0.0
    -0.0     0.0     0.0    -0.0     0.0    -0.1     0.0    -0.0     0.0    -0.0
     0.0    -0.0    -0.0    -0.0     0.0    -0.0     0.0    -0.0     0.0    -0.0
     0.0     0.0     0.0    -0.0     0.0    -0.0     0.0    -0.0     0.0    -0.0
     0.0    -0.0     0.0    -0.0     0.0    -0.0    -0.0    -0.0     0.0    -0.0
     0.0    -0.0     0.0    -0.0    -0.0    -0.0     0.0    -0.0     0.0    -0.0
     0.0    -0.0     0.0    -0.0     0.0    -0.0     0.0    -0.0     0.0    -0.0
     0.0     0.0     0.0    -0.0     0.0    -0.0     0.0     0.0     0.0     0.0
     0.0     0.0     0.0     0.0     0.0    -0.0     0.0     0.0     0.0    -0.0
     0.0    -0.0     0.0    -0.0     0.0    -0.0     0.0    -0.0     0.0    -0.0
     0.0     0.0     0.0    -0.0     0.0    -0.0     0.0    -0.0     0.0    -0.0
     0.0    -0.0     0.0    -0.0     0.0     0.0     0.0     0.0     0.0    -0.0
    -0.0    -0.0     0.0    -0.0     0.0    -0.0     0.0    -0.0     0.0    -0.0
     0.0    -0.0     0.1    -0.0     0.0     0.0     0.0    -0.0     0.0    -0.0
     0.0    -0.0     0.0    -0.0     0.0    -0.0     0.0     0.0     0.0    -0.0
     0.0    -0.0     0.0    -0.0     0.0    -0.0     0.0    -0.0     0.0    -0.0
     0.0    -0.0    -0.0    -0.0     0.0    -0.0     0.0    -0.0     0.0    -0.1
     0.0    -0.0     0.0    -0.0     0.0    -0.1     0.0    -0.1     0.0    -0.1
     0.0    -0.0     0.0    -0.1     0.0    -0.0    -0.0    -0.0     0.0    -0.1
     0.0    -0.0     0.0    -0.0     0.0    -0.0    -0.0    -0.0     0.0    -0.1
    -0.0    -0.1     0.0    -0.1    -0.0    -0.1     0.0    -0.0    -0.0    -0.0
     0.0    -0.0     0.0    -0.0     0.0    -0.1     0.0    -0.0     0.0    -0.1
    -0.0    -0.0    -0.0    -0.1    -0.0    -0.0    -0.0    -0.0    -0.0    -0.1
     0.0    -0.0    -0.0    -0.1     0.0    -0.0     0.0    -0.0    -0.0    -0.1
     0.0    -0.1     0.0    -0.0     0.0    -0.0     0.0    -0.0    -0.0    -0.0
     0.0    -0.0     0.0    -0.0     0.0    -0.0     0.0    -0.0     0.0    -0.0
    -0.0    -0.0    -0.0    -0.0     0.0    -0.0     0.0    -0.0     0.0    -0.0
     0.0    -0.0     0.0    -0.0     0.0    -0.0     0.0    -0.0     0.0    -0.0
     0.0    -0.0     0.0    -0.0     0.0    -0.0     0.0    -0.0     0.0    -0.0
     0.0    -0.0     0.0    -0.0     0.0    -0.0     0.0    -0.0     0.0     0.0
     0.0    -0.0     0.0    -0.0     0.0     0.0     0.0    -0.0     0.0    -0.0
     0.1    -0.0     0.0    -0.1     0.0    -0.0     0.0    -0.0     0.0    -0.0
     0.0    -0.0     0.0    -0.1     0.1    -0.0     0.0    -0.0     0.0    -0.0
     0.0    -0.0     0.0    -0.0     0.0    -0.1     0.0    -0.0     0.0    -0.0
     0.1    -0.0     0.0    -0.1     0.1    -0.0     0.0    -0.0     0.0    -0.0
     0.0    -0.0    -0.0    -0.0     0.0    -0.1     0.0    -0.0     0.0    -0.0
     0.0    -0.0     0.0    -0.0     0.0    -0.1     0.0    -0.1    -0.0    -0.1
    -0.0    -0.0     0.0    -0.0     0.0    -0.1    -0.0    -0.1    -0.0    -0.0
    -0.0    -0.1    -0.0    -0.1    -0.0    -0.1    -0.0    -0.1     0.0    -0.1
     0.0    -0.1    -0.0    -0.1    -0.0    -0.1    -0.0    -0.1    -0.0    -0.1
    -0.0    -0.1    -0.0    -0.1    -0.0    -0.0    -0.0    -0.1     0.0    -0.1
     0.0    -0.1    -0.0    -0.1     0.0    -0.1    -0.0    -0.1    -0.0    -0.1
    -0.0    -0.1     0.0    -0.1     0.0    -0.1     0.0    -0.1    -0.0    -0.1
     0.0    -0.0     0.0    -0.1     0.1    -0.1     0.0    -0.0     0.1     0.0
     0.1     0.0     0.1    -0.0     0.0    -0.0     0.1     0.0     0.1    -0.0
     0.1    -0.0     0.1     0.0     0.1     0.0     0.1     0.0     0.1     0.0
     0.1     0.0     0.1     0.1     0.1     0.1     0.1     0.1     0.2     0.1
     0.2     0.1     0.2     0.1     0.2     0.1     0.2     0.1     0.2     0.1
     0.2     0.2     0.2     0.2     0.2     0.2     0.2     0.2     0.3     0.2
     0.3     0.2     0.3     0.2     0.3     0.2     0.3     0.2     0.3     0.2
     0.4     0.3     0.4     0.2     0.4     0.3     0.4     0.3     0.3     0.3
     0.4     0.3     0.4     0.3     0.4     0.3     0.4     0.3     0.4     0.3
     0.4     0.3     0.4     0.3     0.4     0.3     0.4     0.3     0.4     0.3
     0.4     0.3     0.4     0.3     0.4     0.3     0.4     0.3     0.4     0.3
     0.4     0.3     0.4     0.3     0.3     0.3     0.4     0.3     0.4     0.3
     0.4     0.2     0.3     0.2     0.3     0.2     0.3     0.2     0.3     0.2
     0.3     0.2     0.3     0.1     0.3     0.1     0.2     0.1     0.2     0.1
     0.2     0.1     0.2     0.0     0.2    -0.0     0.1    -0.1     0.1    -0.1
     0.0    -0.1     0.0    -0.1    -0.0    -0.2    -0.0    -0.2    -0.1    -0.3
    -0.1    -0.3    -0.2    -0.3    -0.2    -0.4    -0.2    -0.4    -0.3    -0.5
    -0.3    -0.5    -0.4    -0.5    -0.4    -0.6    -0.4    -0.6    -0.5    -0.7
    -0.5    -0.7    -0.6    -0.8    -0.6    -0.8    -0.7    -0.9    -0.7    -0.9
    -0.8    -1.0    -0.8    -1.0    -0.9    -1.1    -0.9    -1.1    -1.0    -1.2
    -1.0    -1.2    -1.1    -1.3    -1.1    -1.3    -1.2    -1.4    -1.2    -1.4
    -1.2    -1.5    -1.3    -1.5    -1.3    -1.6    -1.4    -1.6    -1.4    -1.7
    -1.4    -1.7    -1.5    -1.7    -1.5    -1.8    -1.5    -1.8    -1.5    -1.8
    -1.6    -1.9    -1.6    -1.9    -1.6    -2.0    -1.6    -2.0    -1.7    -2.0
    -1.7    -2.1    -1.7    -2.1    -1.7    -2.1    -1.7    -2.1    -1.7    -2.1
