Corrected accelerogram 20160214_001343_KARS_20 GNS Science
Site KARS      41 14 58S  172 06 59E     Basalt file:  20160214_001428_KARS
Karamea School
Instrument Basalt_1767
Resolution: 24-bit   Instr Period: 0.0050 s   Damping: 0.700
Accelerogram 20160214_001343_KARS_20                 Processed 2016 February 22
11 km east of CHRISTCHURCH
2016 February 14         00:13:43 UT
Epicentre  43 29 50S 172 45 18E  Bearing S12E  Dist  255km  Depth    8km M  5.70
Number of points  8192    Duration 163.82 sec
Instrument corrected data at 0.020 sec intervals
Band-pass filter transition bands are .10-.25 Hz and 24.50-25.50 Hz
Component N00E  Horizontal Axis 1
Acceleration:  peak    -14.3 mm/s/s at  75.64 sec     rms      2.2 mm/s/s
Velocity:      peak     3.16 mm/s   at  85.42 sec     rms     0.58 mm/s
Displacement:  peak   -1.357 mm     at  84.90 sec     rms    0.299 mm
    2016       2      14       0      13     430       0       0    2016       2
      43      29      50     172      45      18       8       0      14       0
      41      14      58     172       6      59       0       0     168     255
   31800     250     250    8192    8192    8192       0       0      13   48000
   200.0    0.70    0.00   0.000  0.0000   0.000   0.000   1.000     0.0    0.00
  41.249 172.116   43.50  172.76    5.70    0.00    0.00    0.00      0.      0.
  159.00    5.00    5.00  163.82  0.0050  0.0200      0.      0.      0.  9806.6
   -14.2   78.65     2.3   0.000      0.   -14.3   75.64     2.2    21.0   1.874
    3.16   85.42    0.58    5.31   0.284   -1.36   84.90    0.30    2.42   0.284
   0.100   0.150   0.250      0.      0.  24.500   1.000  25.500      0.      0.
   0.000  -0.000   0.000  -0.000   0.000  -0.000   0.000  -0.000   0.000  -0.000
   0.000  -0.000   0.000  -0.000   0.000  -0.000   0.000  -0.000   0.000  -0.000
   0.000  -0.000   0.000  -0.000   0.000  -0.000   0.000  -0.000   0.000  -0.000
   0.000  -0.000   0.000  -0.000   0.000  -0.000   0.000  -0.000   0.000  -0.000
  -0.000  -0.000  -0.000  -0.000  -0.000  -0.000  -0.000  -0.001  -0.000  -0.001
  -0.000  -0.001  -0.000  -0.001  -0.000  -0.001  -0.000  -0.001  -0.000  -0.001
  -0.000  -0.001  -0.000  -0.001  -0.000  -0.001  -0.000  -0.001  -0.000  -0.001
  -0.000  -0.001  -0.000  -0.001  -0.000  -0.001  -0.000  -0.001  -0.000  -0.001
  -0.000  -0.001  -0.000  -0.001  -0.000  -0.001  -0.000  -0.001  -0.000  -0.001
  -0.000  -0.001  -0.000  -0.001  -0.001  -0.001  -0.001  -0.001  -0.001  -0.001
  -0.001  -0.001  -0.001  -0.001  -0.001  -0.001  -0.001  -0.001  -0.001  -0.001
  -0.000  -0.001  -0.000  -0.001  -0.000  -0.001  -0.000  -0.001  -0.000  -0.001
  -0.000  -0.001  -0.000  -0.001  -0.000  -0.001  -0.000  -0.001  -0.000  -0.001
  -0.000  -0.001  -0.000  -0.001  -0.000  -0.001  -0.000  -0.001  -0.000  -0.001
  -0.000  -0.001  -0.000  -0.001  -0.000  -0.001   0.000  -0.001   0.000  -0.000
   0.000  -0.000   0.000  -0.000   0.000  -0.000   0.000  -0.000   0.000  -0.000
   0.000  -0.000   0.001  -0.000   0.001   0.000   0.001   0.000   0.001   0.000
   0.001   0.000   0.001   0.000   0.001   0.000   0.001   0.000   0.001   0.001
   0.001   0.001   0.001   0.001   0.002   0.001   0.002   0.001   0.002   0.001
   0.002   0.001   0.002   0.001   0.002   0.001   0.002   0.001   0.002   0.002
   0.003   0.002   0.003   0.002   0.003   0.002   0.003   0.002   0.003   0.002
   0.003   0.002   0.004   0.002   0.004   0.002   0.004   0.002   0.004   0.002
   0.004   0.003   0.004   0.003   0.005   0.003   0.005   0.003   0.005   0.003
   0.005   0.003   0.006   0.003   0.006   0.003   0.006   0.003   0.006   0.003
   0.007   0.003   0.007   0.003   0.007   0.003   0.007   0.003   0.007   0.005
  -0.004  -0.013   0.019  -0.047  -0.007  -0.006   0.000  -0.022  -0.021  -0.006
  -0.021  -0.020   0.000  -0.019   0.002  -0.020  -0.015   0.023  -0.014   0.004
  -0.015   0.019   0.005   0.013   0.007   0.008  -0.066   0.007  -0.022   0.016
   0.020   0.003   0.032  -0.003   0.021  -0.002  -0.011   0.015  -0.016   0.014
   0.007  -0.028   0.012  -0.021  -0.022   0.005  -0.012   0.008   0.003   0.009
   0.014  -0.020   0.010   0.005  -0.007   0.071  -0.002  -0.006  -0.034  -0.030
  -0.025  -0.012  -0.001   0.011  -0.055   0.007  -0.041  -0.010  -0.027   0.005
   0.031  -0.026   0.013   0.005  -0.014  -0.008   0.008   0.018   0.001  -0.003
   0.007   0.016   0.010   0.019  -0.024   0.004  -0.018  -0.003   0.039  -0.005
   0.014   0.016   0.013   0.003  -0.012   0.018  -0.007   0.003   0.014  -0.035
  -0.001  -0.013   0.024  -0.002   0.014   0.010   0.012   0.012   0.015  -0.019
  -0.001   0.012   0.014  -0.015  -0.017   0.013  -0.027  -0.006   0.017  -0.029
   0.011   0.012  -0.011   0.011  -0.035   0.013  -0.014   0.013   0.009   0.015
   0.024   0.013   0.017   0.013  -0.017   0.026  -0.036  -0.032   0.025  -0.038
   0.016   0.007   0.018   0.010  -0.005   0.022   0.001  -0.008   0.028  -0.012
  -0.016   0.016   0.002   0.001   0.005   0.021   0.004  -0.051   0.038  -0.017
  -0.033   0.006  -0.014   0.008  -0.010  -0.008   0.000  -0.039   0.007  -0.028
   0.055  -0.053   0.023  -0.031   0.031  -0.011   0.019  -0.020  -0.026   0.001
  -0.032   0.045  -0.030   0.063  -0.005  -0.019   0.008  -0.005   0.009   0.042
   0.018   0.033  -0.052   0.014  -0.013  -0.009   0.019   0.016   0.004   0.005
  -0.033   0.050  -0.015   0.018  -0.002  -0.044   0.017  -0.025   0.019   0.003
  -0.002  -0.001  -0.019   0.015   0.007  -0.024   0.004  -0.031  -0.011   0.031
  -0.014   0.038  -0.029  -0.005   0.005  -0.007   0.021  -0.021   0.009  -0.007
  -0.039   0.016  -0.005   0.021   0.010  -0.007   0.002  -0.026   0.005   0.044
  -0.007   0.036   0.001  -0.030   0.045  -0.049  -0.008  -0.023   0.015   0.025
  -0.022   0.042   0.016  -0.024  -0.020  -0.020   0.022   0.015   0.005   0.013
  -0.029   0.003  -0.016  -0.020   0.006  -0.023  -0.015   0.008  -0.030   0.016
  -0.017  -0.021  -0.002  -0.006   0.030  -0.016   0.045   0.060  -0.031   0.040
  -0.005  -0.011   0.038  -0.029   0.017  -0.018   0.008  -0.007  -0.032   0.022
  -0.009  -0.046   0.014  -0.032   0.041  -0.023   0.008  -0.001   0.018   0.017
   0.013  -0.014   0.009  -0.026   0.002  -0.018   0.011   0.022  -0.043   0.011
  -0.011  -0.026   0.007  -0.022  -0.007   0.014   0.010   0.024  -0.009  -0.003
  -0.019  -0.031   0.012  -0.017   0.022  -0.022  -0.021   0.027   0.028  -0.018
   0.011  -0.082   0.037   0.051  -0.075   0.079  -0.049   0.090  -0.002  -0.034
   0.047  -0.013   0.041   0.014  -0.015   0.094  -0.064   0.071  -0.020  -0.010
   0.037  -0.026   0.006  -0.001  -0.044   0.054  -0.021  -0.054   0.036  -0.030
   0.018   0.007  -0.000  -0.005   0.006   0.020  -0.008   0.002   0.039  -0.002
   0.015  -0.030  -0.038  -0.027   0.021  -0.007  -0.010   0.006   0.017   0.005
   0.022   0.004  -0.040   0.008   0.011   0.017  -0.004   0.005  -0.002  -0.027
   0.037  -0.025  -0.016   0.023  -0.041   0.002   0.004  -0.021  -0.002  -0.036
   0.014  -0.008  -0.001   0.020  -0.017   0.021   0.024  -0.020   0.008   0.003
   0.010   0.003   0.006   0.009  -0.028  -0.055   0.015  -0.004   0.043  -0.007
   0.030   0.024  -0.009  -0.002   0.018   0.009   0.013  -0.022   0.012  -0.036
  -0.035   0.024  -0.027   0.005   0.003   0.018   0.005  -0.015   0.017  -0.003
  -0.029   0.018  -0.016   0.019  -0.009  -0.047   0.037  -0.053  -0.004   0.011
   0.000   0.009   0.005   0.011  -0.002  -0.024   0.011   0.011   0.014   0.008
   0.016   0.007  -0.025   0.008   0.002  -0.019   0.035  -0.013  -0.005  -0.002
  -0.045  -0.008  -0.008  -0.012   0.004   0.010   0.034  -0.010   0.008  -0.009
  -0.030   0.013  -0.019   0.009   0.014  -0.032   0.013  -0.032  -0.007   0.016
  -0.030   0.001  -0.007  -0.005   0.016  -0.015  -0.000   0.018   0.011   0.026
  -0.002  -0.015   0.017  -0.023   0.028   0.002  -0.006  -0.014  -0.011   0.004
  -0.038  -0.001   0.009  -0.025  -0.017   0.029   0.001   0.022   0.004   0.021
  -0.017  -0.024   0.029  -0.004   0.001  -0.005   0.002   0.014  -0.009   0.002
  -0.015   0.006  -0.004  -0.010  -0.007   0.005   0.007   0.011   0.013   0.008
   0.011  -0.005   0.006   0.012  -0.010   0.011  -0.023   0.022  -0.009  -0.001
  -0.003  -0.018   0.003   0.009   0.003   0.008  -0.015   0.054  -0.021   0.011
   0.011   0.011   0.012  -0.018  -0.029  -0.002  -0.006   0.035   0.027  -0.009
   0.030  -0.034  -0.006   0.008   0.011   0.038   0.005   0.007   0.002  -0.035
  -0.013  -0.023  -0.010   0.019   0.001   0.020  -0.039  -0.013   0.038   0.008
   0.044  -0.005   0.050   0.006  -0.006   0.011  -0.012   0.012   0.005  -0.018
   0.020  -0.013  -0.020   0.017  -0.025   0.018  -0.039  -0.029   0.029   0.004
   0.035  -0.026  -0.029   0.035  -0.019   0.009  -0.003  -0.006   0.013  -0.004
  -0.001   0.013  -0.041   0.021  -0.010   0.002  -0.003  -0.021   0.011  -0.007
  -0.001  -0.001  -0.011  -0.000  -0.006   0.006  -0.005   0.009   0.013   0.009
   0.014   0.003   0.004   0.001  -0.034   0.010   0.004  -0.006   0.013  -0.015
   0.018   0.006  -0.007   0.024  -0.029  -0.011   0.021  -0.023   0.023  -0.015
   0.000   0.022  -0.016   0.031  -0.032  -0.016   0.004   0.010  -0.011  -0.010
  -0.009   0.025  -0.022  -0.007   0.002  -0.030   0.008  -0.017   0.024   0.005
   0.016  -0.013   0.011   0.012   0.002  -0.018  -0.002   0.013   0.011   0.012
  -0.024  -0.002  -0.011   0.001  -0.002  -0.021   0.031  -0.003   0.016   0.008
   0.010   0.009  -0.001  -0.010  -0.002  -0.054   0.022  -0.075  -0.004   0.005
  -0.008   0.008   0.023  -0.032   0.020  -0.045  -0.008   0.004   0.015  -0.013
  -0.052   0.016   0.005  -0.027   0.002  -0.009   0.030  -0.003   0.002   0.021
   0.004   0.019  -0.027   0.005  -0.022  -0.018   0.009   0.009   0.010   0.009
   0.015   0.010   0.018  -0.002   0.008  -0.000  -0.006   0.006  -0.038   0.013
  -0.006  -0.000   0.006   0.004   0.014  -0.017  -0.034  -0.001   0.015   0.007
  -0.001   0.004   0.037  -0.022   0.027  -0.038  -0.019   0.021  -0.026   0.006
  -0.029  -0.054   0.017  -0.000   0.036   0.024  -0.020   0.017  -0.019   0.001
   0.020   0.004   0.013  -0.029   0.006  -0.011  -0.013   0.020  -0.020   0.012
   0.033  -0.008   0.010   0.012   0.011   0.005   0.011   0.013  -0.001  -0.012
   0.033   0.010   0.016   0.004   0.031  -0.002  -0.036  -0.017  -0.041  -0.023
  -0.004  -0.003   0.010  -0.015   0.039  -0.012   0.001  -0.019   0.005   0.055
  -0.034   0.020  -0.001  -0.004  -0.003   0.006  -0.032   0.012  -0.005   0.008
   0.035  -0.017   0.039  -0.002   0.016   0.032  -0.003   0.031  -0.051   0.014
  -0.006  -0.005   0.029   0.015   0.017   0.026  -0.008   0.024  -0.001   0.002
  -0.004  -0.011   0.004   0.039   0.008   0.004  -0.044   0.003  -0.023  -0.006
   0.046  -0.046   0.056   0.020  -0.013  -0.005  -0.018  -0.015   0.014   0.001
   0.026   0.002   0.021   0.008   0.006   0.009  -0.006  -0.010   0.023  -0.002
   0.006  -0.033  -0.022  -0.002  -0.008   0.005  -0.014   0.013  -0.031  -0.015
   0.010  -0.013   0.006   0.024  -0.019   0.015  -0.026  -0.019  -0.024  -0.002
  -0.008   0.010   0.020   0.010  -0.008  -0.007  -0.035  -0.037  -0.026  -0.033
  -0.007   0.003  -0.005  -0.006   0.002   0.023  -0.001   0.012  -0.016   0.006
   0.009  -0.023  -0.010   0.007  -0.042   0.018  -0.025  -0.004  -0.006  -0.025
  -0.022  -0.005  -0.000   0.038  -0.019   0.006   0.024   0.003   0.078   0.008
  -0.016  -0.004  -0.031   0.035  -0.033   0.039   0.003  -0.000  -0.017  -0.010
  -0.050   0.003  -0.041   0.030  -0.026   0.021   0.030  -0.058   0.038  -0.013
   0.013   0.009   0.008   0.006   0.005  -0.010  -0.006  -0.041   0.036  -0.008
   0.014   0.020   0.025   0.001   0.012  -0.045  -0.032  -0.002   0.043   0.009
   0.028  -0.025  -0.039   0.061  -0.094   0.052  -0.024   0.042   0.060  -0.076
   0.049  -0.009  -0.031  -0.004  -0.024   0.087  -0.037   0.049   0.005  -0.023
  -0.026   0.025  -0.016   0.035  -0.001  -0.019   0.033  -0.036   0.030   0.029
   0.013   0.025  -0.003   0.030   0.011  -0.054  -0.001  -0.045   0.007   0.050
  -0.034   0.020  -0.014   0.006   0.019  -0.024   0.028   0.025   0.007   0.027
  -0.003  -0.025   0.010  -0.034  -0.004  -0.012   0.011   0.006  -0.039   0.020
  -0.035  -0.020   0.021   0.010   0.007  -0.023   0.025   0.012   0.015   0.009
  -0.027  -0.007   0.000  -0.017   0.021  -0.011  -0.020   0.011  -0.035  -0.031
   0.005   0.014   0.011   0.000   0.058  -0.004  -0.003   0.016  -0.031   0.008
  -0.010  -0.032  -0.011  -0.027  -0.003  -0.010  -0.016   0.022  -0.003   0.019
  -0.007   0.009   0.030  -0.011  -0.018   0.017   0.004   0.040   0.011   0.011
   0.010  -0.016   0.033  -0.020   0.014   0.023  -0.014   0.016  -0.022  -0.036
   0.011  -0.042   0.021  -0.024  -0.005   0.021  -0.029  -0.010  -0.016   0.015
  -0.001   0.010   0.023   0.004  -0.044   0.037  -0.022  -0.005   0.015  -0.035
  -0.002  -0.014   0.010   0.003   0.002   0.035  -0.058  -0.038   0.010  -0.023
   0.016   0.012   0.007   0.006   0.010  -0.038   0.021  -0.005   0.012  -0.017
   0.002  -0.010  -0.032   0.012  -0.032   0.018  -0.007  -0.007   0.006  -0.013
   0.037   0.002   0.009   0.012  -0.007  -0.003   0.033  -0.003  -0.023  -0.036
  -0.009  -0.003  -0.026   0.004  -0.000   0.032   0.010  -0.019   0.005  -0.029
   0.006   0.033  -0.015   0.044   0.002  -0.000   0.002  -0.005   0.044   0.002
   0.041   0.024  -0.002   0.003  -0.064  -0.037   0.031  -0.021   0.002   0.003
   0.011   0.001   0.017   0.022   0.024   0.012   0.011  -0.014  -0.001  -0.003
  -0.030   0.035  -0.001   0.046  -0.015   0.007   0.010   0.014   0.016   0.013
  -0.015   0.051   0.009  -0.002  -0.002  -0.040   0.027  -0.024  -0.010  -0.004
  -0.009   0.005   0.013   0.007   0.015   0.009   0.009  -0.002  -0.010   0.020
  -0.029   0.008  -0.017  -0.033   0.035  -0.008  -0.007  -0.028   0.001   0.019
   0.001   0.012  -0.007   0.005   0.034   0.021   0.004   0.000  -0.064   0.029
  -0.017  -0.028   0.005  -0.048   0.021  -0.001   0.008   0.011  -0.016   0.011
  -0.026  -0.021   0.006   0.004   0.014   0.008   0.012   0.010   0.016   0.012
  -0.010  -0.006   0.018   0.007   0.028  -0.004  -0.039   0.014  -0.007  -0.005
   0.010   0.010  -0.008  -0.048  -0.002   0.009   0.016   0.007   0.008  -0.003
   0.015  -0.021   0.023  -0.027  -0.039   0.001  -0.029   0.012  -0.021   0.002
   0.020  -0.049   0.031  -0.006  -0.051   0.017   0.002   0.031  -0.004  -0.002
   0.020  -0.036   0.008  -0.013  -0.041   0.007   0.012   0.007   0.006  -0.037
  -0.040   0.001  -0.010  -0.002  -0.041   0.005  -0.021   0.003   0.008   0.002
   0.021   0.025  -0.000  -0.024  -0.043   0.015  -0.015   0.006   0.004   0.005
   0.001  -0.005  -0.011   0.024  -0.014  -0.002  -0.003  -0.011   0.000  -0.047
  -0.007   0.003  -0.020   0.012   0.005   0.009  -0.004   0.017   0.024   0.005
   0.012  -0.001  -0.024   0.015  -0.006   0.021  -0.007  -0.023   0.022  -0.004
   0.016   0.003  -0.010   0.007   0.017  -0.016   0.014   0.011   0.011   0.001
   0.021   0.030   0.011   0.014  -0.032  -0.002  -0.001  -0.027   0.016   0.007
  -0.006   0.012   0.007   0.012  -0.000   0.008   0.006   0.005   0.012   0.010
   0.013   0.051   0.005  -0.012  -0.007   0.010   0.021  -0.005  -0.006   0.017
  -0.015   0.024  -0.040  -0.044   0.026  -0.055  -0.000   0.030   0.002   0.019
   0.007   0.011   0.002   0.010   0.015  -0.006  -0.005   0.017   0.005   0.017
  -0.015  -0.014  -0.015  -0.017   0.024  -0.042  -0.005   0.025  -0.016   0.018
  -0.021   0.011   0.006   0.009   0.009  -0.012  -0.009   0.015  -0.002   0.011
  -0.006  -0.008   0.017  -0.006   0.017   0.012  -0.045   0.035  -0.016   0.001
  -0.020  -0.024   0.032  -0.045   0.001   0.005  -0.010   0.021  -0.025   0.028
  -0.025  -0.001   0.066   0.002   0.047  -0.030  -0.014   0.014  -0.075   0.056
   0.008   0.002   0.003   0.032   0.003  -0.030   0.034   0.042  -0.007  -0.000
   0.007  -0.021   0.031   0.000  -0.019  -0.043   0.004   0.007  -0.028   0.030
   0.014  -0.009   0.008  -0.025   0.010  -0.008   0.001   0.035   0.002  -0.001
   0.004  -0.042   0.049  -0.005   0.013   0.014  -0.020  -0.012  -0.006  -0.022
   0.003   0.005   0.012  -0.001  -0.032   0.036  -0.028  -0.002  -0.017   0.022
   0.021  -0.004   0.030   0.026  -0.049   0.008  -0.004   0.022   0.008  -0.004
   0.005  -0.017   0.010  -0.052   0.043   0.007  -0.023   0.000  -0.025  -0.020
   0.039  -0.032   0.041  -0.018  -0.018   0.032   0.005   0.028  -0.013  -0.016
   0.009  -0.038  -0.018   0.021  -0.015   0.038   0.025  -0.029   0.012  -0.030
   0.037  -0.034  -0.031  -0.006  -0.045   0.010  -0.043   0.019   0.017  -0.000
   0.036   0.002  -0.016  -0.010  -0.011   0.005  -0.043  -0.045   0.022  -0.022
   0.018  -0.003   0.004  -0.025  -0.035   0.001  -0.017  -0.005   0.016  -0.008
   0.017  -0.029  -0.007  -0.037  -0.023   0.029  -0.035   0.005   0.030  -0.019
   0.012   0.009   0.015   0.037   0.003   0.009  -0.038  -0.033  -0.028  -0.075
   0.014  -0.035  -0.025   0.026  -0.005  -0.023  -0.009  -0.060  -0.024   0.013
  -0.023   0.059  -0.085  -0.041   0.082  -0.088   0.017  -0.039   0.050  -0.011
  -0.051   0.021   0.000   0.016   0.001  -0.058   0.078  -0.067   0.006   0.011
  -0.025   0.035  -0.044   0.024   0.001   0.024   0.017  -0.005  -0.042   0.048
  -0.047  -0.013   0.009   0.004   0.009   0.007   0.010   0.007  -0.033  -0.011
   0.044   0.002   0.012  -0.003   0.019  -0.024   0.016  -0.009  -0.008   0.043
  -0.008   0.009  -0.010  -0.007   0.010  -0.018   0.044  -0.001   0.026   0.040
   0.001   0.023  -0.004   0.020   0.041   0.003   0.004  -0.020  -0.000   0.002
  -0.044   0.022   0.027  -0.001   0.042   0.022   0.102   0.091   0.057   0.095
   0.004   0.037   0.021   0.009   0.039   0.034   0.035   0.012  -0.028   0.043
   0.020   0.060   0.045   0.023   0.072   0.026   0.027   0.028   0.009   0.035
  -0.020   0.026   0.043  -0.016   0.035  -0.003  -0.016   0.017   0.004   0.009
  -0.001   0.004  -0.007  -0.028   0.016   0.038   0.074   0.078   0.115   0.133
   0.048   0.093   0.044   0.033  -0.007   0.003  -0.052  -0.078  -0.152  -0.115
  -0.064  -0.061  -0.016   0.095   0.169   0.045   0.033   0.092   0.042   0.014
   0.031   0.021   0.026  -0.139  -0.150  -0.142  -0.206  -0.116  -0.142  -0.076
  -0.056  -0.120  -0.011   0.017   0.015   0.075   0.098   0.179   0.128  -0.019
   0.059  -0.006   0.003   0.002   0.024   0.054   0.003  -0.096  -0.153  -0.082
  -0.132  -0.112   0.012  -0.022  -0.121  -0.109  -0.177  -0.145  -0.126  -0.027
  -0.004  -0.140  -0.058  -0.102  -0.031   0.094   0.041   0.202   0.158  -0.008
  -0.058  -0.194  -0.173  -0.247  -0.244  -0.031  -0.254  -0.262   0.034  -0.092
  -0.016   0.079   0.301   0.308   0.171   0.343   0.210  -0.001   0.014  -0.106
   0.065  -0.039  -0.251  -0.081   0.027  -0.036  -0.165  -0.147   0.008  -0.057
  -0.085   0.071  -0.117  -0.261  -0.151  -0.199  -0.019   0.174   0.071   0.202
   0.217   0.224   0.321   0.371   0.394   0.226  -0.110  -0.230  -0.283  -0.233
  -0.045  -0.051   0.025  -0.091  -0.287  -0.063   0.062  -0.036  -0.151  -0.201
   0.018   0.231   0.129  -0.013  -0.145   0.052  -0.046   0.179   0.331   0.073
   0.264   0.192  -0.142   0.025  -0.030  -0.162   0.004  -0.195  -0.245  -0.158
  -0.056  -0.115   0.058   0.071   0.282   0.306   0.468   0.328   0.370   0.654
   0.367   0.107  -0.051  -0.294  -0.148  -0.159  -0.106   0.182   0.039  -0.421
  -0.848  -0.498  -0.229   0.022   0.290   0.401   0.416   0.563   0.283   0.069
   0.393   0.071  -0.034   0.315   0.556   0.205  -0.251  -0.526  -0.590  -0.642
  -0.295  -0.104   0.093   0.590   0.111  -0.443  -0.414   0.166   0.338   0.173
   0.355   0.561   0.243   0.291   0.152  -0.068  -0.397  -0.483  -0.302  -0.224
  -0.288  -0.624  -0.552  -0.131  -0.228  -0.236   0.036  -0.034  -0.236   0.296
   0.779   0.925   0.501   0.105   0.315   0.026   0.172   0.154  -0.316  -0.329
  -0.568  -0.336  -0.106  -0.142  -0.602  -0.995  -0.496  -0.054  -0.361  -0.143
   0.238   0.204   0.057   0.276   0.961   0.772   0.435   0.593   0.737   0.239
  -0.282  -0.288   0.158  -0.083  -0.501  -0.182  -0.049  -0.142  -0.775  -0.734
