Corrected accelerogram 20160214_001343_MSMC_20 GNS Science
Site MSMC      43 42 17S  171 24 08E     Cusp file:  20160214_001404_MSMC
Mount Somers School
Instrument Cusp_42043
Resolution: 18-bit   Instr Period: 0.0050 s   Damping: 0.700
Accelerogram 20160214_001343_MSMC_20                 Processed 2016 February 22
11 km east of CHRISTCHURCH
2016 February 14         00:13:43 UT
Epicentre  43 29 50S 172 45 18E  Bearing N79E  Dist  112km  Depth    8km M  5.70
Number of points  8192    Duration 163.82 sec
Instrument corrected data at 0.020 sec intervals
Band-pass filter transition bands are .10-.25 Hz and 24.50-25.50 Hz
Component N00E  Horizontal Axis 1
Acceleration:  peak     51.6 mm/s/s at  58.04 sec     rms      3.8 mm/s/s
Velocity:      peak     7.27 mm/s   at  60.40 sec     rms     1.11 mm/s
Displacement:  peak    3.386 mm     at  61.10 sec     rms    0.608 mm
    2016       2      14       0      13     430       0       0    2016       2
      43      29      50     172      45      18       8       0      14       0
      43      42      17     171      24       8       0       0      79     112
   34530     250     250    8192    8192    8192       0       0      13   24335
   200.0    0.70    0.00   0.000  0.0000   0.000   0.000   1.000     0.0    0.00
  43.705 171.402   43.50  172.76    5.70    0.00    0.00    0.00      0.      0.
  172.65    5.00    5.00  163.82  0.0050  0.0200      0.      0.      0.  9806.6
    52.4   58.03     4.0   0.000      0.    51.6   58.04     3.8    55.2   0.259
    7.27   60.40    1.11    7.53   0.232    3.39   61.10    0.61    3.52   0.232
   0.100   0.150   0.250      0.      0.  24.500   1.000  25.500      0.      0.
  -0.000   0.000  -0.000   0.000  -0.000   0.000  -0.001  -0.000  -0.001  -0.000
  -0.001  -0.000  -0.001  -0.000  -0.001  -0.001  -0.001  -0.001  -0.001  -0.001
  -0.002  -0.001  -0.002  -0.001  -0.002  -0.001  -0.002  -0.002  -0.002  -0.002
  -0.002  -0.002  -0.003  -0.002  -0.003  -0.002  -0.003  -0.002  -0.003  -0.003
  -0.003  -0.003  -0.003  -0.003  -0.004  -0.003  -0.004  -0.003  -0.004  -0.003
  -0.004  -0.004  -0.004  -0.004  -0.004  -0.004  -0.005  -0.004  -0.005  -0.004
  -0.005  -0.004  -0.005  -0.004  -0.005  -0.005  -0.005  -0.005  -0.005  -0.005
  -0.005  -0.005  -0.006  -0.005  -0.006  -0.005  -0.006  -0.005  -0.006  -0.005
  -0.006  -0.005  -0.006  -0.005  -0.006  -0.005  -0.006  -0.005  -0.006  -0.005
  -0.006  -0.005  -0.006  -0.005  -0.006  -0.005  -0.006  -0.005  -0.006  -0.005
  -0.006  -0.005  -0.006  -0.005  -0.006  -0.005  -0.006  -0.005  -0.005  -0.005
  -0.005  -0.005  -0.005  -0.004  -0.005  -0.004  -0.005  -0.004  -0.005  -0.004
  -0.004  -0.004  -0.004  -0.003  -0.004  -0.003  -0.004  -0.003  -0.003  -0.002
  -0.003  -0.002  -0.003  -0.002  -0.002  -0.001  -0.002  -0.001  -0.001  -0.001
  -0.001  -0.000  -0.001   0.000  -0.000   0.001   0.000   0.001   0.001   0.002
   0.001   0.002   0.002   0.003   0.002   0.003   0.003   0.004   0.003   0.005
   0.004   0.005   0.005   0.006   0.005   0.006   0.006   0.007   0.007   0.008
   0.007   0.008   0.008   0.009   0.009   0.010   0.009   0.011   0.010   0.011
   0.011   0.012   0.012   0.013   0.012   0.014   0.013   0.015   0.014   0.015
   0.015   0.016   0.016   0.017   0.016   0.018   0.017   0.019   0.018   0.020
   0.019   0.020   0.020   0.021   0.021   0.022   0.021   0.023   0.022   0.024
   0.023   0.025   0.024   0.026   0.025   0.027   0.026   0.028   0.027   0.028
   0.027   0.029   0.028   0.030   0.029   0.031   0.030   0.032   0.031   0.033
   0.032   0.034   0.033   0.035   0.033   0.036   0.034   0.036   0.035   0.037
   0.036   0.038   0.036   0.039   0.037   0.041   0.037   0.042   0.035   0.049
  -0.051  -0.096  -0.039  -0.078  -0.070  -0.085  -0.081  -0.026  -0.058  -0.059
  -0.014  -0.052  -0.046  -0.061  -0.057  -0.051  -0.023  -0.054  -0.088  -0.045
  -0.064  -0.049  -0.051  -0.062   0.005  -0.047  -0.062  -0.038   0.005  -0.065
  -0.008  -0.101  -0.117   0.055  -0.057  -0.023   0.033   0.012  -0.016  -0.112
  -0.023  -0.019  -0.101  -0.009  -0.074  -0.069  -0.038  -0.092  -0.015   0.002
  -0.011   0.065  -0.026   0.032   0.034  -0.025   0.001  -0.018  -0.046   0.031
   0.001  -0.106   0.021  -0.110  -0.009   0.044  -0.079  -0.036  -0.052   0.000
  -0.105  -0.025   0.078   0.043   0.070   0.073   0.003  -0.043   0.047   0.051
   0.040   0.008   0.023  -0.076   0.044  -0.021   0.004   0.064   0.062   0.019
  -0.017   0.029   0.025  -0.042   0.016   0.144   0.012   0.025   0.030  -0.023
   0.008   0.061   0.072   0.010   0.101   0.052   0.081   0.110   0.035   0.175
   0.068   0.054   0.045   0.020   0.031  -0.004  -0.045   0.010   0.015  -0.031
   0.013   0.000   0.047   0.001  -0.105  -0.061  -0.068  -0.041  -0.004  -0.080
  -0.009   0.030  -0.074   0.038  -0.023  -0.027   0.046  -0.038   0.012   0.000
  -0.007  -0.028   0.003  -0.030  -0.002  -0.041  -0.045  -0.002  -0.039   0.013
  -0.040   0.018   0.034  -0.011  -0.055  -0.043  -0.121  -0.100   0.020  -0.096
  -0.105  -0.050   0.018   0.004  -0.033  -0.021  -0.009  -0.072   0.027   0.020
   0.073   0.050   0.034   0.065   0.053   0.044   0.040   0.080   0.013  -0.054
  -0.044   0.005   0.017   0.009  -0.105  -0.079   0.037   0.007  -0.011  -0.074
   0.010  -0.075  -0.016   0.026   0.030  -0.012  -0.031   0.036  -0.046  -0.003
   0.079   0.132   0.090   0.062  -0.008   0.000  -0.005   0.028   0.034  -0.017
   0.057   0.056   0.061   0.021   0.043   0.057  -0.035  -0.045   0.034  -0.002
  -0.034  -0.035   0.005   0.042   0.114   0.103   0.096   0.081  -0.007   0.041
   0.036   0.131   0.040   0.054   0.020   0.001   0.036   0.032   0.055   0.095
  -0.014  -0.002   0.015   0.051  -0.059   0.041  -0.067  -0.059  -0.025  -0.067
  -0.052   0.031   0.022  -0.007  -0.035  -0.066   0.007   0.030  -0.009   0.001
  -0.043  -0.034   0.005   0.024   0.044   0.020   0.042   0.002   0.033  -0.032
  -0.056   0.008   0.056  -0.046  -0.005   0.064   0.020  -0.043   0.015   0.018
  -0.049  -0.039  -0.046  -0.016  -0.012  -0.101   0.067  -0.009  -0.026  -0.041
  -0.015  -0.082  -0.017  -0.007  -0.083   0.026  -0.098  -0.008  -0.016  -0.005
  -0.029  -0.033  -0.020  -0.002  -0.067  -0.111  -0.003  -0.054  -0.007  -0.008
  -0.026   0.061  -0.025  -0.042  -0.047   0.025  -0.036   0.057   0.064   0.087
   0.045  -0.046   0.031  -0.001   0.021   0.076   0.050   0.003   0.023  -0.003
   0.013  -0.039  -0.013   0.002   0.055  -0.013   0.061   0.023  -0.009  -0.027
   0.006  -0.073   0.003   0.039  -0.049  -0.009  -0.098  -0.015   0.015  -0.124
  -0.061  -0.013  -0.071  -0.043  -0.032  -0.001  -0.021  -0.018  -0.023  -0.010
   0.033  -0.022  -0.029   0.032  -0.028   0.077   0.043   0.053   0.005  -0.003
   0.029   0.074   0.089  -0.009  -0.037   0.040  -0.046   0.059   0.085   0.061
  -0.040  -0.017  -0.016   0.039  -0.050  -0.034  -0.059  -0.028  -0.057  -0.061
  -0.012   0.019  -0.050  -0.090   0.009   0.061  -0.037  -0.060  -0.013  -0.064
  -0.004  -0.049  -0.049  -0.016  -0.042  -0.093   0.072  -0.018  -0.020   0.038
   0.013   0.035   0.069   0.084   0.009   0.042   0.005   0.042   0.015  -0.023
  -0.017  -0.033   0.014  -0.008  -0.062   0.042   0.033   0.072   0.055   0.071
  -0.002   0.020  -0.002  -0.038  -0.005   0.053  -0.035  -0.022   0.052   0.009
  -0.009   0.032  -0.025   0.010  -0.006  -0.040  -0.020   0.037  -0.044  -0.027
  -0.067  -0.012  -0.046  -0.056   0.033   0.035  -0.003  -0.006   0.021   0.036
   0.096   0.029  -0.013   0.068  -0.010  -0.006  -0.063  -0.003   0.062  -0.109
   0.008   0.008   0.019  -0.045   0.037  -0.039   0.054  -0.012   0.046   0.057
   0.096   0.065   0.056  -0.045  -0.021  -0.026  -0.011   0.004   0.033  -0.038
   0.009  -0.007   0.020   0.073  -0.010   0.019   0.015   0.014  -0.016  -0.012
   0.016  -0.032   0.008   0.024  -0.020  -0.031  -0.000  -0.024   0.047  -0.064
  -0.086  -0.038  -0.011   0.016  -0.061  -0.006  -0.002   0.042  -0.052   0.058
  -0.035   0.021   0.053   0.097   0.087   0.027   0.115   0.048   0.082   0.061
   0.034   0.112   0.087   0.113   0.007  -0.037   0.015  -0.012  -0.049  -0.015
   0.023  -0.043  -0.039   0.017  -0.005   0.038   0.021  -0.074   0.018  -0.025
  -0.003  -0.011  -0.047  -0.037  -0.001  -0.041   0.020  -0.003  -0.007  -0.055
  -0.038  -0.075   0.047  -0.076  -0.059  -0.048   0.006  -0.052  -0.055   0.018
   0.066  -0.040   0.013  -0.013  -0.028  -0.011   0.014  -0.030  -0.015   0.003
   0.055  -0.009   0.013  -0.044  -0.031  -0.002  -0.024  -0.016   0.039   0.057
   0.030   0.117   0.044   0.120  -0.000   0.033   0.023  -0.018  -0.021  -0.009
   0.029  -0.006  -0.033   0.008  -0.071  -0.008  -0.025  -0.052  -0.049  -0.037
  -0.045  -0.028   0.020  -0.019   0.083   0.038  -0.026  -0.041  -0.035  -0.005
   0.017   0.010  -0.024   0.007   0.017   0.058  -0.012  -0.001  -0.017  -0.041
  -0.052   0.077   0.054   0.027  -0.010   0.012  -0.025  -0.018  -0.063  -0.024
  -0.004   0.034   0.034  -0.030  -0.014   0.016   0.072  -0.023  -0.077   0.031
   0.002  -0.113  -0.060  -0.009  -0.026   0.020   0.046  -0.042  -0.068   0.035
  -0.057  -0.010   0.035  -0.027  -0.041   0.015   0.002   0.068  -0.107  -0.053
  -0.007  -0.086   0.035  -0.053  -0.015  -0.067  -0.038   0.005   0.025   0.009
   0.056   0.010  -0.046  -0.114  -0.087  -0.050  -0.097  -0.100  -0.047  -0.089
  -0.059  -0.116  -0.121  -0.065  -0.026  -0.072  -0.008   0.074   0.013   0.061
  -0.024  -0.020  -0.029   0.060   0.061   0.054   0.096  -0.009  -0.004   0.034
   0.027  -0.000   0.086   0.100   0.014   0.109   0.135   0.034  -0.040   0.003
  -0.022  -0.054  -0.031   0.056   0.100   0.017   0.115   0.076   0.070   0.074
   0.058   0.090   0.017  -0.049   0.123   0.124   0.067   0.037   0.038   0.190
   0.104  -0.005   0.015  -0.087   0.016   0.052  -0.013   0.032  -0.002  -0.010
   0.018  -0.008   0.015   0.008  -0.048  -0.038  -0.039  -0.020  -0.000   0.025
  -0.000  -0.010   0.017  -0.019  -0.029  -0.033  -0.020   0.052  -0.032   0.001
   0.017  -0.046  -0.021  -0.095   0.024  -0.043   0.043  -0.008   0.083   0.060
  -0.065  -0.006  -0.066  -0.044  -0.028  -0.015  -0.023   0.019   0.074   0.078
  -0.004   0.006   0.010   0.017   0.006   0.033  -0.033  -0.028  -0.003  -0.051
  -0.020  -0.048  -0.005  -0.024   0.051   0.007   0.005   0.045   0.044  -0.022
  -0.022   0.027   0.056  -0.056  -0.012   0.054  -0.037   0.016  -0.043  -0.013
  -0.017   0.017   0.080   0.049   0.025   0.000  -0.018  -0.003   0.004  -0.017
  -0.017  -0.102  -0.067  -0.087  -0.046   0.064   0.021   0.063   0.023  -0.065
  -0.014  -0.036  -0.022  -0.048   0.032  -0.047  -0.047  -0.034   0.022   0.004
  -0.047  -0.040   0.003  -0.029  -0.023   0.044   0.035   0.037   0.015   0.069
  -0.045   0.020   0.014   0.025   0.063  -0.016  -0.107  -0.028   0.040  -0.029
  -0.006  -0.056   0.030   0.074   0.008  -0.026  -0.006  -0.084  -0.019   0.018
   0.005  -0.012  -0.017  -0.050   0.087  -0.055   0.008   0.014  -0.079   0.026
  -0.014   0.079  -0.060   0.082   0.007   0.019  -0.040   0.025   0.016  -0.054
  -0.021   0.091   0.037  -0.032   0.073   0.060  -0.032   0.033  -0.018  -0.013
   0.022  -0.065   0.024  -0.059   0.025   0.007  -0.030   0.060  -0.037   0.022
   0.028  -0.013  -0.018   0.055  -0.045  -0.032  -0.025  -0.065  -0.000   0.013
  -0.075   0.040  -0.009   0.060  -0.043   0.010   0.058  -0.014  -0.013   0.005
  -0.031   0.087   0.042   0.032   0.037   0.023   0.024   0.040  -0.081  -0.015
  -0.022  -0.025  -0.096  -0.076  -0.060  -0.064  -0.065  -0.013  -0.069   0.011
  -0.020  -0.014   0.011  -0.046  -0.009  -0.013  -0.034  -0.007   0.125   0.052
   0.074   0.061   0.032  -0.024  -0.028  -0.021  -0.020  -0.067  -0.016   0.055
   0.020   0.064   0.003   0.017  -0.006  -0.063  -0.007  -0.043  -0.138  -0.042
  -0.043   0.013  -0.022   0.073   0.094  -0.026   0.031   0.024  -0.018   0.012
   0.064   0.065   0.067   0.017  -0.005   0.037   0.028  -0.045   0.080   0.008
  -0.064  -0.030  -0.058   0.021  -0.031  -0.062   0.019  -0.048  -0.012  -0.023
  -0.034   0.029  -0.015   0.005   0.014   0.028  -0.094  -0.046  -0.016  -0.073
   0.072   0.008  -0.027   0.097  -0.013  -0.018  -0.033  -0.086  -0.038   0.027
   0.042  -0.007   0.021   0.055   0.097   0.014   0.069  -0.023   0.045   0.076
   0.141   0.124   0.158   0.036   0.028   0.064   0.010  -0.041   0.027  -0.064
   0.064  -0.032  -0.015   0.042   0.006   0.015   0.058   0.022   0.066  -0.015
  -0.013   0.017   0.002   0.043  -0.010   0.009  -0.004   0.014  -0.023  -0.071
   0.023  -0.063  -0.001  -0.041  -0.095  -0.071  -0.053  -0.078  -0.072  -0.021
  -0.050  -0.015  -0.100  -0.013  -0.028  -0.004  -0.064   0.062   0.003  -0.006
  -0.017   0.032  -0.000  -0.006  -0.062  -0.077   0.014   0.015  -0.022   0.007
  -0.037  -0.030   0.010  -0.030   0.045   0.042  -0.024  -0.006  -0.057   0.085
   0.031  -0.021   0.020  -0.012   0.004  -0.035   0.011  -0.005   0.116   0.007
   0.037   0.086   0.067   0.138   0.096   0.005  -0.061  -0.081   0.035  -0.026
  -0.090  -0.019  -0.083   0.005  -0.092  -0.066   0.014  -0.036   0.078  -0.015
  -0.039  -0.028  -0.064  -0.025  -0.004  -0.097  -0.044   0.056   0.061   0.104
   0.012   0.005   0.049   0.011  -0.061   0.040   0.092   0.065   0.039   0.029
  -0.009   0.030  -0.010   0.039   0.033   0.002   0.075   0.064  -0.080  -0.142
   0.040  -0.060   0.025  -0.020   0.042   0.014   0.013   0.038  -0.065  -0.051
  -0.042   0.044   0.055   0.085   0.003  -0.081   0.042  -0.053   0.027  -0.042
   0.035   0.004   0.052   0.053   0.103   0.033   0.018  -0.010  -0.039  -0.087
  -0.050   0.096  -0.012  -0.029  -0.013  -0.096  -0.005   0.011   0.024  -0.095
  -0.053   0.016  -0.022  -0.038   0.002  -0.081  -0.031  -0.031  -0.010   0.020
   0.002   0.028   0.031   0.024   0.019  -0.042   0.041   0.019   0.054   0.046
   0.022  -0.010  -0.060  -0.024   0.028  -0.013  -0.068  -0.036  -0.020   0.022
   0.042   0.028  -0.034   0.018   0.022  -0.021  -0.028  -0.012  -0.017   0.002
  -0.063  -0.071  -0.025   0.041  -0.014  -0.033  -0.049   0.028  -0.033  -0.057
  -0.037   0.004  -0.088  -0.045  -0.089   0.045   0.025  -0.010   0.052   0.042
   0.106   0.090   0.106  -0.030   0.019  -0.001   0.029   0.058   0.069   0.042
  -0.032  -0.077  -0.063  -0.046   0.032   0.156  -0.032   0.061   0.044   0.035
   0.071   0.017   0.018   0.029  -0.041   0.009   0.049  -0.062   0.026   0.049
   0.060   0.007  -0.005  -0.017  -0.037  -0.048  -0.118  -0.086  -0.010   0.047
   0.022   0.019   0.023  -0.056  -0.028  -0.002   0.002   0.091  -0.014   0.007
  -0.026  -0.022  -0.012   0.024   0.066  -0.013  -0.002   0.002   0.044  -0.019
  -0.065  -0.027  -0.036  -0.045   0.001  -0.077   0.046   0.021   0.028   0.050
   0.007   0.057  -0.003  -0.028  -0.053   0.028  -0.039  -0.100  -0.114   0.038
  -0.004  -0.001  -0.026  -0.007   0.015  -0.006  -0.016   0.061   0.042   0.062
   0.001   0.110   0.101   0.081   0.044   0.060   0.046  -0.011   0.021   0.042
   0.040   0.045  -0.016  -0.050   0.043  -0.041   0.021  -0.068  -0.023  -0.054
  -0.082  -0.062  -0.036  -0.019  -0.017   0.027  -0.026  -0.055  -0.056   0.039
  -0.068  -0.062   0.046  -0.030  -0.026  -0.001  -0.052   0.055  -0.078  -0.043
   0.005  -0.049   0.017  -0.008  -0.071  -0.048  -0.003   0.004  -0.038  -0.037
  -0.059   0.014  -0.054   0.025  -0.047   0.016  -0.118   0.001  -0.022  -0.064
  -0.040  -0.014   0.078   0.085   0.069   0.109   0.036  -0.045   0.008   0.009
   0.015  -0.110  -0.067  -0.046   0.013   0.037   0.065  -0.016   0.005  -0.067
  -0.044   0.052   0.028  -0.020   0.026  -0.043   0.023   0.055   0.055   0.033
   0.063   0.106   0.156   0.079   0.100   0.044   0.057   0.128   0.043   0.009
   0.060   0.029  -0.007  -0.041  -0.012   0.036   0.040  -0.038   0.040   0.021
   0.056  -0.056   0.041  -0.028  -0.007   0.020   0.018  -0.043  -0.030  -0.014
   0.006   0.011   0.026  -0.027   0.054  -0.031   0.023   0.007  -0.067  -0.030
   0.045  -0.026  -0.023  -0.047  -0.077  -0.060  -0.048  -0.092   0.011  -0.018
   0.038  -0.044  -0.011  -0.022   0.022  -0.007  -0.029   0.078  -0.023   0.029
   0.011   0.022   0.038  -0.033  -0.052  -0.012  -0.006   0.063   0.036   0.006
   0.042   0.120  -0.036   0.036  -0.026  -0.036  -0.067   0.113  -0.037   0.002
  -0.059   0.029  -0.115  -0.026  -0.045  -0.019  -0.007  -0.076   0.098  -0.000
  -0.005  -0.077  -0.040  -0.018  -0.049  -0.001  -0.001  -0.039   0.061  -0.017
  -0.010   0.036   0.036   0.034  -0.015  -0.040   0.033  -0.097   0.053  -0.051
   0.046   0.094   0.034  -0.037   0.019  -0.074  -0.061   0.033  -0.046  -0.027
  -0.014  -0.083  -0.103   0.019   0.030  -0.076   0.132   0.127   0.016  -0.049
  -0.028   0.017  -0.034  -0.028   0.008  -0.039  -0.038  -0.012  -0.029  -0.024
   0.083   0.090  -0.035  -0.078   0.019   0.057  -0.017   0.082   0.121   0.032
  -0.066  -0.085  -0.062  -0.004  -0.091   0.021  -0.050   0.070   0.062   0.096
  -0.004   0.054   0.042  -0.004   0.043  -0.034   0.002  -0.016  -0.060  -0.081
  -0.072   0.004  -0.092  -0.120   0.042   0.037   0.021   0.027  -0.029   0.034
  -0.052  -0.035   0.013   0.052   0.030  -0.020   0.015  -0.017  -0.070  -0.003
   0.009  -0.048  -0.026   0.015   0.024  -0.015   0.050   0.005  -0.004   0.046
  -0.041   0.005   0.015   0.009  -0.020   0.062   0.115   0.001   0.014  -0.032
   0.007   0.019   0.021  -0.035   0.053  -0.025  -0.010   0.042   0.048   0.038
   0.061  -0.032  -0.007   0.015  -0.045  -0.048  -0.003  -0.022   0.052  -0.049
  -0.009  -0.046   0.076  -0.043   0.026   0.111   0.107   0.117   0.106   0.119
   0.005  -0.072   0.091   0.016  -0.070  -0.019  -0.086  -0.057   0.013   0.009
   0.008  -0.036   0.011  -0.059  -0.022   0.005  -0.055  -0.015  -0.020  -0.016
   0.045  -0.018  -0.082  -0.064   0.031  -0.007  -0.057  -0.004   0.001  -0.015
  -0.036   0.032   0.074   0.016  -0.028   0.034   0.001  -0.030  -0.000  -0.014
   0.081  -0.015  -0.056   0.045  -0.026  -0.056  -0.057  -0.010  -0.028   0.002
  -0.029   0.000  -0.042  -0.034  -0.017   0.017  -0.108  -0.050  -0.024  -0.021
  -0.101  -0.035  -0.003  -0.036  -0.060   0.013   0.040   0.005   0.027  -0.003
   0.003   0.001   0.016   0.002  -0.020   0.011   0.098   0.054   0.038  -0.002
   0.036  -0.008  -0.011   0.088   0.116   0.203   0.018   0.096   0.170   0.166
   0.006   0.154   0.044   0.085   0.118   0.025   0.033  -0.031   0.030  -0.054
  -0.012   0.034  -0.015   0.065  -0.047   0.011   0.013  -0.005   0.015   0.031
   0.006  -0.030  -0.056  -0.015  -0.044   0.037  -0.003  -0.022  -0.040  -0.035
  -0.035   0.018   0.009  -0.068  -0.037  -0.009  -0.031  -0.007  -0.058  -0.017
  -0.012  -0.069  -0.044  -0.089  -0.032   0.003  -0.009  -0.005  -0.010   0.022
   0.023  -0.006  -0.044  -0.016  -0.037   0.052  -0.059  -0.038   0.063   0.045
   0.081   0.019   0.005   0.043   0.002  -0.051   0.032   0.012   0.062  -0.032
   0.070  -0.027  -0.033  -0.021  -0.021  -0.048  -0.009   0.098  -0.001  -0.036
  -0.073  -0.030  -0.047  -0.024  -0.073  -0.018  -0.015   0.077   0.060   0.082
   0.118   0.076  -0.056  -0.091  -0.055  -0.033  -0.027  -0.079  -0.054  -0.042
   0.008   0.056  -0.056   0.038  -0.060  -0.082  -0.086  -0.023  -0.028  -0.034
  -0.015  -0.050  -0.017   0.029  -0.011  -0.050   0.004  -0.066   0.016  -0.006
  -0.001  -0.051  -0.025  -0.015   0.109  -0.003   0.042  -0.008  -0.022   0.008
  -0.017  -0.033  -0.121  -0.015  -0.024  -0.031  -0.053  -0.008  -0.016  -0.014
  -0.070  -0.015  -0.099  -0.096  -0.040  -0.063   0.030   0.010   0.077   0.122
   0.141  -0.046  -0.032   0.109   0.115   0.057  -0.012  -0.068  -0.078  -0.004
  -0.061   0.052   0.002  -0.117  -0.148  -0.082   0.006   0.016   0.007   0.071
   0.060   0.007  -0.024   0.009   0.017   0.017  -0.050   0.020   0.062   0.069
  -0.004   0.043   0.093   0.084   0.148   0.027   0.006   0.110  -0.003  -0.047
   0.040   0.136   0.041   0.156   0.091  -0.052  -0.125  -0.122  -0.109   0.065
   0.032   0.222   0.164   0.185   0.144  -0.117  -0.084  -0.199  -0.253  -0.478
  -0.377  -0.347   0.083   0.596   0.904   0.567  -0.170  -0.912  -0.860  -0.584
