Corrected accelerogram 20160214_001343_SHLC_20 GNS Science
Site SHLC      43 30 19S  172 39 48E     Cusp file:  20160214_001347_SHLC
Shirley Library
Instrument Cusp_325
Resolution: 18-bit   Instr Period: 0.0050 s   Damping: 0.700
Accelerogram 20160214_001343_SHLC_20                 Processed 2016 February 22
11 km east of CHRISTCHURCH
2016 February 14         00:13:43 UT
Epicentre  43 29 50S 172 45 18E  Bearing N83E  Dist    7km  Depth    8km M  5.70
Number of points  7157    Duration 143.12 sec
Instrument corrected data at 0.020 sec intervals
Band-pass filter transition bands are .10-.25 Hz and 24.50-25.50 Hz
Component N00E  Horizontal Axis 1
Acceleration:  peak  -1646.5 mm/s/s at  21.18 sec     rms    113.8 mm/s/s
Velocity:      peak   201.40 mm/s   at  22.28 sec     rms    16.81 mm/s
Displacement:  peak   75.574 mm     at  22.60 sec     rms    7.655 mm
    2016       2      14       0      13     430       0       0    2016       2
      43      29      50     172      45      18       8       0      14       0
      43      30      19     172      39      48       0       0      83       7
   26629     250     250    7157    7157    7157       0       0      13   27745
   200.0    0.70    0.00   0.000  0.0000   0.000   0.000   1.000     0.0    0.00
  43.505 172.663   43.50  172.76    5.70    0.00    0.00    0.00      0.      0.
  133.14    5.00    5.00  143.12  0.0050  0.0200      0.      0.      0.  9806.6
 -1658.1   21.17   118.3   0.000      0. -1646.5   21.18   113.8  1961.7   1.450
  201.40   22.28   16.81  211.20   0.400   75.57   22.60    7.66   80.87   0.201
   0.100   0.150   0.250      0.      0.  24.500   1.000  25.500      0.      0.
     0.0    -0.0     0.0    -0.0     0.0    -0.0     0.1    -0.0     0.1    -0.0
     0.1    -0.0     0.1    -0.0     0.1    -0.0     0.1    -0.0     0.1    -0.0
     0.1    -0.0     0.1    -0.0     0.1    -0.0     0.1    -0.0     0.1    -0.0
     0.1    -0.0     0.1    -0.0     0.1    -0.0     0.1    -0.0     0.1    -0.0
     0.1    -0.0     0.1    -0.0     0.1    -0.0     0.1    -0.0     0.1    -0.0
     0.1    -0.0     0.1    -0.0     0.1    -0.0     0.1    -0.0     0.1    -0.0
     0.1    -0.0     0.1    -0.0     0.1    -0.0     0.1    -0.0     0.1    -0.0
     0.1    -0.0     0.1    -0.0     0.1    -0.0     0.1    -0.0     0.1    -0.0
     0.1    -0.0     0.1    -0.0     0.1    -0.0     0.1    -0.0     0.1    -0.0
     0.1    -0.0     0.1    -0.0     0.1    -0.0     0.1    -0.0     0.1    -0.0
     0.1    -0.0     0.1    -0.0     0.1    -0.0     0.1    -0.0     0.1    -0.0
     0.1    -0.0     0.1    -0.0     0.1    -0.0     0.1    -0.0     0.1    -0.0
     0.1    -0.0     0.1    -0.0     0.1    -0.1     0.1    -0.1     0.1    -0.1
     0.1    -0.1     0.1    -0.1     0.1    -0.1     0.1    -0.1     0.1    -0.1
     0.1    -0.1     0.1    -0.1     0.1    -0.1     0.1    -0.1     0.1    -0.1
     0.1    -0.1     0.1    -0.1     0.1    -0.1     0.1    -0.1     0.1    -0.1
     0.1    -0.1     0.1    -0.1     0.1    -0.1     0.1    -0.1     0.1    -0.1
     0.1    -0.1     0.1    -0.1     0.1    -0.1     0.1    -0.1     0.1    -0.1
     0.1    -0.1     0.1    -0.1     0.1    -0.1     0.1    -0.1     0.1    -0.1
     0.1    -0.1     0.1    -0.2     0.1    -0.2     0.1    -0.2     0.1    -0.2
     0.1    -0.2     0.1    -0.2     0.1    -0.2     0.1    -0.2     0.1    -0.2
     0.1    -0.2     0.1    -0.2     0.1    -0.2     0.1    -0.3     0.1    -0.3
     0.1    -0.3     0.1    -0.3     0.1    -0.3     0.1    -0.3     0.1    -0.4
     0.1    -0.4     0.1    -0.4     0.2    -0.4     0.2    -0.5     0.2    -0.5
     0.2    -0.5     0.3    -0.6     0.3    -0.7     0.4    -0.8     0.4    -0.8
     2.0     2.4     0.6    -6.9     3.9    -1.3    -0.9     1.8    -2.0     0.8
    -2.2    -2.7     1.8     7.1    -1.6    -0.6    -0.1    -3.8     3.4     4.0
     3.3    -2.1    -6.1     1.1    -0.6    -3.4    -3.0    -5.5     1.1    -0.3
     0.5     6.0     0.3    -4.5    -1.1     1.6     2.1    -4.1     3.8    -0.6
     2.9     4.1    -0.6     3.8    -2.5     2.0     5.5    -0.1    -3.0    -2.2
     0.7     0.2     1.4     5.2    -4.8     1.9     0.6     3.4     3.6     0.2
    -4.2     0.3    -1.6    -3.6     2.4    -4.6     0.0     2.3    -0.3    -0.8
     5.5     4.2    -0.3     3.4    -3.0    -3.1    -4.1     0.4     2.3    -1.2
    -4.6     2.1   -10.7    -0.3    -0.3     0.1    -5.2     3.2    -1.3    -3.2
    -1.6    -4.0     0.5    -3.4     1.7     2.1     6.9    -0.3    -3.4     1.9
     2.9    -6.7    -1.1     0.0     3.9     4.3     3.1     0.9    -0.1     6.4
     6.1     0.8     0.8    -1.2     4.6     1.5     5.2    -3.2     0.2    -3.9
     5.3     0.7    -0.2     0.7    -3.4    -1.3    -0.7     1.8     6.5    -3.9
    -5.7    -5.9    -1.5     5.8    -0.0    -1.4     2.1    -3.5    -6.2     5.2
     1.2     3.5    -3.1    -3.1    -4.0    -2.6     2.7     1.0    -2.5     1.1
     1.2    -0.1     3.2     0.5     0.5    -2.1     0.0     2.9     1.3    -0.4
    -3.6    -2.8     2.5    -0.6     1.1    -0.3    -3.4    -0.3     1.1    -5.6
    -3.7    -2.6     1.8    -1.9     5.2    -1.9     3.5     2.1    -4.0     1.1
     2.2     2.2    -4.1     3.0    -0.8    -0.4    -2.2    -0.3     3.8    -2.9
     3.4     0.0    -4.8    -0.7    -0.0    -2.7    -2.0     0.8     1.9     6.2
     4.5    -0.6    -1.5    -2.4    -3.6     1.6    -1.3    -1.0     4.3    -0.8
    -0.0    -3.3     1.3     5.6     1.7     1.3    -8.8     0.4    -5.0     2.5
     1.0    -1.5    -0.3     5.1    -2.4     1.7     3.3    -1.5     3.2    -0.9
     3.8     2.5     0.6    -2.4    -0.3     2.6     0.7    -0.1     3.1    -0.4
     6.5     2.3     0.7    -2.6     2.2     1.7     4.1    -4.2    -2.7    -1.2
    -5.0     0.6     1.6     3.2    -2.0     6.8     2.4     0.6    -0.8     1.0
    -3.3    -3.4     3.3     0.6    -4.5    -2.6     2.5     0.9     1.4   -10.3
     4.5    -1.5    -6.9     0.4     0.0    -5.8    -2.4    -1.3     0.7    -4.0
     1.4     3.5    -0.7     0.5    -8.5     1.7    -5.9     4.0     2.3    -0.4
    -4.1    -4.8    -0.9    -1.2    -0.6     5.9     2.2     4.5    -1.9    -2.3
     0.5    -1.9     0.1    -2.0    -1.8     5.2    -5.3     4.1    -0.2    -2.1
     0.5     3.4    -0.3    -1.7    -0.7    -3.6     1.4     5.2     6.8     0.9
    -1.5     1.3    -0.9    -2.0     4.7    -2.1    -8.6    -1.1    -2.0     3.3
     3.6     3.9    -0.5     2.7    -0.3    -1.5     1.7     2.4     3.2    -3.1
     1.2    -2.6    -2.2    -1.7    -1.6    -1.1     2.7     1.7    -3.0    -5.6
    -2.3    -0.3    -0.2    -0.4    -0.6     1.8    -0.6     1.5     2.3     1.1
     1.2    -1.7     6.5     3.7    -1.0    -2.3    -0.0     3.0    -2.5    -0.5
    -6.3     2.4    -3.8     3.6     4.6     1.8     3.3     0.3     3.1     1.6
     1.7     4.7     3.1    -2.1     1.0    -2.1    -3.6    -1.1     5.6    -1.2
    -0.2    -1.2    -3.0    -0.4     1.7     1.2     3.8    -3.6    -3.9     2.2
     6.3    -4.1    -0.1    -0.0    -3.0    -0.4     0.9     0.4     0.5    -2.6
     3.0     5.4    -4.1     1.8     3.4     1.7    -2.9    -1.4    -0.3     0.3
     3.0     3.3    -2.9    -4.3    -0.5     0.6    -1.9     0.7     1.5     2.3
     1.3    -2.8    -1.6    -1.1    -0.4     3.1     2.7    -6.1    -1.3    -3.0
     5.4    -6.0     4.6     3.6    -6.9    -0.4    -1.4    -0.2     2.8     4.9
     1.9     2.5     7.5    -6.1    -1.5    -0.9    -1.6     3.3     2.1     0.3
     2.1     2.5     0.0    -3.5    -2.7     0.9    -1.2     5.3     2.2    -4.6
     1.5    -3.4     0.2    -3.2    -2.6    -6.4    -1.0    -2.3     2.5    -0.9
     2.0     3.1    -0.9    -0.4    -2.3     4.1     1.7    -3.0    -4.0    -2.2
     1.4     2.1    -0.9     1.8     1.7     1.2    -6.3     0.5    -3.2     3.1
    -6.0     3.5    -6.6     2.8     5.0    -3.2    -0.3    -7.5    -3.6    -3.0
    -0.5    -4.6    -5.1     3.0    -4.5    -4.6    -0.3    -4.8     2.1     1.6
     5.1     0.6     6.4    -4.0    -3.6    -1.0    -0.8     0.7     0.6    -1.7
     1.2    -1.5    -3.0    -1.2     1.4     4.0     4.9    -1.9     1.2     0.3
    -2.7     0.1     3.4     2.6     2.9    -0.2     0.1     0.8     2.1    -1.4
    -1.6    -5.8     2.6    -4.9    -3.1    -2.8    -1.6    -0.2    -1.5     2.1
    -1.3     4.3    -0.4     4.7    -0.4    -2.3     5.8    -2.0    -2.1     5.6
     3.5    -0.7     1.3     4.2     6.9     1.8     0.8     3.0    -2.3     3.4
    -0.2    -3.6    -1.1    -2.6    -0.8    -2.0     2.1     3.2     1.8    -2.3
    -0.7    -0.8     0.1    -1.0     1.5     5.1     1.8     0.1    -0.6     5.1
     2.1     3.6    -0.9     3.9     5.1    -6.6    -3.2    -1.1    -1.8    -2.0
     3.6    -0.6    -2.8     0.8     1.1     2.7    -0.1     4.2     3.1    -1.6
     3.6     1.0     2.0    -0.4    -2.5     3.0     1.9     4.5     3.7     4.9
    -6.0     3.1    -1.0     3.7     2.3     2.8     2.9     0.8     1.3     3.4
     0.2    -4.6    -4.1     3.6    -2.9    -3.7    -4.0     1.4    -2.3     0.2
     2.2     4.0    -0.8     0.8     1.1    -0.7    -4.9    -2.1    -0.9    -1.3
    -0.5    -0.6     3.7     0.2    -3.5    -2.3    -5.8    -2.9    -2.1     6.9
     0.1     3.1    -1.2    -0.8    -2.3    -6.4    -0.4     0.2     0.4     4.0
     1.1    -0.1    -5.5    -0.6    -0.2     1.9    -1.6    -5.9    -2.8    -2.5
    -9.0    -2.7    -2.2    -6.3    -3.1    -0.3     0.5    -4.8    -8.1    -6.7
    -2.3    -2.4     3.4    -3.7    -5.4    -4.7     0.7    -3.8    -0.9     0.9
     1.0     0.1    -1.0    -2.3    -0.7    -0.0    -2.9    -1.5    -3.4    -0.3
    -2.2     2.0    -6.8     1.2    -3.1    -4.3   -11.1    -3.0     1.4     3.6
     0.4    -0.2    -1.0     1.6    -4.9     2.8     2.4    -1.7    -2.5    -4.2
    -2.7    -4.3     2.7    -1.0     1.5     7.3     5.7    -5.0    -0.4    -0.0
    -2.5    -2.0     1.2    -0.8    -6.7     4.3     0.7    -0.1    -3.5     1.7
     0.6     0.7     0.4    -2.3    -1.9     0.7    -2.5    -1.1     5.3     0.9
    -2.2     0.8     2.6     2.6     0.5     1.0    -0.7    -1.9     1.6     2.3
     6.5     0.9     1.0     1.6     3.4     5.7    -2.6     3.2     5.0     2.3
    -0.7     3.3     3.1     0.2     2.7     4.2     3.6     3.6    -2.3     7.3
    11.1     5.5     7.3     3.9     3.2     3.9     9.1     6.0     7.3     0.9
     6.6     4.2     0.8    -0.2     4.3     7.3     3.5     8.1     6.3     5.9
    -1.3     0.1     4.9     3.7     0.5     7.5     1.0     4.6     5.0     2.8
    10.3     8.0     5.4     6.4     5.1     5.8     2.2     5.6     6.6     6.4
     8.8     2.8     8.3     2.7     6.6     5.6     7.0     5.9     3.5     9.3
     3.6    -1.7     5.6     3.5    -0.7     6.1     9.7     3.8     3.8     8.5
     3.9     8.6     9.3    -3.4     6.8     2.9    10.9     5.8     8.0     5.3
     1.3     9.5     6.3     4.2     3.9     7.2     4.0     7.7     7.0     6.9
     2.9     8.0     1.4     5.0     5.9     7.0    -3.2     3.0     1.1     7.5
    -1.9     1.0     0.3    -0.7     0.7     4.6    -2.5    -2.5     1.5     0.3
    -3.1    -2.2     0.7     4.6    -0.4    -4.4     1.9     1.4     0.7    -2.0
    -5.4    -1.1    -4.2    -3.0    -0.8     0.2    -2.0    -3.7    -2.8    -2.0
    -6.1    -5.3    -5.6    -3.1    -8.4    -8.5    -5.8   -11.1    -8.7    -8.7
    -8.3    -4.3    -6.5   -11.3   -10.5    -8.2   -11.5   -12.4   -21.8   -12.3
   -17.4   -16.2   -24.9   -17.0    -9.7   -16.6   -13.3   -13.6   -20.7   -22.4
   -25.9   -13.3    -4.9   -19.9   -14.8   -34.0   -26.0   -23.8   -46.2   -12.7
   -23.4   -32.0    -6.2   -29.5   -23.2    -5.6   -38.9   -52.1   -52.5   -43.0
   -56.7   -19.5   -32.2   -18.7   -33.0   -56.7   -29.8   -27.1   -20.9   -29.1
   -30.9   -70.7   -42.2   -74.9   -36.9    21.2    12.2    18.6    27.6   -30.5
   -58.6   -54.7   -66.5   -93.8  -132.6  -132.4  -162.4   -66.2   -26.2    47.7
    67.2    -2.1   -22.1   -66.0   -88.4  -116.9  -121.6  -133.0  -135.9  -130.1
   -55.6    56.8    55.7    84.8   107.8   100.2    46.3   -12.8   -23.9   -86.4
   -59.2    19.2    44.4    19.1    13.2  -107.8   -60.1   -30.4   -25.8   -60.3
  -150.2  -127.0  -252.3  -322.9  -365.3  -188.7    57.7   124.6   223.0   416.4
   577.4   570.7   581.8   604.7   542.1   398.5   344.1   346.1   493.4   710.7
   772.5   671.4   525.7   172.1  -269.0  -725.2 -1115.0 -1478.2 -1641.8 -1646.5
 -1385.2  -621.1   265.5   889.3  1383.9  1614.4  1473.8   577.6  -388.1  -598.7
  -566.6  -317.6   174.6   560.4   904.2  1140.9  1125.8   855.8   334.4    57.4
   -78.2    20.5   254.4   583.3   875.4  1163.0   984.8   305.8   -17.4  -186.6
  -532.1  -738.9  -968.6 -1104.9 -1108.4  -692.5  -316.8  -325.1  -217.9   -14.8
   -28.6    10.2   136.0   258.4   318.9   352.8   561.2   703.2   826.4   799.8
   908.4  1019.0  1040.0   533.6  -282.3  -559.0  -661.7  -744.1  -690.7  -592.4
  -705.8  -873.4  -886.3  -931.1  -782.8  -574.2  -480.0  -426.7  -276.7  -325.3
  -610.3  -773.0  -935.8 -1077.5 -1173.9 -1175.1 -1050.7  -849.6  -723.4  -167.3
   482.8   895.2  1331.3  1509.6  1448.6   839.1  -165.9  -511.2  -552.9  -677.1
  -416.0   -23.2    66.5    80.7   -53.1  -349.3  -581.0  -696.4  -756.3  -497.1
  -145.5  -164.1  -116.8     4.2   239.9   411.0   472.4   565.2   642.2   616.4
   535.1   362.3   145.0   -36.0   110.9   440.7   582.3   610.3   614.9   669.0
   597.0   234.9   -70.4  -113.2     0.2    92.7   103.8   149.1   237.7   353.1
   305.8   139.5   -76.8  -256.0  -348.5  -366.2  -336.5  -144.9    -0.6    76.2
    66.6   -68.9  -265.5  -358.2  -350.4  -161.9    -7.0    59.4   128.0   131.3
    -1.0  -147.4  -100.2    55.3     5.5  -146.8  -264.9  -325.0  -211.3   129.7
   340.8   360.9   253.7    61.5   -70.5  -104.7   -18.8    50.1    10.2   -83.8
   -58.5    25.3    42.9    50.6    21.2    12.6   116.6   174.3   152.2   -29.6
  -274.8  -359.7  -281.3   -21.1   231.4   421.7   448.4   330.4   298.7   332.2
   258.7    72.3   -38.7  -144.3  -187.9  -167.5  -188.3  -212.2  -265.6  -336.4
  -308.0  -131.7   103.7   138.6    46.1     5.6   -63.0   -90.9   -63.4  -109.9
  -265.4  -337.4  -303.2  -124.8    52.7   122.0    54.4   -38.1    -8.0    93.9
   135.0    70.8   -47.6  -181.0  -216.1   -19.0   280.8   460.7   512.8   281.6
  -124.3  -315.0  -307.2  -154.5    -5.9    99.3    97.3    69.7   111.4   198.8
   258.3   214.0   170.7    89.3    58.8   148.9   135.8    90.3    12.5   -69.5
  -124.3  -156.2   -57.8   105.7   242.8   334.3   434.1   498.2   481.8   461.3
   365.6   274.9   285.3   312.5   340.0   349.7   376.0   301.4   106.2   -52.4
  -202.9  -345.5  -426.8  -475.9  -468.3  -376.8  -224.8   -80.0    21.4    40.2
   -49.3  -183.1  -251.1  -229.4  -110.2    22.2   126.7   195.3   265.2   295.9
   222.6   116.2    25.5   -89.1  -158.8  -170.7  -162.1  -109.0   -33.2   -48.0
  -118.0  -162.0  -201.5  -252.9  -314.3  -411.7  -497.0  -472.7  -321.9  -104.2
    81.1   179.4   159.7    21.8  -113.3  -131.6   -65.0    15.5    71.3   102.0
   103.1   104.1   115.7   112.7    51.5     2.6   -50.5   -99.7  -125.7  -185.5
  -265.6  -357.9  -387.3  -322.2  -228.0  -133.2   -99.0  -124.5  -150.8  -177.1
  -195.2  -163.5  -137.6  -139.4  -169.1  -148.4   -84.2   -13.9    47.6    59.7
    16.6   -62.5   -95.7   -97.7   -89.2   -77.4   -62.7   -83.3   -86.3   -13.7
    79.9   110.7   127.9   147.0   162.3   186.7   213.7   202.4   190.9   194.5
   204.0   194.8   162.9    70.2   -24.2   -79.3   -75.1   -48.5    25.6    90.1
   110.1   120.1   131.2   142.0   179.5   204.6   177.1    92.4     5.8   -60.4
   -82.1   -55.1   -18.2    33.7   115.7   180.8   185.3   144.9   109.2    98.0
   109.9   172.2   257.6   331.8   362.5   330.9   259.8   150.3    51.1   -32.7
  -100.6  -128.4   -96.5   -35.9    68.6   171.1   229.6   188.0    82.6   -21.2
  -115.0  -175.1  -166.2  -131.3  -127.3  -123.2  -125.4  -137.9  -151.4  -188.2
  -234.6  -258.0  -244.7  -185.6   -86.4    -1.6    56.9    73.3    28.4   -42.7
  -103.2  -141.7  -167.7  -192.8  -214.6  -207.9  -164.6  -115.5   -77.6   -68.3
   -78.3   -53.7    14.5    81.3   100.0    67.0    35.1    29.0    67.1   142.9
   234.2   304.2   320.4   308.5   246.6   164.6    81.3    -6.7   -89.3  -119.0
   -95.6   -19.2    49.0    90.2   100.7    25.9   -74.8  -165.3  -217.2  -207.1
  -141.2   -28.0    50.8    52.4     2.7   -76.0  -169.4  -251.0  -309.0  -326.6
  -260.6  -142.6   -23.4    81.7   171.4   192.4   161.6   127.8   100.4    83.9
    87.5   126.3   174.4   187.0   172.5   126.1    46.6   -45.1  -116.3  -142.2
  -137.0  -112.4   -85.6   -97.3  -122.8  -126.9  -106.0   -68.4   -33.2    -1.7
    44.3   110.2   184.1   258.0   270.3   207.6   118.4    51.0    11.7    -3.8
     9.2    -4.2   -48.6   -73.7   -62.8   -19.1    42.8    96.1   117.4   122.2
   117.3   117.6   114.4   101.5    69.8    42.8    33.8    36.2    76.2   126.4
   131.4    93.5    37.9   -34.9  -110.8  -162.3  -203.7  -208.3  -171.1  -113.4
   -65.9   -26.5     0.7     0.5    -2.8    -1.2    -8.3   -18.2   -27.1   -15.6
   -24.4   -28.5   -18.0   -25.1   -37.0   -61.6  -107.4  -142.5  -146.0  -132.6
   -92.1   -51.3   -30.6   -19.0    -8.4    -9.7   -27.6   -37.6   -25.1     8.8
    34.6    26.3    11.2     7.7     0.9    -3.3    -6.9    -5.9     8.2    46.2
    88.8   112.9   149.2   173.9   158.1   156.8   149.5   129.8   122.3   124.0
   103.7    66.3    47.2    18.4    -6.8   -38.0   -49.3   -47.0   -15.4    12.4
    -5.2   -30.7   -61.6   -98.5  -119.5  -106.8   -57.9    -5.2   -16.3   -45.1
   -71.6   -72.3   -78.3   -79.6   -93.7   -90.1   -83.3   -74.8   -68.7   -48.6
   -42.1   -42.2   -48.7   -57.5   -51.4   -39.1   -26.2     0.7    21.7    41.1
    72.1   107.9   134.4   141.8   103.9    42.3    -9.2   -52.6  -104.2  -129.5
  -126.0  -117.6  -108.1   -96.7   -82.5   -65.6   -69.1   -75.3   -57.9   -25.5
     8.6    57.3   106.2   139.4   144.6   112.2    71.0    50.0    35.4    51.0
    74.5    96.3   103.1    99.1    90.5    55.6    22.2   -27.1   -74.4  -102.8
   -98.8   -68.2   -18.0    14.5    39.8    41.4    35.9    11.7    -1.3   -19.7
   -49.1   -81.6  -105.6  -120.3  -128.8  -134.9  -138.8  -141.8  -138.6  -134.9
  -117.4   -84.2   -39.1   -15.8     3.0    15.4    22.2    31.7    43.1    35.6
    28.0     8.2   -18.7   -26.0   -31.4   -22.3   -20.0    -4.9    20.3    48.6
    75.7   100.1   109.6   110.1   100.8   100.9   116.8   117.5   123.4   118.4
   100.3    72.7    56.1    38.2    38.4    46.4    51.1    55.6    71.0    89.9
    86.1    88.9    97.2   101.7   107.6   100.7    75.4    69.8    54.0    35.3
    18.4     1.8   -19.3   -47.1   -73.6  -101.2  -122.9  -126.4  -112.8   -80.2
   -47.2   -14.1    20.5    42.1    63.8    76.9    96.1    99.5   108.5   101.2
   104.6    90.3    63.7    35.0    12.6   -12.2   -32.7   -52.9   -69.6   -82.7
   -85.5   -72.8   -66.4   -54.5   -48.5   -62.9   -63.1   -64.3   -75.2   -64.1
   -42.4   -31.1   -24.2   -24.0   -27.3   -29.8   -28.4   -29.8   -24.8    -1.8
    17.6    41.3    49.9    65.3    77.1    73.3    48.8    18.5   -13.6   -44.3
   -54.8   -53.5   -44.8   -43.1   -45.0   -63.7   -84.6  -106.7  -117.2  -118.2
   -99.7   -73.9   -39.9    -1.7    28.5    35.6    25.5    18.1    -9.1   -19.7
   -32.1   -18.5     3.0    12.4     3.3    -8.7   -28.1   -51.5   -47.9   -63.5
   -67.2   -77.6   -84.5   -76.4   -59.5   -36.6    -6.5    12.6    27.5    35.5
    38.3    37.7    32.1     5.7   -14.5   -27.9   -40.6   -44.4   -38.0   -53.5
   -40.3   -25.0     1.2    31.4    56.8    62.0    62.2    68.0    81.3    99.8
   104.2   103.4    94.7    70.6    52.2    42.3    41.6    50.5    47.9    47.7
    35.1    32.6    32.6    26.1    23.9    22.4    11.8     7.3     6.1     2.7
     7.1     6.1     7.9     3.2     5.0    11.8     8.7    11.6     8.2     8.4
     9.6    13.1    15.7    12.0    10.7     1.0    -8.3   -18.0   -18.2   -20.9
   -32.6   -40.3   -56.9   -70.3   -76.0   -84.2   -87.5   -76.9   -74.9   -58.8
   -54.1   -40.3   -21.7   -19.5   -14.5    -6.9     2.3    21.3    51.2    69.3
    83.7    94.9    93.8    93.9    93.4    92.5    65.3    27.5    11.7    -5.2
