Corrected accelerogram 20160214_001343_RPZ_20 GNS Science
Site RPZ       43 42 53S  171 03 14E     Basalt file:  20160214_001408_RPZ
Rata Peaks
Instrument Basalt_619
Resolution: 24-bit   Instr Period: 0.0050 s   Damping: 0.700
Accelerogram 20160214_001343_RPZ_20                  Processed 2016 February 22
11 km east of CHRISTCHURCH
2016 February 14         00:13:43 UT
Epicentre  43 29 50S 172 45 18E  Bearing N81E  Dist  140km  Depth    8km M  5.70
Number of points  7800    Duration 155.98 sec
Instrument corrected data at 0.020 sec intervals
Band-pass filter transition bands are .10-.25 Hz and 24.50-25.50 Hz
Component N00E  Transverse Accelerometer Axis
Acceleration:  peak    -13.8 mm/s/s at  65.44 sec     rms      1.8 mm/s/s
Velocity:      peak    -3.57 mm/s   at  69.60 sec     rms     0.57 mm/s
Displacement:  peak    1.891 mm     at  68.94 sec     rms    0.297 mm
    2016       2      14       0      13     430       0       0    2016       2
      43      29      50     172      45      18       8       0      14       0
      43      42      53     171       3      14       0       0      81     140
   29200     250     250    7800    7800    7800       0       0      13   28000
   200.0    0.70    0.00   0.000  0.0000   0.000   0.000   1.000     0.0    0.00
  43.715 171.054   43.50  172.76    5.70    0.00    0.00    0.00      0.      0.
  146.00    5.00    5.00  155.98  0.0050  0.0200      0.      0.      0.  9806.6
   -14.1   65.43     1.8   0.000      0.   -13.8   65.44     1.8    13.9   0.305
   -3.57   69.60    0.57    3.65   0.305    1.89   68.94    0.30    1.92   0.302
   0.100   0.150   0.250      0.      0.  24.500   1.000  25.500      0.      0.
   0.001  -0.001   0.001  -0.001   0.001  -0.001   0.001  -0.001   0.001  -0.001
   0.001  -0.001   0.001  -0.001   0.001  -0.001   0.001  -0.001   0.001  -0.001
   0.001  -0.001   0.001  -0.001   0.001  -0.001   0.001  -0.001   0.001  -0.001
   0.001  -0.001   0.001  -0.001   0.001  -0.001   0.001  -0.002   0.001  -0.002
   0.001  -0.002   0.001  -0.002   0.001  -0.002   0.001  -0.002   0.001  -0.002
   0.001  -0.002   0.001  -0.002   0.001  -0.002   0.001  -0.002   0.001  -0.002
   0.001  -0.002   0.000  -0.002   0.000  -0.002   0.000  -0.002   0.000  -0.002
   0.000  -0.002   0.000  -0.002   0.000  -0.002   0.000  -0.002   0.000  -0.002
   0.000  -0.002   0.000  -0.002   0.000  -0.002   0.000  -0.002   0.000  -0.002
   0.000  -0.002   0.000  -0.002   0.000  -0.002   0.000  -0.002   0.000  -0.002
   0.000  -0.002   0.000  -0.002   0.000  -0.002   0.000  -0.002   0.000  -0.002
   0.000  -0.002   0.000  -0.002   0.000  -0.002   0.000  -0.002   0.000  -0.002
   0.000  -0.002   0.000  -0.002   0.000  -0.002   0.000  -0.002   0.000  -0.002
   0.000  -0.002   0.000  -0.002   0.000  -0.002   0.000  -0.002   0.000  -0.002
   0.000  -0.002   0.001  -0.002   0.001  -0.002   0.001  -0.002   0.001  -0.002
   0.001  -0.002   0.001  -0.001   0.001  -0.001   0.001  -0.001   0.001  -0.001
   0.001  -0.001   0.001  -0.001   0.001  -0.001   0.001  -0.001   0.002  -0.001
   0.002  -0.001   0.002  -0.000   0.002  -0.000   0.002  -0.000   0.002  -0.000
   0.002   0.000   0.002   0.000   0.003   0.000   0.003   0.001   0.003   0.001
   0.003   0.001   0.003   0.001   0.003   0.001   0.003   0.001   0.004   0.002
   0.004   0.002   0.004   0.002   0.004   0.002   0.004   0.002   0.004   0.003
   0.005   0.003   0.005   0.003   0.005   0.003   0.005   0.004   0.005   0.004
   0.005   0.004   0.006   0.004   0.006   0.005   0.006   0.005   0.006   0.005
   0.006   0.005   0.006   0.006   0.007   0.006   0.007   0.006   0.007   0.007
   0.007   0.007   0.007   0.007   0.007   0.008   0.007   0.009   0.006   0.010
   0.003   0.010  -0.012  -0.008   0.007  -0.036  -0.001   0.007   0.006   0.007
   0.006   0.008   0.001  -0.038   0.007   0.004  -0.033   0.001   0.003  -0.028
  -0.012  -0.007  -0.004  -0.009   0.012  -0.035  -0.001  -0.031  -0.026   0.016
  -0.009  -0.005   0.014   0.009  -0.004  -0.007  -0.005  -0.047  -0.010  -0.012
   0.001   0.010   0.014   0.006   0.018  -0.010   0.001   0.008  -0.034  -0.021
  -0.021  -0.028  -0.048  -0.001   0.002  -0.034  -0.012  -0.008   0.011   0.014
   0.010  -0.011   0.009  -0.026   0.002   0.019  -0.012  -0.018   0.018   0.010
   0.015  -0.015   0.021  -0.005  -0.000   0.020   0.009   0.020  -0.004   0.001
   0.019   0.011  -0.011   0.019  -0.001  -0.005  -0.018   0.003  -0.000  -0.007
  -0.024  -0.014   0.027   0.006   0.025   0.000  -0.001  -0.012   0.023  -0.005
   0.005   0.014  -0.023   0.006   0.019   0.013  -0.011  -0.024   0.009   0.016
   0.019  -0.018  -0.003   0.020   0.015   0.016   0.019   0.004  -0.026  -0.023
  -0.020   0.024  -0.021   0.001   0.006  -0.022   0.017  -0.014  -0.019   0.005
   0.021   0.014   0.019   0.015   0.019   0.016   0.018   0.017  -0.001  -0.005
  -0.014  -0.021  -0.025   0.011  -0.013   0.010  -0.003  -0.017  -0.002  -0.015
   0.016  -0.010   0.028   0.010   0.024   0.012   0.023  -0.018  -0.022   0.012
   0.017  -0.034   0.024   0.003  -0.025   0.020   0.018   0.011  -0.039   0.003
  -0.019  -0.006  -0.000  -0.005   0.013  -0.020   0.001  -0.005  -0.002   0.015
   0.018   0.019   0.003   0.001   0.019  -0.015   0.034  -0.021  -0.018   0.002
   0.009  -0.017  -0.009   0.006  -0.000   0.018   0.000  -0.031   0.010  -0.006
   0.012  -0.041  -0.004  -0.022   0.005  -0.003  -0.016   0.020   0.018  -0.006
   0.013   0.005  -0.022   0.015   0.020  -0.011  -0.027  -0.025  -0.000   0.005
  -0.003   0.025   0.009   0.023   0.006  -0.010  -0.042  -0.003  -0.001   0.006
  -0.035  -0.016  -0.033  -0.013   0.005  -0.001   0.002  -0.000  -0.018  -0.027
  -0.002  -0.020   0.023  -0.022  -0.006  -0.021   0.005   0.018   0.013  -0.010
  -0.009   0.016  -0.012   0.018   0.012   0.019   0.010   0.022  -0.006   0.006
   0.002  -0.002   0.021  -0.015   0.019   0.011   0.016   0.014  -0.006   0.005
   0.020   0.009   0.019   0.009   0.020  -0.023  -0.003   0.015   0.017  -0.008
   0.004  -0.022  -0.001  -0.022   0.002   0.018   0.011   0.015  -0.014   0.016
  -0.051   0.000   0.016   0.013   0.012  -0.011   0.014   0.014   0.011   0.018
  -0.013  -0.016  -0.017  -0.009   0.018   0.013  -0.013  -0.022   0.032  -0.020
  -0.019  -0.007   0.013  -0.007  -0.028  -0.004   0.015   0.012   0.013   0.009
  -0.028   0.006   0.011   0.018  -0.008  -0.023   0.009  -0.011   0.013  -0.016
  -0.009  -0.020   0.002  -0.005  -0.002   0.006  -0.031   0.009   0.014   0.010
   0.014   0.010   0.014   0.010  -0.017  -0.032   0.007  -0.016   0.028  -0.034
  -0.030   0.020   0.006  -0.008   0.003  -0.010  -0.015  -0.014   0.021   0.004
   0.019   0.004   0.020  -0.002  -0.005   0.011   0.015  -0.025  -0.005   0.011
   0.016  -0.007  -0.000   0.008  -0.015  -0.006   0.009  -0.005  -0.039   0.004
   0.011  -0.014   0.014  -0.010   0.002  -0.006  -0.014   0.009   0.009  -0.010
  -0.012   0.009  -0.001  -0.006   0.020   0.005   0.017   0.006   0.017  -0.026
  -0.006   0.015  -0.007  -0.012   0.000   0.014   0.011   0.008  -0.028   0.003
   0.013   0.012   0.007  -0.033   0.011   0.013  -0.000  -0.019  -0.018  -0.027
  -0.006   0.014   0.010   0.013  -0.007  -0.011   0.000  -0.002  -0.014   0.003
   0.013   0.013   0.009   0.017  -0.014  -0.017   0.013   0.014   0.002  -0.007
   0.001  -0.007   0.021   0.006   0.016   0.010   0.008  -0.014   0.022   0.004
   0.020  -0.041   0.012  -0.017  -0.008   0.009   0.017  -0.024  -0.006   0.015
   0.011  -0.013   0.014   0.011   0.013   0.012  -0.007  -0.036   0.001   0.019
  -0.037  -0.026  -0.000   0.005   0.019   0.006   0.019   0.006   0.020   0.004
  -0.004  -0.006  -0.020   0.005  -0.007   0.006  -0.005  -0.015  -0.015   0.012
   0.015   0.008   0.019  -0.034   0.005  -0.009   0.007   0.013   0.014   0.005
  -0.011   0.020   0.002  -0.010   0.021  -0.014  -0.017   0.017  -0.009  -0.007
  -0.009  -0.005   0.014  -0.012  -0.008  -0.022   0.020   0.007   0.012  -0.020
   0.004  -0.021   0.018  -0.029   0.004  -0.021  -0.010   0.009  -0.012   0.018
  -0.017   0.018  -0.003  -0.024  -0.025  -0.028  -0.011   0.010   0.016  -0.025
  -0.005   0.013   0.013   0.010   0.015   0.009  -0.002  -0.017   0.008  -0.004
  -0.005  -0.025  -0.023   0.014  -0.014   0.013   0.012   0.010  -0.012   0.012
   0.013   0.010   0.013   0.011   0.001  -0.012   0.031  -0.039   0.002   0.003
  -0.006  -0.028  -0.001   0.014   0.014   0.002  -0.007   0.007  -0.013   0.018
   0.008   0.011  -0.013   0.000  -0.028   0.012  -0.020  -0.025  -0.000   0.015
   0.008   0.013  -0.022  -0.011   0.020  -0.009  -0.002   0.014   0.011  -0.010
   0.003   0.016   0.006   0.017  -0.015   0.007   0.012   0.010   0.011   0.011
   0.010   0.011  -0.017   0.016  -0.015   0.007  -0.021  -0.013  -0.009   0.009
   0.012   0.009   0.011   0.010  -0.017   0.016  -0.008  -0.002   0.008  -0.017
   0.022  -0.017  -0.004  -0.017  -0.001  -0.004  -0.026   0.008   0.011   0.009
   0.011   0.009   0.011   0.008   0.012   0.004  -0.028  -0.001   0.014   0.006
   0.015  -0.007  -0.007   0.019  -0.037   0.002  -0.001  -0.030   0.010   0.009
   0.010   0.010   0.009   0.012   0.001  -0.013   0.016   0.002  -0.028   0.001
  -0.010  -0.026   0.020  -0.019   0.009  -0.012   0.001   0.017  -0.011  -0.001
  -0.003  -0.036   0.022  -0.007  -0.007   0.010   0.010   0.008   0.010   0.008
   0.010   0.008   0.010   0.008   0.009   0.009   0.009   0.009  -0.018   0.015
  -0.009  -0.005   0.012  -0.019   0.011   0.009  -0.003  -0.016  -0.007   0.011
  -0.025  -0.012   0.013   0.006  -0.022  -0.015   0.016   0.004   0.012   0.007
  -0.010  -0.003   0.018  -0.021   0.008  -0.026  -0.012  -0.013   0.006  -0.015
   0.002  -0.043   0.021  -0.007  -0.009   0.009   0.009   0.007   0.010   0.006
   0.010   0.006   0.009   0.008   0.003  -0.019   0.020  -0.022   0.008   0.005
   0.012  -0.028  -0.011   0.012  -0.005  -0.018  -0.004  -0.000  -0.015  -0.011
  -0.014  -0.001   0.014   0.001   0.016  -0.007  -0.006  -0.007  -0.007   0.011
   0.007   0.001  -0.017   0.015   0.001   0.015  -0.012  -0.005   0.010   0.007
   0.001  -0.017   0.015   0.001   0.013   0.001   0.015  -0.021   0.007  -0.002
  -0.014   0.011   0.005   0.008  -0.021   0.013  -0.010  -0.008   0.013   0.002
   0.011   0.002   0.013  -0.005  -0.013   0.010   0.006   0.007   0.007   0.007
  -0.025  -0.018   0.017  -0.015  -0.004   0.008  -0.020   0.009  -0.027  -0.016
   0.015  -0.020   0.003   0.006   0.007   0.005   0.008   0.004   0.009   0.003
   0.012  -0.012  -0.007   0.011   0.004   0.008   0.005   0.008   0.004   0.010
  -0.008  -0.032   0.006   0.005   0.007   0.006   0.003  -0.034  -0.002   0.008
   0.006   0.006   0.006   0.006   0.006   0.006   0.006   0.006   0.006   0.006
   0.006   0.006   0.006   0.007   0.005   0.009  -0.008  -0.032   0.005   0.005
   0.006   0.006   0.005   0.008  -0.001  -0.019  -0.011  -0.010  -0.016  -0.011
   0.007   0.007  -0.016  -0.002   0.010   0.003   0.008   0.003   0.009  -0.015
  -0.014  -0.029   0.001   0.010  -0.012  -0.009   0.010   0.005  -0.015  -0.002
   0.009   0.005  -0.007  -0.014   0.015  -0.002   0.012  -0.001   0.012  -0.002
   0.015  -0.016  -0.005   0.007   0.005   0.005   0.005   0.007  -0.008  -0.014
   0.016  -0.005   0.016  -0.017  -0.021  -0.019  -0.002  -0.002  -0.016   0.008
   0.006  -0.017  -0.001   0.008   0.004   0.006   0.005   0.005   0.005   0.005
   0.005   0.004   0.006   0.004   0.006   0.004   0.006   0.004   0.006   0.004
   0.006   0.003   0.007   0.003   0.007   0.002   0.010  -0.021  -0.025   0.008
   0.003   0.006   0.003   0.006   0.003   0.007  -0.001  -0.032  -0.008   0.013
  -0.015  -0.008   0.007   0.006  -0.010  -0.012   0.012  -0.001   0.009   0.001
   0.008   0.001   0.007   0.002   0.007   0.002   0.007   0.002   0.006   0.003
  -0.026  -0.020   0.015  -0.025  -0.022   0.005   0.005   0.003   0.006   0.003
   0.006   0.003   0.006   0.003   0.007  -0.001  -0.033  -0.006   0.008   0.002
   0.007   0.003   0.006   0.003   0.006   0.003   0.006   0.003   0.006   0.003
  -0.020   0.006   0.003   0.006   0.002   0.010  -0.014  -0.007  -0.013  -0.005
   0.010   0.000   0.007   0.004  -0.014  -0.006   0.014  -0.024  -0.023   0.006
   0.004   0.005   0.004   0.006   0.002   0.010  -0.014  -0.007  -0.013  -0.005
   0.010   0.001   0.007   0.005  -0.009  -0.014   0.014  -0.002   0.011  -0.001
   0.010  -0.001   0.012  -0.022   0.002   0.004   0.005   0.004   0.005   0.006
  -0.017  -0.003   0.009   0.001   0.007   0.004  -0.000  -0.021   0.014  -0.004
   0.013  -0.009  -0.013   0.006   0.005   0.003   0.007   0.001  -0.017  -0.014
  -0.017  -0.009   0.010   0.001   0.008   0.002   0.007   0.003   0.003  -0.037
  -0.002   0.004   0.006   0.003   0.007   0.003   0.007   0.002   0.007   0.002
   0.007   0.002   0.009  -0.017  -0.013  -0.032   0.004   0.003   0.006   0.003
   0.006   0.003   0.006   0.003   0.006   0.003   0.006   0.003   0.006   0.003
   0.006   0.004   0.005   0.005  -0.027  -0.018   0.012  -0.001   0.009  -0.001
   0.011  -0.022   0.002   0.003  -0.020   0.005   0.005   0.004   0.005   0.003
   0.006   0.002  -0.020   0.005   0.004   0.004   0.005   0.004   0.004   0.005
   0.003  -0.021   0.006   0.004   0.005   0.005   0.003   0.007  -0.004  -0.018
   0.025  -0.015   0.010   0.001   0.006   0.005  -0.008  -0.015   0.017  -0.018
  -0.006   0.006   0.004   0.005   0.004  -0.021   0.006   0.004   0.004   0.006
  -0.036  -0.010   0.011   0.000   0.008   0.001   0.008  -0.002  -0.032  -0.007
   0.008   0.002   0.006   0.004   0.004   0.006  -0.004  -0.016  -0.002  -0.038
   0.008   0.001   0.008   0.003  -0.014  -0.006   0.012  -0.002   0.010  -0.001
   0.010  -0.001   0.010  -0.002   0.013  -0.023   0.003   0.003   0.007   0.002
   0.008   0.001   0.008   0.001   0.009  -0.000  -0.016   0.002   0.009   0.000
   0.011  -0.007  -0.014   0.007   0.004   0.004   0.006   0.004   0.006   0.004
   0.003  -0.036  -0.002   0.005   0.006   0.004   0.007   0.003   0.008  -0.002
  -0.039   0.003   0.005   0.005   0.004   0.007  -0.002  -0.018   0.012   0.000
   0.009   0.002   0.008   0.002   0.008   0.003   0.007   0.005  -0.006  -0.022
  -0.008   0.004   0.008   0.002   0.009   0.001   0.011  -0.006  -0.014   0.008
   0.004   0.005   0.005   0.005   0.005   0.006  -0.014  -0.017  -0.009   0.012
  -0.007  -0.013   0.002  -0.021  -0.012   0.002   0.008   0.004  -0.013  -0.016
  -0.029  -0.024   0.009   0.002   0.007   0.003   0.006   0.005   0.004   0.008
  -0.011  -0.009   0.006  -0.035  -0.010  -0.016   0.004  -0.024   0.016  -0.004
   0.012  -0.002   0.011  -0.002   0.011  -0.002   0.011  -0.003  -0.015   0.000
   0.010  -0.002   0.012  -0.009  -0.013   0.006   0.005   0.003   0.007   0.002
   0.007   0.001   0.007   0.001   0.008  -0.000  -0.018   0.003   0.006   0.002
   0.007   0.002   0.007   0.002   0.006   0.002   0.005   0.005  -0.008  -0.016
   0.018  -0.020  -0.005   0.004   0.006   0.002   0.007   0.001   0.007   0.001
   0.007   0.000   0.008  -0.001  -0.018   0.002   0.006   0.001   0.007   0.001
   0.007   0.000   0.007   0.000   0.008  -0.001  -0.018   0.002   0.006   0.001
   0.007   0.001   0.007   0.000   0.007   0.000   0.007   0.000   0.007  -0.000
   0.008  -0.000   0.008  -0.001   0.009  -0.002   0.011  -0.009  -0.014   0.005
   0.005   0.001  -0.019   0.003   0.006   0.001   0.007  -0.001   0.011  -0.015
  -0.009   0.007   0.002   0.005   0.004   0.004   0.004   0.004   0.004   0.004
   0.004   0.004   0.004   0.004   0.003  -0.021   0.005   0.006  -0.003  -0.020
   0.012  -0.032  -0.016   0.012  -0.027  -0.026   0.016  -0.009  -0.015  -0.017
  -0.002  -0.020   0.012  -0.001   0.009   0.000   0.008  -0.025   0.010  -0.000
   0.009   0.000   0.009   0.000   0.009   0.000   0.009  -0.001  -0.016   0.002
   0.008   0.001   0.009   0.001   0.010  -0.000   0.012  -0.007  -0.015  -0.018
   0.007   0.003   0.008   0.002   0.008   0.001  -0.017   0.004   0.007   0.003
   0.008   0.002   0.008   0.002   0.009   0.001   0.011  -0.020   0.002   0.006
   0.005   0.005   0.005   0.007  -0.016  -0.003   0.011   0.000   0.011  -0.005
  -0.016   0.012  -0.005  -0.014  -0.011  -0.032   0.018  -0.026  -0.020   0.004
   0.007   0.003   0.008   0.003   0.008   0.003   0.008   0.003   0.007  -0.023
   0.010   0.001   0.009   0.002   0.009   0.002   0.008   0.002   0.008   0.003
   0.007   0.005  -0.014  -0.005   0.012  -0.001   0.010  -0.000   0.010  -0.000
   0.010  -0.000   0.010  -0.001   0.011  -0.002   0.012  -0.004  -0.012  -0.008
  -0.013   0.005   0.006   0.001   0.008  -0.000   0.010  -0.002   0.014  -0.026
  -0.019  -0.005  -0.015  -0.026  -0.018   0.009   0.002   0.006   0.003   0.005
   0.003   0.005   0.002   0.008  -0.012  -0.012   0.011  -0.002   0.008  -0.001
   0.008  -0.000   0.008  -0.001   0.009  -0.033  -0.015  -0.020   0.005   0.002
   0.005   0.004  -0.008  -0.023  -0.010   0.003   0.002  -0.048   0.016   0.003
  -0.030   0.003  -0.018  -0.005   0.008  -0.001   0.007  -0.001   0.007  -0.001
   0.007  -0.001   0.007  -0.030   0.025   0.014   0.001   0.003   0.003   0.002
   0.004   0.002   0.003   0.004  -0.004  -0.021   0.011  -0.003   0.008  -0.002
   0.007  -0.001   0.007  -0.001   0.007  -0.001   0.007  -0.001   0.007  -0.002
   0.007  -0.002   0.009  -0.024  -0.000   0.002   0.004   0.001   0.004   0.001
   0.004   0.001   0.003   0.004  -0.018  -0.006   0.008  -0.002   0.007  -0.001
   0.006  -0.001   0.006  -0.002  -0.020   0.002   0.003  -0.025   0.006  -0.000
   0.005   0.001   0.004   0.004  -0.019  -0.003  -0.014  -0.009   0.010  -0.004
   0.009  -0.003   0.008  -0.003   0.008  -0.002   0.008  -0.002   0.008  -0.003
   0.009  -0.004   0.012  -0.026   0.004  -0.021  -0.001   0.004   0.003   0.003
   0.003   0.004   0.001   0.000  -0.004  -0.014  -0.010  -0.011   0.013  -0.005
   0.011  -0.004   0.010  -0.004   0.010  -0.004   0.010  -0.004   0.010  -0.005
   0.012  -0.008   0.026   0.012   0.004   0.000   0.007  -0.002   0.011  -0.017
  -0.009   0.007  -0.001   0.019   0.020  -0.005   0.010  -0.003   0.009  -0.003
   0.009  -0.003   0.010  -0.004   0.012  -0.011  -0.013   0.003   0.006   0.000
   0.007  -0.001   0.008  -0.001   0.009  -0.002   0.010  -0.004   0.013  -0.018
  -0.006   0.004   0.005   0.001   0.007  -0.000   0.008  -0.001   0.010  -0.023
   0.001   0.003   0.004   0.004  -0.017  -0.006   0.010  -0.002   0.009  -0.002
   0.009  -0.003   0.010  -0.004   0.013  -0.019  -0.006   0.004   0.005   0.000
   0.007  -0.001   0.008  -0.003   0.011  -0.011  -0.012  -0.009  -0.033  -0.011
  -0.022  -0.010  -0.011  -0.014   0.011  -0.003   0.008  -0.002   0.007  -0.001
   0.007  -0.002   0.009  -0.022  -0.002   0.007   0.005  -0.032   0.010  -0.003
   0.008  -0.002   0.007  -0.002   0.007  -0.002   0.006  -0.001   0.006  -0.001
   0.006  -0.001   0.005  -0.000   0.004   0.002  -0.009  -0.039   0.004  -0.001
   0.004   0.002  -0.019  -0.005   0.004   0.008   0.020  -0.031   0.016  -0.010
   0.011  -0.008   0.010  -0.007   0.009  -0.006   0.009  -0.006   0.008  -0.006
   0.008  -0.006   0.008  -0.006   0.008  -0.007   0.008  -0.007   0.009  -0.008
   0.011  -0.015  -0.015  -0.001   0.004  -0.004   0.005  -0.005   0.005  -0.006
   0.007   0.019   0.004  -0.005   0.005  -0.005   0.005  -0.006   0.005  -0.006
   0.005  -0.006   0.004  -0.006   0.004  -0.006   0.004  -0.005   0.003  -0.004
  -0.004  -0.029   0.010  -0.011   0.007  -0.010   0.007  -0.010   0.009  -0.031
  -0.002  -0.003   0.025   0.001   0.025  -0.009  -0.015  -0.078   0.055  -0.044
   0.010  -0.055  -0.008  -0.010   0.041  -0.087  -0.030  -0.006   0.042   0.093
  -0.077  -0.045   0.107  -0.032   0.019  -0.050  -0.169   0.099   0.003  -0.072
   0.136  -0.074   0.029   0.044   0.011   0.141  -0.121  -0.196   0.268  -0.069
  -0.222   0.089   0.032   0.120   0.082  -0.199  -0.013   0.008   0.019   0.090
  -0.116  -0.098   0.326  -0.035  -0.077  -0.032   0.175   0.324  -0.374  -0.267
   0.381   0.264  -0.078  -0.337  -0.058  -0.141   0.145   0.061  -0.144   0.222
  -0.148   0.141   0.033  -0.138   0.281  -0.500   0.093   0.083   0.133  -0.204
