Corrected accelerogram 20160214_001343_LSRC_20 GNS Science
Site LSRC      42 52 10S  172 32 36E     Cusp file:  20160214_001357_LSRC
Lake Sumner Road
Instrument Cusp_10465
Resolution: 18-bit   Instr Period: 0.0050 s   Damping: 0.700
Accelerogram 20160214_001343_LSRC_20                 Processed 2016 February 22
11 km east of CHRISTCHURCH
2016 February 14         00:13:43 UT
Epicentre  43 29 50S 172 45 18E  Bearing S14E  Dist   72km  Depth    8km M  5.70
Number of points  8192    Duration 163.82 sec
Instrument corrected data at 0.020 sec intervals
Band-pass filter transition bands are .10-.25 Hz and 24.50-25.50 Hz
Component N00E  Horizontal Axis 1
Acceleration:  peak   -116.3 mm/s/s at  52.06 sec     rms      7.5 mm/s/s
Velocity:      peak   -13.11 mm/s   at  52.14 sec     rms     1.29 mm/s
Displacement:  peak   -2.610 mm     at  52.74 sec     rms    0.580 mm
    2016       2      14       0      13     430       0       0    2016       2
      43      29      50     172      45      18       8       0      14       0
      42      52      10     172      32      36       0       0     166      72
   33817     250     250    8192    8192    8192       0       0      13   17848
   200.0    0.70    0.00   0.000  0.0000   0.000   0.000   1.000     0.0    0.00
  42.870 172.543   43.50  172.76    5.70    0.00    0.00    0.00      0.      0.
  169.08    5.00    5.00  163.82  0.0050  0.0200      0.      0.      0.  9806.6
  -117.0   52.06     7.8   0.000      0.  -116.3   52.06     7.5   123.8   1.340
  -13.11   52.14    1.29   13.64   0.287   -2.61   52.74    0.58    4.66   0.287
   0.100   0.150   0.250      0.      0.  24.500   1.000  25.500      0.      0.
    -0.0     0.0    -0.0     0.0    -0.0     0.0    -0.0     0.0    -0.0     0.0
    -0.0     0.0    -0.0     0.0    -0.0     0.0    -0.0     0.0    -0.0     0.0
    -0.0     0.0    -0.0     0.0    -0.0     0.0    -0.0     0.0    -0.0     0.0
    -0.0     0.0    -0.0     0.0     0.0     0.0     0.0     0.0     0.0     0.0
     0.0     0.0     0.0     0.0     0.0     0.0     0.0     0.0     0.0     0.0
     0.0     0.0     0.0     0.0     0.0     0.0     0.0     0.0     0.0     0.0
     0.0     0.0     0.0     0.0     0.0     0.0     0.0     0.0     0.0     0.0
     0.0     0.0     0.0     0.0     0.0     0.0     0.0     0.0     0.0     0.0
     0.0     0.0     0.0     0.0     0.0     0.0     0.0     0.0     0.0     0.0
     0.0     0.0     0.0     0.0     0.0     0.0     0.0     0.0     0.0     0.0
     0.0     0.0     0.0     0.0     0.0     0.0     0.0     0.0     0.0     0.0
     0.0     0.0     0.0     0.0     0.0     0.0     0.0     0.0     0.0     0.0
     0.0     0.0     0.0     0.0    -0.0     0.0    -0.0     0.0    -0.0     0.0
    -0.0     0.0    -0.0     0.0    -0.0     0.0    -0.0     0.0    -0.0     0.0
    -0.0     0.0    -0.0     0.0    -0.0     0.0    -0.0     0.0    -0.0     0.0
    -0.0     0.0    -0.0     0.0    -0.0    -0.0    -0.0    -0.0    -0.0    -0.0
    -0.0    -0.0    -0.0    -0.0    -0.0    -0.0    -0.0    -0.0    -0.0    -0.0
    -0.0    -0.0    -0.0    -0.0    -0.0    -0.0    -0.0    -0.0    -0.0    -0.0
    -0.0    -0.0    -0.0    -0.0    -0.0    -0.0    -0.0    -0.0    -0.0    -0.0
    -0.0    -0.0    -0.0    -0.0    -0.0    -0.0    -0.0    -0.0    -0.0    -0.0
    -0.0    -0.0    -0.0    -0.0    -0.0    -0.0    -0.0    -0.0    -0.0    -0.0
    -0.0    -0.0    -0.0    -0.0    -0.0    -0.0    -0.0    -0.0    -0.0    -0.0
    -0.0    -0.0    -0.0    -0.0    -0.0    -0.0    -0.0    -0.0    -0.0    -0.0
    -0.0    -0.0    -0.0    -0.0    -0.0    -0.0    -0.0    -0.0    -0.0    -0.0
    -0.0    -0.0    -0.0    -0.0    -0.0    -0.0    -0.0    -0.0    -0.0    -0.1
     0.0     0.3    -0.1     0.1     0.2     0.3    -0.3     0.0     0.4    -0.1
    -0.2    -0.2    -0.5     0.2    -0.5     0.3    -0.2    -0.0    -0.1     0.3
    -0.1    -0.2     0.2     0.2     0.2     0.0     0.2     0.3     0.4     0.5
     0.4     0.4    -0.4    -0.1     0.2    -0.1     0.2    -0.0     0.4    -0.1
    -0.3    -0.0     0.1     0.2    -0.2    -0.0    -0.0    -0.1     0.2     0.3
     0.4     0.3     0.1     0.3    -0.2    -0.3     0.0    -0.1     0.4    -0.2
    -0.2     0.3    -0.0    -0.1     0.1     0.3     0.5    -0.3    -0.4    -0.0
     0.0     0.1     0.1    -0.1     0.1     0.2     0.2    -0.2     0.4     0.0
    -0.1    -0.5    -0.4    -0.4    -0.2    -0.0    -0.2    -0.1    -0.3     0.4
     0.2    -0.1    -0.1     0.2    -0.3    -0.2     0.3    -0.0    -0.1     0.3
     0.4     0.2     0.3     0.2     0.2    -0.1    -0.1    -0.4    -0.3    -0.2
     0.3     0.3     0.3    -0.3    -0.4    -0.1    -0.2     0.3     0.1     0.4
     0.1    -0.1    -0.3    -0.1     0.0     0.3     0.6     0.3     0.3     0.1
     0.4    -0.6    -0.3    -0.4     0.2    -0.4     0.3     0.1     0.2    -0.0
    -0.2     0.1    -0.2     0.3     0.1    -0.1    -0.2    -0.3    -0.1    -0.5
     0.2    -0.3     0.1    -0.2    -0.5    -0.3    -0.1    -0.7    -0.1    -0.6
    -0.4    -0.1     0.2     0.2    -0.6    -0.3     0.1    -0.1     0.4    -0.1
    -0.1    -0.3    -0.1     0.1    -0.1     0.2    -0.1    -0.2    -0.3    -0.1
    -0.2     0.3    -0.0    -0.2     0.4     0.4     0.3    -0.4     0.0     0.5
    -0.1    -0.2    -0.3    -0.0     0.2    -0.3    -0.4    -0.0    -0.2    -0.1
     0.1    -0.0     0.0     0.4    -0.2     0.2     0.2    -0.4     0.2    -0.1
    -0.3    -0.3     0.5     0.2     0.3     0.1    -0.1     0.2     0.1     0.5
     0.4     0.6     0.2     0.2     0.3     0.7     0.2    -0.5     0.4     0.4
     0.1     0.1    -0.3     0.1     0.2     0.2     0.1    -0.4    -0.2     0.6
    -0.3     0.0     0.1     0.1    -0.1    -0.0     0.4    -0.0     0.2    -0.2
    -0.3     0.2     0.1    -0.4    -0.1     0.1     0.3    -0.2    -0.3     0.3
     0.0     0.1    -0.6     0.3     0.1     0.1    -0.2    -0.0    -0.2    -0.0
     0.0    -0.2     0.1    -0.2    -0.3    -0.0     0.2     0.1    -0.5     0.0
     0.5     0.3    -0.2    -0.5    -0.4    -0.3     0.1    -0.1    -0.0    -0.2
    -0.2     0.4     0.0    -0.1    -0.2     0.0    -0.2    -0.1     0.1     0.0
    -0.1    -0.5    -0.1    -0.1     0.1     0.2     0.0    -0.3    -0.3    -0.2
     0.2     0.7     0.2     0.1    -0.3     0.2     0.2    -0.1    -0.3    -0.2
    -0.1    -0.0     0.1    -0.1    -0.3     0.1    -0.0    -0.0     0.0     0.2
    -0.1     0.3    -0.2    -0.0    -0.7    -0.0     0.1     0.1    -0.4     0.1
    -0.0     0.0     0.2     0.1    -0.3    -0.3     0.4    -0.0     0.4    -0.4
     0.2     0.4     0.5     0.0     1.1     0.1    -0.1     0.3     0.4     0.2
    -0.3    -0.2    -0.2     0.5     0.1    -0.2     0.2     0.5     0.0    -0.3
     0.1     0.5     0.3    -0.1     0.4    -0.1     0.0     0.1    -0.2     0.5
    -0.2     0.1    -0.5    -0.2     0.7     0.6     0.5    -0.3    -0.1     0.3
     0.4    -0.2     0.1     0.3     0.6     0.0     0.0     0.1    -0.4    -0.3
    -0.2     0.3     0.4    -0.2    -0.3    -0.3     0.5     0.3    -0.3    -0.3
    -0.1    -0.4     0.0    -0.3     0.0    -0.2     0.4    -0.4    -0.3    -0.3
    -0.3    -0.0    -0.1     0.3    -0.7    -0.3    -0.4    -0.0     0.2     0.1
    -0.1    -0.3     0.1     0.4    -0.3     0.2     0.4     0.1     0.1     0.4
     0.2    -0.2    -0.5    -0.1    -0.1    -0.5    -0.0     0.2     0.0    -0.2
     0.3     0.0     0.2     0.0    -0.2    -0.0    -0.0    -0.2     0.1    -0.2
    -0.3     0.1     0.1     0.1    -0.1    -0.3     0.0    -0.1    -1.0    -0.8
    -0.3     0.3    -0.4    -0.0    -0.4    -0.1    -0.1    -0.1    -0.1     0.2
     0.0     0.1    -0.5     0.2    -0.2    -0.0     0.1    -0.4     0.1    -0.4
     0.3     0.5    -0.1     0.1     0.1    -0.7    -0.4     0.1    -0.4    -0.2
     0.4     0.6     0.2    -0.9     0.1    -0.2     0.1    -0.1    -0.2     0.3
    -0.8     0.5    -0.1    -0.0     0.4     0.3    -0.2    -0.1    -0.2    -0.1
    -0.1     0.0     0.1    -0.4     0.2    -0.1    -0.0    -0.5    -0.5     0.4
     0.5     0.1     0.2    -0.1     0.1    -0.0     0.5     0.4     0.4     0.7
     0.1     0.4     0.5     0.0     0.5    -0.1    -0.2     0.1    -0.2     0.5
     0.5     0.5     0.6     0.3     0.2     0.3     0.3     0.0     0.4     0.0
     0.4     0.6     0.7     0.6     0.3     0.5     0.3    -0.0     0.2     0.7
     0.2     0.2     0.0    -0.0     0.2    -0.1    -0.1    -0.1    -0.2     0.2
     0.3    -0.3    -0.2    -0.3    -0.2     0.4     0.3     0.0     0.1    -0.2
     0.1    -0.2    -0.1    -0.4     0.0    -0.1    -0.4    -0.2    -0.1    -0.2
     0.2     0.3     0.2     0.1     0.0    -0.1    -0.3    -0.3    -0.2     0.1
    -0.0     0.0    -0.4    -0.5    -0.2    -0.8    -0.4    -0.2     0.5    -0.4
     0.2    -0.3    -0.2     0.3    -0.2     0.2    -0.2    -0.5     0.0    -0.1
     0.3     0.2     0.5     0.1     0.1    -0.2    -0.4    -0.0    -0.2    -0.2
    -0.3     0.1    -0.3    -0.3    -0.1    -0.0    -0.3    -0.1     0.1    -0.0
    -0.3    -0.2    -0.4    -0.3    -0.5    -0.1    -0.3    -0.2    -0.1    -0.3
    -0.7    -0.3    -0.2     0.1    -0.6    -0.4    -0.6    -0.7    -0.1    -0.3
    -0.5     0.4    -0.1    -0.1    -0.2     0.3     0.2     0.3     0.4     0.1
     0.5     0.0     0.4    -0.2    -0.2    -0.2     0.2    -0.1     0.2     0.1
     0.0     0.1     0.1    -0.1     0.6     0.0     0.2     0.6    -0.1     0.4
     0.1    -0.1     0.1    -0.1    -0.1     0.4     0.6    -0.1     0.2    -0.1
     0.4     0.4    -0.2     0.4     0.1     0.4    -0.0     0.3    -0.0     0.2
     0.3     0.2     0.2     0.2     0.2     0.1    -0.1    -0.0     0.2     0.0
    -0.1    -0.1     0.2    -0.3    -0.3     0.2     0.3     0.0     0.2    -0.4
    -0.2    -0.2     0.2    -0.0    -0.4    -0.4     0.1    -0.8    -0.0     0.4
    -0.2    -0.2    -0.0     0.4     0.1     0.2    -0.3    -0.4    -0.1    -0.0
    -0.3    -0.2    -0.5    -0.5    -0.3    -0.2     0.4    -0.1     0.0     0.2
    -0.1     0.3    -0.1     0.5     0.1     0.1    -0.3    -0.1    -0.1    -0.2
     0.4    -0.0     0.0     0.3    -0.4    -0.4     0.4     0.5    -0.4     0.1
    -0.5    -0.0    -0.2     0.2     0.2     0.2     0.4     0.2     0.2     0.5
     0.2     0.2    -0.0    -0.3    -0.0    -0.7     0.2     0.1     0.3    -0.5
    -0.1    -0.3    -0.1    -0.1    -0.2    -0.1    -0.3     0.6    -0.1     0.3
     0.3     0.8     0.2    -0.2    -0.4     0.1     0.2     0.5     0.2    -0.1
     0.4    -0.0     0.4     0.3    -0.0    -0.3    -0.0     0.4     0.1    -0.1
     0.0     0.1     0.0     0.1     0.3    -0.0    -0.1     0.3    -0.2    -0.1
     0.1     0.3     0.2     0.1     0.1    -0.1    -0.2     0.4    -0.1    -0.1
    -0.3     0.1    -0.5     0.6    -0.2    -0.1    -0.3     0.1    -0.2    -0.2
    -0.3    -0.1     0.0    -0.0     0.1     0.6     0.2    -0.3     0.0    -0.9
    -0.4    -0.7    -0.5    -0.7     0.3     0.1     0.0    -0.1     0.1    -0.2
     0.6    -0.4     0.1     0.1     0.5     0.4    -0.1    -0.2    -0.2    -0.2
     0.1     0.1     0.1     0.3     0.1    -0.4     0.2     0.1     0.1     0.1
    -0.6     0.4     0.2     0.3     0.5     0.7     0.3     0.0    -0.3    -0.1
     0.1    -0.1    -0.4     0.3    -0.5    -0.0     0.2    -0.2    -0.3    -0.3
    -0.0    -0.4     0.1    -0.1     0.3    -0.0     0.7     0.0    -0.2     0.3
    -0.2     0.1     0.0     0.3     0.0    -0.5    -0.1     0.0    -0.3     0.1
     0.0    -0.0    -0.3    -0.1     0.4     0.5    -0.2     0.0     0.1    -0.2
    -0.2    -0.2    -0.1    -0.2     0.0    -0.1    -0.3    -0.8    -0.4     0.3
     0.2    -0.5    -0.3    -0.1    -0.2    -0.0     0.3     0.2     0.2     0.2
     0.1     0.2     0.2    -0.3     0.2    -0.1    -0.4     0.1    -1.0    -0.1
    -0.6     0.3    -0.1    -0.2    -0.1     0.3     0.1     0.0     0.1     1.0
     0.1     0.0     0.0     0.2    -0.1    -0.1    -0.2     0.2    -0.2     0.3
     0.4    -0.1    -0.2     0.1    -0.2    -0.1    -0.1    -0.4     0.0     0.1
    -0.0     0.5     0.3    -0.2    -0.2     0.1     0.1     0.0     0.2     0.3
     0.2     0.4     0.1    -0.2    -0.1     0.2     0.3     0.4     0.1    -0.0
     0.7     0.3    -0.3    -0.0    -0.3    -0.4     0.3     0.3     0.5     0.1
    -0.1     0.2     0.5     0.5     0.0     0.1     0.1    -0.1     0.0    -0.2
    -0.2    -0.1    -0.1     0.6     0.1     0.3     0.1    -0.9    -0.2     0.0
    -0.4    -0.0    -0.6    -0.5    -0.3    -0.2     0.1    -0.0    -0.0    -0.3
     0.0    -0.2    -0.2    -0.4    -0.1     0.2    -0.2    -0.1     0.1    -0.8
    -0.4    -0.2    -0.5     0.4    -0.2    -0.4    -0.2    -0.6     0.2     0.3
    -0.3    -0.3    -0.2     0.1    -0.1    -0.1    -0.1    -0.0    -0.1     0.5
     0.4     0.4     0.4    -0.1     0.2     0.2     0.2    -0.0     0.5     0.1
    -0.1     0.1    -0.1     0.1     0.2    -0.0    -0.0    -0.3    -0.2    -0.2
     0.0     0.0    -0.3    -0.3    -0.2     0.7     0.5     0.3     0.2    -0.3
     0.2     0.3     0.5     0.2    -0.1    -0.4     0.1     0.0     0.2    -0.6
    -0.2     0.0     0.2     0.1     0.0     0.2    -0.1     0.1    -0.1    -0.6
     0.1    -0.2    -0.3     0.2     0.3    -0.2     0.7     0.6     0.2     0.5
    -0.1     0.3     0.2     0.1    -0.3     0.1     0.1     0.2     0.2     0.1
    -0.1    -0.2    -0.4     0.3     0.0    -0.8     0.6     0.1     0.2     0.1
     0.2     0.2    -0.1    -0.4     0.1    -0.1     0.3    -0.2     0.0     0.1
    -0.0     0.2     0.2     0.1    -0.1     0.2    -0.0     0.5     0.4     0.1
    -0.2     0.3     0.2    -0.1    -0.1     0.0    -0.2     0.2     0.3    -0.5
    -0.3    -0.1     0.1    -0.2     0.4    -0.1     0.4     0.2     0.5     0.2
     0.2    -0.5     0.3    -0.4    -0.3    -0.4    -0.1     0.4    -0.0     0.3
     0.0    -0.3     0.2     0.1    -0.1    -0.1     0.5    -0.2    -0.5    -0.1
    -0.2    -0.2     0.6    -0.1    -0.4    -0.4    -0.2    -0.1     0.3    -0.2
    -0.4    -0.2     0.1    -0.5    -0.2    -0.1     0.0    -0.2    -0.4     0.4
    -0.4    -0.3    -0.0     0.3    -0.3    -0.3    -0.8     0.2    -0.1    -0.5
    -0.2    -0.3     0.0    -0.3    -0.1     0.2     0.0    -0.1    -0.4     0.1
    -0.1    -0.1    -0.4    -0.2    -0.3     0.2    -0.4    -0.2    -0.4     0.1
    -0.1    -0.2    -0.4    -0.5    -0.0     0.1     0.0     0.1    -0.2     0.1
     0.1    -0.0     0.5     0.5     0.8    -0.1     0.4     0.2     0.2     0.4
    -0.1     0.7    -0.0     0.1    -0.1    -0.4     0.3     0.1     0.5    -0.3
    -0.3     0.2     0.1     0.1     0.2     0.1     0.2    -0.0     0.2     0.3
    -0.1     0.0    -0.1    -0.2     0.3    -0.1     0.2     0.0     0.1     0.1
     0.5    -0.2    -0.1    -0.2     0.0     0.1     0.2    -0.1     0.1    -0.2
     0.1    -0.1     0.5     0.6     0.2     0.0     0.1    -0.3    -0.2    -0.5
    -0.3    -0.5    -0.1     0.1     0.2     0.6     0.2     0.2    -0.3    -0.0
    -0.3     0.3    -0.3    -0.1     0.4     0.2     0.0     0.3    -0.3     0.1
    -0.2     0.4     0.0    -0.0    -0.0     0.0     0.1    -0.0     0.1     0.6
     0.4     0.1    -0.3    -0.4     0.1    -0.2     0.2    -0.3     0.2    -0.1
    -0.0    -0.2     0.1     0.6    -0.0    -0.2    -0.2     0.5     0.3     0.0
     0.3     0.2     0.4     0.3     0.2    -0.1    -0.1    -0.1     0.2     0.3
     0.1     0.1    -0.1     0.1     0.3    -0.0     0.2     0.2    -0.1    -0.1
     0.1     0.1    -0.2    -0.1    -0.3    -0.3    -0.1     0.1    -0.6    -0.2
    -0.4    -0.5     0.0    -0.0    -0.5    -0.5    -0.2    -0.5     0.3    -0.2
     0.1     0.1     0.2     0.1    -0.1    -0.1     0.1     0.1     0.3     0.2
     0.1     0.1     0.4    -0.4    -0.3     0.5    -0.4     0.3     0.3     0.1
    -0.6    -0.4    -0.3    -0.1    -0.0     0.1    -0.1    -0.0    -0.6     0.1
     0.0     0.0    -0.1    -0.2     0.3     0.1    -0.6     0.2    -0.1    -0.3
     0.4     0.1     0.2    -0.4     0.3    -0.1    -0.3    -0.4     0.0     0.4
     0.3     0.6    -0.2    -0.3    -0.3    -0.8    -0.3    -0.1     0.1     0.5
    -0.2    -0.1     0.1    -0.5    -0.1    -0.4    -0.3    -0.1     0.5    -0.2
    -0.2     0.4     0.0     0.0    -0.1     0.3    -0.2    -0.0    -0.0    -0.3
     0.2     0.1     0.2     0.2     0.5    -0.2    -0.4    -0.1     0.2     0.1
    -0.2    -0.5    -0.3    -0.0    -0.1     0.3     0.4     0.1     0.1    -0.0
    -0.6    -0.0    -0.4     0.2     0.5     0.1    -0.2     0.3    -0.0     0.0
    -0.1     0.2     0.1    -0.1     0.1    -0.1    -0.2    -0.1    -0.1     0.1
    -0.2    -0.0     0.2     0.2    -0.0     0.5    -0.2     0.6     0.4    -0.0
     0.7     0.3     0.3     0.2     0.3     0.3     0.1     0.0    -0.1    -0.2
     0.2    -0.2     0.3    -0.2     0.1    -0.0    -0.1    -0.3     0.1    -0.2
    -0.5    -0.2    -0.2    -0.1     0.0    -0.0     0.1    -0.0    -0.0     0.2
     0.0     0.1    -0.2     0.3    -0.1     0.6     0.2     0.6     0.2     0.3
     0.3     0.0    -0.1     0.0     0.2    -0.2    -0.3    -0.5     0.2    -0.2
     0.3    -0.2    -0.2    -0.6    -0.4     0.0    -0.2    -0.1    -0.1    -0.0
    -0.5    -0.0     0.2     0.4    -0.3     0.1     0.2    -0.2    -0.3    -0.1
    -0.1    -0.1     0.4    -0.1     0.1    -0.2    -0.3    -0.1    -0.2     0.4
     0.4    -0.2     0.2     0.1     0.4     0.4     0.2    -0.3     0.5    -0.0
     0.2    -0.2    -0.2    -0.2     0.5     0.2     0.4     0.6     0.3    -0.4
     0.2     0.2     0.1     0.5    -0.2    -0.0    -0.1    -0.2    -0.4    -0.1
    -0.2    -0.4    -0.0    -0.4    -0.4    -0.4     0.0     0.2    -0.1    -0.1
    -0.2    -0.4    -0.1    -0.2    -0.1    -0.0    -0.4     0.2    -0.1    -0.2
    -0.2     0.0     0.2     0.2     0.0    -0.1    -0.1     0.2    -0.0    -0.1
    -0.0    -0.1    -0.4    -0.4     0.1     0.3    -0.2     0.1     0.0    -0.1
     0.1     0.3     0.4    -0.1     0.1     0.5     0.5    -0.2     0.4     0.4
     0.4     0.8    -0.2     0.2    -0.1    -0.3    -0.3    -0.3     0.3    -0.5
    -0.1     0.2     0.3     0.0    -0.2     0.5     0.3     0.2    -0.1     0.1
    -0.0    -0.1    -0.1    -0.1    -0.1    -0.2    -0.1    -0.0    -0.6    -0.2
    -0.3    -0.1     0.0     0.2     0.6     0.3     0.2    -0.3     0.2    -0.0
     0.1     0.1     0.3     0.8     0.1     0.5    -0.2    -0.1    -0.4     0.4
    -0.2     0.1     0.3     0.0    -0.4     0.6     0.2     0.3    -0.3    -0.2
     0.3    -0.2     0.5     0.2     0.0     0.1     0.1    -0.1    -0.0     0.1
     0.0     0.1    -0.7    -0.2    -0.2     0.2    -0.1     0.1    -0.2    -0.6
    -0.5    -0.6     0.0     0.2     0.0    -0.4     0.1    -0.1    -0.1    -0.0
    -0.2    -0.3    -0.4    -0.4     0.0    -0.2    -0.1     0.2     0.3     0.3
    -0.5    -0.0    -0.0     0.0    -0.4    -0.5     0.0    -0.2    -0.5    -0.2
    -0.2     0.1     0.2    -0.1     0.0     0.3     0.2     0.3    -0.0     0.1
    -0.3     0.2    -0.1    -0.1    -0.3    -0.5    -0.5    -0.1    -0.5    -0.1
     0.1     0.2    -0.0     0.2     0.3     0.3     0.2     0.1     0.1    -0.1
    -0.5     0.4     0.1    -0.2    -0.3     0.1    -0.3    -0.2    -0.7     0.1
    -0.2    -0.1    -0.3     0.3     0.3     0.2     0.0     0.2    -0.0     0.0
    -0.2     0.1    -0.4    -0.7    -0.5    -0.5     0.2    -0.4    -0.0    -0.5
    -0.5    -0.1    -0.5     0.4     0.0    -0.3    -0.3    -0.2    -0.3    -0.7
    -0.2    -0.6     0.0    -0.3    -0.0    -0.2    -0.1     0.3    -0.1    -0.2
    -0.0    -0.1    -0.0     0.0    -0.0    -0.0     0.3     0.6     0.1     0.5
     0.3     0.5     0.0     0.4     0.2     0.1    -0.1    -0.0    -0.5    -0.0
     0.2     0.3     0.0     0.2     0.2     0.5    -0.2    -0.4    -0.0     0.3
     0.5     0.6     0.3     0.3     0.9     1.4     0.9     1.5     0.6     1.9
     1.2     1.7     2.8     1.2     1.4     1.8     2.4     1.7     0.5    -1.9
    -0.5     0.5    -1.1    -2.2    -0.0     2.2     2.8     2.3     0.3     0.1
    -1.1    -0.1    -0.7    -5.3    -7.2    -2.1     1.3     0.4    -1.4    -0.1
