Corrected accelerogram 20160214_001343_GMFS_20 GNS Science
Site GMFS      42 27 28S  171 12 15E     Cusp file:  20160214_001413_GMFS
Greymouth Fire Station
Instrument Cusp_42166
Resolution: 18-bit   Instr Period: 0.0050 s   Damping: 0.700
Accelerogram 20160214_001343_GMFS_20                 Processed 2016 February 22
11 km east of CHRISTCHURCH
2016 February 14         00:13:43 UT
Epicentre  43 29 50S 172 45 18E  Bearing S47E  Dist  171km  Depth    8km M  5.70
Number of points  8192    Duration 163.82 sec
Instrument corrected data at 0.020 sec intervals
Band-pass filter transition bands are .10-.25 Hz and 24.50-25.50 Hz
Component N00E  Horizontal Axis 1
Acceleration:  peak     12.9 mm/s/s at  66.90 sec     rms      1.7 mm/s/s
Velocity:      peak    -1.93 mm/s   at  71.08 sec     rms     0.43 mm/s
Displacement:  peak   -0.913 mm     at  72.06 sec     rms    0.248 mm
    2016       2      14       0      13     430       0       0    2016       2
      43      29      50     172      45      18       8       0      14       0
      42      27      28     171      12      15       0       0     133     171
   35041     250     250    8192    8192    8192       0       0      13   33347
   200.0    0.70    0.00   0.000  0.0000   0.000   0.000   1.000     0.0    0.00
  42.458 171.204   43.50  172.76    5.70    0.00    0.00    0.00      0.      0.
  175.20    5.00    5.00  163.82  0.0050  0.0200      0.      0.      0.  9806.6
    12.8   66.89     1.8   0.000      0.    12.9   66.90     1.7    15.3   0.272
   -1.93   71.08    0.43    2.09   0.272   -0.91   72.06    0.25    1.18   0.195
   0.100   0.150   0.250      0.      0.  24.500   1.000  25.500      0.      0.
  -0.001  -0.000  -0.001  -0.000  -0.001  -0.000  -0.001  -0.000  -0.001  -0.000
  -0.001  -0.000  -0.001  -0.000  -0.001  -0.000  -0.001  -0.000  -0.001  -0.000
  -0.001  -0.000  -0.001  -0.000  -0.001  -0.000  -0.001   0.000  -0.001   0.000
  -0.001   0.000  -0.001   0.000  -0.001   0.000  -0.001   0.000  -0.001   0.000
  -0.001   0.000  -0.001   0.000  -0.001   0.000  -0.001   0.000  -0.001   0.001
  -0.001   0.001  -0.001   0.001  -0.001   0.001  -0.000   0.001  -0.000   0.001
  -0.000   0.001  -0.000   0.001  -0.000   0.001  -0.000   0.001  -0.000   0.001
   0.000   0.001   0.000   0.001   0.000   0.002   0.000   0.002   0.000   0.002
   0.000   0.002   0.001   0.002   0.001   0.002   0.001   0.002   0.001   0.002
   0.001   0.002   0.001   0.002   0.001   0.002   0.001   0.003   0.001   0.003
   0.001   0.003   0.001   0.003   0.001   0.003   0.001   0.003   0.002   0.003
   0.002   0.003   0.002   0.003   0.002   0.003   0.002   0.003   0.002   0.003
   0.002   0.003   0.002   0.003   0.002   0.003   0.002   0.004   0.002   0.004
   0.002   0.004   0.002   0.004   0.002   0.004   0.002   0.004   0.002   0.004
   0.002   0.004   0.002   0.004   0.002   0.004   0.002   0.004   0.002   0.004
   0.002   0.003   0.002   0.003   0.002   0.003   0.002   0.003   0.002   0.003
   0.002   0.003   0.001   0.003   0.001   0.003   0.001   0.003   0.001   0.003
   0.001   0.002   0.001   0.002   0.001   0.002   0.001   0.002   0.001   0.002
   0.000   0.002   0.000   0.001   0.000   0.001  -0.000   0.001  -0.000   0.001
  -0.001   0.001  -0.001   0.000  -0.001   0.000  -0.001  -0.000  -0.001  -0.000
  -0.002  -0.001  -0.002  -0.001  -0.002  -0.001  -0.002  -0.002  -0.003  -0.002
  -0.003  -0.002  -0.003  -0.002  -0.004  -0.003  -0.004  -0.003  -0.004  -0.003
  -0.004  -0.004  -0.005  -0.004  -0.005  -0.004  -0.005  -0.005  -0.006  -0.005
  -0.006  -0.005  -0.006  -0.006  -0.007  -0.006  -0.007  -0.006  -0.008  -0.007
  -0.008  -0.007  -0.008  -0.007  -0.008  -0.008  -0.008  -0.009  -0.008  -0.011
  -0.037  -0.073  -0.050  -0.073  -0.015   0.117  -0.118   0.025   0.031  -0.016
  -0.008   0.029  -0.088   0.144  -0.141   0.056  -0.153  -0.091  -0.007   0.050
   0.008  -0.130   0.037  -0.021  -0.080  -0.089   0.034   0.026  -0.127  -0.037
   0.121   0.119  -0.071  -0.153  -0.086  -0.123  -0.015   0.093  -0.013   0.009
   0.022   0.142   0.211  -0.207  -0.002   0.275  -0.016  -0.129   0.047  -0.031
  -0.001  -0.045   0.122  -0.035   0.131   0.036  -0.225   0.070   0.124   0.043
  -0.070  -0.025  -0.004   0.084  -0.025  -0.048  -0.035  -0.038   0.087   0.211
   0.016   0.143   0.061  -0.022  -0.141  -0.000   0.125  -0.029   0.011   0.098
   0.164  -0.007   0.013   0.118  -0.030  -0.152   0.081   0.094   0.218   0.132
   0.030   0.078  -0.134   0.165  -0.106   0.047   0.024  -0.018  -0.132  -0.061
   0.084  -0.029  -0.023  -0.083   0.159  -0.055   0.012   0.087  -0.092   0.043
   0.002   0.132   0.040  -0.247   0.225  -0.028  -0.150   0.056   0.010  -0.095
   0.146  -0.021  -0.213  -0.028   0.337  -0.195  -0.064   0.307   0.022   0.107
   0.032   0.087  -0.153  -0.106   0.162   0.045  -0.022   0.091   0.057  -0.124
  -0.172  -0.076   0.105  -0.196   0.005   0.095  -0.122   0.007  -0.045   0.137
  -0.054  -0.103  -0.031   0.103  -0.044  -0.057   0.034  -0.023  -0.096   0.094
  -0.110   0.048   0.003  -0.065   0.074  -0.113  -0.060  -0.012  -0.085  -0.045
  -0.214  -0.077  -0.065   0.034   0.007  -0.340   0.124   0.243  -0.074  -0.167
  -0.059   0.086  -0.159  -0.295  -0.029   0.004  -0.037  -0.035   0.048  -0.226
   0.174  -0.003   0.061  -0.033   0.229   0.076  -0.023  -0.118   0.101   0.037
  -0.041   0.094   0.064   0.117  -0.061   0.100   0.126  -0.123   0.089   0.068
  -0.048   0.062   0.073   0.044  -0.004  -0.101  -0.002   0.047  -0.190   0.132
   0.010   0.164  -0.166  -0.053   0.171  -0.087   0.031  -0.060   0.034   0.135
  -0.042  -0.037  -0.122   0.176  -0.050  -0.204   0.037  -0.093  -0.032   0.037
  -0.025  -0.088  -0.098  -0.159   0.183  -0.084  -0.090  -0.167   0.103  -0.049
  -0.007   0.109   0.023  -0.029   0.125  -0.090   0.309   0.076  -0.042   0.057
   0.126  -0.120   0.056   0.123   0.014  -0.079   0.153  -0.112  -0.032   0.217
  -0.107  -0.024  -0.115  -0.137   0.423  -0.187   0.070   0.054   0.033   0.061
  -0.095   0.092  -0.050  -0.112   0.044  -0.016  -0.022   0.132  -0.056  -0.144
   0.180  -0.151  -0.228   0.089  -0.076   0.013  -0.112   0.220   0.003  -0.263
   0.173  -0.012  -0.062   0.007   0.003  -0.086   0.034  -0.014  -0.144   0.021
   0.072  -0.168   0.010   0.133   0.028   0.110   0.167   0.066   0.131  -0.095
  -0.064   0.328  -0.109  -0.204  -0.080   0.210  -0.044  -0.229  -0.097   0.095
   0.169  -0.102  -0.138   0.299   0.107  -0.229   0.141  -0.023   0.070   0.116
   0.036  -0.094  -0.061   0.085   0.130  -0.196  -0.083   0.195  -0.131   0.113
  -0.045  -0.379   0.086  -0.086  -0.062  -0.115   0.061   0.038  -0.110  -0.004
  -0.111  -0.131  -0.131  -0.137  -0.112   0.118  -0.085  -0.065   0.181  -0.015
  -0.053   0.120   0.153   0.102   0.057   0.131  -0.058   0.204   0.118   0.147
   0.044   0.126  -0.006   0.138  -0.072   0.200  -0.094   0.091   0.144   0.051
  -0.013   0.129   0.107  -0.206   0.146   0.210  -0.200   0.091  -0.044   0.124
  -0.066  -0.153   0.086  -0.253  -0.066   0.219  -0.029  -0.144  -0.015  -0.079
  -0.094   0.074   0.023   0.271  -0.200   0.005   0.198  -0.187  -0.071   0.037
  -0.054   0.078   0.151  -0.130   0.037  -0.047  -0.118  -0.105   0.193  -0.054
   0.074  -0.142  -0.016   0.232  -0.198   0.096   0.148  -0.184   0.188  -0.082
   0.042  -0.074  -0.080   0.037  -0.074  -0.260   0.344  -0.332   0.197  -0.134
  -0.127   0.117  -0.172  -0.037   0.056  -0.037  -0.200   0.054  -0.010  -0.263
   0.136   0.042  -0.320   0.420  -0.186  -0.138   0.139  -0.136  -0.078   0.163
  -0.220   0.043   0.051   0.029  -0.217   0.104  -0.060   0.027   0.032   0.073
  -0.055   0.256  -0.290   0.015   0.126  -0.194   0.066   0.013  -0.011   0.012
  -0.193  -0.143   0.255  -0.368   0.365  -0.183  -0.200   0.443  -0.258   0.002
  -0.002  -0.045   0.041  -0.181  -0.001  -0.014   0.091   0.046  -0.021  -0.044
   0.042  -0.036   0.130   0.028  -0.143   0.135  -0.102   0.029  -0.082   0.032
   0.011  -0.084  -0.021   0.034   0.028  -0.195   0.187  -0.134   0.063  -0.083
  -0.024   0.098  -0.147  -0.056   0.134   0.241   0.039  -0.003   0.074  -0.022
   0.218  -0.233   0.093  -0.107  -0.017   0.171  -0.096   0.115   0.049  -0.011
   0.149   0.092   0.113   0.152   0.142   0.087   0.039  -0.020   0.231   0.008
   0.043   0.097   0.121  -0.132   0.221   0.013  -0.118   0.154  -0.116   0.003
   0.110   0.090  -0.090   0.032   0.077  -0.048  -0.001  -0.199   0.201   0.056
  -0.040  -0.083  -0.030   0.002   0.065  -0.001   0.022  -0.007   0.057  -0.037
   0.060   0.055  -0.108   0.003   0.044  -0.012  -0.126   0.148  -0.043   0.004
  -0.127  -0.033   0.186   0.021  -0.099   0.061   0.001   0.026  -0.142   0.100
   0.068   0.020  -0.091  -0.005   0.048  -0.179   0.016  -0.093  -0.095   0.066
  -0.122  -0.023   0.078  -0.031  -0.271   0.080  -0.006  -0.118  -0.019  -0.136
   0.065  -0.020  -0.151   0.092   0.073  -0.066  -0.024  -0.103   0.102  -0.032
   0.042   0.028  -0.101   0.141  -0.176   0.168  -0.161   0.070  -0.032  -0.073
  -0.075  -0.030  -0.180  -0.376   0.211   0.065  -0.099   0.042  -0.107  -0.158
   0.171  -0.228  -0.056  -0.023  -0.096  -0.111   0.128   0.109   0.098  -0.137
  -0.030  -0.057   0.108  -0.107   0.009   0.485  -0.310  -0.172   0.340  -0.014
  -0.112   0.031  -0.054   0.013   0.137   0.035  -0.097   0.140   0.071  -0.252
  -0.030   0.224  -0.070  -0.100   0.129  -0.206  -0.020   0.179  -0.149  -0.069
  -0.004   0.053  -0.156   0.224  -0.171   0.154  -0.046   0.047  -0.049  -0.029
   0.375  -0.194   0.043   0.030   0.073   0.106  -0.199   0.090   0.004  -0.078
   0.003  -0.052   0.127   0.000  -0.087   0.220  -0.020  -0.206   0.208  -0.087
  -0.157   0.005   0.013   0.165  -0.150  -0.019   0.170  -0.244   0.194   0.105
  -0.391   0.112   0.309  -0.333   0.104   0.341  -0.263  -0.021   0.410   0.149
  -0.432   0.246   0.263  -0.168   0.121   0.041  -0.176  -0.208   0.797  -0.264
  -0.286   0.412   0.032  -0.266   0.134   0.220  -0.233  -0.275   0.596   0.170
  -0.609   0.370   0.274  -0.466   0.423  -0.134  -0.075   0.212   0.302  -0.300
  -0.029   0.498  -0.233  -0.070   0.067   0.233  -0.195  -0.247   0.219   0.212
  -0.068   0.131  -0.043   0.097  -0.092  -0.217   0.234  -0.010  -0.052   0.073
   0.002   0.079  -0.020  -0.086   0.184  -0.143  -0.122   0.274   0.163  -0.439
  -0.240   0.482   0.031  -0.236  -0.329   0.049  -0.052  -0.095  -0.195  -0.102
   0.090  -0.441  -0.121   0.396   0.120  -0.460   0.060   0.155  -0.180  -0.051
  -0.047   0.254  -0.383   0.038   0.305  -0.563   0.157   0.259  -0.355   0.090
  -0.118   0.106  -0.179   0.088   0.208  -0.014  -0.097  -0.040  -0.216   0.064
   0.180  -0.213  -0.354   0.081   0.064  -0.058   0.163  -0.036  -0.172  -0.272
   0.221   0.208  -0.388  -0.133   0.043   0.019   0.226  -0.285  -0.131   0.136
  -0.170  -0.099   0.151   0.024  -0.189   0.236  -0.031  -0.106   0.135   0.102
  -0.242   0.183   0.243  -0.384   0.023   0.195  -0.107  -0.040   0.295  -0.286
   0.112   0.240  -0.076  -0.044  -0.026   0.248  -0.246  -0.095   0.437  -0.330
   0.187  -0.001  -0.210   0.186   0.149  -0.027  -0.230   0.204   0.001   0.211
   0.042  -0.152   0.194   0.201   0.038  -0.331   0.342  -0.088   0.323  -0.097
   0.039   0.341  -0.290   0.224  -0.097  -0.049   0.262  -0.151  -0.132   0.166
   0.018   0.138  -0.217   0.253  -0.027   0.094  -0.092   0.171  -0.011   0.077
   0.227  -0.317   0.279  -0.117  -0.099   0.190  -0.100  -0.029  -0.049  -0.061
  -0.003   0.048   0.042  -0.083   0.195   0.094  -0.225   0.371  -0.034   0.150
  -0.043   0.176  -0.136   0.034   0.034  -0.108  -0.159   0.139  -0.207   0.022
  -0.154   0.021  -0.017  -0.127   0.082   0.285  -0.290   0.118   0.125  -0.116
  -0.035  -0.050   0.082  -0.120   0.054  -0.070  -0.148  -0.239   0.153   0.131
  -0.391   0.033   0.088  -0.313   0.034   0.067  -0.089  -0.097   0.030   0.054
  -0.169   0.127  -0.406   0.303  -0.174  -0.138   0.114  -0.244   0.195  -0.159
   0.122  -0.118   0.159  -0.217   0.108  -0.217   0.089  -0.095   0.063  -0.078
   0.036  -0.091   0.131   0.019  -0.264   0.081   0.139   0.006  -0.082   0.075
   0.131  -0.168   0.058   0.109  -0.089  -0.080  -0.073  -0.076  -0.134   0.027
   0.030  -0.284   0.281  -0.077  -0.108  -0.052  -0.027   0.206  -0.004  -0.060
  -0.177   0.155  -0.080   0.007  -0.064   0.224  -0.182   0.172   0.107  -0.120
  -0.130   0.122   0.262  -0.119   0.136  -0.057   0.175   0.005  -0.044   0.233
  -0.156  -0.013   0.106   0.133  -0.389   0.406  -0.274   0.071  -0.092  -0.003
   0.140   0.159   0.001  -0.181   0.499  -0.365   0.034   0.425   0.021  -0.081
   0.164   0.139   0.068  -0.012   0.245  -0.235  -0.031   0.129  -0.052   0.036
  -0.156   0.091   0.278  -0.473   0.141   0.337  -0.262   0.222  -0.058   0.060
   0.149  -0.082   0.402  -0.630   0.405   0.039  -0.172   0.073  -0.067   0.248
  -0.330   0.308  -0.424   0.196  -0.211   0.247  -0.283  -0.068   0.177  -0.135
  -0.119  -0.217   0.427  -0.276  -0.029   0.083   0.110  -0.180   0.369  -0.012
  -0.303   0.319   0.001  -0.029  -0.340   0.432  -0.455  -0.087   0.252  -0.159
   0.009   0.149  -0.060  -0.108   0.109  -0.039  -0.067   0.039   0.014  -0.238
  -0.058   0.129  -0.151  -0.140   0.152  -0.123   0.048  -0.105   0.187  -0.020
  -0.027   0.097  -0.044   0.200  -0.114  -0.269   0.126   0.160  -0.162   0.032
  -0.175   0.200  -0.206   0.026  -0.053   0.009   0.055   0.072  -0.288   0.421
  -0.246   0.091  -0.182   0.280  -0.543   0.427  -0.234  -0.068   0.105  -0.003
  -0.288   0.331  -0.206  -0.069   0.014   0.212  -0.472   0.246  -0.011  -0.164
   0.130  -0.036   0.111  -0.174   0.272  -0.228   0.191  -0.072  -0.003  -0.229
   0.388  -0.238   0.142   0.240  -0.149   0.019   0.378  -0.179   0.138  -0.057
  -0.290   0.196  -0.146   0.052   0.319  -0.341   0.228   0.006  -0.118   0.191
  -0.091   0.108  -0.056   0.088   0.105  -0.023   0.352  -0.107  -0.007   0.311
  -0.326   0.126  -0.014  -0.138  -0.034  -0.022   0.024  -0.079   0.069   0.007
   0.141  -0.147  -0.163  -0.109   0.216  -0.356   0.070   0.136  -0.103  -0.076
   0.052   0.029  -0.231   0.060   0.186  -0.306   0.215   0.173  -0.258  -0.113
   0.035  -0.234   0.155  -0.235   0.033   0.030  -0.150   0.160  -0.129  -0.134
   0.136   0.037  -0.047   0.017   0.113  -0.237   0.188  -0.104  -0.029   0.016
   0.038  -0.057  -0.064   0.080  -0.223   0.311  -0.201   0.055   0.013   0.055
   0.144  -0.091   0.224  -0.100  -0.009   0.198  -0.196   0.201  -0.074  -0.006
   0.001  -0.030   0.166  -0.037   0.091   0.173  -0.136   0.061   0.345  -0.014
  -0.156   0.186   0.064  -0.071   0.255  -0.144  -0.010   0.030  -0.090  -0.082
   0.105   0.034   0.035  -0.016  -0.107  -0.086   0.172  -0.136   0.071   0.021
   0.047  -0.103   0.059  -0.004   0.155  -0.065  -0.016  -0.047   0.070   0.055
  -0.180   0.047  -0.087   0.078  -0.098   0.084   0.179  -0.089  -0.076   0.042
  -0.103  -0.003   0.006  -0.104   0.046  -0.064  -0.051   0.024  -0.184  -0.092
   0.121  -0.027  -0.132   0.039  -0.096  -0.047   0.103  -0.134  -0.137   0.184
  -0.094   0.025   0.046  -0.016   0.081   0.009   0.022   0.143   0.126   0.005
  -0.153   0.140  -0.118  -0.102   0.078   0.005  -0.153   0.085   0.018   0.116
   0.016  -0.055   0.153   0.109   0.048  -0.045  -0.127   0.121  -0.125  -0.159
   0.032   0.073  -0.116   0.035   0.109   0.016  -0.001   0.148   0.017   0.002
  -0.021  -0.269   0.202  -0.176  -0.186   0.084   0.116  -0.002  -0.021   0.084
   0.120  -0.170  -0.127   0.091   0.088  -0.111   0.053  -0.039  -0.107  -0.114
  -0.002   0.020   0.083  -0.120  -0.140   0.162  -0.013   0.083   0.057  -0.240
   0.090   0.012   0.119  -0.080  -0.112  -0.067   0.143   0.017  -0.211   0.019
  -0.040   0.062   0.092  -0.176  -0.016   0.139   0.133  -0.074   0.070  -0.000
   0.221  -0.248   0.148   0.021   0.019   0.083   0.053  -0.154  -0.070   0.097
  -0.139  -0.085  -0.120  -0.036  -0.204  -0.006   0.026  -0.190  -0.106   0.164
  -0.024  -0.011   0.309  -0.332   0.190   0.101  -0.184  -0.013  -0.039  -0.163
  -0.091   0.088  -0.092  -0.020   0.067   0.105   0.177  -0.226   0.109   0.097
  -0.031   0.023   0.023  -0.107  -0.032   0.100   0.234  -0.196   0.065   0.223
   0.095   0.100  -0.002   0.297  -0.085   0.173   0.045   0.156  -0.161  -0.012
   0.108   0.112   0.026   0.055   0.110   0.048  -0.130   0.057   0.271   0.057
   0.115   0.315  -0.225   0.188  -0.090  -0.185   0.083   0.042  -0.132  -0.118
   0.130  -0.188   0.044  -0.017  -0.032   0.146   0.075  -0.125   0.022  -0.079
  -0.150  -0.060   0.150   0.008  -0.138   0.007   0.194  -0.221  -0.131   0.085
  -0.053  -0.116   0.057  -0.195   0.026  -0.054  -0.061  -0.146  -0.058   0.146
   0.003  -0.100  -0.012   0.111   0.041  -0.140   0.038   0.066  -0.002   0.019
   0.026   0.232  -0.177  -0.072   0.045   0.026  -0.072   0.154   0.079  -0.172
  -0.019   0.038  -0.040  -0.042  -0.105  -0.009   0.142  -0.179   0.094  -0.069
  -0.102  -0.057   0.005   0.020   0.023  -0.234  -0.098   0.020  -0.072   0.037
  -0.211   0.001   0.182  -0.190  -0.124   0.017  -0.082  -0.046   0.097  -0.049
   0.097   0.074   0.009  -0.024  -0.042   0.005   0.177  -0.054  -0.081   0.092
   0.225  -0.065   0.008   0.022  -0.052   0.145  -0.053  -0.005  -0.021  -0.085
   0.197  -0.138  -0.129   0.070  -0.007   0.066   0.075   0.070   0.041  -0.035
   0.024  -0.017  -0.204  -0.046   0.124  -0.116  -0.038   0.026  -0.019   0.053
  -0.009   0.202  -0.045  -0.142   0.136   0.001  -0.017  -0.090  -0.067   0.033
  -0.214   0.056  -0.184   0.200   0.020   0.041   0.008   0.175  -0.190  -0.145
  -0.131  -0.078   0.007  -0.020   0.033   0.076  -0.038   0.016  -0.079   0.161
  -0.051  -0.086  -0.008   0.014  -0.120   0.297   0.130  -0.106   0.021   0.055
   0.168  -0.080  -0.084   0.013  -0.011   0.182   0.157  -0.162  -0.064   0.127
   0.052  -0.122  -0.039   0.070  -0.024   0.100   0.081   0.189   0.178  -0.283
  -0.025   0.178  -0.155   0.108   0.071   0.012  -0.016   0.188  -0.031  -0.038
  -0.074   0.204  -0.028   0.112   0.133  -0.002  -0.168   0.035   0.088  -0.014
   0.182  -0.007  -0.031   0.193  -0.023  -0.091  -0.032  -0.018   0.075  -0.005
   0.041   0.162   0.036   0.109  -0.010   0.050   0.070  -0.114  -0.006   0.037
   0.013  -0.132   0.019   0.041  -0.130  -0.035   0.107  -0.031  -0.005  -0.090
   0.044   0.010  -0.162  -0.041   0.023  -0.169   0.058   0.003  -0.057  -0.032
   0.049  -0.053  -0.081  -0.092   0.028   0.014  -0.028  -0.063  -0.088   0.074
   0.028  -0.264   0.019   0.048  -0.072   0.036   0.122  -0.217   0.006   0.174
   0.025  -0.052   0.068  -0.030   0.016   0.051  -0.098   0.087   0.149  -0.083
  -0.002   0.067  -0.041  -0.035   0.051  -0.006  -0.079   0.021  -0.038  -0.091
   0.111  -0.062  -0.149   0.029  -0.084   0.006  -0.210  -0.097  -0.028   0.058
  -0.033  -0.129   0.119  -0.001  -0.233   0.127  -0.113  -0.018  -0.099  -0.052
  -0.134  -0.083   0.007   0.024   0.067  -0.078   0.072   0.089   0.009   0.061
  -0.077   0.098   0.071  -0.023   0.053  -0.018   0.150  -0.047  -0.007   0.104
  -0.122  -0.085   0.032   0.011   0.001  -0.084   0.041   0.018  -0.002  -0.007
   0.048   0.113   0.064  -0.165   0.031   0.189  -0.051   0.050   0.185  -0.049
  -0.007   0.007   0.129  -0.030  -0.046   0.025  -0.152  -0.166  -0.142   0.040
  -0.025  -0.080   0.140   0.231   0.009  -0.194  -0.136  -0.133  -0.186  -0.022
  -0.018   0.206   0.059  -0.163   0.036  -0.341   0.187   0.215  -0.188  -0.008
   0.317  -0.123  -0.481   0.323   0.112  -0.123  -0.251  -0.039   0.198  -0.213
  -0.139   0.478   0.911   0.718   0.979   0.431  -0.073  -0.194  -1.068  -0.967
  -0.816  -0.648  -0.351   0.179   0.451   0.953   1.344   0.127   0.715   0.028
  -0.523   0.027  -1.190  -1.025  -0.718   0.795   1.128   0.978   1.209  -0.300
   0.256  -0.352  -0.549   0.091  -0.564  -0.437  -1.261  -0.668   0.229   0.206
   0.836   0.130   1.181   0.891   0.696  -0.282  -0.651  -0.941  -0.303  -0.039
  -0.728   0.361  -0.222  -0.763  -0.279   0.111   0.431   0.836  -1.473   0.740
  -0.280  -1.310  -2.052  -1.210  -0.489  -0.366   0.346   0.856   1.592   1.528
