Corrected accelerogram 20160214_001343_RDCS_20 GNS Science
Site RDCS      42 07 11S  171 51 52E     Cusp file:  20160214_001413_RDCS
Reefton DOC Centre
Instrument Cusp_42263
Resolution: 18-bit   Instr Period: 0.0050 s   Damping: 0.700
Accelerogram 20160214_001343_RDCS_20                 Processed 2016 February 22
11 km east of CHRISTCHURCH
2016 February 14         00:13:43 UT
Epicentre  43 29 50S 172 45 18E  Bearing S25E  Dist  170km  Depth    8km M  5.70
Number of points  8192    Duration 163.82 sec
Instrument corrected data at 0.020 sec intervals
Band-pass filter transition bands are .10-.25 Hz and 24.50-25.50 Hz
Component N00E  Transverse Accelerometer Axis
Acceleration:  peak     14.4 mm/s/s at  61.98 sec     rms      1.4 mm/s/s
Velocity:      peak    -1.13 mm/s   at  62.82 sec     rms     0.22 mm/s
Displacement:  peak   -0.422 mm     at 102.54 sec     rms    0.108 mm
    2016       2      14       0      13     430       0       0    2016       2
      43      29      50     172      45      18       8       0      14       0
      42       7      11     171      51      52       0       0     155     170
   34154     250     250    8192    8192    8192       0       0      13   33083
   200.0    0.70    0.00   0.000  0.0000   0.000   0.000   1.000     0.0    0.00
  42.120 171.864   43.50  172.76    5.70    0.00    0.00    0.00      0.      0.
  170.77    5.00    5.00  163.82  0.0050  0.0200      0.      0.      0.  9806.6
    14.3   61.98     1.5   0.000      0.    14.4   61.98     1.4    19.7   1.837
   -1.13   62.82    0.22    1.66   0.287   -0.42  102.54    0.11    0.70   0.204
   0.100   0.150   0.250      0.      0.  24.500   1.000  25.500      0.      0.
   0.000  -0.000   0.000  -0.000   0.000  -0.000   0.000  -0.000   0.000  -0.000
   0.000  -0.000   0.000  -0.000   0.000  -0.000   0.000  -0.000   0.000  -0.000
   0.000  -0.000   0.000  -0.000   0.000  -0.000   0.000  -0.000   0.000  -0.000
   0.000  -0.000   0.000  -0.000   0.000  -0.000   0.000  -0.000   0.000  -0.000
   0.000  -0.000   0.000  -0.000   0.000  -0.000   0.000  -0.000   0.000  -0.000
   0.000  -0.000   0.000  -0.000   0.000  -0.000   0.000  -0.000   0.000  -0.000
   0.000  -0.000   0.000  -0.000   0.000  -0.000   0.000  -0.000   0.000  -0.000
   0.000  -0.000   0.000  -0.000   0.000  -0.000   0.000  -0.000   0.000  -0.000
   0.000  -0.000   0.000  -0.000   0.000  -0.000   0.000  -0.000   0.000  -0.000
   0.000  -0.000   0.000  -0.000   0.000  -0.000   0.000  -0.000   0.000  -0.000
   0.000  -0.000   0.000  -0.000   0.000  -0.000   0.000  -0.000   0.000  -0.000
   0.000  -0.000   0.000  -0.000   0.000  -0.000   0.001   0.000   0.001   0.000
   0.001   0.000   0.001   0.000   0.001   0.000   0.001   0.000   0.001   0.000
   0.001   0.000   0.001   0.000   0.001   0.000   0.001   0.000   0.001   0.000
   0.001   0.000   0.001   0.000   0.001   0.000   0.001   0.000   0.001   0.000
   0.001   0.000   0.001   0.000   0.001   0.000   0.001   0.001   0.001   0.001
   0.001   0.001   0.001   0.001   0.001   0.001   0.001   0.001   0.001   0.001
   0.001   0.001   0.001   0.001   0.001   0.001   0.001   0.001   0.001   0.001
   0.001   0.001   0.001   0.001   0.001   0.001   0.001   0.001   0.001   0.001
   0.001   0.001   0.001   0.001   0.002   0.001   0.002   0.001   0.002   0.001
   0.002   0.001   0.002   0.001   0.002   0.001   0.002   0.001   0.002   0.001
   0.002   0.002   0.002   0.002   0.002   0.002   0.002   0.002   0.002   0.002
   0.002   0.002   0.002   0.002   0.002   0.002   0.001   0.002   0.001   0.002
   0.001   0.002   0.001   0.002   0.001   0.002   0.001   0.002   0.001   0.002
   0.001   0.002   0.002   0.002   0.002   0.001   0.003  -0.001   0.008  -0.013
   0.005  -0.067  -0.211  -0.081  -0.366  -0.128   0.040  -0.049   0.069   0.026
  -0.086   0.047   0.009   0.041   0.008  -0.038   0.245  -0.015   0.035   0.126
   0.060   0.008  -0.225  -0.120   0.127   0.014   0.045  -0.026   0.019  -0.075
  -0.025   0.001  -0.070  -0.002  -0.117  -0.117  -0.041  -0.017  -0.113  -0.017
  -0.097  -0.049   0.030  -0.027   0.139   0.087   0.154  -0.018   0.000   0.076
   0.179   0.072   0.058   0.135   0.054  -0.046   0.105   0.040   0.055   0.114
   0.019   0.072  -0.017   0.218   0.068   0.136   0.009   0.019  -0.066   0.028
   0.026   0.079   0.089   0.049   0.061   0.064   0.162   0.111  -0.032   0.003
   0.100  -0.020  -0.024  -0.067   0.032  -0.091   0.103   0.016   0.011   0.027
  -0.114  -0.352  -0.223  -0.211  -0.032   0.093  -0.007  -0.070  -0.048   0.058
  -0.015   0.123  -0.076   0.010  -0.021  -0.042   0.024   0.098  -0.274  -0.279
   0.128  -0.070  -0.082   0.020   0.118  -0.062   0.166  -0.029   0.026  -0.052
   0.024   0.024   0.062   0.012  -0.126   0.026  -0.089  -0.053   0.054  -0.015
   0.044   0.105  -0.041  -0.146  -0.099  -0.084  -0.059   0.038  -0.086  -0.119
  -0.051  -0.076  -0.045  -0.055   0.006  -0.130   0.066  -0.037   0.009   0.002
  -0.108   0.091  -0.117  -0.009  -0.111  -0.018  -0.058  -0.000   0.035   0.047
   0.066   0.095  -0.036   0.065   0.054  -0.077   0.044   0.066   0.128   0.001
   0.083   0.021   0.091  -0.009   0.050   0.035  -0.020   0.085   0.022   0.011
  -0.016   0.028  -0.086  -0.040  -0.033  -0.187  -0.179   0.063   0.134   0.144
   0.033   0.117   0.146   0.023   0.005  -0.038   0.143  -0.031   0.138   0.088
  -0.058   0.012   0.135   0.069   0.023   0.102   0.161   0.149  -0.007   0.044
   0.030  -0.017   0.046   0.095  -0.090   0.133   0.001   0.027  -0.028  -0.003
  -0.060  -0.018  -0.010  -0.126   0.036  -0.032  -0.039  -0.082   0.001  -0.079
   0.001   0.055   0.053  -0.011  -0.074  -0.005  -0.023  -0.014  -0.068   0.074
  -0.070   0.091  -0.052   0.024  -0.074  -0.164  -0.065  -0.103   0.010  -0.004
   0.028  -0.078   0.057   0.145   0.062  -0.022   0.021   0.020   0.066  -0.069
   0.003  -0.056  -0.036   0.039  -0.057  -0.011  -0.057  -0.005  -0.100   0.094
   0.125   0.167   0.032  -0.078   0.167   0.084  -0.042  -0.087  -0.099   0.099
  -0.075  -0.077  -0.083  -0.172  -0.026  -0.115   0.022  -0.136   0.019  -0.104
  -0.041  -0.101  -0.075  -0.013  -0.182  -0.124  -0.001  -0.039  -0.239  -0.143
  -0.174  -0.032  -0.103  -0.046   0.010   0.027   0.005  -0.037   0.008  -0.083
   0.073   0.024   0.069   0.019  -0.041  -0.060  -0.070   0.097  -0.042  -0.038
   0.026  -0.092   0.016   0.066  -0.044   0.056  -0.067   0.095  -0.047   0.192
   0.035   0.038   0.086   0.027  -0.025   0.036   0.105   0.010   0.097   0.078
   0.032  -0.122   0.138   0.065  -0.121   0.017  -0.006   0.059   0.034  -0.075
   0.115   0.028  -0.098   0.076   0.003   0.059   0.025  -0.042   0.117  -0.028
   0.020   0.041  -0.003  -0.010   0.015   0.015  -0.044   0.070  -0.097   0.031
   0.083  -0.036   0.191  -0.102   0.125  -0.129   0.095   0.129   0.046   0.063
   0.094   0.103  -0.006  -0.015   0.018  -0.010   0.001   0.062  -0.053   0.227
  -0.090   0.240  -0.175   0.014  -0.040  -0.029  -0.021  -0.031   0.013  -0.050
   0.053  -0.041   0.035  -0.003   0.083   0.143   0.101   0.001   0.099  -0.006
   0.083  -0.015   0.054  -0.044   0.110   0.042   0.080   0.087  -0.028   0.074
  -0.220   0.042  -0.015  -0.042   0.027  -0.055  -0.002  -0.006   0.070   0.039
  -0.043  -0.059  -0.027  -0.055   0.057   0.003   0.021   0.040   0.086  -0.114
   0.149  -0.182  -0.116   0.133  -0.047   0.021  -0.004  -0.015   0.021  -0.093
   0.033   0.116  -0.097   0.167   0.096   0.043   0.053  -0.071  -0.005  -0.040
   0.079   0.017   0.001   0.012   0.061   0.007   0.052  -0.156  -0.124  -0.048
  -0.114  -0.107  -0.081  -0.030  -0.010  -0.057  -0.045  -0.054  -0.045  -0.055
  -0.078  -0.022  -0.038   0.003  -0.048   0.017   0.084  -0.049   0.141   0.003
   0.013   0.077   0.074   0.061   0.168  -0.068  -0.006   0.025  -0.097  -0.001
  -0.043  -0.107   0.018  -0.036  -0.012   0.080  -0.125   0.024  -0.034   0.014
  -0.051   0.063  -0.083  -0.099  -0.025   0.023   0.111  -0.058   0.022  -0.077
  -0.003  -0.023  -0.019  -0.008   0.044  -0.143  -0.015  -0.030  -0.049  -0.143
  -0.017  -0.142  -0.112  -0.088  -0.112  -0.026  -0.043   0.061   0.043  -0.111
  -0.081  -0.188   0.025  -0.019  -0.059  -0.015  -0.071  -0.099  -0.136  -0.066
   0.013  -0.171   0.001  -0.138  -0.001  -0.125  -0.082  -0.082  -0.117  -0.104
  -0.101  -0.040  -0.090   0.003  -0.156  -0.061  -0.064  -0.038   0.064   0.187
  -0.024   0.182  -0.036   0.044   0.050   0.163   0.045   0.031   0.072  -0.065
  -0.121   0.045   0.104   0.084   0.186   0.148   0.062   0.066   0.055   0.117
   0.127  -0.007   0.211   0.025   0.182   0.135   0.065   0.054   0.082   0.196
  -0.100   0.169  -0.001   0.085  -0.055  -0.032   0.156  -0.064   0.032  -0.092
  -0.006   0.138   0.000  -0.088   0.152  -0.074   0.126   0.079   0.117   0.054
   0.165   0.073   0.040   0.054   0.141   0.029   0.025   0.081   0.031   0.148
   0.091   0.038  -0.116  -0.016  -0.185  -0.081   0.019  -0.046  -0.120  -0.030
   0.030   0.105  -0.009  -0.101   0.166  -0.077   0.027   0.009   0.000   0.030
   0.082   0.046  -0.138  -0.062  -0.032  -0.002   0.118   0.108  -0.001   0.026
  -0.025   0.158  -0.034   0.041  -0.054  -0.052  -0.028  -0.122  -0.019  -0.059
   0.045  -0.121   0.062  -0.151  -0.157   0.022  -0.105  -0.083  -0.070  -0.091
  -0.057  -0.124  -0.107  -0.084  -0.203  -0.046  -0.046  -0.103  -0.125  -0.039
  -0.133  -0.021  -0.082   0.069   0.078   0.010   0.023  -0.056   0.190  -0.073
  -0.121   0.194  -0.018  -0.003   0.070  -0.063   0.229   0.040   0.167   0.030
  -0.031   0.112   0.046   0.044   0.052   0.085   0.022   0.090   0.014   0.087
   0.014   0.142   0.020   0.072   0.070   0.101   0.079  -0.011  -0.001  -0.055
   0.024  -0.162  -0.022   0.069  -0.016   0.064   0.013  -0.062  -0.020   0.005
  -0.017   0.088   0.057  -0.041   0.071   0.086  -0.023   0.056  -0.015   0.064
  -0.026  -0.027  -0.124   0.018  -0.124  -0.040  -0.096  -0.011   0.029  -0.125
   0.033   0.031   0.062  -0.009   0.066  -0.038   0.012  -0.024  -0.002  -0.025
   0.203  -0.036  -0.016   0.133   0.057   0.091  -0.024   0.186  -0.034   0.058
  -0.041  -0.068   0.003   0.013  -0.121  -0.045  -0.081  -0.049  -0.003  -0.018
  -0.028  -0.044  -0.087  -0.137   0.020  -0.220   0.032  -0.071  -0.007  -0.041
  -0.072   0.044  -0.101  -0.122   0.068  -0.154  -0.035  -0.094   0.012  -0.065
  -0.097   0.037  -0.101   0.105  -0.048   0.020   0.080   0.024   0.084  -0.115
   0.079  -0.139  -0.030  -0.021  -0.155  -0.106  -0.017  -0.109   0.095   0.026
  -0.132  -0.067   0.011  -0.074  -0.138  -0.247  -0.059  -0.025  -0.278   0.069
   0.004  -0.079  -0.017   0.029   0.064   0.022   0.102   0.058   0.056   0.116
  -0.052   0.169   0.004   0.023   0.079   0.007   0.089  -0.034   0.053  -0.049
   0.011   0.013   0.095  -0.008   0.137   0.232  -0.040   0.177  -0.062   0.052
  -0.104   0.082   0.030  -0.066  -0.128  -0.010  -0.006   0.188   0.014   0.213
   0.122   0.073   0.043  -0.021   0.088  -0.054   0.086  -0.015   0.081  -0.107
  -0.100   0.098  -0.061   0.164  -0.123  -0.173  -0.384  -0.227  -0.212  -0.028
   0.066   0.032   0.016   0.130  -0.089   0.087  -0.062   0.048   0.055  -0.004
   0.237  -0.075  -0.022   0.023   0.013   0.060   0.101   0.142   0.132   0.104
  -0.028   0.128   0.015   0.091   0.012   0.071   0.070   0.081   0.096   0.037
  -0.082   0.128  -0.046  -0.133  -0.085   0.088   0.118  -0.191  -0.062  -0.035
  -0.028  -0.212   0.100   0.004  -0.062   0.003  -0.059  -0.154   0.087  -0.081
   0.048   0.112   0.178  -0.113   0.173   0.154  -0.148   0.234   0.104   0.136
   0.105   0.155   0.232   0.007  -0.089   0.063   0.224  -0.283  -0.082   0.039
  -0.140  -0.015   0.074   0.095   0.061  -0.101   0.002  -0.114  -0.100  -0.123
   0.036  -0.230  -0.045  -0.008  -0.229   0.009  -0.036  -0.047  -0.143  -0.039
  -0.049   0.045  -0.083  -0.103   0.013   0.169  -0.378   0.200   0.406  -0.564
   0.384   0.241  -0.332   0.110   0.052  -0.376   0.354  -0.059  -0.193   0.292
  -0.246   0.167   0.045  -0.381   0.384   0.302  -0.568   0.369   0.171  -0.336
   0.340   0.139  -0.193   0.342  -0.090  -0.224   0.299  -0.175  -0.003   0.028
   0.057  -0.217   0.079   0.055  -0.366   0.061   0.171  -0.307  -0.154   0.180
  -0.188  -0.153   0.062   0.075  -0.205   0.036   0.041  -0.122   0.066  -0.084
  -0.012  -0.025   0.029  -0.123   0.169  -0.046  -0.069   0.047  -0.025  -0.038
  -0.007   0.089  -0.096  -0.063   0.166  -0.148   0.084  -0.040  -0.028   0.004
   0.048   0.125   0.006  -0.104   0.141   0.080  -0.162   0.141   0.216  -0.179
   0.002   0.293  -0.199   0.056   0.061  -0.174   0.254  -0.098   0.013   0.042
   0.019  -0.008  -0.077   0.099   0.017  -0.117  -0.119  -0.023   0.218  -0.250
  -0.167   0.066   0.161  -0.192   0.092   0.185  -0.313   0.135   0.006  -0.035
  -0.049  -0.006   0.060  -0.030  -0.026  -0.130   0.082  -0.146   0.018   0.047
  -0.016  -0.281   0.108   0.047  -0.228   0.018  -0.046  -0.186  -0.105   0.070
  -0.203   0.001   0.057   0.203  -0.080   0.217   0.264  -0.117  -0.048   0.177
   0.075  -0.031  -0.001  -0.012   0.156  -0.019   0.020   0.048  -0.017  -0.062
   0.294  -0.291  -0.103   0.198   0.050   0.100   0.119  -0.043   0.120   0.285
  -0.307   0.325   0.007  -0.048   0.239  -0.039   0.024   0.361  -0.103   0.291
  -0.048  -0.011   0.201   0.181  -0.011  -0.032   0.200  -0.202  -0.138   0.164
  -0.066   0.107   0.111  -0.302   0.007   0.095  -0.101  -0.065  -0.093  -0.103
  -0.061  -0.086  -0.234  -0.060  -0.075  -0.059  -0.039  -0.124   0.127   0.016
  -0.125   0.057   0.159   0.005   0.079   0.208  -0.009  -0.048   0.098  -0.021
   0.052  -0.056   0.088  -0.074   0.008   0.148  -0.044   0.073  -0.070  -0.021
  -0.076  -0.092  -0.121  -0.168  -0.071  -0.005  -0.136   0.031  -0.140  -0.023
  -0.093  -0.097  -0.198   0.036  -0.021  -0.181   0.122  -0.045   0.077  -0.130
   0.019   0.077  -0.118  -0.023  -0.029  -0.066  -0.119   0.192  -0.081   0.101
  -0.017   0.093  -0.025  -0.026   0.096  -0.045   0.072  -0.092  -0.117   0.088
  -0.112  -0.265   0.069   0.008  -0.163  -0.076  -0.020  -0.179   0.185   0.079
  -0.022  -0.013  -0.242  -0.075  -0.023   0.086   0.042   0.049   0.047   0.049
  -0.135  -0.015  -0.040   0.182  -0.020  -0.029   0.006   0.031   0.011  -0.070
   0.081  -0.046  -0.019   0.105  -0.058   0.055   0.020   0.062  -0.118   0.156
   0.060   0.008   0.136  -0.069   0.025   0.047  -0.114   0.198   0.090   0.024
   0.124  -0.059   0.063  -0.045   0.208   0.072   0.189   0.076   0.097  -0.116
  -0.070  -0.015   0.107  -0.043   0.013   0.012   0.027  -0.041  -0.045   0.156
   0.002   0.033  -0.112   0.074   0.111   0.093   0.027   0.096  -0.037  -0.108
   0.044   0.028   0.018   0.096  -0.043   0.088  -0.039   0.038  -0.004  -0.201
   0.150   0.100  -0.095   0.025   0.117   0.004   0.017  -0.012   0.099   0.050
   0.081  -0.100  -0.133   0.024  -0.102   0.178  -0.230   0.088  -0.144  -0.075
  -0.058   0.004   0.014  -0.162   0.101  -0.050  -0.010  -0.082   0.059  -0.033
  -0.005  -0.015  -0.066  -0.055   0.043  -0.078   0.106  -0.129   0.029  -0.020
   0.036   0.142  -0.093   0.268  -0.119   0.043  -0.131   0.074   0.073  -0.081
   0.083   0.034  -0.011   0.060   0.086   0.006   0.030   0.069   0.061  -0.101
   0.157  -0.122   0.054  -0.106   0.135  -0.046  -0.042   0.086  -0.111   0.132
  -0.192   0.060  -0.084   0.024   0.004  -0.072  -0.068  -0.050  -0.103  -0.148
  -0.087   0.023  -0.032  -0.001  -0.122  -0.119   0.102  -0.145   0.143  -0.119
   0.138  -0.050  -0.009   0.017  -0.090   0.150  -0.053   0.040   0.008  -0.096
   0.109   0.004  -0.012  -0.260  -0.351   0.005  -0.061   0.042   0.029   0.085
   0.200   0.040   0.088  -0.018   0.060  -0.048   0.240   0.010   0.054   0.102
  -0.059   0.209  -0.125  -0.060   0.144  -0.149   0.035  -0.226   0.134  -0.076
  -0.062   0.047  -0.252   0.066  -0.106  -0.042  -0.111   0.030   0.084  -0.102
   0.140  -0.181   0.065  -0.060   0.020  -0.006  -0.015   0.076   0.052   0.069
  -0.009   0.025   0.172  -0.079   0.041   0.128  -0.010   0.123  -0.130  -0.093
  -0.115   0.124   0.004  -0.032   0.058  -0.111   0.060  -0.037  -0.006   0.127
  -0.007   0.147   0.027   0.032  -0.070   0.156  -0.015  -0.236   0.147  -0.121
  -0.109  -0.000   0.174  -0.279  -0.171   0.537  -0.575   0.001   0.699  -0.840
   0.346   0.499  -0.689   0.382   0.327  -0.353  -0.189   0.270  -0.130  -0.613
   0.718  -0.195  -0.832   0.926  -0.162  -0.650   0.839  -0.433  -0.228   0.350
  -0.229   0.079  -0.051   0.154  -0.141   0.129   0.191  -0.170   0.118   0.088
  -0.267   0.125   0.071  -0.061   0.147   0.186   0.043   0.129   0.186  -0.031
   0.003  -0.105  -0.015  -0.089  -0.066   0.084  -0.050  -0.100   0.070  -0.004
  -0.038   0.002  -0.221   0.329   0.113  -0.334   0.127  -0.005  -0.069  -0.041
  -0.412   0.480  -0.272  -0.196  -0.053   0.057   0.440  -0.608   0.187   0.331
  -0.298   0.284  -0.048   0.234  -0.017  -0.186   0.165  -0.116   0.466  -0.206
  -0.157   0.449  -0.065  -0.052   0.321  -0.093  -0.075   0.353  -0.190  -0.045
   0.148  -0.011  -0.135   0.007   0.044  -0.225  -0.176   0.360   0.021  -0.193
   0.420  -0.113  -0.226   0.244  -0.099  -0.113   0.310  -0.149   0.098   0.065
  -0.732   0.513   0.099  -0.575   0.450   0.324  -0.621   0.267   0.378  -0.536
   0.335   0.322  -0.697   0.547  -0.062  -0.713   0.576  -0.149  -0.300   0.345
   0.156  -0.433   0.415   0.044  -0.224   0.239   0.170  -0.227  -0.004   0.259
  -0.306   0.101   0.130  -0.301   0.195  -0.071  -0.128   0.201  -0.295  -0.188
  -0.050  -0.021  -0.115  -0.133  -0.056  -0.130  -0.050  -0.162  -0.116   0.233
   0.056  -0.185   0.114   0.050   0.058   0.087  -0.014   0.091  -0.021   0.202
  -0.169   0.129   0.055  -0.186   0.010  -0.008  -0.072  -0.152   0.048  -0.081
  -0.271   0.145  -0.084   0.018  -0.064  -0.088   0.150  -0.265   0.012  -0.011
  -0.250   0.057  -0.119  -0.124   0.170  -0.228   0.065  -0.012   0.024   0.129
  -0.109   0.359  -0.139   0.152  -0.069   0.032   0.196  -0.255   0.038  -0.070
  -0.005   0.106  -0.083   0.229   0.046   0.122  -0.111   0.149   0.144  -0.142
  -0.054   0.131   0.203  -0.088  -0.003  -0.085   0.025  -0.010  -0.281   0.122
  -0.020  -0.057   0.040   0.007   0.043   0.063   0.102  -0.100   0.098   0.053
   0.020  -0.007   0.119   0.157  -0.037   0.153   0.048  -0.079   0.257   0.022
   0.087  -0.082   0.196   0.071  -0.156   0.274  -0.049   0.015  -0.127   0.027
  -0.018  -0.017  -0.006   0.043  -0.067   0.055  -0.222   0.153  -0.279  -0.082
  -0.021  -0.110   0.068  -0.133  -0.006  -0.108   0.014  -0.093   0.001  -0.153
  -0.097   0.155   0.039   0.019   0.176   0.015   0.255   0.047   0.167   0.038
   0.097   0.148  -0.206   0.069  -0.151   0.032  -0.047  -0.020   0.048  -0.011
   0.243  -0.222  -0.006  -0.115  -0.195  -0.045  -0.013  -0.079  -0.155   0.039
  -0.168  -0.083   0.060  -0.175   0.034  -0.004  -0.094   0.057  -0.228   0.139
  -0.223  -0.043  -0.006  -0.051   0.163  -0.004  -0.028  -0.147  -0.001  -0.116
  -0.080   0.093   0.070   0.102  -0.093  -0.014   0.032  -0.124   0.206  -0.068
   0.077  -0.041  -0.116   0.007  -0.106   0.027  -0.129  -0.050  -0.015  -0.041
  -0.075   0.000   0.225  -0.026   0.225   0.188   0.004   0.312   0.009   0.161
   0.108   0.140   0.177  -0.076   0.078  -0.089   0.144  -0.037   0.092   0.110
  -0.017   0.112   0.030  -0.032  -0.174  -0.271  -0.247  -0.398  -0.225  -0.148
   0.112   0.660   0.462   0.635   0.513   0.561   0.152  -0.329  -0.581  -0.632
  -0.223  -0.544  -0.022   0.310   0.207   0.433   0.334   0.347   0.504   0.133
   0.302   0.356   0.244   0.522   0.132   0.344   0.393  -0.451  -1.001  -0.121
  -1.046  -1.267  -0.425   0.352   0.174   0.250   0.312   0.612   0.536   0.036
   0.252  -0.306   0.101   0.365  -0.007   0.063  -0.003  -0.180   0.394  -0.492
  -0.325  -0.656  -0.154  -0.146   0.096  -0.208  -0.230   0.833   0.111   1.405
   0.648  -0.515   0.079  -0.246  -0.149  -1.004   0.077  -0.100  -0.718  -0.064
   0.195  -0.055   0.038   0.239  -0.440  -0.609  -0.251  -2.106  -2.168  -2.607
