Corrected accelerogram 20160214_001343_CSTC_20 GNS Science
Site CSTC      43 18 44S  172 22 53E     Cusp file:  20160214_001352_CSTC
Cust School
Instrument Cusp_10402
Resolution: 18-bit   Instr Period: 0.0050 s   Damping: 0.700
Accelerogram 20160214_001343_CSTC_20                 Processed 2016 February 22
11 km east of CHRISTCHURCH
2016 February 14         00:13:43 UT
Epicentre  43 29 50S 172 45 18E  Bearing S56E  Dist   37km  Depth    8km M  5.70
Number of points  6047    Duration 120.92 sec
Instrument corrected data at 0.020 sec intervals
Band-pass filter transition bands are .10-.25 Hz and 24.50-25.50 Hz
Component N00E  Horizontal Axis 1
Acceleration:  peak    101.0 mm/s/s at  17.42 sec     rms     13.1 mm/s/s
Velocity:      peak    12.99 mm/s   at  50.82 sec     rms     3.03 mm/s
Displacement:  peak    6.765 mm     at  51.72 sec     rms    1.579 mm
    2016       2      14       0      13     430       0       0    2016       2
      43      29      50     172      45      18       8       0      14       0
      43      18      44     172      22      53       0       0     124      37
   22188     250     250    6047    6047    6047       0       0      13   41868
   200.0    0.70    0.00   0.000  0.0000   0.000   0.000   1.000     0.0    0.00
  43.312 172.381   43.50  172.76    5.70    0.00    0.00    0.00      0.      0.
  110.94    5.00    5.00  120.92  0.0050  0.0200      0.      0.      0.  9806.6
   -99.7   15.88    13.8   0.000      0.   101.0   17.42    13.1   116.9   0.891
   12.99   50.82    3.03   17.19   0.275    6.77   51.72    1.58    8.58   0.275
   0.100   0.150   0.250      0.      0.  24.500   1.000  25.500      0.      0.
     0.0    -0.0     0.0    -0.0     0.0    -0.0     0.0    -0.0     0.0    -0.0
     0.0    -0.0     0.0    -0.0     0.0    -0.0     0.0    -0.0     0.0    -0.0
     0.0    -0.0     0.0    -0.0     0.0    -0.0     0.0    -0.0     0.0    -0.0
     0.0    -0.0     0.0    -0.0     0.0    -0.0     0.0    -0.0     0.0    -0.0
     0.0    -0.0     0.0    -0.0     0.0    -0.0     0.0    -0.0     0.0    -0.0
     0.0    -0.0     0.0    -0.0     0.0    -0.0     0.0    -0.0     0.0    -0.0
     0.0    -0.0     0.0    -0.0     0.0    -0.0     0.0    -0.0     0.0    -0.0
     0.0    -0.0     0.0     0.0     0.0     0.0     0.0     0.0     0.0     0.0
     0.0     0.0     0.0     0.0     0.0     0.0     0.0     0.0     0.0     0.0
     0.0     0.0     0.0     0.0     0.0     0.0     0.0     0.0     0.0     0.0
     0.0     0.0     0.0     0.0     0.0     0.0     0.0     0.0     0.0     0.0
     0.0     0.0     0.0    -0.0     0.0    -0.0     0.0    -0.0     0.0    -0.0
     0.0    -0.0     0.0    -0.0     0.0    -0.0     0.0    -0.0     0.0    -0.0
     0.0    -0.0     0.0    -0.0     0.0    -0.0     0.0    -0.0     0.0    -0.0
     0.0    -0.0     0.0    -0.0     0.0    -0.0     0.0    -0.0     0.0    -0.0
     0.0    -0.0     0.0    -0.0     0.0    -0.0     0.0    -0.0     0.0    -0.0
     0.0    -0.0     0.0    -0.0     0.0    -0.0    -0.0    -0.0    -0.0    -0.0
    -0.0    -0.0    -0.0    -0.0    -0.0    -0.0    -0.0    -0.0    -0.0    -0.0
    -0.0    -0.1    -0.0    -0.1    -0.0    -0.1    -0.0    -0.1    -0.0    -0.1
    -0.0    -0.1    -0.0    -0.1    -0.0    -0.1    -0.0    -0.1    -0.0    -0.1
    -0.0    -0.1    -0.0    -0.1    -0.1    -0.1    -0.1    -0.1    -0.1    -0.1
    -0.1    -0.1    -0.1    -0.1    -0.1    -0.1    -0.1    -0.1    -0.1    -0.1
    -0.1    -0.1    -0.1    -0.1    -0.1    -0.1    -0.1    -0.1    -0.1    -0.1
    -0.1    -0.1    -0.1    -0.1    -0.1    -0.1    -0.1    -0.1    -0.1    -0.1
    -0.1    -0.2    -0.1    -0.2    -0.1    -0.2    -0.1    -0.2    -0.1    -0.2
     0.4     0.0     0.1     0.0     0.3     0.2     0.4     0.1    -0.0     0.6
     0.2    -0.4    -0.1     0.1    -0.4    -0.3     0.2     0.0     0.4     0.2
    -0.0     0.7     0.7     0.3     0.4     0.1     0.3    -0.1     0.4     0.3
     0.2    -0.5     0.4     0.1    -0.5    -0.0     0.5    -0.4    -0.3     0.4
     0.6    -0.4    -0.1     0.6    -0.3    -0.2    -0.1    -0.5    -0.7    -0.3
     0.7     0.6     0.5     0.2     0.3     0.3    -0.1     0.3     0.8     0.5
     0.2     0.1     0.4    -0.5     0.1     0.2     0.4    -0.4    -0.2     0.2
    -0.3    -0.2     0.3     0.3    -0.3    -0.2    -0.5    -0.1     0.1     0.4
    -0.1     0.2     0.0     0.3     0.4    -0.1    -0.1    -0.0     0.2    -0.1
     0.2     0.2    -0.0     0.3    -0.3     0.1    -0.1    -0.3     0.2    -0.3
     0.3     0.2    -0.2    -0.2    -0.2     0.2     0.2     0.2     0.2    -0.4
    -0.2    -0.4    -0.2    -0.1     0.3    -0.4    -0.2    -0.1    -0.0     0.3
    -0.2     0.1    -0.0     0.2     0.0     0.1    -0.3    -0.6    -0.5     0.3
     0.4    -0.3    -0.5    -0.1     0.7     0.3     0.5    -0.4    -0.4     0.1
    -0.3     0.0    -0.0     0.0     0.0    -0.1     0.0    -0.5     0.6    -0.3
    -0.3     0.2     0.2     0.3     0.1    -0.4     0.3    -0.2    -0.3    -0.0
    -0.9    -0.3    -0.4     0.2    -0.1    -0.2    -0.5     0.1     0.4     0.3
    -0.0    -0.4    -0.2    -0.4     0.2    -0.0    -0.0     0.1     0.2     0.3
    -0.4     0.1    -0.2    -0.1     0.2     0.0     0.3     0.1     0.5    -0.5
     0.5     0.0    -0.2     0.3     0.2    -0.2    -0.5     0.3     0.1     0.1
     0.4    -0.1     0.3    -0.5    -0.1     0.0     0.2     0.3    -0.2    -0.3
    -0.1     0.0     0.3    -0.4     0.2     0.5     0.1     0.1     0.3    -0.1
     0.1     0.0     0.1    -0.4    -0.0    -0.2    -0.2    -0.1    -0.1    -0.1
    -0.2     0.2     0.1    -0.1    -0.1     0.6     0.2     0.2     0.6     0.3
    -0.3     0.4     0.2    -0.1     0.1     0.1     0.2    -0.2    -0.5     0.1
    -0.0    -0.5     0.1    -0.2     0.3    -0.1    -0.2    -0.2     0.3    -0.0
    -0.5    -0.3    -0.1     0.1    -0.1    -0.1     0.1    -0.0    -0.4    -0.6
     0.2     0.2     0.0    -0.3    -0.4    -0.1     0.2    -0.1    -0.1     0.3
    -0.1    -0.4    -0.1    -0.7    -0.2     0.4     0.1     0.4    -0.2    -0.5
    -0.3    -0.5     0.2     0.1     0.1    -0.3     0.5    -0.1     0.2     0.1
     0.6     0.0    -0.2    -0.4    -0.7    -0.3    -0.5    -0.5    -0.1    -0.4
     0.1    -0.0    -0.3     0.5    -0.3    -0.2    -0.1    -0.3    -0.5    -0.2
    -0.1    -0.2    -0.5    -0.7     0.0    -0.2     0.0    -0.1    -0.1    -0.3
    -0.3     0.2    -0.4     0.6    -0.4    -0.5    -0.0    -0.4    -0.0    -0.6
    -0.1    -0.2     0.1    -0.5    -0.1     0.1     0.0     0.3    -0.8    -0.4
     0.1    -0.2    -0.3     0.2    -0.3     0.5    -0.1    -0.1     0.3     0.0
     0.2    -0.3     0.4     0.1     0.2     0.5    -0.0     0.3     0.1    -0.2
    -0.1    -0.2     0.2    -0.5     0.5     0.3    -0.5    -0.3     0.1    -0.4
    -0.3    -0.3     0.3    -0.4     0.6     0.2     0.2     0.0     0.5     0.6
     0.6    -0.1    -0.0    -0.0     0.2     0.2     0.1     0.3    -0.1     0.1
     0.2     0.3     0.7     0.2     0.2     0.3     0.1     0.1     0.4     0.0
    -0.2     0.3     0.4     0.1     0.0    -0.3     0.2     0.4     0.7     0.4
     0.2     0.3     0.3     0.1     0.3     0.4     0.3     0.0     0.4     0.5
     0.3     0.5     0.1     0.3     0.3     0.3     0.3     0.4     0.8     0.5
     0.6     0.2     0.2     0.4     0.6     0.2     0.5     0.4     0.6     0.4
     0.6     0.6     0.5     0.4     1.0     0.5     1.0     0.5     0.9     0.5
     0.6     0.9     1.0     0.8     0.8     0.8     0.7     0.4     1.5     0.7
     0.7     0.2     0.9     0.7     0.8     0.5     0.8     0.3     1.1     0.0
     0.7    -0.2     1.5    -0.9     0.9    -0.3     0.9     1.1    -2.9    -1.3
     0.6    -0.6     3.2     0.5    -8.1     5.8    -5.5    -4.0     9.0    -5.3
     1.5     8.9     5.0     3.3    11.1     1.4    -4.7    -4.4   -22.3     2.4
    -6.5    -4.5    -1.3    -1.8    20.1     9.3     6.1     6.6    -2.3     3.0
    -0.7   -14.4    -6.7     4.2   -13.5   -13.5     3.5    -8.6    -7.7     8.3
     3.1    -4.7    22.7     6.8     0.2    -5.1     2.9    -7.3   -23.4     1.0
    -1.6     3.8    -0.4    -7.5    13.9    16.7    -5.6     2.7   -22.4    -0.7
    -5.5   -28.1    11.0     9.4     1.2     6.3   -25.9    31.4    10.5   -28.9
     8.5    18.6   -45.0   -28.4    -2.4    25.4    15.2   -11.8    -2.3    -2.9
     1.2     9.3     2.4    18.4    12.1   -18.6    -5.6    -5.1    31.3     0.2
   -25.0     2.5     1.1     5.4     9.5   -12.9     4.2    -3.2    -3.0   -21.1
   -35.4    25.8    36.6     5.3     3.2   -39.7   -16.8    43.2     9.1   -24.8
     8.7   -12.1   -29.6    -8.8    21.1    22.3   -12.5     6.3    -7.2    -1.4
    13.9   -10.5    13.0   -19.6   -23.1    11.4    41.6    38.4    14.7    -5.3
   -33.8   -11.3    24.2    -2.2    -8.1     9.3   -17.6    -5.0    18.2    21.2
     1.0   -19.7    -9.0   -13.6   -26.9    20.9    17.0    -6.0    -3.4    12.4
    56.2    32.6    -6.8    -8.4   -16.5    -2.6     4.2   -37.0   -26.6     0.3
   -16.8    13.6    24.4     3.2   -26.1   -21.3    13.8    16.5     7.1     7.5
    13.4   -20.8   -53.5   -11.9    21.7    29.6    -7.3   -27.1    -1.6     0.5
    -4.7   -13.4    -4.4     9.4    14.3    -0.2     9.6     4.8     8.8    19.1
    44.9    15.1   -25.0    -5.5    -6.7   -10.0    -3.8    -0.7     1.7     8.6
     0.3     5.1     7.7     9.7   -13.3    -8.5     4.1    -1.5    -4.0    -2.8
   -10.7     1.7     6.3   -13.3   -14.4    -5.6     2.8     3.6    35.0    29.2
    -0.1   -12.2     7.6   -19.1    -9.5     5.7    16.6     0.3    -6.3   -31.4
   -13.6    10.8     6.6    -6.9    -5.6    -9.7   -11.0    17.6    -2.7   -30.1
   -29.5   -15.6     1.5    11.5     4.0     0.9    -8.8    -1.7    -3.9   -17.2
   -16.7   -23.4   -20.5   -18.3    -1.6    16.6    18.7   -24.5   -37.9   -23.6
     1.0    30.7    21.0   -12.7   -24.8   -18.9    -1.2     3.7     5.8     1.0
    -8.6    -2.5    26.6    33.5    37.4    33.7    14.4    12.7     4.3    11.9
    35.5    58.4    64.3    61.2    56.1    31.6    16.2     7.1    32.1    26.4
    21.8    15.2     1.4    -5.5   -13.4   -25.5   -20.3   -23.2   -25.6   -19.2
    14.2    24.9   -11.0   -59.8   -99.4   -60.5   -24.7     0.6    -0.6   -31.4
   -83.8   -81.3   -58.8    -4.4    36.6    72.8    56.1    49.9    50.0    49.2
    52.5    27.2   -19.9   -47.4   -50.1     3.7    38.8    64.1    56.1    49.3
    70.9    67.7    15.6   -19.7   -38.5   -37.1   -52.9   -46.6   -29.5   -44.8
   -25.8     0.9     7.0    28.9    48.9    28.8    -2.9   -39.9   -55.7   -51.5
   -55.6   -32.4    -8.5     9.4    -1.5    -6.4    17.7    36.6     3.7   -23.8
   -13.2     6.6    41.5    14.6     1.9   -28.3   -30.7     9.1    19.1     4.6
   -26.4   -18.9    27.1    14.9    -8.7     9.9    32.0    -7.9    -5.8    33.9
    70.4   101.0    99.5    58.1    -1.8   -25.1   -64.7   -80.2   -64.6   -30.8
   -19.5   -20.4   -20.2   -15.0    22.9    31.6    13.7   -30.2   -66.8   -72.6
   -90.4   -70.3   -55.5   -57.7   -67.1   -53.6   -15.9    12.9     2.0   -35.0
    10.1    49.0    49.9    23.1     6.1    23.1     2.3   -34.4   -39.7   -22.2
   -10.9     1.3    35.4    76.3    84.6    75.2    64.9    61.9    28.0    -6.9
    14.2    27.8   -12.6   -16.1    -1.2    12.2     9.2   -10.4   -49.7   -55.1
   -10.2    22.4    21.0    -4.4   -28.0   -52.5   -16.1    31.3    53.9    36.2
    -4.6   -42.1   -51.5   -18.6    23.0    11.9   -41.0   -45.2   -11.6    29.6
    58.9    66.4    76.5    93.7    64.5    16.5    -6.1    12.1    18.3    -1.1
   -46.5   -57.6   -68.4   -78.6   -60.1   -31.1    -9.7    -2.7   -27.4   -20.3
     8.4    35.7    34.5    14.4    13.9    31.2    58.9    36.9   -12.2    -8.5
    61.5    79.8    32.3   -32.4   -54.8   -24.0     7.9     6.1   -16.0   -17.5
    18.4    17.4    -4.8    -6.6   -21.6   -48.8   -49.9   -32.9   -33.0    -9.2
     5.1    -1.6     6.4     5.3   -13.0   -11.9   -20.8   -51.5   -56.2   -64.7
   -46.9   -22.9   -19.2   -15.6    -0.5    23.2    34.8    22.8     3.2   -14.7
   -42.5   -64.1   -24.2    30.1    45.1    28.3     2.9    -4.1    -8.7     1.4
    20.7    47.5    51.6    44.5    29.1    44.9    42.4    43.8    34.3    32.9
    49.7    33.3    35.3    23.8    19.6    25.9    45.3    55.6    49.5    36.7
    23.1     6.6    -3.8   -12.4    11.7    38.7    29.5    19.5    10.2     1.9
   -25.8   -39.0   -27.2   -14.0    -9.4   -37.0   -52.7   -53.2   -46.9   -15.4
   -10.9    -4.5    19.8    24.5    20.1    13.7    -7.7   -30.9   -41.0   -42.2
   -35.7   -37.0   -30.6   -24.9   -29.6   -13.0   -19.5   -22.7    -9.9    -4.4
    -4.3   -10.1   -16.8   -14.2     9.9    33.3    24.8    27.6    26.1     8.9
     2.5     3.4    13.1    32.3    56.0    59.5    33.9     7.1     2.1     8.3
     4.0    -9.3   -19.1   -40.9   -63.3   -77.7   -68.9   -51.6   -52.4   -51.8
   -48.1   -38.1    -7.3    20.8    37.6    26.3    10.8     5.6    -9.6   -23.7
   -21.4     2.2    32.6    23.3    -5.7   -20.8   -24.4   -13.5   -11.5   -10.7
    13.4    41.5    57.0    58.4    38.3    25.3    22.2    17.2    16.0    15.3
    13.6    23.7    39.2    45.1    57.8    60.7    50.3    38.8    39.7    35.1
    34.4    33.5    25.8     3.9    -4.7    -4.8    -9.3   -15.0    -4.4    -1.8
    -6.4    -4.2    -3.8     5.0     2.7    -3.8   -16.6   -34.9   -41.1   -45.5
   -58.1   -65.2   -69.7   -77.8   -79.7   -89.4   -86.5   -60.9   -23.4    -5.0
     0.5    -5.9   -10.0    -1.5    -5.5   -10.6   -18.7   -21.7   -18.0     4.7
    28.7    38.9    47.2    47.8    39.4    35.7    22.3     9.7     0.2     3.4
     0.7     3.6     0.4    -6.9   -23.2   -32.2   -31.1   -21.6   -23.3   -21.8
   -13.2   -18.3   -11.4   -12.6   -16.5   -14.8    -4.2     3.6    -6.9   -15.8
   -16.2   -27.0   -35.6   -27.3   -10.8    -0.3     9.2    15.2    15.9    16.7
    27.6    30.1    30.1    16.4    10.7    15.6    25.5    34.8    46.9    53.6
    52.0    42.9    22.7    12.4    15.1    20.4    11.2     2.0     1.0    -2.7
    -6.3     5.3    13.9     2.6     0.5     3.2    10.5    19.1    24.5    26.4
    22.7    24.2    34.9    34.1    18.0    12.7     5.4    -6.1   -24.4   -35.5
   -39.4   -35.6   -36.5   -34.4   -23.6   -14.1    -2.6    -4.9   -17.6   -28.0
   -25.4    -9.4    -2.1     3.9     7.8     7.1     3.8     7.9     5.2     1.9
     4.7    15.3    15.5    11.0     7.3     5.4     2.7     4.8    11.2    10.7
     9.4    -1.8   -15.0   -30.5   -38.7   -37.1   -33.1   -33.4   -34.3   -30.5
   -25.4    -7.5     4.7     9.0    -0.1    -2.5     5.0    15.9    25.7    31.0
    39.4    34.1    20.5    10.6     3.9     2.3    10.1    14.7    17.8    13.1
     2.3     1.9     1.2     9.2     9.3     3.0    -1.7     9.3    15.4     9.1
    -9.4   -22.2   -30.9   -30.2   -14.7    -7.4     3.9     6.5     3.0     0.3
     0.8    10.1    23.6    25.9    30.2    26.8    24.4    17.5    15.2     8.4
     2.2    -8.5   -18.6   -17.8    -5.3     0.9     7.2    15.9    18.6    11.7
    -4.3    -8.0   -11.2   -14.3   -18.8   -15.2   -18.6   -15.9   -14.2    -9.0
    -5.0   -15.8   -28.8   -28.3   -27.1   -27.0   -24.0   -23.5   -23.9   -24.1
   -19.7   -17.6   -18.6   -14.3    -6.5     0.6     4.9    -2.7    -2.8    -3.2
     7.5    23.5    27.2    20.2    10.6    15.5    21.9    18.8    13.6     5.6
     4.3     7.6    15.5    27.3    32.9    36.8    33.0    31.3    33.4    29.9
    29.3    26.0    24.5    14.9     1.6    -9.5   -16.8   -16.3    -9.2    -6.1
    -2.3    -4.5   -10.7   -17.7   -20.8   -22.3   -23.4   -24.8   -22.9   -13.1
    -8.5    -5.8    -5.9    -2.7    -0.1     3.1     2.3     6.9    14.1    17.5
    17.5    13.9    11.8     5.3    -0.2    -3.1    -0.7     0.2     3.2     2.0
    -7.6   -15.9   -15.1   -10.1    -4.4    -0.9    -3.8    -8.3   -15.7   -20.6
   -21.9   -22.0   -21.0   -21.2   -22.1   -16.7   -13.7   -11.8    -8.8    -6.0
     2.7    13.6    14.7    14.0     8.4    -2.1    -9.9    -9.0    -6.1    -4.8
    -8.8   -12.3   -14.2   -14.9   -10.5   -10.2   -11.6    -9.8    -8.9   -12.1
   -15.1   -19.3   -18.1   -15.0   -10.0    -7.2   -10.1   -12.4   -12.2    -5.9
    -3.9    -4.2    -5.3    -1.9     3.8     8.5    11.4    19.3    24.4    28.2
    28.1    24.5    13.7    -0.4    -6.8    -3.1    -0.1     0.5     2.1     3.2
     5.1     3.8     5.0     9.8     8.7    11.0    14.9    14.1     9.2     4.6
     2.6     4.1     5.6     7.3     8.7    10.9    13.1    15.5    17.4    16.5
    17.0    20.1    23.9    26.4    25.3    20.2    15.6     9.1     5.9     9.1
    13.0     9.3     2.3    -3.9    -6.9    -7.8   -10.8   -12.0   -13.1   -12.4
   -17.5   -17.2   -17.5   -12.3    -5.8    -4.2    -1.6    -1.1     4.0     6.2
    15.3    23.0    23.8    22.3    16.6     8.9     9.2    12.4    12.5     7.1
     1.0    -4.6    -4.9    -2.3    -4.9    -5.6    -7.7   -15.8   -21.4   -21.3
   -22.7   -21.6   -20.0   -16.8   -12.1    -2.8     9.1    14.7    15.8    15.4
     9.0     5.0     4.4     5.3     4.4     8.0    14.9    18.4    14.1     3.9
     0.6    -2.1    -6.6    -9.7   -11.1    -5.6    -5.0    -7.4   -14.4   -14.5
    -8.6    -7.1    -9.0    -7.5    -8.7   -12.5   -13.8   -19.1   -18.1   -14.6
   -10.3    -3.0     0.1     1.9     6.2    11.6    17.2    17.4    18.2    20.2
    20.4    15.4    10.0     2.9    -0.9    -0.1     1.0    -3.4   -10.7   -18.6
   -20.9   -18.4   -16.2   -12.9    -8.0    -5.7    -5.6    -6.8   -11.1   -12.9
   -10.3    -6.5    -8.4    -9.8    -9.1    -6.0    -1.3     1.6     4.0     6.2
    11.6    16.0    21.5    21.6    22.0    23.3    19.5    13.7     7.1     6.5
     5.5     2.7     0.4    -2.7    -6.1    -4.0    -5.3    -7.8    -8.7    -6.8
    -7.7    -9.0    -7.2    -5.7    -7.2    -8.0   -10.3   -10.6    -7.4    -4.5
    -0.5    -1.9    -5.8    -7.6    -7.0    -2.6    -2.6    -3.0    -2.7    -4.5
    -1.5     6.2    11.3    12.1     9.5    10.6    13.3    12.6     6.2    -3.8
   -14.0   -18.1   -13.8    -9.4   -11.2   -14.8   -17.7   -19.4   -19.1   -15.5
   -16.3   -20.3   -21.5   -19.0   -15.7   -10.6   -10.0   -10.5    -5.7    -4.5
     1.2     9.1    14.0    18.5    21.2    20.8    19.0    16.5    13.9    13.4
    14.0    11.4     7.1     3.6     4.0     2.4     2.7     4.8     6.3     6.3
     7.2     3.2     1.9     0.7    -2.5    -2.6     0.2     6.2    11.5    17.4
    21.1    25.6    30.2    36.4    39.3    36.9    31.4    24.6    25.1    26.0
    24.4    18.9    13.6     8.3     3.9     1.5     2.0     1.8    -0.1     0.3
    -1.4    -2.3    -1.9    -1.4     1.3     2.7    -0.6    -2.0    -3.2    -1.8
    -1.3    -3.3    -8.3   -13.6   -12.5    -8.1    -5.4    -3.4    -2.5    -3.0
    -5.1    -7.1    -8.0    -7.5    -4.8    -3.4    -5.3    -8.6   -15.1   -17.0
   -19.9   -21.5   -23.0   -24.6   -24.5   -20.9   -22.6   -23.4   -22.9   -22.2
   -17.0   -13.3   -11.5   -13.9   -16.6   -17.3   -14.2   -12.9    -8.7    -6.8
    -9.9   -17.2   -23.2   -22.5   -15.8   -10.3    -9.6    -8.9   -10.8   -11.9
   -11.7    -9.4    -7.9    -5.3     0.2     6.3    13.4    15.4    12.9     9.1
     9.5     9.5     9.0     7.1     4.2     4.2     5.6     8.5     8.4     3.8
    -0.3    -2.1    -1.9    -0.7     1.6    -1.4    -8.3   -12.5   -12.5    -8.7
    -4.4    -3.8    -5.1    -3.5     0.5     4.2     4.1     5.1     8.5    12.8
    17.4    19.4    20.7    21.5    18.4    17.5    18.7    17.7    19.3    19.1
    18.9    20.1    20.8    21.4    21.1    19.6    18.9    18.1    15.3    11.3
     7.1     4.7     7.6     9.5     5.0     3.1     1.9     3.9     3.7     0.6
    -2.2    -5.1    -6.3    -4.4    -3.9    -2.4     1.6     4.8     7.9     7.6
     7.1     9.0     9.7    10.0     6.0     3.8     3.3     3.6     4.7     7.8
     8.0     7.9     7.7     7.6     7.3     6.0     5.8     7.8     8.4    10.1
    12.2    12.6    13.8    13.2    10.4    10.9     9.0     7.4     6.9     3.6
     2.0     2.1     2.1     0.7    -1.3    -1.7    -0.4     2.1     3.1    -2.1
    -7.0   -10.3   -13.4   -14.5   -12.5   -13.8   -17.9   -22.6   -22.9   -22.2
   -24.1   -26.4   -28.1   -28.8   -29.6   -28.5   -25.3   -19.2   -14.2   -14.3
