Corrected accelerogram 20160214_001343_NNZ_20 GNS Science
Site NNZ       41 13 02S  173 22 46E     Basalt file:  20160214_001424_NNZ
Nelson
Instrument Basalt_563
Resolution: 24-bit   Instr Period: 0.0050 s   Damping: 0.700
Accelerogram 20160214_001343_NNZ_20                  Processed 2016 February 22
11 km east of CHRISTCHURCH
2016 February 14         00:13:43 UT
Epicentre  43 29 50S 172 45 18E  Bearing S11W  Dist  259km  Depth    8km M  5.70
Number of points  8192    Duration 163.82 sec
Instrument corrected data at 0.020 sec intervals
Band-pass filter transition bands are .10-.25 Hz and 24.50-25.50 Hz
Component N00E  Transverse Accelerometer Axis
Acceleration:  peak     -2.0 mm/s/s at  97.54 sec     rms      0.4 mm/s/s
Velocity:      peak    -0.85 mm/s   at  98.10 sec     rms     0.15 mm/s
Displacement:  peak    0.353 mm     at  97.52 sec     rms    0.074 mm
    2016       2      14       0      13     430       0       0    2016       2
      43      29      50     172      45      18       8       0      14       0
      41      13       2     173      22      46       0       0     191     259
   34400     250     250    8192    8192    8192       0       0      13   44000
   200.0    0.70    0.00   0.000  0.0000   0.000   0.000   1.000     0.0    0.00
  41.217 173.379   43.50  172.76    5.70    0.00    0.00    0.00      0.      0.
  172.00    5.00    5.00  163.82  0.0050  0.0200      0.      0.      0.  9806.6
    -2.2   97.54     0.4   0.000      0.    -2.0   97.54     0.4     2.2   0.345
   -0.85   98.10    0.15    0.85   0.345    0.35   97.52    0.07    0.37   0.345
   0.100   0.150   0.250      0.      0.  24.500   1.000  25.500      0.      0.
   0.001   0.001   0.001   0.001   0.001   0.001   0.001   0.000   0.000   0.000
   0.000   0.000   0.000   0.000   0.000   0.000   0.000  -0.000  -0.000  -0.000
  -0.000  -0.000  -0.000  -0.000  -0.000  -0.000  -0.000  -0.001  -0.001  -0.001
  -0.001  -0.001  -0.001  -0.001  -0.001  -0.001  -0.001  -0.001  -0.001  -0.001
  -0.001  -0.001  -0.001  -0.002  -0.002  -0.002  -0.002  -0.002  -0.002  -0.002
  -0.002  -0.002  -0.002  -0.002  -0.002  -0.002  -0.002  -0.003  -0.003  -0.003
  -0.003  -0.003  -0.003  -0.003  -0.003  -0.003  -0.003  -0.003  -0.003  -0.003
  -0.003  -0.004  -0.004  -0.004  -0.004  -0.004  -0.004  -0.004  -0.004  -0.004
  -0.004  -0.004  -0.004  -0.004  -0.004  -0.004  -0.004  -0.004  -0.004  -0.004
  -0.004  -0.005  -0.005  -0.005  -0.005  -0.005  -0.005  -0.005  -0.005  -0.005
  -0.005  -0.005  -0.005  -0.005  -0.005  -0.005  -0.005  -0.005  -0.005  -0.005
  -0.005  -0.005  -0.005  -0.005  -0.005  -0.005  -0.005  -0.005  -0.005  -0.005
  -0.005  -0.004  -0.004  -0.004  -0.004  -0.004  -0.004  -0.004  -0.004  -0.004
  -0.004  -0.004  -0.004  -0.004  -0.004  -0.003  -0.003  -0.003  -0.003  -0.003
  -0.003  -0.003  -0.003  -0.003  -0.002  -0.002  -0.002  -0.002  -0.002  -0.002
  -0.002  -0.001  -0.001  -0.001  -0.001  -0.001  -0.001  -0.000  -0.000   0.000
   0.000   0.001   0.001   0.001   0.001   0.001   0.002   0.002   0.002   0.002
   0.002   0.003   0.003   0.003   0.004   0.004   0.004   0.004   0.005   0.005
   0.005   0.006   0.006   0.006   0.006   0.007   0.007   0.008   0.008   0.008
   0.008   0.009   0.009   0.010   0.010   0.010   0.010   0.011   0.011   0.012
   0.012   0.013   0.012   0.013   0.013   0.014   0.014   0.015   0.015   0.016
   0.015   0.017   0.016   0.017   0.017   0.018   0.018   0.019   0.018   0.020
   0.019   0.021   0.020   0.022   0.021   0.023   0.021   0.024   0.022   0.025
   0.023   0.026   0.024   0.027   0.024   0.028   0.025   0.029   0.025   0.031
   0.026   0.032   0.026   0.034   0.026   0.036   0.025   0.039   0.022   0.049
  -0.045  -0.014  -0.017  -0.070  -0.057  -0.025  -0.032  -0.063   0.069  -0.078
  -0.001  -0.035  -0.058   0.025  -0.066  -0.009  -0.037  -0.055  -0.056  -0.016
   0.005  -0.082   0.021   0.025  -0.076  -0.000  -0.014   0.007  -0.023  -0.036
   0.034  -0.063  -0.011   0.007  -0.032  -0.023   0.038   0.010  -0.063   0.020
   0.023  -0.091  -0.031   0.051   0.011  -0.066   0.018   0.005  -0.107   0.021
   0.022  -0.024  -0.037   0.010   0.054  -0.101  -0.002   0.036  -0.060  -0.004
   0.030  -0.009  -0.064   0.013  -0.013  -0.023  -0.003   0.007   0.016  -0.047
  -0.013  -0.017  -0.009  -0.024   0.038  -0.036  -0.001  -0.016  -0.018  -0.010
  -0.041   0.047   0.020  -0.030   0.033   0.045  -0.022   0.011   0.064   0.001
  -0.014   0.006  -0.028  -0.004  -0.029   0.026   0.017  -0.031   0.008   0.007
   0.004  -0.012  -0.014   0.025  -0.030   0.018  -0.018   0.006  -0.006  -0.027
   0.046  -0.040   0.015   0.028   0.017  -0.022   0.000   0.003  -0.026   0.023
  -0.034   0.057   0.015  -0.034   0.031   0.030  -0.004   0.021   0.038  -0.013
  -0.000   0.005  -0.023   0.024  -0.044   0.022   0.043  -0.053   0.029   0.013
  -0.000   0.001   0.075  -0.037  -0.033   0.010   0.004  -0.033   0.007   0.031
  -0.000   0.019  -0.042   0.062  -0.052  -0.006   0.024  -0.001  -0.026   0.005
   0.014  -0.052   0.021  -0.020  -0.009  -0.026   0.018   0.062  -0.032   0.011
   0.038   0.030  -0.063   0.063   0.032  -0.043   0.080  -0.021   0.018   0.004
  -0.002   0.073  -0.057   0.053   0.048  -0.043  -0.033   0.019   0.058  -0.065
   0.029   0.069  -0.078   0.018   0.051  -0.033  -0.057  -0.009   0.032  -0.053
   0.005   0.079  -0.039  -0.048   0.037   0.048  -0.045  -0.006   0.032  -0.020
  -0.034   0.014  -0.002  -0.027  -0.013   0.022   0.009  -0.054   0.011  -0.005
  -0.066   0.045   0.018  -0.013  -0.025   0.060   0.023  -0.028   0.045   0.016
   0.012  -0.025   0.054  -0.024  -0.042   0.031   0.061  -0.057   0.020   0.033
  -0.023  -0.005   0.044  -0.004   0.035  -0.017   0.035  -0.010   0.011  -0.024
   0.039  -0.050  -0.006   0.058  -0.006   0.000   0.008   0.022  -0.010   0.009
   0.016   0.030  -0.021   0.033  -0.023   0.024   0.001   0.040  -0.028  -0.014
   0.028  -0.029  -0.047   0.009   0.005  -0.022  -0.006   0.015  -0.035  -0.015
   0.015  -0.018   0.022  -0.001   0.022  -0.011  -0.001   0.030   0.009  -0.009
   0.017   0.022  -0.015  -0.016   0.000   0.001  -0.051   0.006   0.015  -0.006
  -0.027   0.015  -0.002  -0.034   0.008   0.006  -0.010  -0.021  -0.025   0.002
  -0.009  -0.006   0.003  -0.012   0.025  -0.012  -0.009  -0.032  -0.004   0.008
  -0.032  -0.009  -0.006   0.025   0.000   0.021   0.018  -0.039   0.002   0.015
  -0.003  -0.021   0.001   0.007   0.009   0.009   0.023  -0.021  -0.002  -0.005
  -0.026  -0.022   0.006  -0.018   0.008  -0.015  -0.013  -0.035  -0.027   0.000
  -0.006  -0.022  -0.036  -0.005  -0.040   0.000   0.025  -0.007  -0.017  -0.046
   0.031   0.012  -0.032   0.004   0.033  -0.011   0.008   0.008  -0.017   0.021
  -0.002   0.025  -0.028   0.001  -0.007  -0.027   0.018   0.015   0.007   0.008
   0.003   0.034  -0.013   0.002  -0.011   0.024   0.003   0.000   0.014   0.007
   0.007   0.012   0.025  -0.016  -0.012   0.004  -0.029  -0.001   0.048   0.007
   0.011   0.027   0.035  -0.027   0.023   0.000  -0.004  -0.014   0.017   0.021
  -0.018  -0.003   0.028  -0.007  -0.006   0.011   0.005   0.022  -0.009   0.012
  -0.007  -0.006   0.012   0.006   0.005  -0.025  -0.006   0.016   0.007   0.005
   0.016  -0.007  -0.012   0.012  -0.010   0.019  -0.025   0.027   0.014  -0.009
  -0.009   0.010  -0.015   0.013  -0.003  -0.009  -0.005   0.034  -0.007  -0.036
  -0.009  -0.043   0.041   0.008  -0.019  -0.003  -0.023  -0.002   0.015   0.009
  -0.013   0.006  -0.018  -0.001  -0.003  -0.014  -0.016   0.002  -0.017   0.005
   0.001  -0.009   0.007   0.009   0.015  -0.011   0.014  -0.018  -0.006   0.023
  -0.013  -0.020  -0.018   0.000   0.038  -0.018   0.010  -0.030  -0.008   0.008
  -0.012   0.010   0.026  -0.032   0.022  -0.000   0.016   0.003  -0.024   0.002
   0.003  -0.034   0.006  -0.015  -0.021   0.003   0.003  -0.015  -0.014   0.017
  -0.017  -0.001  -0.005  -0.006   0.019   0.005  -0.019   0.022  -0.013   0.006
   0.027   0.001  -0.023   0.005   0.027  -0.008  -0.033   0.014   0.004   0.026
   0.010  -0.022   0.007   0.009   0.023   0.010   0.023   0.009  -0.008  -0.019
   0.008   0.029  -0.027   0.020  -0.020   0.019   0.007   0.004  -0.027   0.028
   0.002   0.039  -0.005  -0.005  -0.012   0.019   0.014   0.034   0.025   0.019
   0.004   0.009   0.028  -0.009   0.027  -0.031   0.029  -0.025  -0.010   0.022
   0.005  -0.051   0.012   0.008   0.001  -0.038   0.024   0.002   0.002   0.009
   0.010  -0.002  -0.017   0.008   0.023  -0.025   0.005   0.012  -0.009  -0.008
   0.007  -0.005   0.021  -0.003  -0.019  -0.020   0.002  -0.011  -0.037  -0.018
  -0.013   0.012  -0.005   0.001  -0.017   0.022  -0.001  -0.025   0.014  -0.003
  -0.027  -0.007   0.000   0.014  -0.008  -0.017  -0.011  -0.007   0.012  -0.011
  -0.003   0.009   0.011   0.020  -0.010   0.012   0.002  -0.024  -0.007  -0.021
   0.026  -0.008  -0.007   0.041  -0.011  -0.013  -0.010   0.007  -0.020  -0.001
   0.004  -0.025   0.023   0.030  -0.003  -0.033  -0.008  -0.019   0.021   0.011
   0.003  -0.007   0.023   0.006   0.014  -0.002   0.014  -0.021   0.007  -0.013
   0.009   0.002  -0.003   0.019  -0.009   0.029  -0.021  -0.001   0.002  -0.019
   0.007  -0.011   0.002  -0.016  -0.027   0.025  -0.058   0.027  -0.006   0.023
   0.022   0.007   0.004   0.011  -0.008  -0.029   0.023  -0.023  -0.019  -0.014
  -0.002  -0.020   0.031  -0.002  -0.010  -0.013  -0.028   0.003   0.010   0.002
   0.014  -0.014   0.024   0.017  -0.016   0.007  -0.014   0.026  -0.013   0.011
   0.004   0.007   0.007   0.002  -0.004   0.024  -0.033  -0.017  -0.004   0.006
  -0.037   0.002  -0.022  -0.004   0.035   0.004   0.024  -0.014  -0.001  -0.008
   0.011   0.039   0.002   0.007   0.008  -0.008  -0.017   0.002  -0.005  -0.001
  -0.004   0.014  -0.031   0.005   0.036  -0.003  -0.007   0.006   0.009   0.031
  -0.016   0.044   0.002   0.008  -0.010   0.022  -0.022   0.029  -0.015  -0.007
  -0.007   0.003  -0.025   0.019  -0.015  -0.001  -0.006  -0.002  -0.010  -0.035
  -0.001  -0.032   0.014  -0.027   0.015   0.002  -0.024   0.013   0.001   0.010
  -0.004  -0.003   0.011   0.000   0.014  -0.034  -0.016   0.015  -0.002   0.014
  -0.014   0.005   0.023   0.029   0.004   0.008   0.003  -0.004   0.006  -0.004
  -0.011   0.016   0.010   0.026   0.029   0.015   0.019   0.006  -0.017  -0.001
   0.003  -0.028   0.008  -0.018  -0.012   0.003  -0.006  -0.000   0.015   0.013
  -0.031  -0.031   0.006   0.014  -0.028   0.006   0.012  -0.005   0.011  -0.001
   0.020  -0.013   0.004   0.002  -0.022  -0.015   0.003  -0.016  -0.028   0.004
   0.008   0.004   0.012  -0.029   0.002   0.012  -0.006   0.018  -0.004   0.002
  -0.033   0.020  -0.039   0.013  -0.008  -0.005  -0.004  -0.000   0.017  -0.018
   0.031   0.003   0.028   0.008   0.012  -0.026   0.036  -0.007   0.024  -0.019
   0.003   0.011   0.006  -0.020   0.016  -0.019   0.037   0.005  -0.005   0.007
   0.014  -0.012  -0.006   0.013   0.016   0.010  -0.000  -0.004   0.003  -0.013
   0.013   0.005  -0.014  -0.026  -0.009   0.038   0.025  -0.003   0.028  -0.010
  -0.014   0.010   0.004   0.012   0.019   0.003   0.011  -0.010   0.028   0.010
   0.040  -0.007  -0.039  -0.017   0.017  -0.022  -0.011  -0.019  -0.004  -0.003
   0.014  -0.041  -0.025   0.025  -0.003  -0.044   0.004  -0.019  -0.017  -0.019
   0.010   0.004  -0.004  -0.025  -0.019  -0.042   0.003   0.001  -0.027  -0.012
  -0.015  -0.015  -0.013  -0.018  -0.023   0.011  -0.015  -0.002   0.001  -0.001
   0.027   0.000   0.018  -0.013   0.015  -0.005   0.012   0.014   0.001   0.021
  -0.042   0.027  -0.022   0.034  -0.017   0.023  -0.011  -0.023  -0.022   0.024
  -0.021   0.009   0.002   0.036  -0.020   0.024  -0.002   0.010  -0.004   0.008
   0.012   0.004   0.013   0.006  -0.024  -0.016   0.024  -0.033   0.025  -0.014
   0.011   0.019   0.033  -0.020  -0.008   0.037   0.002  -0.026   0.003   0.005
   0.005   0.005  -0.008   0.014   0.007   0.015   0.052  -0.004   0.011  -0.001
   0.007   0.008  -0.009   0.003  -0.025   0.006  -0.020   0.007  -0.024  -0.001
  -0.004   0.013  -0.002  -0.014   0.014  -0.010   0.004  -0.004   0.022  -0.017
   0.000  -0.011   0.015  -0.039   0.003   0.003  -0.007  -0.004   0.022   0.001
   0.015  -0.030   0.011  -0.004  -0.003   0.006  -0.025   0.007   0.000  -0.009
   0.016  -0.001   0.020   0.002   0.006   0.003   0.004  -0.028  -0.009   0.006
   0.017  -0.014   0.009  -0.009  -0.003   0.003   0.005  -0.011  -0.008   0.020
   0.007  -0.017   0.024  -0.002   0.011  -0.025   0.034  -0.039   0.005   0.019
   0.006  -0.015  -0.006   0.015  -0.025   0.038  -0.022   0.018  -0.001  -0.027
   0.013  -0.011  -0.016   0.053  -0.009   0.027  -0.053   0.051  -0.009  -0.002
   0.016  -0.006  -0.000  -0.007  -0.027   0.001  -0.001   0.001   0.017  -0.003
  -0.022   0.010  -0.031   0.021   0.008   0.020   0.016  -0.014   0.007   0.012
  -0.004   0.013   0.008  -0.011  -0.013   0.005   0.003   0.012   0.007  -0.019
   0.016   0.009  -0.016   0.012   0.020  -0.011  -0.016   0.011  -0.009  -0.015
  -0.035  -0.004   0.006   0.020  -0.003   0.017  -0.011  -0.020   0.016  -0.036
   0.002   0.010  -0.013   0.006  -0.021  -0.024   0.003  -0.004   0.029   0.004
   0.006  -0.010   0.003   0.028   0.023  -0.009  -0.004   0.015  -0.027   0.009
  -0.014   0.003  -0.017   0.056  -0.036   0.022  -0.022  -0.007  -0.020   0.002
   0.016  -0.031   0.005  -0.008  -0.002   0.007  -0.018  -0.005   0.002   0.007
   0.011  -0.013   0.040  -0.056   0.008  -0.021  -0.003  -0.009   0.005   0.011
   0.043  -0.034  -0.006  -0.035   0.007   0.008   0.028   0.018  -0.015  -0.003
   0.006  -0.007  -0.008   0.010   0.019   0.018   0.010   0.013  -0.012   0.010
   0.021   0.011  -0.007   0.022  -0.007  -0.002   0.001   0.006  -0.017  -0.016
  -0.004   0.023  -0.022   0.016  -0.018   0.012   0.003  -0.013  -0.010   0.001
   0.014   0.009   0.002   0.009  -0.035   0.017  -0.007   0.004   0.025  -0.017
  -0.010   0.011   0.007   0.004  -0.010   0.003   0.011  -0.023  -0.010  -0.022
  -0.009  -0.005   0.016  -0.004   0.004   0.000   0.001   0.002  -0.001   0.004
  -0.006  -0.007   0.020   0.035  -0.014  -0.007  -0.015   0.010  -0.002  -0.052
   0.028  -0.051   0.031  -0.043   0.022  -0.017   0.005  -0.002   0.005  -0.008
  -0.005  -0.011   0.044  -0.008   0.003   0.002  -0.007   0.019  -0.019  -0.001
  -0.002   0.001   0.000   0.015  -0.014   0.037   0.010   0.000  -0.005   0.026
  -0.003  -0.026   0.022  -0.037   0.022  -0.019  -0.013  -0.012   0.001  -0.014
   0.003   0.010  -0.008  -0.012   0.003  -0.008  -0.005   0.021  -0.004   0.010
   0.001  -0.002  -0.001   0.010   0.009  -0.012   0.011  -0.016  -0.001  -0.001
  -0.006  -0.013   0.015  -0.007   0.006   0.030  -0.001   0.012  -0.035   0.003
   0.023   0.016   0.010   0.005  -0.002  -0.007  -0.014   0.010   0.007  -0.024
   0.011  -0.002   0.000   0.009   0.005  -0.010  -0.007   0.016   0.012  -0.020
  -0.006  -0.000  -0.006  -0.013  -0.007   0.040  -0.030   0.002  -0.032   0.003
   0.030   0.005   0.030   0.005  -0.012  -0.021  -0.018  -0.001  -0.004  -0.007
  -0.033   0.031  -0.009   0.003  -0.008   0.035  -0.005   0.024  -0.011  -0.002
   0.024  -0.022  -0.008   0.010  -0.012  -0.008  -0.017  -0.004   0.001  -0.007
   0.020   0.007   0.006   0.002   0.007   0.014   0.011   0.002  -0.003  -0.005
   0.023  -0.004   0.034  -0.016  -0.001   0.033   0.006  -0.015  -0.007   0.032
  -0.009   0.028  -0.029   0.013  -0.041   0.023  -0.048   0.017  -0.007   0.021
   0.000  -0.006   0.021   0.008  -0.026   0.018   0.003   0.013   0.004  -0.007
   0.013  -0.014  -0.011  -0.014   0.023  -0.039   0.002   0.021   0.004  -0.023
  -0.002  -0.011   0.028   0.006  -0.007  -0.006   0.007  -0.003   0.025   0.005
   0.014   0.008  -0.005  -0.003  -0.009  -0.002   0.002   0.010  -0.008   0.031
   0.009   0.003  -0.007  -0.010  -0.000  -0.023   0.028   0.004   0.000  -0.018
  -0.005   0.014  -0.021  -0.018   0.003  -0.003  -0.006   0.022  -0.014  -0.003
   0.001   0.001   0.014  -0.011  -0.018   0.027  -0.026  -0.004  -0.011  -0.004
   0.007   0.016  -0.017  -0.003  -0.009  -0.030  -0.004  -0.005   0.005  -0.012
  -0.000  -0.024  -0.012   0.008  -0.010   0.002  -0.002  -0.007   0.005  -0.012
  -0.007  -0.008   0.002  -0.021  -0.006  -0.002   0.015  -0.027  -0.015  -0.016
   0.011  -0.014  -0.006  -0.001  -0.001  -0.016   0.029  -0.006   0.020   0.002
  -0.013  -0.005  -0.016  -0.003   0.004  -0.005   0.005   0.011  -0.031   0.020
   0.006   0.005   0.017  -0.020  -0.002  -0.007   0.006  -0.012  -0.011   0.000
   0.013   0.018  -0.002  -0.030   0.017   0.003   0.011   0.002  -0.035   0.031
  -0.028   0.038  -0.037   0.025  -0.027   0.026  -0.003   0.032   0.013   0.011
   0.011   0.024  -0.013   0.035  -0.011   0.004  -0.012   0.018   0.016  -0.000
   0.005  -0.006   0.027   0.014  -0.004   0.009   0.005  -0.026   0.029   0.008
   0.005  -0.025   0.005  -0.008  -0.010  -0.020  -0.039   0.012  -0.013  -0.004
   0.021  -0.001   0.003   0.021  -0.008   0.011   0.002  -0.000  -0.012  -0.000
  -0.002   0.019  -0.010   0.010   0.011   0.006   0.008  -0.003   0.021   0.015
   0.018  -0.001  -0.023  -0.020   0.017   0.006  -0.015  -0.024   0.021  -0.014
   0.029   0.008  -0.001   0.007   0.005   0.001  -0.029  -0.003  -0.017   0.027
  -0.007   0.017   0.001  -0.015   0.010   0.025   0.003   0.004  -0.001  -0.016
  -0.007   0.032   0.042  -0.005   0.029  -0.026   0.003   0.002  -0.001   0.013
  -0.022   0.022   0.018  -0.002  -0.019   0.009   0.017  -0.031   0.018  -0.004
  -0.001  -0.016  -0.005  -0.017   0.017   0.022  -0.022   0.018  -0.010   0.003
   0.004   0.002   0.004   0.003  -0.016  -0.006   0.010  -0.016   0.009   0.007
   0.021  -0.010  -0.008  -0.011  -0.013  -0.012   0.002   0.016  -0.008   0.004
   0.012   0.028  -0.005  -0.006   0.009   0.004  -0.029  -0.005  -0.027  -0.003
   0.042   0.022  -0.008  -0.010  -0.008   0.020  -0.008   0.003  -0.005  -0.009
  -0.006  -0.001  -0.010   0.007  -0.010   0.039  -0.025   0.007  -0.007   0.031
   0.041  -0.000   0.010  -0.060   0.021  -0.005   0.025  -0.025   0.013  -0.016
   0.019  -0.034   0.041  -0.024   0.008   0.006  -0.004  -0.009  -0.003  -0.025
   0.003   0.017   0.008  -0.006  -0.030  -0.018   0.006   0.007  -0.024  -0.034
  -0.031  -0.007   0.016  -0.018   0.001  -0.012  -0.004  -0.013  -0.019  -0.005
  -0.010  -0.021  -0.011  -0.006  -0.006  -0.019  -0.006  -0.013  -0.023  -0.007
   0.017  -0.009  -0.021  -0.001  -0.025  -0.002   0.008  -0.035  -0.016  -0.019
   0.016  -0.007   0.028  -0.016  -0.007  -0.018   0.011  -0.008  -0.012  -0.020
  -0.023   0.008  -0.000  -0.019  -0.009  -0.015  -0.023  -0.010  -0.004  -0.028
   0.003  -0.033  -0.005  -0.013   0.001  -0.013  -0.002  -0.001  -0.022   0.021
   0.005   0.010  -0.010  -0.030  -0.002  -0.016  -0.037  -0.003   0.003  -0.026
  -0.012  -0.018  -0.001   0.006  -0.043  -0.010   0.000  -0.057   0.032  -0.038
   0.027  -0.010  -0.024   0.040  -0.002   0.015   0.011  -0.002  -0.022  -0.001
   0.009  -0.026   0.018  -0.018  -0.018  -0.012  -0.011   0.055   0.000   0.014
  -0.001   0.026   0.026   0.029   0.026   0.056   0.021   0.042   0.075   0.061
   0.047   0.054   0.038   0.053   0.055   0.074   0.075   0.067   0.062   0.045
   0.031  -0.016   0.002   0.003   0.011   0.044   0.047  -0.029  -0.075  -0.149
  -0.145  -0.133  -0.078   0.002   0.069   0.177   0.196   0.137   0.085   0.098
   0.108   0.045  -0.032  -0.063  -0.012   0.055   0.091   0.043  -0.055  -0.007
   0.125   0.099   0.052   0.050   0.219   0.401   0.365   0.158  -0.109  -0.121
  -0.071  -0.000  -0.064  -0.196  -0.215  -0.153  -0.197  -0.178  -0.136  -0.182
  -0.150   0.051   0.131   0.110   0.191   0.140   0.068   0.209   0.289   0.120
   0.003   0.129   0.177   0.119   0.022  -0.098  -0.305  -0.210  -0.040  -0.212
  -0.387  -0.095   0.128   0.144   0.165  -0.086  -0.091  -0.099  -0.114  -0.273
  -0.268  -0.282  -0.277  -0.107  -0.220  -0.537  -0.497  -0.225  -0.337  -0.436
  -0.517  -0.358  -0.264  -0.045   0.067   0.114   0.193   0.443   0.649   0.750
   0.644   0.785   0.737   0.552   0.443   0.343   0.052  -0.280  -0.393  -0.511
