Corrected accelerogram 20160214_001343_SUMS_20 GNS Science
Site SUMS      43 34 09S  172 45 24E     Basalt file:  20160214_001346_SUMS
Sumner
Instrument Basalt_2434
Resolution: 24-bit   Instr Period: 0.0050 s   Damping: 0.700
Accelerogram 20160214_001343_SUMS_20                 Processed 2016 February 22
11 km east of CHRISTCHURCH
2016 February 14         00:13:43 UT
Epicentre  43 29 50S 172 45 18E  Bearing N01W  Dist    8km  Depth    8km M  5.70
Number of points  8192    Duration 163.82 sec
Instrument corrected data at 0.020 sec intervals
Band-pass filter transition bands are .10-.25 Hz and 24.50-25.50 Hz
Component N00E  Horizontal Axis 1
Acceleration:  peak  -1130.5 mm/s/s at  43.84 sec     rms     58.2 mm/s/s
Velocity:      peak   -76.25 mm/s   at  42.90 sec     rms     5.77 mm/s
Displacement:  peak  -34.004 mm     at  43.02 sec     rms    2.791 mm
    2016       2      14       0      13     430       0       0    2016       2
      43      29      50     172      45      18       8       0      14       0
      43      34       9     172      45      24       0       0     359       8
   38600     250     250    8192    8192    8192       0       0      13    6000
   200.0    0.70    0.00   0.000  0.0000   0.000   0.000   1.000     0.0    0.00
  43.569 172.757   43.50  172.76    5.70    0.00    0.00    0.00      0.      0.
  193.00    5.00    5.00  163.82  0.0050  0.0200      0.      0.      0.  9806.6
 -1111.6   43.84    60.2   0.000      0. -1130.5   43.84    58.2  1825.8   5.188
  -76.25   42.90    5.77  137.12   0.241  -34.00   43.02    2.79   39.14   0.217
   0.100   0.150   0.250      0.      0.  24.500   1.000  25.500      0.      0.
    -0.0     0.0    -0.0     0.0    -0.0     0.0    -0.0     0.0    -0.0     0.0
    -0.0     0.0    -0.0     0.0    -0.0     0.0    -0.0     0.0    -0.0     0.0
    -0.0     0.0    -0.0     0.0    -0.0     0.0    -0.0     0.0    -0.0     0.0
    -0.0     0.0    -0.0     0.0    -0.0     0.0    -0.0     0.0    -0.0     0.0
    -0.0     0.0    -0.0     0.0    -0.0     0.0    -0.0     0.0    -0.0     0.0
    -0.0     0.0    -0.0     0.0    -0.0     0.0    -0.0     0.0    -0.0     0.0
    -0.0     0.0    -0.0     0.0    -0.0     0.0    -0.0     0.0    -0.0     0.0
    -0.0     0.0    -0.0     0.0    -0.0     0.0    -0.0     0.0    -0.0     0.0
    -0.0     0.0    -0.0     0.0    -0.0     0.0    -0.0     0.0    -0.0     0.0
    -0.0     0.0    -0.0     0.0    -0.0     0.0    -0.0     0.0    -0.0     0.0
    -0.0     0.0    -0.0     0.0    -0.0     0.0    -0.0     0.0    -0.0     0.0
    -0.0     0.0    -0.0     0.0    -0.0     0.0    -0.0     0.0    -0.0     0.0
    -0.0     0.0    -0.0     0.0    -0.0     0.0    -0.0     0.0    -0.0     0.0
    -0.0     0.0    -0.0     0.0    -0.0     0.0    -0.0     0.0    -0.0     0.0
    -0.0     0.0    -0.0     0.0    -0.0     0.0    -0.0     0.0    -0.0     0.0
    -0.0     0.0    -0.0     0.0    -0.0     0.0    -0.0     0.0    -0.0     0.0
    -0.0     0.0    -0.0     0.0    -0.0     0.0    -0.0     0.0    -0.0     0.0
    -0.0     0.0    -0.0     0.0    -0.0     0.0    -0.0     0.0    -0.0     0.0
    -0.0     0.0    -0.0     0.0    -0.0     0.0    -0.0     0.0    -0.0     0.0
    -0.0     0.0    -0.0     0.0    -0.0     0.0    -0.0     0.0    -0.0     0.0
    -0.0     0.0    -0.0     0.0    -0.0     0.0    -0.0     0.0    -0.0     0.0
    -0.0     0.0    -0.0     0.0    -0.0     0.0    -0.0     0.0    -0.0     0.0
    -0.0     0.0    -0.0     0.0    -0.0     0.0    -0.0     0.0    -0.0     0.0
    -0.0     0.0    -0.0     0.0    -0.0     0.0    -0.0     0.0    -0.0     0.0
    -0.0     0.0    -0.0     0.0    -0.0     0.0    -0.0     0.0    -0.0     0.0
     0.0     0.2    -0.0    -0.1    -0.1     0.0     0.1    -0.0    -0.2    -0.0
     0.1     0.1    -0.1    -0.1    -0.0     0.1    -0.0    -0.0    -0.0    -0.2
     0.0     0.3    -0.1    -0.3     0.0     0.2     0.1    -0.0    -0.2    -0.1
     0.2     0.2    -0.4    -0.1     0.2     0.1    -0.2    -0.1     0.1     0.2
    -0.1    -0.2     0.0     0.3    -0.1    -0.0    -0.1    -0.1     0.0     0.2
    -0.1    -0.1     0.1     0.1    -0.1    -0.1    -0.1     0.1     0.1    -0.1
    -0.0     0.2    -0.1    -0.2     0.1     0.1    -0.0    -0.0    -0.1    -0.0
     0.1     0.1    -0.0    -0.0    -0.0     0.0     0.0     0.0    -0.0     0.1
    -0.1    -0.2     0.1     0.1    -0.2    -0.0     0.1     0.0    -0.1     0.0
    -0.0     0.0     0.0    -0.0    -0.0     0.0    -0.1    -0.0     0.2     0.0
    -0.2     0.1     0.1     0.0     0.0    -0.1    -0.1     0.2    -0.1    -0.1
     0.1     0.1     0.0    -0.0    -0.1     0.1     0.1    -0.1     0.0     0.1
    -0.1    -0.0     0.1     0.0    -0.0     0.1     0.0    -0.1     0.1     0.1
    -0.1    -0.0     0.1    -0.0    -0.1     0.1     0.0     0.1    -0.1    -0.0
     0.1     0.1    -0.1    -0.0     0.1    -0.0    -0.1     0.1     0.0    -0.0
     0.1     0.0    -0.1     0.1    -0.0    -0.0     0.2    -0.1    -0.2     0.0
     0.1     0.0    -0.0    -0.0    -0.1     0.1     0.1    -0.1    -0.1     0.0
     0.0     0.1     0.1    -0.1    -0.1     0.2    -0.1    -0.0     0.1    -0.1
    -0.1     0.3    -0.1    -0.2     0.1     0.1    -0.2     0.1     0.1    -0.1
     0.0     0.0    -0.2     0.2     0.1    -0.2    -0.1     0.1    -0.2     0.1
     0.0    -0.0    -0.1     0.0    -0.0     0.0     0.1    -0.1    -0.0     0.2
     0.0    -0.2    -0.2     0.2     0.1    -0.0    -0.2    -0.0     0.0     0.1
    -0.0    -0.2    -0.0     0.1    -0.0    -0.0     0.0     0.0    -0.1     0.0
     0.1    -0.0     0.0     0.0    -0.2     0.1     0.0    -0.2     0.0     0.2
    -0.1    -0.1    -0.0     0.1    -0.0    -0.0    -0.1     0.0     0.1     0.0
    -0.2     0.1     0.0    -0.0    -0.0     0.0    -0.1     0.1    -0.0    -0.0
    -0.0     0.0    -0.0     0.0    -0.1     0.0     0.1    -0.0    -0.1     0.0
     0.1     0.0     0.0    -0.1    -0.1     0.2    -0.0    -0.2     0.1     0.1
    -0.1     0.0    -0.0    -0.0     0.1     0.1    -0.2     0.0     0.1     0.0
    -0.1    -0.1    -0.0     0.1    -0.0    -0.1     0.0     0.1    -0.0    -0.1
    -0.1     0.2     0.1    -0.1    -0.0     0.1     0.0     0.0    -0.0     0.0
     0.1     0.0    -0.1     0.0     0.0     0.1    -0.0    -0.0     0.0     0.1
    -0.1    -0.0     0.0     0.0     0.0     0.1    -0.1     0.0    -0.1    -0.0
     0.1     0.0    -0.1    -0.0     0.0     0.1    -0.0    -0.0    -0.2     0.1
     0.2    -0.1    -0.1     0.1    -0.1    -0.0     0.0     0.0    -0.1     0.0
     0.0     0.1    -0.0    -0.1    -0.0     0.1    -0.1    -0.1     0.1     0.1
    -0.1     0.0    -0.1    -0.1     0.2     0.1    -0.2     0.0     0.1    -0.0
    -0.0    -0.1    -0.1     0.3     0.0    -0.2     0.0     0.1    -0.1     0.1
     0.0    -0.2    -0.1     0.2     0.0    -0.1    -0.1    -0.0     0.0     0.1
    -0.1    -0.1     0.0     0.1    -0.1    -0.0    -0.0     0.0    -0.1    -0.0
     0.0     0.1     0.0    -0.1    -0.0     0.1    -0.0     0.0    -0.1    -0.0
     0.1     0.1    -0.2    -0.0     0.0     0.0    -0.1    -0.0     0.0     0.1
    -0.1    -0.1    -0.1     0.1     0.1    -0.1    -0.1     0.0     0.0     0.0
     0.0    -0.1    -0.1     0.2    -0.1    -0.0    -0.0    -0.0     0.1     0.0
    -0.1     0.0     0.1    -0.0    -0.1     0.1     0.1    -0.0    -0.1     0.0
     0.1     0.1    -0.1    -0.0    -0.1     0.1     0.0    -0.1    -0.1     0.1
     0.1    -0.1    -0.1     0.1     0.0     0.0    -0.2    -0.0     0.0     0.1
    -0.0    -0.1     0.0     0.1    -0.0    -0.0    -0.1     0.0     0.0     0.1
    -0.1     0.0     0.0     0.0    -0.0    -0.1     0.1     0.2    -0.1    -0.1
    -0.0     0.0     0.1     0.0    -0.2     0.1     0.1    -0.0    -0.1     0.1
    -0.0     0.1    -0.0    -0.1     0.0     0.1    -0.0    -0.0    -0.1     0.1
     0.1     0.0    -0.1     0.1     0.0     0.1    -0.1     0.0     0.0     0.1
     0.0     0.0    -0.0    -0.0    -0.0     0.1    -0.0    -0.1     0.1     0.1
    -0.2    -0.1     0.2     0.2    -0.1    -0.1    -0.0     0.1     0.1    -0.0
    -0.2     0.0     0.2     0.2    -0.2    -0.2     0.2     0.2    -0.2    -0.1
     0.1     0.1    -0.1     0.0     0.0     0.0    -0.1    -0.1     0.0     0.1
    -0.0    -0.1    -0.1     0.1     0.1     0.1    -0.1    -0.0    -0.0    -0.0
     0.1     0.1    -0.3     0.2     0.1    -0.2    -0.1     0.3    -0.1    -0.2
     0.1     0.1    -0.1     0.1    -0.1     0.0     0.0     0.0     0.0     0.0
    -0.2     0.2     0.2    -0.3    -0.3     0.3     0.1    -0.1     0.0    -0.2
    -0.1     0.2    -0.0    -0.1    -0.1    -0.0     0.1     0.1    -0.1     0.0
     0.1     0.0    -0.2     0.1     0.1    -0.1    -0.2    -0.0     0.1     0.1
    -0.0    -0.1    -0.1     0.1    -0.0    -0.1     0.1     0.0    -0.1     0.1
    -0.1    -0.0     0.1     0.0    -0.1     0.1    -0.0     0.1     0.0    -0.1
    -0.0     0.1     0.1    -0.0    -0.1     0.0     0.1     0.0    -0.1    -0.0
     0.1     0.1    -0.1    -0.1    -0.1     0.1     0.1    -0.0    -0.1     0.1
     0.1    -0.0    -0.1     0.1     0.1    -0.1    -0.0     0.1     0.0    -0.0
    -0.2     0.1     0.0     0.1     0.0    -0.1    -0.0     0.1     0.0     0.0
    -0.1    -0.0     0.0     0.1    -0.0     0.1    -0.0    -0.1    -0.0     0.2
    -0.0    -0.1    -0.0     0.1     0.0    -0.1    -0.1     0.2    -0.0    -0.0
    -0.1     0.0     0.0     0.0    -0.1    -0.0     0.1     0.1    -0.1    -0.0
     0.1     0.1    -0.1    -0.0    -0.0     0.1    -0.0     0.0    -0.0     0.0
    -0.1     0.0     0.1     0.1    -0.1    -0.1     0.1     0.1    -0.0     0.0
    -0.0     0.1    -0.0    -0.0    -0.0     0.0    -0.0     0.0    -0.0     0.1
    -0.1    -0.1    -0.0     0.1    -0.0    -0.0    -0.0     0.1    -0.1     0.0
     0.0     0.0    -0.0    -0.0     0.1     0.0    -0.1    -0.1    -0.0     0.2
     0.1    -0.1    -0.1     0.0     0.0     0.1    -0.0    -0.1    -0.0     0.1
     0.2    -0.2    -0.3     0.2     0.3    -0.2    -0.3     0.2     0.1    -0.0
    -0.1    -0.0     0.1     0.1    -0.0    -0.2    -0.1     0.1     0.1     0.1
    -0.2    -0.1     0.1     0.1    -0.1    -0.2    -0.1     0.1     0.0     0.0
    -0.1     0.0     0.0    -0.0    -0.2     0.2     0.1    -0.2    -0.2     0.2
     0.0    -0.2    -0.1     0.3    -0.1    -0.3    -0.1     0.4     0.1    -0.3
    -0.2     0.2     0.2    -0.1    -0.2    -0.0     0.0     0.2    -0.2    -0.1
     0.1     0.2    -0.1    -0.2    -0.0     0.2    -0.0    -0.1    -0.1     0.0
     0.1    -0.0    -0.1     0.1     0.0    -0.1    -0.1     0.2     0.2    -0.1
    -0.1    -0.0    -0.1     0.2     0.0    -0.2    -0.1     0.1     0.0    -0.1
    -0.0     0.1    -0.0    -0.0     0.0    -0.1    -0.0     0.1     0.0    -0.0
    -0.1     0.1     0.1    -0.0    -0.1    -0.1     0.1     0.1    -0.1    -0.0
     0.0     0.1    -0.1     0.0    -0.0     0.1    -0.0     0.0    -0.1    -0.0
     0.1     0.2    -0.0    -0.1    -0.1     0.3     0.1    -0.2    -0.1     0.2
     0.0    -0.0     0.0     0.1    -0.0     0.0     0.0     0.2    -0.0    -0.1
     0.1     0.1    -0.1     0.2    -0.0     0.0     0.0     0.0    -0.1     0.1
    -0.0     0.0    -0.0     0.1     0.1     0.0    -0.1    -0.1     0.0     0.2
    -0.1    -0.1     0.0     0.2    -0.0    -0.0     0.0    -0.0    -0.0     0.2
     0.0    -0.2    -0.0     0.2     0.0    -0.1    -0.0     0.0    -0.1     0.0
     0.0    -0.0     0.0    -0.0    -0.1     0.1     0.1    -0.0    -0.1    -0.0
    -0.0     0.1    -0.0    -0.0     0.0     0.0     0.0     0.0    -0.2    -0.0
     0.1     0.1    -0.2    -0.1     0.1     0.2    -0.2    -0.2     0.0     0.2
    -0.0    -0.2    -0.1     0.3    -0.1    -0.1    -0.0    -0.0     0.0     0.1
    -0.1    -0.1    -0.0     0.1    -0.0    -0.2    -0.1     0.2    -0.0    -0.1
    -0.1     0.1     0.1    -0.1    -0.2     0.0    -0.0     0.0     0.0     0.0
    -0.1    -0.1     0.0     0.0    -0.0    -0.0    -0.2     0.1     0.2     0.1
    -0.2    -0.2    -0.0     0.2     0.1    -0.2    -0.1     0.2     0.1    -0.2
    -0.2     0.2     0.2    -0.1    -0.2     0.1     0.1    -0.0    -0.1     0.0
     0.0     0.1     0.1    -0.0    -0.2    -0.1     0.2     0.2    -0.2    -0.0
     0.1     0.0     0.0     0.1    -0.1    -0.0    -0.1     0.2     0.2    -0.2
    -0.2     0.3     0.1    -0.2    -0.3     0.5     0.2    -0.4    -0.1     0.4
    -0.0     0.0     0.0    -0.1    -0.0     0.3    -0.0    -0.2     0.0     0.2
    -0.0     0.1     0.1     0.1    -0.2    -0.0     0.2     0.2    -0.2    -0.1
    -0.1     0.3     0.3    -0.1    -0.2     0.1     0.3     0.2    -0.3    -0.0
     0.3     0.2    -0.2    -0.0     0.2     0.1    -0.1     0.0    -0.0     0.3
     0.1     0.0    -0.1     0.0     0.3     0.1    -0.3     0.0     0.2     0.2
    -0.1    -0.1     0.2     0.2    -0.3     0.1     0.5    -0.1    -0.5     0.1
     0.6     0.1    -0.6    -0.0     0.5     0.1    -0.3    -0.1     0.2     0.2
    -0.1    -0.1     0.1     0.1    -0.1     0.0     0.0     0.1    -0.0    -0.0
    -0.1     0.0     0.1    -0.0    -0.2     0.1     0.1    -0.1    -0.1     0.2
     0.1    -0.1    -0.2     0.2     0.0    -0.1    -0.1     0.1     0.1     0.1
    -0.2    -0.0     0.0    -0.0    -0.0     0.1    -0.1    -0.1    -0.0     0.2
    -0.2    -0.2     0.1     0.0    -0.2     0.2     0.1    -0.3    -0.2     0.4
     0.1    -0.3    -0.2     0.2    -0.0    -0.1    -0.1     0.1     0.1    -0.1
    -0.2     0.0    -0.1    -0.1    -0.0     0.0    -0.1    -0.1    -0.1     0.1
     0.0    -0.1    -0.2     0.1     0.0    -0.1    -0.0    -0.1    -0.1     0.0
    -0.1    -0.0    -0.0     0.0    -0.1    -0.1    -0.0     0.2    -0.1    -0.2
    -0.1     0.1     0.0     0.0    -0.2     0.1    -0.0    -0.0    -0.1     0.0
    -0.1     0.0     0.0    -0.1    -0.1     0.2    -0.1    -0.2     0.0     0.3
    -0.1    -0.1    -0.0     0.1    -0.2     0.0     0.0     0.1    -0.0    -0.2
     0.0     0.1    -0.0    -0.1    -0.1     0.1     0.1     0.0    -0.1     0.0
     0.1     0.0    -0.1    -0.0     0.1     0.2    -0.0    -0.0     0.0     0.0
    -0.0     0.1     0.1     0.0    -0.2     0.1     0.1     0.1    -0.2     0.1
     0.1     0.0    -0.1     0.1     0.1     0.2    -0.1    -0.0     0.0     0.1
     0.1     0.1    -0.1     0.0    -0.0     0.1     0.1     0.1    -0.1     0.1
     0.1     0.0    -0.0     0.1     0.1     0.1    -0.1     0.0    -0.0     0.1
    -0.0     0.1    -0.0     0.0    -0.0     0.1    -0.0     0.2     0.1    -0.1
    -0.1     0.2     0.1    -0.1    -0.0     0.2     0.1    -0.1    -0.1     0.2
     0.1    -0.0    -0.0     0.1    -0.1     0.0     0.1     0.1    -0.2     0.0
     0.1    -0.0    -0.2     0.1     0.1    -0.1    -0.2     0.1    -0.1     0.0
    -0.2     0.1     0.1     0.0    -0.2    -0.0     0.0     0.1    -0.1    -0.2
    -0.2     0.1     0.1    -0.0    -0.3    -0.0     0.0     0.1    -0.3    -0.3
     0.1     0.2    -0.3    -0.3    -0.1     0.2    -0.1    -0.2    -0.2    -0.0
    -0.0    -0.1    -0.2    -0.0    -0.0     0.0    -0.2    -0.2    -0.1    -0.1
    -0.2     0.1    -0.1    -0.2    -0.3    -0.1    -0.1    -0.0    -0.1    -0.1
    -0.2    -0.0    -0.1    -0.1    -0.3     0.1    -0.1    -0.1    -0.2    -0.0
    -0.2    -0.1    -0.1     0.0    -0.3    -0.1     0.1    -0.0    -0.3    -0.2
     0.0     0.1    -0.2    -0.2    -0.2     0.2    -0.1    -0.3    -0.1     0.2
    -0.2    -0.2    -0.0     0.2    -0.2    -0.2    -0.0     0.2    -0.1    -0.2
    -0.0     0.1    -0.1    -0.1    -0.0     0.2    -0.1    -0.0    -0.1     0.1
    -0.1    -0.0    -0.0     0.2     0.1    -0.0    -0.1     0.1     0.1     0.2
    -0.1     0.0     0.2     0.2    -0.2     0.0     0.2     0.2    -0.1     0.2
     0.1     0.0    -0.0     0.2     0.0     0.0     0.2     0.2    -0.0     0.1
     0.3     0.1    -0.0     0.2     0.2     0.2    -0.0     0.2     0.1     0.2
     0.1     0.2     0.1     0.3     0.1     0.2     0.0     0.2     0.3     0.3
    -0.0     0.1     0.3     0.3     0.0     0.1     0.2     0.4     0.1     0.1
     0.0     0.2     0.3     0.2    -0.0     0.3     0.2     0.1     0.1     0.3
     0.1     0.1     0.1     0.2     0.2     0.1    -0.0     0.4     0.1     0.1
     0.1     0.3     0.0     0.1     0.1     0.1     0.2     0.2    -0.0     0.1
     0.1     0.2    -0.0     0.1     0.2     0.2    -0.2     0.0     0.2     0.2
    -0.1    -0.1     0.0     0.1     0.0     0.1    -0.1    -0.1     0.0     0.2
    -0.2    -0.1     0.0    -0.0    -0.2     0.1    -0.1    -0.0    -0.1    -0.1
    -0.1     0.1    -0.2    -0.1    -0.2     0.1     0.0    -0.2    -0.3     0.1
    -0.1    -0.1    -0.2     0.0    -0.1    -0.3    -0.3     0.1    -0.1    -0.2
    -0.4    -0.0    -0.1    -0.2    -0.3    -0.1    -0.1    -0.1    -0.4    -0.2
    -0.0    -0.1    -0.5    -0.1    -0.0    -0.1    -0.4    -0.1    -0.1    -0.1
    -0.3    -0.1    -0.1    -0.1    -0.3    -0.1    -0.2    -0.1    -0.2    -0.1
    -0.2    -0.1    -0.0    -0.0    -0.2    -0.0    -0.2     0.1     0.1    -0.3
    -0.2     0.1    -0.1     0.1    -0.1    -0.0    -0.0     0.0    -0.0     0.1
    -0.0     0.1     0.0     0.2    -0.1     0.1     0.3     0.1    -0.1     0.1
     0.4     0.4    -0.2     0.0     0.3     0.5     0.2    -0.0    -0.1     0.6
     0.4     0.2     0.2     0.4     0.1     0.5     0.4     0.2     0.3     0.8
     0.4     0.1     0.3     0.8     0.4     0.2     0.4     0.8     0.3     0.5
     0.5     0.6     0.4     0.7     0.6     0.5     0.4     0.7     0.6     0.7
     0.6     0.5     0.6     0.8     0.7     0.6     0.3     0.8     0.8     0.9
     0.3     0.4     0.8     1.0     0.3     0.5     0.8     0.9     0.5     0.6
     0.6     0.8     0.6     0.7     0.5     0.7     0.7     0.6     0.4     0.7
     0.5     0.7     0.6     0.5     0.3     0.7     0.5     0.6     0.4     0.2
     0.4     0.7     0.3     0.3     0.3     0.4     0.2     0.3     0.2     0.3
     0.2     0.3    -0.1     0.2     0.0     0.2    -0.1     0.3    -0.2    -0.0
     0.0    -0.1    -0.4     0.1    -0.3    -0.3    -0.3    -0.0    -0.5    -0.5
    -0.5    -0.4    -0.5    -0.4    -0.7    -0.7    -0.7    -0.6    -0.8    -0.7
    -0.9    -1.0    -1.0    -0.8    -1.1    -0.9    -1.1    -1.3    -1.3    -0.9
    -1.4    -1.4    -1.3    -1.3    -1.6    -1.5    -1.5    -1.4    -1.8    -1.6
    -1.7    -1.5    -1.8    -2.0    -1.9    -1.6    -2.1    -1.9    -2.1    -1.9
    -2.2    -2.0    -2.1    -2.2    -2.5    -2.2    -2.2    -2.1    -2.5    -2.4
    -2.4    -2.3    -2.6    -2.6    -2.5    -2.2    -2.6    -2.7    -2.8    -2.4
    -2.6    -2.6    -2.7    -2.7    -2.8    -2.5    -2.7    -2.7    -3.0    -2.6
    -2.6    -2.5    -2.7    -2.8    -2.9    -2.4    -2.4    -2.7    -3.0    -2.6
    -2.5    -2.3    -2.9    -2.6    -2.4    -2.3    -2.6    -2.4    -2.4    -2.3
    -2.5    -2.1    -2.3    -2.1    -2.2    -2.1    -2.3    -1.7    -1.7    -1.9
    -2.2    -1.7    -1.6    -1.4    -1.8    -1.5    -1.3    -1.1    -1.6    -1.2
    -1.1    -0.7    -1.1    -0.9    -0.9    -0.5    -0.4    -0.3    -0.6    -0.3
    -0.3     0.2     0.1     0.2     0.1     0.5     0.4     0.6     0.7     0.9
     0.8     1.0     1.0     1.6     1.4     1.5     1.5     2.0     2.0     2.1
     1.9     2.4     2.4     2.8     2.6     2.9     2.8     3.3     3.2     3.6
     3.4     3.8     3.6     4.2     4.1     4.4     4.2     4.6     4.6     5.2
     4.8     5.2     5.1     5.5     5.6     5.9     5.6     6.0     5.9     6.5
     6.4     6.6     6.5     6.9     6.8     7.3     7.3     7.4     7.2     7.8
     7.8     8.0     7.8     8.2     8.1     8.4     8.3     8.9     8.6     8.7
     8.8     9.2     9.0     9.2     9.2     9.7     9.3     9.7     9.6     9.9
     9.9    10.2     9.8    10.0    10.1    10.5    10.3    10.3    10.1    10.8
    10.5    10.5    10.4    10.8    10.6    10.9    10.7    10.8    10.6    10.9
    10.8    10.9    10.8    10.9    10.7    10.9    10.7    11.0    10.7    10.9
    10.7    10.7    10.7    10.8    10.5    10.5    10.3    10.7    10.5    10.2
