Corrected accelerogram 20160214_001343_HPSC_20 GNS Science
Site HPSC      43 30 06S  172 42 08E     Cusp file:  20160214_001346_HPSC
Hulverstone Drive Pumping Station
Instrument Cusp_317
Resolution: 18-bit   Instr Period: 0.0050 s   Damping: 0.700
Accelerogram 20160214_001343_HPSC_20                 Processed 2016 February 22
11 km east of CHRISTCHURCH
2016 February 14         00:13:43 UT
Epicentre  43 29 50S 172 45 18E  Bearing N84E  Dist    4km  Depth    8km M  5.70
Number of points  5726    Duration 114.50 sec
Instrument corrected data at 0.020 sec intervals
Band-pass filter transition bands are .10-.25 Hz and 24.50-25.50 Hz
Component N00E  Horizontal Axis 1
Acceleration:  peak  -1841.8 mm/s/s at  23.62 sec     rms    140.3 mm/s/s
Velocity:      peak   284.36 mm/s   at  23.52 sec     rms    24.40 mm/s
Displacement:  peak -115.009 mm     at  23.20 sec     rms   12.031 mm
    2016       2      14       0      13     430       0       0    2016       2
      43      29      50     172      45      18       8       0      14       0
      43      30       6     172      42       8       0       0      84       4
   20904     250     250    5726    5726    5726       0       0      13   26110
   200.0    0.70    0.00   0.000  0.0000   0.000   0.000   1.000     0.0    0.00
  43.502 172.702   43.50  172.76    5.70    0.00    0.00    0.00      0.      0.
  104.52    5.00    5.00  114.50  0.0050  0.0200      0.      0.      0.  9806.6
 -1801.8   23.62   147.8   0.000      0. -1841.8   23.62   140.3  2125.6   0.406
  284.36   23.52   24.40  363.49   0.403 -115.01   23.20   12.03  162.84   0.211
   0.100   0.150   0.250      0.      0.  24.500   1.000  25.500      0.      0.
     0.1    -0.1     0.1    -0.1     0.1    -0.1     0.1    -0.1     0.1    -0.1
     0.1    -0.1     0.1    -0.1     0.1    -0.1     0.1    -0.1     0.1    -0.1
     0.1    -0.1     0.1    -0.1     0.1    -0.1     0.1    -0.1     0.1    -0.1
     0.1    -0.2     0.1    -0.2     0.0    -0.2     0.0    -0.2     0.0    -0.2
     0.0    -0.2     0.0    -0.2     0.0    -0.2     0.0    -0.2     0.0    -0.2
     0.0    -0.2     0.0    -0.2    -0.0    -0.2    -0.0    -0.2    -0.0    -0.2
    -0.0    -0.2    -0.0    -0.2    -0.0    -0.2    -0.0    -0.2    -0.0    -0.2
    -0.0    -0.2    -0.0    -0.2    -0.0    -0.2    -0.0    -0.2    -0.0    -0.2
    -0.0    -0.2    -0.0    -0.3    -0.0    -0.3    -0.0    -0.3    -0.0    -0.3
    -0.0    -0.3    -0.0    -0.3    -0.0    -0.3    -0.0    -0.2    -0.0    -0.2
    -0.0    -0.2    -0.0    -0.2    -0.0    -0.2    -0.0    -0.2    -0.0    -0.2
    -0.0    -0.2    -0.0    -0.2    -0.0    -0.2    -0.0    -0.2    -0.0    -0.2
     0.0    -0.2     0.0    -0.2     0.0    -0.2     0.0    -0.2     0.0    -0.2
     0.0    -0.2     0.0    -0.2     0.0    -0.2     0.1    -0.2     0.1    -0.1
     0.1    -0.1     0.1    -0.1     0.1    -0.1     0.1    -0.1     0.1    -0.1
     0.1    -0.1     0.1    -0.1     0.1    -0.1     0.1    -0.1     0.2    -0.1
     0.2    -0.0     0.2    -0.0     0.2    -0.0     0.2    -0.0     0.2     0.0
     0.2     0.0     0.2     0.0     0.2     0.0     0.3     0.1     0.3     0.1
     0.3     0.1     0.3     0.1     0.3     0.1     0.3     0.1     0.3     0.1
     0.3     0.1     0.3     0.2     0.4     0.2     0.4     0.2     0.4     0.2
     0.4     0.2     0.4     0.2     0.4     0.2     0.4     0.2     0.5     0.3
     0.5     0.3     0.5     0.3     0.5     0.3     0.5     0.3     0.5     0.3
     0.5     0.3     0.6     0.4     0.6     0.4     0.6     0.4     0.6     0.4
     0.6     0.4     0.6     0.4     0.7     0.4     0.7     0.4     0.7     0.4
     0.7     0.5     0.7     0.5     0.8     0.5     0.8     0.5     0.8     0.6
     3.7     0.9     5.9    -2.0    -3.3    -2.1     2.3     2.4     1.3    -5.3
     1.4    -0.1    -4.1    -5.1    -2.8    -2.5    -0.6     2.7    -0.5    -2.4
    -3.6     0.7    -1.3     0.8     1.5     1.0    -6.0    -0.6    -3.5    -1.7
     1.0    -1.3    -7.2    -0.9     3.9    -4.7     3.7     4.1    -5.0    -2.6
     4.3    -1.9    -2.4    -1.3     0.4     2.7     5.6    -3.1     3.4     0.3
    -0.4     5.1     2.0     0.1    -2.0    -0.6     1.5     4.1     3.6    -4.0
     1.1     4.7    -1.3    -6.7    -1.7    -2.5     0.9     4.4    -0.0     5.8
    -1.7     0.8     0.5    -1.3    -1.3    -4.7    -1.0    -0.5     0.1     4.5
    -3.1     5.2    -1.6    -8.5     0.1    -3.5    -6.5    -6.0     0.9    -2.5
    -3.7    -1.4     2.2     4.0    -2.5    -6.7     0.0    -5.8     3.4     0.8
    -2.1     5.8    -0.3     0.9     5.7     7.0     3.4     1.0     5.7     1.6
    -3.0    -7.3     6.6    -3.1     1.6    -8.0     0.7     6.9    -0.2     1.5
     3.1     1.6    -4.8    -1.7     4.1     1.2     1.8     3.2    -8.3    -3.8
    -2.9    -0.7     0.6    -2.3     0.7     2.7    -4.3    -0.6    -1.9     0.6
     1.0     1.5    -2.8     2.3    -4.6     1.3     4.2    -1.0    -3.5     1.3
    -1.9    -0.1     2.8     1.5    -0.9     0.1     2.4     6.5    -1.2    -1.4
     1.6     2.9    -2.0    -4.5     4.7     4.7    -4.1    -2.6     0.7    -0.1
    -3.1    -1.2     1.6     6.0     2.1    -2.4     0.7     3.8     2.3     2.6
    -1.0     3.5    -0.1    -5.5    -5.3    -4.2    -1.8     4.2     3.8    -0.9
    -1.5     2.0    -1.7    -4.1     5.4    -2.4     2.4    -0.1     1.9     1.0
     4.0     0.7     5.9     4.4    -1.0     2.5     2.1    -3.0     6.1    -3.6
    -1.4    -0.4     0.2     1.4     6.3    -2.0     6.6     0.2     0.9     2.6
    -1.5     2.5    -2.2    -0.9    -1.7    -2.6     1.9    -5.4     6.2     3.2
    -5.1    -0.5     2.8    -1.7     1.6     0.3    -8.6    -1.2    -4.2    -3.3
     0.1     6.4    -4.0    -3.0    -2.3    -1.1    -2.9    -2.2    -5.3     0.3
    -1.6    -0.2     1.3     1.6    -0.6    -1.1     1.4    -1.7    -3.1     1.6
    -2.1    -1.6    -4.4     8.9    -0.1    -2.3    -4.2     4.8     1.8     1.2
    -1.5    -4.0     1.9    -0.7    -0.5    -6.5     0.1    -4.9    -0.3    -0.2
     4.4    -1.0    -4.9     3.2     5.3    -5.3    -2.6     1.1     1.7    -0.8
     6.4    -1.4     0.1     3.0     3.1    -0.4    -2.7     3.5    -0.3    -1.8
    -2.0     1.5    -4.2    -6.2    -2.2    -0.1    -4.5    -3.1    -2.1    -1.1
     2.9     3.8    -0.2     4.5     3.6    -0.8    -9.7     1.6     1.1     4.0
     8.1     0.2    -2.0     0.2    -6.2    -1.3     3.5     2.2     1.8    -2.6
     2.2     3.8     3.8    -0.5    -0.5     1.6     3.9     2.8     2.8     3.1
     6.9     3.3     0.8    -4.0    -1.4     2.0    -1.6    -3.6     1.0    -2.3
     3.0     7.4    -5.7     1.9    -3.6     0.8    -0.2    -1.5     4.7    -0.2
    -3.0     3.8     5.2     3.1     1.5     0.1    -2.3     7.6    -4.4    -0.7
    -0.2    -8.5     2.5     3.3    -8.1    -5.7     2.3    -0.3    -6.9    -6.4
    -0.9    -1.5     4.0    -1.2    -0.6    -3.6     0.3     1.5     3.7    -6.5
    -1.1    -4.6    -0.0     1.0    -1.2     5.1    -5.4    -0.5     2.4    -3.1
     3.2     3.6    -0.4    -7.9     0.3    -0.4    -0.9    -3.0    -1.4     2.2
    -1.4     1.7     2.1     7.0     0.6     3.0     0.4    -0.0    -0.5    -0.6
    -3.8     0.7     3.9    -3.3    -0.1     3.5    -1.0    -0.7     8.4    -1.3
     5.1    -4.1     3.9    -4.3     3.8    -2.6     1.7     7.0    -9.0     2.1
    -5.7    -3.2    -2.6     2.2    -3.4    -3.9     0.7     2.0     4.3    -4.8
    -1.0     0.1     3.0    -5.5     2.0    -0.1     1.2    -1.7     6.7     0.2
    -0.7     2.1    -2.5     0.5    -3.6    -0.9    -2.8    -1.5    -2.1     1.5
    -0.5     6.8    -1.0    -3.0    -2.7    -3.6    -1.5    -1.5    -0.1     4.3
     3.6     2.2     2.0     4.8    -1.6    -6.9    -1.9    -1.9     2.4     1.2
    -3.7    -0.1     4.6    -0.5     3.5    -5.9     0.7     4.1     3.2     3.9
     1.4     0.1     1.6     0.0     0.7    -4.9     3.6     6.2     0.1     4.1
    -0.5     0.7     3.9     2.4     2.1    -0.1     1.6    -3.1    -4.3    -1.5
     3.0    -0.3     4.6    -6.1    -1.0     1.4    -2.6    -9.4    -0.8    -1.1
     1.1     5.9    -3.9     0.9    -3.6     0.1     0.1    -2.1     4.9    -3.4
     2.0    -3.3     0.7     2.6    -0.9     7.2     3.8    -1.2     0.3     1.7
    -6.1    -3.6    -2.4     3.2     2.7     0.9     1.0     8.2    -6.2     3.8
    -2.5     2.7    -5.2    -1.3    -1.3     8.8    -0.3     1.8    -2.6    -2.1
    -2.8    -3.9     7.5    -0.5     4.8    -1.9     0.8     4.3    -7.1    -1.0
     5.4    -0.8     3.4     1.5    -2.3    -2.2    -1.2    -1.4     5.1    -1.3
    -1.4    -3.4     1.1     5.0    -2.2     7.0     0.1     0.3    -1.8    -5.0
     5.0     3.2     1.9     2.4     0.6    -3.1    -0.8    -2.2     0.2    -0.2
     1.4    -3.1     3.7    -6.1     8.1     0.1    -2.2    -2.6    -1.9    -0.9
    -9.7    -7.7     0.3    -2.2    -2.4     2.3    -0.2     3.0    -2.2     0.7
    -1.3    -2.4    -0.8    -1.0    -1.9    -1.3    -3.0    -0.2    -2.5    -5.4
     3.0    -2.5     1.5     3.0    -0.9    -0.4     1.2     1.1    -3.0     3.8
    -3.0     1.6     1.3     3.5    -3.9    -4.9    -0.0     4.3     1.4    -0.8
    -1.0     4.5    -1.0     3.6    -3.2    -2.0    -2.7    -4.5    -1.1     4.7
     7.8     5.2    -0.9     5.7    -3.3    -4.5     0.4    -1.1    -3.1     3.0
     4.4     0.3    -0.6     2.2     5.3     3.8    -4.3     6.5     3.8     7.2
     6.8    -2.6     5.6     2.8    -0.7     1.8     1.5     1.0     6.0     0.1
     6.0     0.7     8.5    -5.1     4.3     4.3     1.0     2.6    -0.2     4.4
    -1.0    -3.9    -1.0    -7.5     1.6    -0.9     4.2    -1.4     5.3     2.3
     0.8    -0.1    -3.6     5.7     6.0    -5.1    -0.9    -4.1    -3.3     1.6
     3.2     5.9     0.6    -0.9     2.4    -1.9     5.4    -6.1     1.2     5.9
    -1.8     1.4    -4.5    -1.1     2.6    -1.1     0.6     0.6    -1.3    -0.3
     2.3    -4.2     0.8    -1.5     3.1    -0.8    -2.2    -4.6     0.9    -3.7
     3.3    -1.2    -1.0    -0.2     3.0     3.8    -1.7    -2.5     2.2     1.1
    -2.4    -0.5    -3.1    -2.4     6.1     6.3    -1.1    -0.9    -3.8    -3.0
     4.8    -3.3    -2.7     2.6     1.0   -10.8    -4.1    -3.4     1.2    -3.3
    -4.6    -4.8    -4.7    -1.3    -0.9     0.5    -4.7    -7.3    -2.7    -8.3
     1.8    -5.6    -1.3    -8.0    -2.8    -8.4    -1.6    -3.7    -8.3    -6.9
    -1.6    -2.1    -3.0    -6.0    -6.2     1.6    -8.0    -5.8     1.4    -7.6
    -2.7    -8.1   -12.3    -7.0   -11.6    -5.6   -12.5    -5.3    -3.2   -11.9
    -3.9    -9.5    -7.8   -13.7    -7.0     0.4    -8.0    -5.3    -7.2    -4.6
    -0.5    -7.8     1.6    -1.1    -4.1    -6.6    -6.8    -9.9    -5.2    -2.2
    -8.7    -2.4    -6.6   -13.7    -6.1    -4.0   -12.7   -10.6    -0.1    -3.7
   -14.3    -6.7    -0.4    -4.0    -5.6    -8.5    -1.7    -4.0    -5.6    -9.2
    -7.8    -2.7    -0.1    -6.3    -6.6    -6.6    -5.4    -1.4    -3.1    -9.5
     2.1    -4.5     3.1    -2.5    -4.8     3.1    -0.3    -1.7    -0.3    -0.9
     0.1    -1.2    -1.1     2.3     1.3     2.8     2.5     0.2     8.2     4.4
     9.6     2.6     5.2     6.1     3.4     4.6     4.0     5.4     8.5     0.6
     8.3     7.4     7.3    12.5    10.0     5.1     6.2     9.2    14.6    10.3
    14.9    10.7     9.6    17.3    12.5     5.6     7.3     8.6    19.4    14.0
    11.9    10.9    16.2    14.4    20.0    20.0    21.0    10.4     7.8    18.0
    17.2    13.5    17.1    18.0    20.0    13.6    19.8    15.2    15.8    17.5
    18.2    19.1    15.8    19.6    24.6    24.5    26.4    19.0    27.7    24.2
    25.6    21.8    20.1    19.3    19.3    16.9    25.6    22.8    23.6    19.8
    28.3    21.5    24.8    25.2    24.0    21.8    26.6    28.1    26.4    27.0
    28.7    23.6    24.2    27.1    28.1    19.5    25.4    19.3    27.6    20.5
    18.2    23.4    27.8    17.0    25.4    14.2    21.6    18.0    10.8    13.0
    12.6    14.5    37.2    50.3    39.6    18.7    -2.5     2.9    11.1    27.2
    35.1    21.1   -10.0   -22.0    35.2     7.0    20.2   -36.3   -19.3   -50.9
   -22.2    33.7    35.5    49.3    21.0    54.9   -10.1    46.0    16.4  -127.1
    25.8   -74.1    11.4    89.4   -24.4    20.6   -71.2  -129.9   -70.8    32.7
    23.3   122.4    70.4    19.1   -59.9   140.6   194.0   193.5  -101.9   -19.5
  -238.8  -102.3  -156.4   -97.0   -88.6  -178.5  -224.1  -100.9   -24.9  -179.9
   155.2   -89.0    78.4   -79.8   112.2   118.2   195.1   -65.1    46.8   -82.2
  -154.5  -281.8  -130.9  -165.8  -224.6  -261.4  -189.5  -250.4  -322.8  -341.7
  -335.9  -256.8    30.5   400.0   312.2   227.3   -60.0  -127.7  -279.1  -133.0
  -237.1  -186.6   -45.7  -286.0  -156.4  -457.0  -562.7  -868.2 -1279.8 -1207.1
  -350.1   433.5   787.4  1050.8  1374.4  1548.0  1245.8   357.7  -399.3  -294.7
  -267.9   -57.2  -190.7  -356.3  -434.9  -629.2  -886.7  -869.6 -1162.1 -1280.1
 -1281.1  -995.2    -3.3   602.1   923.9   588.6  -108.8  -526.0  -727.9   -86.0
   393.4   703.7   779.3   696.2   541.0   548.0   614.2   519.5   -66.6  -581.5
  -883.9 -1004.6 -1000.4 -1010.6  -814.9  -696.2  -295.1    72.3   410.3   877.5
  1150.0  1202.7   755.6   600.9   510.8   622.6   803.2   920.6   939.0   927.3
   972.8   846.5   736.7   692.9   648.1   696.7   792.5   914.7  1096.9  1326.7
  1568.9  1631.6  1233.5   873.6   544.7   265.9   -11.2  -302.7  -795.8 -1259.4
 -1608.0 -1841.8 -1349.3  -164.0   476.4   809.6   910.4   900.7   403.9   -48.6
  -345.8  -541.8  -530.1  -404.8  -520.9  -619.8  -681.1  -658.0  -305.3    67.4
   275.0   157.5  -273.9  -638.7  -868.3  -880.9  -640.6  -476.6  -328.4  -274.8
  -152.1     4.8   186.4   237.3   158.7    67.0   -30.1    25.8   230.6   476.4
   653.8   702.7   339.3  -144.0  -494.6  -698.1  -815.5  -852.1  -655.3  -334.5
  -207.9  -410.8  -691.4  -803.1  -883.7  -835.2  -638.8  -201.7   158.3   268.8
   233.0   188.6   126.8    68.5   119.5   237.5   383.9   492.1   375.5    89.3
  -158.5  -172.4   -66.6    86.5   212.4   319.3   371.5   366.9   183.9  -168.5
  -341.0  -367.8  -157.9    65.2   284.8   446.8   349.2    21.6  -230.4  -337.0
  -286.6  -228.4  -286.2  -392.4  -490.1  -472.6  -332.7  -174.8     9.2   212.0
   425.5   543.1   501.6   397.0   284.4   284.0   307.5   243.1    23.4  -185.5
  -248.1  -186.3     9.2   155.8   249.3   328.3   321.0   332.7   218.2    13.0
  -260.4  -435.4  -518.5  -462.7  -312.9  -141.4     3.6    84.8    45.7    29.6
    62.7   105.7    48.5    -4.5   -26.0   106.9   238.8   278.8   319.3   369.6
   334.4   140.1  -122.3  -265.7  -324.7  -351.8  -352.0  -274.3   -32.8   233.2
   421.0   478.5   302.3    23.2  -186.4  -321.5  -426.2  -485.2  -506.2  -532.2
  -453.1  -308.2  -140.6   -64.8   -74.3  -153.2  -266.8  -406.9  -580.7  -738.1
  -793.2  -836.3  -775.1  -393.1   147.8   537.8   783.5   911.0   941.0   892.5
   779.6   544.2   237.5   -39.1  -215.5  -226.0  -157.2  -127.5  -191.6  -308.3
  -423.2  -444.2  -391.5  -235.0   -41.9   166.2   356.6   502.0   572.2   528.1
   431.7   325.9   241.4   194.1   174.1   199.8   241.9   315.0   335.3   353.7
   322.9   254.6   117.6     1.4   -57.8   -58.5   -52.6   -59.3   -39.9    30.4
    94.1    99.0    35.8   -67.4  -163.3  -173.7   -31.9   105.2   218.6   319.7
   360.0   341.5   265.5   176.1   121.6    99.0   106.2   138.2   154.2   162.9
   135.5   100.9    29.0   -46.7  -126.9  -155.9  -181.0  -140.4   -80.2    -6.4
    45.2    36.3    18.8   -62.9  -132.5  -223.0  -278.1  -312.2  -314.2  -290.2
  -196.2   -40.5   120.8   247.4   274.6   283.9   245.0   254.6   265.3   271.7
   269.1   214.4   140.1    58.1   -12.6   -97.6  -125.7  -106.1   -63.2   -34.7
   -31.6   -42.9   -23.4     5.3    71.9    86.3   103.6    38.5   -37.7   -97.5
  -133.7  -111.1   -78.9   -65.3   -91.2  -110.2  -128.5  -133.4  -150.2  -166.0
  -198.3  -237.5  -262.4  -286.9  -291.9  -292.3  -265.9  -231.3  -177.3  -139.0
  -139.7  -132.1  -145.5  -168.1  -192.4  -202.8  -239.5  -243.9  -276.1  -299.2
  -302.6  -232.7  -171.1   -99.3   -62.6   -48.9   -22.7     3.0    60.7    78.3
    89.5    70.5    49.6    53.2   105.2   199.8   287.6   333.4   340.8   300.2
   243.4   168.9    57.6   -35.7   -69.7   -50.0   -28.9    -2.4     6.2    58.1
   133.5   213.1   231.9   229.7   151.9    48.2   -74.5  -154.1  -200.3  -190.0
  -126.2   -53.2    42.5   136.0   223.7   248.7   180.5    65.5     1.3   -13.5
     5.4     8.2     1.8    31.4    78.5   109.8   100.3    52.5    16.4   -32.4
   -92.9  -134.5  -140.7   -83.3    32.0   125.8   170.9   140.6    71.2    -8.8
   -69.0  -100.7  -105.0   -75.6   -22.3    36.4    96.5   124.6   116.3   109.7
    99.6    78.6    28.9   -38.7   -65.6   -51.1     8.5    56.8    95.1    82.2
    32.7   -38.4  -106.5  -157.3  -204.3  -236.5  -247.0  -196.7  -148.0   -83.8
   -39.2   -28.2   -55.8   -80.7   -93.7  -113.4  -116.3   -95.7   -44.8    -4.3
    31.3    47.8    69.8    92.1   101.6    56.5   -10.1   -86.9  -122.3  -115.4
   -57.1     9.6    68.6    90.5    65.5    17.5   -43.7   -93.3  -138.8  -154.7
  -187.4  -195.4  -185.3  -154.7  -118.0   -69.6   -31.7    -0.5    39.7    58.3
    74.0    89.3   107.6   139.6   151.4   154.4   112.0    72.0    28.2    23.1
    56.1    98.3   129.5   163.4   172.8   180.8   178.3   175.0   174.9   152.9
   102.4    87.3    96.1   115.8   137.9   146.6   164.2   169.5   158.0   118.8
    61.3     0.3   -40.4   -55.1   -49.7   -22.7    22.9    69.1    77.6    62.6
    28.0   -12.7   -38.4   -49.9   -80.3   -74.7   -50.8   -25.0   -22.1   -33.3
   -51.0   -79.2   -73.0   -76.0   -58.2   -56.8   -43.9   -13.9     0.2     9.5
   -23.9   -57.9   -78.7   -81.9   -67.9   -54.6   -49.0   -28.3     3.8     3.9
   -15.8   -15.1   -33.5   -53.0   -83.0   -75.0   -62.3   -35.1   -19.2    -6.5
    -8.0     0.9    -4.6    -7.1    16.5    59.7   105.2   122.3    80.1    27.4
   -26.6   -58.9   -65.8   -57.9   -42.4   -48.3   -56.2   -79.3  -100.2   -98.1
   -91.2   -78.1   -71.7   -53.3   -55.4   -39.2    -8.7    14.6    36.4    43.4
    34.2    26.3    35.6    53.9    75.1   102.0   130.1   142.9   145.6   112.5
    85.7    65.4    62.1    75.8    72.4    50.8     5.8   -48.6   -75.1   -94.1
   -94.3   -86.6   -84.5   -41.2    10.8    46.5    51.8    12.4   -19.8   -43.2
   -39.2   -49.1   -60.0   -56.8   -51.5   -44.2   -43.8   -42.8   -40.4     0.9
    29.2    29.9    27.5     6.7     2.6    -2.4     0.3     6.0    14.8    12.9
    13.1    11.5   -25.4   -62.8   -98.2   -99.2   -92.2   -73.2   -57.1   -51.2
   -46.4   -34.0   -12.1    22.9    58.6    84.5    79.9    55.6    13.5   -36.0
   -77.1   -94.8   -69.9   -38.3   -16.5    -8.2    12.8    21.2    21.1    24.1
    18.3    23.0    30.8    39.0    55.6    69.8    72.7    58.8    50.9    23.2
    -7.4   -23.8   -34.3   -37.7   -28.5   -17.1    -4.6    -5.2   -13.4   -38.4
   -56.2   -70.8   -82.3   -87.4   -86.9   -77.8   -62.1   -48.2   -35.1    -8.8
    15.9    49.6    63.2    69.3    90.3    90.6    92.3    76.9    43.4    11.5
    15.6    27.0    38.8    33.9    38.2    14.4    -4.0   -24.7   -41.7   -44.3
   -38.1   -14.8    12.1    28.3    48.1    47.0    37.0    30.2    12.5     5.6
   -12.4   -30.2   -49.1   -55.8   -57.9   -38.3   -15.8     8.0    25.5    37.3
    57.4    58.7    54.5    41.6    18.9     1.6     2.5    13.1     7.5     1.1
    17.9    35.4    40.4    51.1    43.2    27.8    30.1    22.1    40.6    55.1
    69.9    97.7   109.7    91.1    71.4    67.8    70.9    80.7    67.2    28.8
    -5.2   -10.8   -14.0   -13.9   -17.8   -16.9   -24.6   -24.7   -33.0   -32.1
   -26.8    -8.7     6.1    17.7    16.1     0.7     0.1     2.6     3.7    -7.8
   -10.7   -21.6   -13.8   -13.9   -26.5   -46.5   -56.4   -45.2   -45.3   -51.1
   -65.7   -77.9   -81.8   -73.3   -72.6   -68.7   -80.3   -77.4   -64.3   -54.5
   -53.9   -51.2   -58.1   -56.9   -65.6   -66.4   -59.7   -39.7   -19.4    14.9
    21.8    40.9    52.7    52.0    56.5    42.1    34.2    21.1    26.6    42.8
    53.8    57.5    41.3    23.1    10.0     1.5   -18.8   -41.0   -59.9   -79.6
