Corrected accelerogram 20160214_001343_CBGS_20 GNS Science
Site CBGS      43 31 46S  172 37 12E     Cusp file:  20160214_001347_CBGS
Christchurch Botanic Gardens
Instrument Cusp_42255
Resolution: 18-bit   Instr Period: 0.0050 s   Damping: 0.700
Accelerogram 20160214_001343_CBGS_20                 Processed 2016 February 22
11 km east of CHRISTCHURCH
2016 February 14         00:13:43 UT
Epicentre  43 29 50S 172 45 18E  Bearing N72E  Dist   11km  Depth    8km M  5.70
Number of points  8192    Duration 163.82 sec
Instrument corrected data at 0.020 sec intervals
Band-pass filter transition bands are .10-.25 Hz and 24.50-25.50 Hz
Component N00E  Longitudinal Accelerometer Axis
Acceleration:  peak  -1040.8 mm/s/s at  45.06 sec     rms     79.4 mm/s/s
Velocity:      peak   137.45 mm/s   at  45.50 sec     rms    11.89 mm/s
Displacement:  peak  -53.985 mm     at  44.56 sec     rms    4.855 mm
    2016       2      14       0      13     430       0       0    2016       2
      43      29      50     172      45      18       8       0      14       0
      43      31      46     172      37      12       0       0      72      11
   35913     250     250    8192    8192    8192       0       0      13    7054
   200.0    0.70    0.00   0.000  0.0000   0.000   0.000   1.000     0.0    0.00
  43.529 172.620   43.50  172.76    5.70    0.00    0.00    0.00      0.      0.
  179.56    5.00    5.00  163.82  0.0050  0.0200      0.      0.      0.  9806.6
 -1027.8   45.06    82.0   0.000      0. -1040.8   45.06    79.4  1155.5   1.215
  137.45   45.50   11.89  159.22   0.345  -53.98   44.56    4.85   55.75   0.281
   0.100   0.150   0.250      0.      0.  24.500   1.000  25.500      0.      0.
     0.0    -0.0     0.0    -0.0     0.0    -0.0     0.0    -0.0     0.0    -0.0
     0.0    -0.0     0.0    -0.0     0.0    -0.0     0.0    -0.0     0.0    -0.0
     0.0    -0.0     0.0    -0.0     0.0    -0.0     0.0    -0.0     0.0    -0.0
     0.0    -0.0     0.0    -0.0     0.0    -0.0     0.0    -0.0     0.0    -0.0
     0.0    -0.0     0.0    -0.0     0.0    -0.0     0.0    -0.0     0.0    -0.0
     0.0    -0.0     0.0    -0.0     0.0    -0.0     0.0    -0.0     0.0    -0.0
     0.0    -0.0     0.0    -0.0     0.0    -0.0     0.0    -0.0     0.0    -0.0
     0.0    -0.0     0.0    -0.0     0.0    -0.0     0.0    -0.0     0.0    -0.0
     0.0    -0.0     0.0    -0.0     0.0    -0.0     0.0    -0.0     0.0    -0.0
     0.0    -0.0     0.0    -0.0    -0.0    -0.0    -0.0    -0.0    -0.0    -0.0
    -0.0    -0.0    -0.0    -0.0    -0.0    -0.0    -0.0    -0.0    -0.0    -0.0
    -0.0    -0.0    -0.0    -0.0    -0.0    -0.0    -0.0    -0.0    -0.0    -0.0
    -0.0    -0.0    -0.0    -0.0    -0.0    -0.0     0.0    -0.0     0.0    -0.0
     0.0    -0.0     0.0    -0.0     0.0    -0.0     0.0    -0.0     0.0    -0.0
     0.0    -0.0     0.0    -0.0     0.0    -0.0     0.0    -0.0     0.0    -0.0
     0.0    -0.0     0.0    -0.0     0.0    -0.0     0.0    -0.0     0.0    -0.0
     0.0     0.0     0.0     0.0     0.0     0.0     0.0     0.0     0.0     0.0
     0.0     0.0     0.0     0.0     0.0     0.0     0.0     0.0     0.0     0.0
     0.0     0.0     0.0     0.0     0.0     0.0     0.0     0.0     0.0     0.0
     0.0     0.0     0.0     0.0     0.0     0.0     0.0     0.0     0.0     0.0
     0.0     0.0     0.0     0.0     0.0     0.0     0.0     0.0     0.0     0.0
     0.0     0.0     0.0     0.0     0.0     0.0     0.0     0.0     0.0     0.0
     0.0     0.0     0.0     0.0     0.0     0.0     0.0     0.0     0.0     0.0
     0.0     0.0     0.0     0.0     0.0     0.0     0.0     0.0     0.0     0.0
     0.0     0.0     0.0     0.0     0.0     0.0     0.0     0.0    -0.0     0.0
    -0.0     0.1     0.0    -0.1    -0.1    -0.0    -0.0     0.0    -0.2     0.0
     0.0    -0.1    -0.0     0.0    -0.0    -0.0     0.0     0.0     0.1    -0.0
     0.0    -0.2     0.0    -0.2    -0.1     0.0    -0.0    -0.0    -0.0     0.0
     0.1    -0.0    -0.0     0.1    -0.0    -0.2    -0.0    -0.0    -0.1     0.2
     0.0     0.1    -0.2    -0.0    -0.0     0.1    -0.2     0.2     0.1    -0.0
    -0.0     0.0     0.2    -0.0    -0.1     0.1    -0.2     0.0     0.1    -0.3
     0.0    -0.1     0.1     0.0     0.1    -0.1     0.1    -0.1    -0.0     0.1
     0.1     0.1     0.0    -0.0    -0.3     0.0     0.1    -0.1     0.1    -0.1
    -0.1    -0.2    -0.0     0.1     0.0     0.1    -0.1    -0.2    -0.0     0.0
     0.0    -0.1     0.0    -0.2     0.1    -0.0    -0.2    -0.0    -0.1     0.0
    -0.1     0.2     0.1    -0.3    -0.1    -0.0     0.1    -0.0     0.0    -0.0
     0.0     0.0    -0.1    -0.0     0.1     0.1    -0.0    -0.0    -0.1     0.0
     0.1     0.0    -0.1    -0.1     0.2     0.1    -0.1     0.1    -0.1    -0.0
    -0.2     0.2    -0.0     0.2     0.1    -0.1     0.0     0.1     0.1     0.2
     0.0     0.1     0.2    -0.1    -0.2     0.2     0.1    -0.0     0.2     0.0
     0.3     0.0    -0.0     0.1    -0.0     0.0     0.3    -0.0     0.4     0.1
    -0.1    -0.1    -0.0     0.1     0.0     0.1    -0.0    -0.0     0.2    -0.2
     0.2    -0.0    -0.2     0.1     0.0     0.1     0.1     0.0     0.0    -0.0
    -0.1     0.0     0.1     0.1     0.1     0.2     0.0     0.1     0.1     0.0
    -0.2    -0.0     0.1     0.0     0.0    -0.0    -0.1    -0.1     0.2     0.1
    -0.1    -0.0    -0.0    -0.1     0.0    -0.1     0.1    -0.0     0.0     0.0
    -0.0    -0.3     0.1     0.0    -0.0     0.3     0.0     0.0    -0.1     0.1
    -0.0    -0.1     0.0    -0.1     0.0     0.1     0.0    -0.0    -0.0    -0.1
    -0.0     0.0     0.1    -0.0    -0.1    -0.1    -0.1    -0.1     0.1     0.1
     0.2     0.1    -0.0     0.0    -0.1     0.0    -0.1    -0.2    -0.1     0.1
    -0.0    -0.0    -0.1     0.1    -0.1    -0.0    -0.0     0.2    -0.1    -0.2
    -0.1     0.0     0.1    -0.2    -0.2    -0.1    -0.0    -0.1    -0.2    -0.0
     0.0     0.0    -0.0    -0.2    -0.2    -0.2    -0.2    -0.2    -0.0    -0.1
    -0.0    -0.1    -0.1    -0.1     0.0     0.0    -0.1    -0.0    -0.2     0.0
    -0.2    -0.2     0.1    -0.0     0.1    -0.1    -0.1     0.1     0.1    -0.1
    -0.0     0.0    -0.1     0.1    -0.0     0.2    -0.1    -0.1     0.2     0.2
     0.1    -0.1     0.2     0.0     0.2    -0.2    -0.2     0.1    -0.3     0.1
     0.0     0.1     0.2    -0.2     0.0     0.0    -0.0    -0.0    -0.2    -0.2
     0.0    -0.0     0.4    -0.0    -0.0     0.5     0.3     0.1     0.0    -0.1
     0.1    -0.1    -0.0     0.2     0.3    -0.1    -0.3     0.1    -0.0    -0.1
    -0.0    -0.0    -0.1     0.1    -0.2    -0.0     0.1    -0.0     0.2    -0.0
     0.1    -0.2     0.2    -0.1    -0.1     0.1    -0.0     0.0     0.1     0.1
     0.0     0.1    -0.1     0.1    -0.2     0.0     0.3    -0.1    -0.1     0.1
     0.0    -0.1     0.1     0.3     0.2     0.0    -0.2     0.2     0.1     0.0
    -0.1     0.1     0.1    -0.2    -0.1    -0.1     0.2    -0.2     0.1     0.5
    -0.0    -0.2    -0.1     0.0    -0.1    -0.1     0.2    -0.2    -0.0     0.2
     0.2     0.1    -0.1    -0.0     0.1     0.1     0.1     0.1    -0.1    -0.1
     0.4     0.1    -0.3    -0.1     0.2    -0.0    -0.2     0.0     0.0    -0.2
    -0.1     0.2    -0.0     0.0     0.1     0.2     0.1    -0.1     0.0    -0.1
    -0.0    -0.0     0.1    -0.1     0.1    -0.1    -0.2     0.1    -0.1     0.1
    -0.0     0.1     0.0    -0.1     0.2    -0.1    -0.2    -0.0    -0.0    -0.1
     0.2    -0.2     0.0    -0.3    -0.2     0.2    -0.0     0.0    -0.1    -0.1
     0.1    -0.1    -0.2    -0.1    -0.1     0.0     0.0     0.1    -0.1    -0.1
     0.1    -0.0    -0.2     0.1    -0.0    -0.2    -0.1    -0.0     0.1    -0.2
    -0.1    -0.0     0.0     0.1    -0.1     0.2     0.2     0.1    -0.0    -0.1
     0.0    -0.2     0.1    -0.0     0.1     0.1     0.1     0.1    -0.1     0.1
     0.1    -0.2     0.1     0.2    -0.1     0.0    -0.1     0.1     0.0     0.3
    -0.1    -0.0     0.1    -0.0     0.1    -0.3     0.2    -0.1     0.0    -0.1
     0.0     0.1    -0.1     0.0    -0.0    -0.2     0.0     0.1    -0.1     0.0
     0.0    -0.2    -0.1    -0.1     0.1     0.1    -0.1    -0.0     0.0     0.2
    -0.0    -0.0     0.3     0.1    -0.2    -0.0     0.0    -0.1     0.0    -0.1
     0.0    -0.2     0.2    -0.0     0.2     0.0     0.0    -0.1     0.1    -0.4
    -0.1     0.3     0.1    -0.2    -0.1     0.2     0.2    -0.1    -0.1     0.2
    -0.1    -0.1     0.0     0.1     0.0     0.0     0.1     0.1     0.1    -0.2
     0.0    -0.0     0.1     0.1    -0.1    -0.0     0.1    -0.1    -0.0    -0.1
     0.0     0.2    -0.0     0.1     0.1     0.2     0.0    -0.0     0.1    -0.1
     0.1     0.1    -0.0    -0.1     0.1    -0.0    -0.1    -0.0     0.1    -0.1
    -0.1    -0.1    -0.4     0.1     0.1     0.0    -0.2    -0.0     0.2    -0.2
    -0.0    -0.1    -0.2    -0.2    -0.2     0.0     0.1     0.0     0.0     0.1
    -0.0    -0.2    -0.1    -0.1     0.1     0.2     0.1    -0.1    -0.0    -0.1
    -0.0    -0.1    -0.1     0.0     0.0     0.1    -0.0     0.1     0.2     0.0
     0.1    -0.2     0.0    -0.0     0.1     0.1    -0.1     0.1     0.1    -0.2
     0.1     0.1     0.1    -0.1    -0.2     0.0    -0.0    -0.0    -0.1     0.2
     0.1    -0.1    -0.0    -0.0     0.1     0.1    -0.1     0.1     0.0     0.2
     0.1    -0.2    -0.1     0.0     0.1    -0.1     0.1    -0.1    -0.2     0.2
     0.1    -0.0    -0.1     0.0     0.1     0.1    -0.1    -0.2     0.2     0.0
    -0.1     0.2    -0.1    -0.1    -0.1     0.2     0.0     0.1    -0.0     0.0
     0.1    -0.1     0.2     0.2     0.0     0.2    -0.0    -0.2    -0.1    -0.1
     0.1    -0.1    -0.1    -0.2     0.1    -0.1    -0.2     0.0     0.2     0.1
    -0.1    -0.2     0.2    -0.1     0.2    -0.1     0.3    -0.0    -0.2     0.1
    -0.1     0.1     0.0     0.0     0.0     0.1    -0.1    -0.0     0.0     0.0
    -0.0    -0.0    -0.0     0.1     0.1     0.1     0.1    -0.0    -0.1    -0.3
     0.0     0.1    -0.1    -0.1     0.1     0.0     0.0     0.0     0.0    -0.1
    -0.1     0.2     0.2    -0.2     0.1     0.1    -0.0    -0.4     0.1     0.2
    -0.0    -0.1    -0.1     0.1     0.1    -0.0    -0.1     0.2     0.1    -0.1
     0.1    -0.1     0.2    -0.0    -0.1     0.2    -0.0    -0.3     0.0     0.1
    -0.1     0.1     0.2     0.1    -0.1    -0.1     0.0     0.0    -0.1     0.1
     0.1     0.2     0.0     0.0     0.1    -0.1     0.1    -0.2    -0.1     0.1
    -0.0     0.1     0.1    -0.1     0.0     0.2     0.2     0.0    -0.2    -0.0
    -0.1    -0.1    -0.2    -0.0    -0.1    -0.1    -0.0    -0.1    -0.2    -0.1
    -0.1     0.1     0.1    -0.0    -0.0    -0.2    -0.1    -0.0     0.3     0.1
    -0.2     0.0    -0.0    -0.1    -0.1    -0.0     0.2     0.0    -0.2     0.0
    -0.0    -0.0     0.1     0.0    -0.0    -0.1    -0.2    -0.0     0.1     0.1
    -0.2    -0.2    -0.1     0.1    -0.0    -0.3    -0.0    -0.0    -0.0    -0.1
    -0.1    -0.2    -0.1     0.0     0.1    -0.0    -0.0    -0.1     0.1    -0.1
     0.0    -0.1    -0.0     0.1    -0.2    -0.1     0.1     0.1    -0.0    -0.1
     0.1    -0.1     0.0     0.2    -0.1    -0.2    -0.0     0.0    -0.1    -0.0
     0.1    -0.0    -0.1     0.1     0.1    -0.0     0.0     0.0    -0.1    -0.1
     0.0     0.1     0.1     0.1     0.1    -0.2     0.2    -0.1    -0.0    -0.0
     0.1    -0.0     0.1     0.1     0.1    -0.0     0.2     0.1     0.0    -0.1
     0.0     0.1    -0.2    -0.2     0.0    -0.1     0.0     0.2    -0.0     0.1
     0.1    -0.0     0.1     0.1     0.2    -0.1    -0.0     0.1     0.1     0.2
     0.0    -0.0    -0.1    -0.1     0.0     0.2     0.1     0.1     0.4     0.0
    -0.1    -0.0    -0.1    -0.0    -0.2     0.0     0.2     0.1    -0.0    -0.1
    -0.0     0.2     0.0    -0.0     0.3     0.0     0.0     0.1     0.1    -0.0
     0.1     0.0    -0.0     0.2    -0.0     0.0    -0.1    -0.1    -0.1    -0.0
    -0.0    -0.2     0.0     0.1     0.1     0.1     0.1    -0.1    -0.1    -0.0
    -0.1    -0.0    -0.2     0.1    -0.0     0.1     0.2    -0.0    -0.1    -0.1
     0.0     0.0     0.1     0.0     0.1     0.0     0.0    -0.0    -0.0    -0.0
     0.1     0.1    -0.1    -0.2    -0.1     0.1    -0.0    -0.0     0.1     0.1
     0.2     0.0    -0.1     0.0     0.0     0.0    -0.1     0.0     0.1    -0.1
    -0.2    -0.1     0.2    -0.0    -0.1    -0.1    -0.2     0.1     0.2    -0.1
     0.2     0.1     0.1    -0.1    -0.3    -0.2     0.1    -0.1     0.1    -0.1
    -0.0     0.1    -0.1     0.1    -0.1    -0.0    -0.2    -0.1     0.1     0.1
     0.0     0.3    -0.2    -0.2    -0.1    -0.1     0.0    -0.1    -0.1    -0.2
     0.0    -0.0    -0.0    -0.1    -0.1    -0.3     0.0    -0.1     0.3    -0.0
    -0.0     0.0    -0.3    -0.1     0.1     0.1     0.0    -0.1     0.1    -0.0
     0.2    -0.2     0.1    -0.1    -0.0    -0.2     0.2     0.1    -0.0    -0.2
    -0.1     0.1     0.0     0.0     0.1     0.1     0.1    -0.1    -0.0     0.0
     0.1     0.0     0.0     0.1    -0.1    -0.1    -0.1    -0.1    -0.0    -0.1
     0.1    -0.1    -0.1    -0.2    -0.2    -0.0    -0.1    -0.1    -0.0     0.0
    -0.0    -0.2    -0.0     0.1    -0.1     0.2    -0.1     0.2    -0.0    -0.0
    -0.1     0.2     0.3     0.2    -0.1     0.0     0.0     0.1     0.3    -0.0
     0.0    -0.0     0.1     0.0     0.3     0.0     0.0     0.1     0.1    -0.0
     0.1     0.0     0.3     0.1    -0.0    -0.1     0.1    -0.0     0.2     0.2
     0.3     0.2     0.1    -0.0     0.1     0.0    -0.0    -0.0     0.1     0.0
     0.1     0.1     0.2     0.1    -0.1    -0.0     0.2     0.1     0.0    -0.1
    -0.1     0.1    -0.1     0.1     0.1     0.1    -0.2    -0.0     0.1     0.1
     0.2     0.1     0.2     0.0     0.1    -0.1     0.0     0.1    -0.0    -0.2
     0.3     0.2     0.0    -0.2     0.0    -0.0     0.0     0.1    -0.1     0.0
     0.0    -0.1    -0.2     0.1    -0.1     0.0    -0.1    -0.0    -0.1    -0.1
    -0.1    -0.1    -0.0     0.0     0.0     0.1    -0.0    -0.2     0.2    -0.0
     0.0    -0.1    -0.1    -0.2    -0.3    -0.2     0.0    -0.3    -0.1     0.1
    -0.2    -0.1     0.0    -0.2     0.1    -0.0    -0.3    -0.2    -0.1     0.0
    -0.0    -0.0    -0.2     0.1     0.1    -0.1    -0.2    -0.1    -0.0    -0.1
    -0.1     0.0     0.1     0.1     0.0    -0.2     0.1     0.0    -0.1    -0.2
     0.0     0.0     0.1    -0.1    -0.1     0.2    -0.0    -0.3    -0.0    -0.2
    -0.2    -0.1     0.2    -0.0     0.1    -0.0     0.1     0.1     0.1    -0.0
    -0.2    -0.2    -0.1    -0.1    -0.0     0.1    -0.1    -0.0    -0.1    -0.0
     0.1     0.1     0.2     0.2     0.1    -0.0     0.1     0.0     0.1     0.0
    -0.0    -0.1     0.0     0.1     0.2     0.1     0.1    -0.0     0.2     0.1
     0.1     0.0     0.2     0.2     0.1     0.0    -0.1     0.1     0.1     0.0
     0.1    -0.0     0.1     0.1    -0.1    -0.0     0.1     0.2    -0.1     0.2
     0.1    -0.1    -0.0     0.1     0.1     0.1    -0.0    -0.1     0.1     0.1
     0.2     0.0     0.2     0.1     0.0    -0.1    -0.0     0.1     0.0     0.2
     0.1    -0.0     0.2    -0.0     0.2    -0.1     0.2    -0.0     0.2     0.0
     0.3     0.0    -0.1     0.2     0.0     0.1     0.1     0.0     0.0    -0.1
     0.2     0.0     0.1     0.1     0.0    -0.0    -0.1    -0.0     0.2    -0.1
    -0.0    -0.1     0.1     0.0    -0.1     0.0     0.1    -0.1     0.0    -0.0
     0.0    -0.1    -0.1    -0.1    -0.1    -0.2    -0.1    -0.1    -0.2    -0.1
    -0.2    -0.3    -0.1    -0.1    -0.2    -0.1    -0.1    -0.2    -0.0     0.0
    -0.1    -0.3    -0.1    -0.1    -0.2     0.0    -0.3    -0.2    -0.1    -0.2
    -0.2    -0.1    -0.3    -0.2    -0.2    -0.1    -0.2    -0.0    -0.2    -0.2
    -0.0    -0.3    -0.1    -0.2    -0.2    -0.1    -0.1    -0.1    -0.2    -0.3
    -0.2     0.0    -0.1    -0.2    -0.0    -0.1    -0.2    -0.2    -0.1    -0.2
    -0.1    -0.1    -0.0    -0.0     0.1     0.0    -0.3    -0.2    -0.1    -0.1
    -0.1     0.1    -0.0    -0.2    -0.0    -0.3    -0.1    -0.1    -0.1    -0.0
     0.0     0.0    -0.2     0.0    -0.1    -0.1    -0.1    -0.1     0.1    -0.2
     0.1     0.1     0.1    -0.0     0.2    -0.1     0.0    -0.0    -0.1     0.1
    -0.0     0.0     0.1     0.0     0.2     0.1    -0.1     0.1     0.3     0.2
    -0.1     0.2     0.1     0.1     0.1     0.2     0.2     0.4     0.2    -0.0
     0.2     0.1     0.1    -0.0     0.2     0.1     0.4     0.2     0.2     0.2
     0.2     0.3     0.3     0.1     0.5     0.2     0.2     0.2     0.3     0.1
     0.5     0.3     0.1     0.4     0.3     0.3     0.3     0.1     0.3     0.1
     0.2     0.2     0.2     0.3     0.5     0.1     0.3     0.1     0.3     0.3
     0.3     0.2     0.1     0.1     0.1     0.1     0.3     0.2     0.4     0.3
     0.2     0.1     0.4     0.3     0.1    -0.1     0.2    -0.0     0.2     0.2
     0.3    -0.1     0.2     0.2    -0.0     0.2    -0.1     0.1     0.1    -0.0
     0.1     0.1    -0.2     0.0    -0.0    -0.1     0.0    -0.0     0.1    -0.2
     0.0     0.2    -0.1    -0.2    -0.1    -0.1    -0.1     0.0    -0.3    -0.2
    -0.2    -0.3    -0.2    -0.2    -0.0    -0.1    -0.2    -0.1    -0.3    -0.4
    -0.3    -0.2    -0.3    -0.2    -0.4    -0.3    -0.3    -0.3    -0.4    -0.3
    -0.2    -0.4    -0.3    -0.4    -0.4    -0.4    -0.3    -0.5    -0.4    -0.3
    -0.2    -0.3    -0.5    -0.4    -0.4    -0.4    -0.2    -0.5    -0.4    -0.3
    -0.2    -0.5    -0.4    -0.3    -0.4    -0.2    -0.3    -0.5    -0.3    -0.5
    -0.3    -0.3    -0.4    -0.4    -0.2    -0.4    -0.1    -0.4    -0.2    -0.4
    -0.4    -0.3    -0.4    -0.3    -0.5    -0.5    -0.1    -0.2    -0.1    -0.2
    -0.2    -0.4    -0.1    -0.2    -0.1    -0.4    -0.1    -0.2    -0.1    -0.1
    -0.1    -0.1     0.0    -0.1     0.1    -0.2    -0.0     0.3     0.0     0.0
     0.1     0.2     0.3     0.2     0.2     0.2     0.2     0.2     0.3     0.4
     0.5     0.2     0.5     0.3     0.5     0.4     0.5     0.4     0.6     0.5
     0.6     0.7     0.6     0.8     0.7     0.7     0.8     0.9     0.7     0.7
     0.8     0.8     0.9     0.8     1.1     1.1     1.0     0.9     1.1     1.1
     1.1     1.1     1.2     0.9     1.3     0.9     1.1     1.2     1.3     1.3
     1.1     1.0     1.2     1.2     1.0     1.5     1.5     1.3     1.2     1.2
     1.2     1.2     1.4     1.2     1.4     1.3     1.3     1.1     1.3     1.5
     1.2     1.3     1.1     1.2     1.3     1.1     1.3     1.1     1.1     1.2
     1.1     1.1     1.0     1.1     1.1     0.9     1.1     0.8     1.0     0.9
     1.0     0.8     0.7     0.8     0.9     0.6     0.7     0.6     0.6     0.6
     0.7     0.4     0.4     0.4     0.4     0.4     0.1    -0.0     0.1     0.2
     0.2    -0.1     0.1    -0.3    -0.4    -0.2    -0.5    -0.4    -0.3    -0.5
    -0.8    -0.7    -0.8    -0.8    -0.7    -0.9    -0.4    -1.4    -1.0    -1.5
    -1.1    -1.4    -1.3    -1.5    -1.3    -1.6    -1.4    -1.7    -1.7    -1.8
    -2.0    -2.1    -2.2    -2.2    -2.1    -2.2    -2.3    -2.6    -2.4    -2.6
    -2.7    -2.9    -2.7    -2.8    -3.0    -2.9    -2.8    -3.0    -3.1    -3.3
    -3.3    -3.2    -3.0    -3.4    -3.5    -3.8    -3.6    -3.7    -3.6    -4.0
    -3.6    -3.9    -3.7    -4.1    -3.8    -3.9    -3.9    -4.1    -4.0    -4.2
    -4.1    -4.3    -4.1    -4.4    -4.2    -4.4    -4.3    -4.4    -4.2    -4.6
    -4.3    -4.3    -4.2    -4.4    -4.2    -4.2    -4.4    -4.3    -4.1    -4.3
    -4.2    -4.4    -4.1    -4.2    -4.1    -4.2    -4.0    -4.2    -3.9    -4.1
    -3.9    -4.1    -3.8    -3.9    -3.5    -3.8    -3.5    -3.7    -3.5    -3.4
    -3.3    -3.4    -3.3    -3.3    -3.1    -3.2    -2.7    -2.9    -2.5    -2.6
    -2.4    -2.4    -2.2    -2.1    -1.9    -2.2    -1.8    -1.7    -1.4    -1.6
    -1.4    -1.5    -1.2    -1.1    -0.7    -0.8    -0.4    -0.5    -0.2    -0.2
     0.1    -0.1     0.3     0.1     0.6     0.6     1.1     1.1     1.4     1.9
