Corrected accelerogram 20160214_001343_DFHS_20 GNS Science
Site DFHS      43 29 23S  172 06 08E     Cusp file:  20160214_001353_DFHS
Darfield High School
Instrument Cusp_42219
Resolution: 18-bit   Instr Period: 0.0050 s   Damping: 0.700
Accelerogram 20160214_001343_DFHS_20                 Processed 2016 February 22
11 km east of CHRISTCHURCH
2016 February 14         00:13:43 UT
Epicentre  43 29 50S 172 45 18E  Bearing S89E  Dist   53km  Depth    8km M  5.70
Number of points  8192    Duration 163.82 sec
Instrument corrected data at 0.020 sec intervals
Band-pass filter transition bands are .10-.25 Hz and 24.50-25.50 Hz
Component N00E  Horizontal Axis 1
Acceleration:  peak     90.4 mm/s/s at  49.06 sec     rms      7.1 mm/s/s
Velocity:      peak    -6.78 mm/s   at  48.96 sec     rms     1.52 mm/s
Displacement:  peak   -3.550 mm     at  99.16 sec     rms    0.972 mm
    2016       2      14       0      13     430       0       0    2016       2
      43      29      50     172      45      18       8       0      14       0
      43      29      23     172       6       8       0       0      91      53
   35472     250     250    8192    8192    8192       0       0      13   13907
   200.0    0.70    0.00   0.000  0.0000   0.000   0.000   1.000     0.0    0.00
  43.490 172.102   43.50  172.76    5.70    0.00    0.00    0.00      0.      0.
  177.35    5.00    5.00  163.82  0.0050  0.0200      0.      0.      0.  9806.6
    92.3   49.06     7.6   0.000      0.    90.4   49.06     7.1   105.4   0.360
   -6.78   48.96    1.52    8.31   0.198   -3.55   99.16    0.97    4.54   0.195
   0.100   0.150   0.250      0.      0.  24.500   1.000  25.500      0.      0.
   0.001  -0.000   0.001  -0.000   0.001  -0.000   0.001  -0.000   0.001  -0.000
   0.001  -0.000   0.001  -0.000   0.001  -0.000   0.001  -0.001   0.001  -0.001
   0.001  -0.001   0.001  -0.001   0.001  -0.001   0.000  -0.001   0.000  -0.001
   0.000  -0.001   0.000  -0.001   0.000  -0.001   0.000  -0.001  -0.000  -0.001
  -0.000  -0.001  -0.000  -0.002  -0.000  -0.002  -0.000  -0.002  -0.000  -0.002
  -0.001  -0.002  -0.001  -0.002  -0.001  -0.002  -0.001  -0.002  -0.001  -0.002
  -0.001  -0.002  -0.001  -0.003  -0.001  -0.003  -0.001  -0.003  -0.001  -0.003
  -0.002  -0.003  -0.002  -0.003  -0.002  -0.003  -0.002  -0.003  -0.002  -0.003
  -0.002  -0.003  -0.002  -0.003  -0.002  -0.003  -0.002  -0.004  -0.002  -0.004
  -0.002  -0.004  -0.002  -0.004  -0.003  -0.004  -0.003  -0.004  -0.003  -0.004
  -0.003  -0.004  -0.003  -0.004  -0.003  -0.004  -0.003  -0.004  -0.003  -0.004
  -0.003  -0.004  -0.003  -0.004  -0.003  -0.004  -0.003  -0.004  -0.003  -0.004
  -0.003  -0.004  -0.003  -0.004  -0.003  -0.004  -0.003  -0.003  -0.002  -0.003
  -0.002  -0.003  -0.002  -0.003  -0.002  -0.003  -0.002  -0.003  -0.002  -0.003
  -0.002  -0.003  -0.002  -0.002  -0.001  -0.002  -0.001  -0.002  -0.001  -0.002
  -0.001  -0.002  -0.001  -0.001  -0.000  -0.001  -0.000  -0.001   0.000  -0.001
   0.000  -0.000   0.001  -0.000   0.001   0.000   0.001   0.001   0.002   0.001
   0.002   0.001   0.002   0.002   0.002   0.002   0.003   0.002   0.003   0.003
   0.003   0.003   0.004   0.004   0.004   0.004   0.004   0.005   0.005   0.005
   0.005   0.005   0.005   0.006   0.006   0.007   0.006   0.007   0.006   0.008
   0.007   0.008   0.007   0.009   0.007   0.010   0.008   0.010   0.008   0.011
   0.008   0.012   0.008   0.012   0.009   0.013   0.009   0.014   0.009   0.014
   0.009   0.015   0.009   0.016   0.010   0.017   0.010   0.018   0.010   0.019
   0.010   0.020   0.009   0.021   0.009   0.022   0.009   0.024   0.008   0.026
   0.008   0.027   0.006   0.030   0.005   0.033   0.002   0.037  -0.002   0.043
   0.002   0.163   0.094  -0.024  -0.085  -0.080  -0.058   0.054  -0.173  -0.083
   0.067  -0.054   0.090   0.009  -0.144  -0.086  -0.015   0.012   0.075   0.040
   0.036   0.004   0.023  -0.027  -0.099  -0.083  -0.010  -0.060   0.078   0.008
   0.016   0.094  -0.025   0.074   0.199  -0.030   0.114  -0.124   0.211  -0.082
  -0.068   0.008   0.031   0.019   0.036  -0.169  -0.009   0.020  -0.039  -0.214
   0.003  -0.032   0.037  -0.024  -0.044   0.003  -0.012  -0.169   0.038  -0.180
  -0.021  -0.131   0.082  -0.005   0.030   0.068   0.099   0.068  -0.146   0.239
  -0.084   0.002  -0.201  -0.078  -0.165  -0.162  -0.205   0.121   0.146  -0.029
  -0.075   0.060  -0.002   0.070  -0.089   0.025   0.117  -0.042  -0.036   0.065
  -0.016   0.050  -0.058  -0.065   0.038  -0.011   0.051  -0.052   0.085   0.026
   0.006  -0.088  -0.156   0.012  -0.017  -0.054  -0.138  -0.020   0.044  -0.095
   0.002  -0.006  -0.007   0.042  -0.053   0.004   0.224  -0.064  -0.018   0.013
  -0.136  -0.014   0.128   0.177   0.062  -0.138   0.095  -0.038  -0.020  -0.123
  -0.024  -0.107   0.186   0.191   0.077  -0.201   0.125   0.016   0.054  -0.030
   0.137   0.107   0.182  -0.049   0.032   0.019  -0.185   0.009   0.013  -0.000
  -0.114  -0.043   0.117  -0.060   0.075   0.027   0.102   0.088  -0.026   0.009
  -0.020   0.086   0.167  -0.129  -0.087  -0.098  -0.030   0.147   0.028  -0.102
  -0.053  -0.037   0.195  -0.020   0.068   0.086  -0.154   0.070   0.123   0.034
   0.062   0.023   0.070  -0.038  -0.048   0.077   0.061   0.052   0.046   0.086
   0.058  -0.030   0.020  -0.001   0.023   0.048  -0.142  -0.085   0.098  -0.062
  -0.050   0.021  -0.063  -0.024  -0.285   0.006  -0.042   0.102  -0.040  -0.038
  -0.090   0.043   0.107   0.186  -0.136  -0.049   0.059  -0.029   0.017  -0.093
   0.119  -0.046  -0.008   0.001  -0.081   0.001  -0.017  -0.100   0.136  -0.152
  -0.148  -0.062   0.016   0.028  -0.147   0.113  -0.119  -0.070   0.127  -0.232
  -0.092   0.073   0.011   0.003  -0.114  -0.090   0.048   0.021   0.196   0.003
   0.264  -0.076   0.153   0.014   0.027  -0.018  -0.007  -0.031   0.208   0.164
  -0.119   0.031  -0.039   0.071  -0.182   0.105  -0.022  -0.023  -0.076   0.116
  -0.016  -0.038   0.097   0.015   0.055  -0.026  -0.048  -0.062   0.073  -0.051
   0.074   0.040   0.008   0.091   0.041   0.181  -0.016   0.052  -0.199  -0.212
  -0.046   0.071   0.019  -0.046  -0.195  -0.152  -0.042   0.008  -0.045   0.053
  -0.087   0.072  -0.159   0.015   0.167  -0.081  -0.143  -0.030  -0.003  -0.127
   0.273  -0.033  -0.018  -0.015  -0.091   0.235   0.039   0.001  -0.108   0.099
   0.014   0.068  -0.100   0.067   0.111  -0.195  -0.067  -0.147  -0.066  -0.040
   0.127  -0.099   0.099   0.232  -0.055  -0.067   0.011   0.113  -0.016   0.173
   0.068   0.076   0.044   0.053   0.003  -0.070  -0.071  -0.167  -0.185   0.032
   0.022  -0.053  -0.057   0.054  -0.068   0.085  -0.030   0.042   0.081  -0.098
  -0.038  -0.195   0.059   0.002  -0.015  -0.115   0.097   0.108   0.101  -0.133
  -0.075  -0.106   0.059   0.004   0.007  -0.009   0.059  -0.003   0.026  -0.108
  -0.070  -0.081  -0.048   0.024   0.108  -0.285  -0.227  -0.075   0.056   0.094
  -0.022   0.155  -0.091   0.109  -0.113  -0.003  -0.207   0.157  -0.033  -0.069
   0.244  -0.019   0.035   0.238   0.230  -0.041   0.093   0.135  -0.035  -0.058
   0.024   0.112   0.054   0.008   0.037  -0.154   0.127   0.003   0.205   0.036
   0.087   0.112   0.139   0.153   0.023   0.071   0.146   0.064   0.157  -0.080
  -0.123   0.010  -0.018   0.027  -0.138  -0.136   0.035   0.013   0.002   0.046
  -0.019   0.000  -0.046  -0.103   0.014  -0.202  -0.018  -0.016  -0.170   0.200
  -0.034  -0.021   0.007   0.049   0.050  -0.145   0.012   0.164  -0.004   0.053
   0.116   0.026  -0.003  -0.130   0.043   0.021   0.041   0.030  -0.165   0.058
  -0.095  -0.010   0.218   0.070  -0.104  -0.188   0.068   0.030  -0.072  -0.083
  -0.089   0.100  -0.014   0.043   0.026   0.102  -0.031   0.000  -0.092   0.003
   0.127  -0.021  -0.029   0.123  -0.066  -0.073  -0.160   0.018  -0.207  -0.167
  -0.190  -0.083  -0.065  -0.031  -0.143   0.015  -0.095   0.057  -0.051  -0.043
  -0.054   0.142   0.206  -0.112  -0.183  -0.113   0.022   0.027   0.017  -0.007
   0.100  -0.037   0.076   0.120   0.068  -0.011  -0.133  -0.161   0.024  -0.073
   0.095  -0.039   0.024  -0.136   0.140  -0.056   0.083   0.033   0.148   0.194
   0.128   0.002  -0.066  -0.068  -0.052  -0.109   0.042   0.012  -0.048  -0.099
   0.048   0.212  -0.033   0.010  -0.088   0.096  -0.089  -0.142   0.129  -0.119
  -0.149   0.110   0.176   0.148   0.044  -0.098   0.197  -0.060  -0.076  -0.021
   0.003   0.018   0.097   0.002   0.063   0.187  -0.066  -0.098   0.004  -0.094
  -0.025   0.071   0.060   0.051   0.027  -0.020  -0.061   0.127  -0.058   0.016
  -0.043   0.132   0.012   0.118   0.007   0.136   0.041  -0.004  -0.189  -0.071
   0.028  -0.020  -0.008  -0.061  -0.189  -0.049  -0.023   0.066   0.095  -0.115
   0.162   0.133   0.131  -0.011   0.137  -0.071  -0.059  -0.059  -0.013   0.072
   0.135  -0.078  -0.120   0.024   0.064   0.067   0.135   0.155   0.092   0.048
   0.049  -0.081  -0.015   0.079  -0.088   0.029  -0.109   0.057   0.108   0.125
  -0.103   0.028   0.221   0.035  -0.107  -0.179  -0.074  -0.136  -0.243  -0.228
   0.020   0.015  -0.146  -0.158  -0.042  -0.018   0.020  -0.115  -0.141  -0.122
   0.019  -0.140  -0.019   0.095   0.082   0.055  -0.009  -0.018  -0.168   0.075
   0.104  -0.070   0.035   0.150  -0.003  -0.050  -0.007   0.080   0.042  -0.075
  -0.009  -0.034  -0.145  -0.167  -0.012   0.056  -0.110  -0.150   0.028   0.097
   0.033   0.081  -0.281  -0.047  -0.056  -0.023  -0.080  -0.162  -0.046   0.022
   0.073   0.090  -0.085  -0.028   0.040   0.045   0.029   0.112   0.084  -0.087
  -0.066  -0.180   0.111   0.179   0.008   0.027   0.231   0.016   0.086  -0.003
  -0.007   0.061  -0.170   0.025   0.062  -0.039   0.081   0.023  -0.148  -0.032
  -0.299  -0.112   0.016   0.029  -0.004  -0.012  -0.043  -0.134  -0.143   0.176
  -0.069   0.052  -0.045  -0.014   0.064   0.180   0.048   0.100   0.195  -0.057
   0.060   0.071   0.115   0.085   0.058   0.005   0.147   0.098  -0.046   0.030
   0.005   0.178  -0.093   0.078   0.017   0.007   0.022   0.015   0.255   0.119
   0.086   0.096   0.003   0.145   0.025  -0.012  -0.069   0.049  -0.108  -0.147
   0.024   0.014   0.055   0.149   0.183   0.020  -0.119   0.059   0.154   0.210
   0.015  -0.016  -0.094   0.084  -0.070  -0.083  -0.106   0.097   0.115   0.075
   0.146  -0.070   0.010   0.063  -0.155  -0.167   0.063  -0.159  -0.133  -0.056
  -0.085  -0.072   0.030   0.001  -0.114  -0.172  -0.086   0.073  -0.093  -0.043
  -0.093  -0.014  -0.014   0.044  -0.043   0.215   0.022   0.043   0.159  -0.121
  -0.090   0.039   0.163  -0.094  -0.001   0.066   0.036  -0.009  -0.082  -0.060
  -0.231  -0.099  -0.229  -0.012   0.073  -0.066   0.167   0.041   0.038  -0.193
  -0.169   0.133  -0.035  -0.054  -0.047   0.079   0.007   0.161   0.147  -0.003
  -0.062  -0.011  -0.050  -0.098  -0.097  -0.082  -0.238   0.017   0.042   0.099
   0.016   0.045   0.038   0.068  -0.071  -0.046   0.021  -0.078   0.065   0.031
   0.067  -0.106   0.004   0.222  -0.102  -0.048  -0.059   0.086  -0.038  -0.008
  -0.021   0.047  -0.038   0.081  -0.038  -0.295  -0.030   0.151   0.024   0.062
   0.060  -0.080  -0.005  -0.124  -0.044   0.022   0.063  -0.105  -0.045   0.075
   0.020   0.016  -0.187  -0.137   0.045   0.046   0.105  -0.051   0.139  -0.106
   0.020  -0.006   0.034  -0.063   0.148  -0.022  -0.068  -0.102   0.150   0.001
   0.180   0.066  -0.185   0.010  -0.006  -0.054  -0.138   0.070   0.009  -0.129
   0.287   0.144   0.165   0.141   0.023  -0.045  -0.037  -0.114   0.001   0.023
  -0.176  -0.104  -0.251  -0.064   0.069  -0.072  -0.084   0.100  -0.081   0.025
   0.109   0.059  -0.085   0.120   0.211   0.059   0.052  -0.055  -0.017   0.047
  -0.112   0.086   0.187   0.009   0.063   0.182   0.068   0.222   0.069  -0.120
   0.078  -0.027  -0.137   0.029  -0.015   0.085  -0.117   0.177   0.119  -0.143
   0.004  -0.019   0.156   0.118  -0.197   0.115  -0.019   0.206   0.145   0.046
  -0.076  -0.047   0.130   0.061   0.086   0.148  -0.048  -0.021  -0.155  -0.186
   0.018  -0.024  -0.108  -0.148  -0.138  -0.168  -0.155  -0.137  -0.073   0.068
  -0.054  -0.230  -0.082   0.080  -0.091  -0.123   0.068   0.067  -0.061  -0.135
  -0.126   0.151   0.066   0.046   0.046   0.063   0.110  -0.015  -0.087  -0.128
   0.086   0.106   0.152   0.051   0.014  -0.156  -0.146  -0.085  -0.183  -0.010
   0.135   0.076   0.026   0.065   0.135   0.214  -0.135  -0.010  -0.259   0.091
  -0.010   0.106  -0.028  -0.107   0.216   0.100   0.113   0.008  -0.005  -0.077
   0.102  -0.029  -0.001  -0.078   0.066  -0.096   0.047   0.086   0.090   0.003
  -0.236  -0.023  -0.009  -0.116   0.157  -0.043  -0.024   0.179   0.063   0.052
  -0.161  -0.039  -0.077  -0.187   0.055   0.012  -0.002  -0.121  -0.034   0.157
  -0.082  -0.009  -0.224   0.095  -0.024  -0.304   0.082  -0.057  -0.024   0.062
  -0.055  -0.124   0.028  -0.106   0.064  -0.026  -0.278  -0.142   0.124  -0.075
   0.041   0.036  -0.101  -0.281  -0.069   0.004  -0.202  -0.200   0.103   0.086
  -0.156   0.290  -0.034   0.181  -0.100   0.194  -0.101   0.068  -0.042   0.004
   0.188   0.081  -0.121  -0.023   0.194   0.107  -0.006  -0.033   0.073   0.127
   0.080   0.007   0.117   0.078   0.128   0.085   0.120   0.164   0.063   0.165
   0.128   0.113  -0.026   0.175   0.291  -0.005   0.025   0.242   0.157  -0.035
  -0.108   0.007   0.075   0.063  -0.093  -0.013   0.008   0.150   0.017  -0.083
   0.069  -0.027   0.029   0.020   0.121   0.007  -0.072  -0.068   0.213   0.017
   0.091  -0.077  -0.042  -0.083  -0.104  -0.108   0.039  -0.054   0.185  -0.075
   0.099   0.055   0.141  -0.071   0.017  -0.125  -0.172  -0.222  -0.071   0.030
  -0.058   0.024   0.016  -0.156  -0.026   0.055  -0.000  -0.075   0.002  -0.173
  -0.036  -0.090   0.122   0.000   0.042  -0.036  -0.202  -0.091  -0.032   0.016
   0.058  -0.125  -0.095   0.008  -0.002   0.146   0.056  -0.014  -0.028   0.003
  -0.047  -0.102   0.007   0.033  -0.002   0.304  -0.083  -0.016  -0.014  -0.151
   0.031  -0.076   0.103  -0.012  -0.029  -0.102  -0.077   0.048  -0.073   0.021
  -0.053   0.047   0.204   0.048  -0.148  -0.120  -0.224  -0.082   0.188  -0.007
   0.040  -0.019  -0.112  -0.004  -0.142  -0.228  -0.051  -0.101  -0.067  -0.279
  -0.047  -0.019  -0.149   0.168  -0.002  -0.112   0.133  -0.006  -0.004   0.005
  -0.189   0.012  -0.112   0.033  -0.015   0.027   0.206   0.048  -0.126  -0.133
   0.013  -0.026  -0.156  -0.103   0.176   0.165  -0.040   0.111   0.003  -0.159
   0.249  -0.085  -0.064  -0.011  -0.060   0.024   0.096  -0.006  -0.003   0.045
   0.071   0.091   0.006   0.182   0.039  -0.009   0.075  -0.035   0.192   0.140
   0.150   0.117   0.031  -0.000  -0.046   0.058   0.087  -0.144  -0.193   0.059
   0.030  -0.012   0.036   0.092  -0.008   0.049   0.038   0.105   0.114  -0.065
   0.030  -0.066  -0.029   0.022  -0.019  -0.123   0.019  -0.026  -0.096  -0.031
   0.063   0.202  -0.008  -0.044  -0.038   0.240  -0.098  -0.167  -0.097  -0.029
   0.134  -0.133   0.075  -0.061   0.188   0.053   0.083  -0.174   0.039  -0.126
   0.122   0.032   0.007  -0.256  -0.265  -0.047  -0.033   0.072   0.165  -0.028
  -0.068  -0.033  -0.089  -0.134  -0.024  -0.026  -0.091   0.248  -0.050   0.259
   0.083   0.170  -0.046   0.033  -0.084   0.010   0.008  -0.019   0.225   0.240
   0.104  -0.084   0.111  -0.010   0.011  -0.122  -0.211  -0.064   0.002  -0.066
  -0.069  -0.014  -0.140  -0.085   0.031   0.134   0.070  -0.099  -0.061   0.012
   0.019  -0.101   0.026   0.024   0.112   0.112   0.072  -0.143  -0.001   0.048
   0.070   0.044   0.042   0.072  -0.090   0.033  -0.025   0.240   0.049   0.016
   0.076   0.040   0.097   0.105  -0.229  -0.139  -0.092   0.054  -0.016  -0.091
   0.087   0.027   0.048   0.017   0.070   0.037   0.236   0.094   0.132   0.073
  -0.098   0.000   0.163  -0.192   0.021   0.084  -0.006  -0.180  -0.002   0.001
  -0.178  -0.159  -0.049  -0.170   0.144   0.051   0.120  -0.061  -0.030   0.148
   0.220  -0.092  -0.040  -0.073   0.059  -0.058  -0.007   0.046  -0.053   0.111
  -0.079  -0.252  -0.032  -0.163  -0.104   0.093   0.018   0.193   0.045  -0.072
  -0.058   0.037   0.059  -0.085  -0.097  -0.031  -0.100   0.116  -0.012  -0.026
  -0.171  -0.045   0.092   0.111   0.036  -0.125  -0.078  -0.048  -0.006   0.141
  -0.002   0.019   0.001   0.139   0.083   0.166   0.057  -0.021  -0.023  -0.058
  -0.004   0.010   0.142  -0.080  -0.025  -0.027  -0.120   0.003   0.105  -0.297
   0.020   0.121  -0.119  -0.147   0.133  -0.078  -0.087  -0.068  -0.093  -0.022
  -0.002  -0.058  -0.051   0.012   0.057   0.045  -0.114  -0.047   0.104   0.210
   0.143  -0.002   0.021   0.179   0.015   0.225   0.099   0.156  -0.269  -0.080
   0.007  -0.051  -0.234   0.080   0.054  -0.107  -0.015  -0.026  -0.008  -0.067
  -0.159  -0.082   0.429  -0.033  -0.193  -0.048   0.046  -0.078  -0.058   0.031
  -0.099   0.080   0.092  -0.133  -0.174  -0.064   0.101  -0.031  -0.024  -0.073
   0.081   0.080  -0.018  -0.011   0.066  -0.127  -0.132   0.117  -0.036  -0.069
  -0.045   0.084   0.001   0.024  -0.009   0.031   0.180   0.062   0.006   0.025
  -0.084   0.052   0.086   0.120   0.055   0.055  -0.026  -0.057  -0.037  -0.094
   0.179  -0.042   0.017  -0.034   0.017  -0.095   0.070  -0.094   0.154  -0.078
  -0.043  -0.031   0.190   0.171  -0.155  -0.086  -0.018  -0.123   0.063   0.050
  -0.253  -0.005   0.175   0.088   0.060   0.034   0.043   0.057   0.122   0.197
   0.200  -0.024  -0.048  -0.031   0.024   0.075  -0.179   0.256  -0.037   0.034
  -0.022   0.022   0.162  -0.008  -0.033  -0.024  -0.119   0.086  -0.036  -0.172
  -0.132  -0.164   0.048  -0.142  -0.067  -0.067   0.049  -0.044  -0.029   0.043
   0.066   0.025  -0.075   0.115  -0.146   0.028  -0.001   0.010   0.027  -0.172
  -0.073  -0.034  -0.219   0.142  -0.027   0.008  -0.050   0.062  -0.110  -0.176
  -0.154  -0.118  -0.250   0.028  -0.015  -0.151   0.205  -0.116   0.051   0.056
   0.024   0.044  -0.197  -0.040  -0.095   0.021   0.012  -0.168   0.004  -0.001
   0.055   0.077   0.119   0.105   0.004   0.062  -0.007   0.143   0.147   0.046
  -0.007   0.129  -0.081  -0.030   0.098  -0.117  -0.112   0.023   0.198  -0.176
   0.053  -0.018  -0.095  -0.032   0.117  -0.072  -0.157  -0.120  -0.111   0.021
   0.046  -0.109  -0.005   0.036  -0.022  -0.044  -0.017   0.037  -0.123   0.024
  -0.060  -0.180   0.026  -0.017  -0.061   0.193  -0.113   0.161   0.172  -0.052
   0.026  -0.062   0.024  -0.031  -0.239  -0.053   0.074  -0.181   0.021   0.203
   0.086   0.000  -0.040   0.178   0.130   0.024   0.061   0.020   0.017   0.050
  -0.008  -0.027  -0.024   0.036   0.135   0.123   0.041  -0.005  -0.136  -0.069
  -0.026  -0.017   0.251  -0.159   0.078   0.077   0.100   0.023   0.011   0.023
  -0.006  -0.093  -0.068   0.078  -0.243  -0.058  -0.039  -0.046   0.112  -0.008
  -0.089   0.015  -0.124   0.065   0.210   0.061   0.213   0.119   0.053  -0.002
  -0.160   0.112   0.011   0.062  -0.086  -0.077   0.072  -0.176  -0.063   0.296
  -0.004  -0.003  -0.154   0.210   0.098   0.002   0.119  -0.090   0.064   0.050
  -0.195  -0.214  -0.023  -0.043   0.124  -0.052  -0.037  -0.038   0.044  -0.023
  -0.085   0.091   0.069   0.039   0.007  -0.004   0.130   0.109   0.032  -0.118
  -0.031   0.215  -0.070   0.053   0.050  -0.038  -0.134   0.027  -0.226   0.009
  -0.077  -0.153   0.179   0.249   0.066  -0.060   0.020   0.066   0.048   0.156
   0.119   0.114  -0.028   0.077   0.164  -0.087   0.269   0.120  -0.100  -0.048
   0.114  -0.101  -0.074  -0.054   0.048  -0.071  -0.018   0.004  -0.012   0.076
  -0.069   0.021   0.040  -0.179   0.085  -0.060  -0.246   0.096   0.156  -0.043
   0.114   0.060  -0.064   0.009   0.037  -0.018   0.041  -0.134  -0.095   0.016
   0.020   0.020   0.145   0.009  -0.152   0.180   0.008  -0.011  -0.091  -0.048
   0.047   0.103  -0.098  -0.049  -0.018   0.036   0.152  -0.128   0.161   0.115
   0.000   0.044   0.016  -0.028   0.161   0.002   0.065   0.051   0.103  -0.105
   0.070   0.019  -0.162  -0.096  -0.093  -0.025  -0.048  -0.046   0.117  -0.004
  -0.163   0.011  -0.013  -0.130  -0.143   0.064  -0.031   0.042   0.109  -0.007
  -0.078  -0.072  -0.481   0.189   0.463   0.503   1.012   0.557  -0.181  -0.628
