Corrected accelerogram 20160214_001343_DORC_20 GNS Science
Site DORC      43 53 48S  172 05 38E     Cusp file:  20160214_001358_DORC
Dorie
Instrument Cusp_10410
Resolution: 18-bit   Instr Period: 0.0050 s   Damping: 0.700
Accelerogram 20160214_001343_DORC_20                 Processed 2016 February 22
11 km east of CHRISTCHURCH
2016 February 14         00:13:43 UT
Epicentre  43 29 50S 172 45 18E  Bearing N50E  Dist   69km  Depth    8km M  5.70
Number of points  8192    Duration 163.82 sec
Instrument corrected data at 0.020 sec intervals
Band-pass filter transition bands are .10-.25 Hz and 24.50-25.50 Hz
Component N00E  Horizontal Axis 1
Acceleration:  peak    -73.8 mm/s/s at  53.98 sec     rms      6.8 mm/s/s
Velocity:      peak     6.80 mm/s   at  62.10 sec     rms     1.28 mm/s
Displacement:  peak   -3.126 mm     at  61.66 sec     rms    0.667 mm
    2016       2      14       0      13     430       0       0    2016       2
      43      29      50     172      45      18       8       0      14       0
      43      53      48     172       5      38       0       0      50      69
   34527     250     250    8192    8192    8192       0       0      13   18739
   200.0    0.70    0.00   0.000  0.0000   0.000   0.000   1.000     0.0    0.00
  43.897 172.094   43.50  172.76    5.70    0.00    0.00    0.00      0.      0.
  172.63    5.00    5.00  163.82  0.0050  0.0200      0.      0.      0.  9806.6
   -78.9   53.97     7.2   0.000      0.   -73.8   53.98     6.8    99.6   0.940
    6.80   62.10    1.28    7.65   0.195   -3.13   61.66    0.67    3.93   0.195
   0.100   0.150   0.250      0.      0.  24.500   1.000  25.500      0.      0.
  -0.006   0.003  -0.006   0.003  -0.006   0.003  -0.006   0.003  -0.006   0.003
  -0.006   0.003  -0.006   0.003  -0.006   0.003  -0.007   0.003  -0.007   0.003
  -0.007   0.003  -0.007   0.002  -0.007   0.002  -0.007   0.002  -0.007   0.002
  -0.007   0.002  -0.007   0.002  -0.007   0.002  -0.007   0.002  -0.007   0.002
  -0.007   0.002  -0.007   0.002  -0.007   0.002  -0.007   0.003  -0.007   0.003
  -0.007   0.003  -0.007   0.003  -0.007   0.003  -0.007   0.003  -0.007   0.003
  -0.007   0.003  -0.007   0.003  -0.007   0.003  -0.007   0.003  -0.006   0.003
  -0.006   0.003  -0.006   0.004  -0.006   0.004  -0.006   0.004  -0.006   0.004
  -0.006   0.004  -0.006   0.004  -0.006   0.004  -0.006   0.005  -0.005   0.005
  -0.005   0.005  -0.005   0.005  -0.005   0.005  -0.005   0.006  -0.005   0.006
  -0.004   0.006  -0.004   0.006  -0.004   0.007  -0.004   0.007  -0.004   0.007
  -0.003   0.007  -0.003   0.008  -0.003   0.008  -0.003   0.008  -0.002   0.008
  -0.002   0.009  -0.002   0.009  -0.002   0.009  -0.002   0.010  -0.001   0.010
  -0.001   0.010  -0.001   0.010  -0.001   0.011  -0.000   0.011  -0.000   0.011
   0.000   0.012   0.000   0.012   0.001   0.012   0.001   0.012   0.001   0.013
   0.001   0.013   0.001   0.013   0.002   0.013   0.002   0.014   0.002   0.014
   0.002   0.014   0.002   0.014   0.002   0.014   0.003   0.015   0.003   0.015
   0.003   0.015   0.003   0.015   0.003   0.015   0.003   0.015   0.003   0.016
   0.003   0.016   0.003   0.016   0.003   0.016   0.003   0.016   0.002   0.016
   0.002   0.016   0.002   0.016   0.002   0.016   0.002   0.016   0.001   0.016
   0.001   0.016   0.000   0.016  -0.000   0.016  -0.001   0.016  -0.001   0.016
  -0.002   0.016  -0.002   0.016  -0.003   0.016  -0.004   0.016  -0.005   0.016
  -0.006   0.016  -0.007   0.016  -0.008   0.016  -0.009   0.016  -0.010   0.016
  -0.011   0.017  -0.013   0.017  -0.015   0.017  -0.016   0.018  -0.019   0.019
  -0.021   0.020  -0.024   0.021  -0.027   0.023  -0.031   0.026  -0.035   0.024
   0.001   0.238   0.089   0.484  -0.424   0.180  -0.304  -0.378   0.027  -0.408
   0.276  -0.263  -0.446  -0.103  -0.078   0.091   0.054   0.062  -0.285  -0.177
   0.349   0.049   0.369  -0.391  -0.129  -0.046   0.015   0.113  -0.298  -0.386
  -0.010  -0.363   0.218   0.298  -0.092  -0.111   0.186   0.081   0.056   0.414
  -0.216  -0.100   0.615  -0.069  -0.290   0.585  -0.017  -0.830  -0.124   0.288
   0.354  -0.235  -0.206   0.227  -0.265  -0.051  -0.132   0.087   0.348   0.217
   0.064  -0.387   0.125  -0.335  -0.086  -0.302  -0.008   0.395   0.037  -0.033
   0.479  -0.325  -0.246   0.600   0.006  -0.211   0.054  -0.368  -0.595   0.033
  -0.106  -0.142  -0.324  -0.152   0.192   0.022   0.238   0.162   0.208  -0.086
   0.086  -0.088   0.028   0.290  -0.024  -0.177   0.277  -0.169  -0.069   0.061
   0.620   0.251  -0.122   0.081  -0.165  -0.038  -0.368  -0.085  -0.119  -0.310
  -0.439  -0.171   0.165  -0.007   0.407  -0.283   0.101  -0.002   0.231   0.021
  -0.227  -0.389   0.299   0.421   0.288  -0.269  -0.116   0.506  -0.254   0.522
   0.292   0.276   0.215  -0.378  -0.151   0.074  -0.225   0.829   0.647   0.123
   0.409  -0.090  -0.217   0.333  -0.388  -0.245   0.092   0.225   0.525   0.419
  -0.091  -0.280   0.098   0.167  -0.645  -0.130  -0.178  -0.308   0.195   0.112
  -0.191   0.022  -0.052   0.370  -0.091   0.366  -0.395   0.038  -0.100   0.061
   0.344   0.061   0.102   0.191   0.622   0.320  -0.184  -0.230  -0.373   0.178
   0.136   0.123  -0.425   0.047  -0.183   0.126  -0.175   0.062  -0.406  -0.825
   0.072  -0.266  -0.225  -0.226   0.697  -0.216  -0.025  -0.043  -0.400  -0.253
   0.088  -0.003   0.264   0.016  -0.016  -0.083  -0.268   0.032   0.266  -0.328
  -0.373  -0.322   0.080  -0.010  -0.105  -0.100   0.352   0.571   0.384  -0.165
   0.391  -0.174   0.213   0.211  -0.044   0.032  -0.210   0.144   0.499   0.165
  -0.356  -0.187   0.002  -0.366  -0.194  -0.151   0.491   0.165   0.319   0.087
   0.233  -0.323   0.377   0.559  -0.716   0.475   0.382  -0.027   0.538  -0.136
  -0.162  -0.425  -0.565  -0.155  -0.210  -0.486  -0.174   0.244  -0.610   0.451
   0.045  -0.431  -0.153  -0.208   0.031   0.237  -0.348  -0.175  -0.179   0.389
   0.640  -0.081  -0.311   0.154  -0.172  -0.678  -0.046   0.155   0.408   0.091
  -0.330  -0.440   0.108  -0.429   0.452   0.270  -0.043   0.313   0.096   0.019
  -0.270  -0.196   0.429  -0.118  -0.303  -0.407   0.348   0.011   0.038  -0.287
  -0.418   0.021  -0.176  -0.017  -0.212  -0.101  -0.066   0.179  -0.061  -0.182
   0.179   0.164  -0.477  -0.316  -0.016   0.021   0.358   0.474  -0.314   0.047
   0.140  -0.101  -0.155   0.305   0.175   0.067  -0.715  -0.136   0.199   0.020
   0.018  -0.370  -0.050   0.183  -0.012   0.569   0.253   0.041   0.398   0.378
  -0.204   0.346  -0.530   0.413   0.333   0.118  -0.019   0.276   0.010  -0.271
   0.225   0.336   0.265  -0.063   0.535  -0.317  -0.344  -0.451   0.068   0.431
  -0.464  -0.349  -0.243  -0.537  -0.272   0.075   0.245   0.304   0.437  -0.027
  -0.024  -0.230   0.017   0.735  -0.463   0.097  -0.023   0.400   0.042   0.150
   0.192  -0.226   0.276  -0.045   0.025  -0.086   0.057  -0.228  -0.228  -0.436
   0.196  -0.213   0.471   0.527   0.195  -0.446   0.199  -0.156  -0.069   0.188
  -0.334   0.075  -0.312  -0.052  -0.285   0.000   0.148   0.157   0.205  -0.212
   0.010  -0.399  -0.193  -0.418  -0.103  -0.166  -0.147   0.341   0.192  -0.109
   0.170   0.303  -0.461  -0.017   0.223  -0.108  -0.321   0.525   0.437   0.469
  -0.168  -0.077   0.670   0.330   0.087  -0.076   0.140  -0.354   0.421   0.308
   0.321   0.340   0.259   0.393  -0.519  -0.005  -0.183  -0.604   0.296   0.099
  -0.215  -0.055  -0.335  -0.031  -0.164   0.410  -0.611  -0.109  -0.167  -0.012
   0.183   0.321  -0.563   0.311   0.003   0.368   0.242   0.517  -0.135  -0.258
   0.410   0.027  -0.084   0.324   0.158  -0.078  -0.293  -0.294   0.287   0.088
  -0.435  -0.086  -0.509  -0.089  -0.029   0.754  -0.504  -0.151  -0.235  -0.089
  -0.182   0.037   0.566  -0.537   0.025   0.210   0.295  -0.037   0.307   0.134
  -0.190  -0.160   0.521   0.145   0.149   0.434   0.047  -0.535  -0.368  -0.723
   0.306  -0.346  -0.193  -0.153  -0.275   0.215  -0.417  -0.203   0.284   0.297
  -0.182   0.001   0.275   0.336  -0.476  -0.207  -0.984   0.500  -0.268  -0.257
   0.049   0.146  -0.311  -0.024   0.339  -0.017  -0.186  -0.099   0.000   0.386
   0.295  -0.085   0.384  -0.376  -0.516   0.001  -0.309   0.258  -0.162  -0.118
  -0.245  -0.504  -0.190   0.584   0.324  -0.075   0.016  -0.078   0.465   0.239
  -0.012  -0.377  -0.356  -0.189  -0.487  -0.286   0.326  -0.246   0.172   0.180
  -0.448   0.094  -0.157  -0.243  -0.045   0.133   0.210   0.256   0.222  -0.496
   0.191  -0.159  -0.125   0.481   0.098   0.107   0.251   0.166   0.142   0.102
   0.432   0.114   0.039   0.191  -0.122   0.327   0.340   0.081   0.027  -0.102
  -0.260  -0.081   0.110   0.050  -0.227  -0.223   0.032  -0.011   0.441  -0.533
   0.210   0.413   0.262   0.133  -0.735  -0.047   0.256   0.066   0.444   0.142
  -0.166   0.014   0.047  -0.084   0.143   0.255   0.053   0.316   0.431   0.068
   0.136   0.154   0.205   0.089  -0.186  -0.090   0.149  -0.132   0.259   0.277
   0.265  -0.303   0.001  -0.054  -0.542  -0.238   0.615  -0.245   0.032   0.184
  -0.397   0.598   0.053  -0.197  -0.011  -0.399  -0.003  -0.074   0.045  -0.254
  -0.150  -0.310  -0.269   0.020  -0.393   0.030   0.045  -0.297   0.263   0.107
   0.125  -0.482  -0.219  -0.461  -0.044  -0.557  -0.434  -0.159  -0.063   0.116
  -0.104   0.014  -0.303  -0.043   0.035   0.298  -0.220  -0.178   0.468   0.017
   0.502  -0.512  -0.261  -0.357  -0.017   0.111   0.207  -0.156  -0.047  -0.170
  -0.071   0.484   0.509   0.390   0.011  -0.019  -0.228   0.097  -0.352   0.236
  -0.238   0.062  -0.026  -0.091   0.324   0.063  -0.172   0.191   0.399   0.096
  -0.093   0.648   0.573   0.355  -0.486   0.081   0.344   0.086  -0.091  -0.256
  -0.017  -0.256  -0.630   0.568  -0.433  -0.302  -0.363  -0.415   0.057  -0.045
   0.326   0.092  -0.074   0.118  -0.289   0.150   0.002   0.814  -0.338  -0.061
  -0.342  -0.012   0.206   0.278  -0.003   0.049   0.275  -0.013  -0.371   0.407
  -0.241   0.267  -0.193   0.053   0.196  -0.156   0.214  -0.227   0.089   0.559
   0.283  -0.118   0.150   0.132   0.002   0.485   0.538  -0.268  -0.183  -0.234
  -0.797  -0.128   0.134   0.142  -0.114   0.196   0.089  -0.482   0.091   0.116
  -0.197   0.413  -0.109  -0.086  -0.007   0.312   0.108   0.240  -0.059   0.436
   0.327  -0.372  -0.079  -0.033  -0.212  -0.024   0.254  -0.024  -0.041   0.008
   0.024   0.071   0.272  -0.010   0.373   0.411   0.184  -0.797  -0.310   0.123
   0.141   0.213  -0.297  -0.291  -0.261  -0.118  -0.238  -0.121  -0.366   0.243
  -0.374   0.112  -0.199   0.032  -0.493   0.323  -0.330   0.018  -0.097  -0.152
   0.011  -0.400   0.140   0.193   0.209   0.190  -0.043  -0.083  -0.014  -0.244
   0.119  -0.485   0.329   0.027   0.129  -0.006  -0.050  -0.090  -0.044  -0.587
   0.043   0.024  -0.245  -0.220  -0.287   0.298  -0.100  -0.016  -0.082  -0.071
  -0.100   0.414   0.322   0.210   0.042   0.206   0.124   0.119  -0.127   0.337
   0.216  -0.146  -0.405  -0.046   0.135   0.223   0.251  -0.122  -0.143   0.409
   0.093   0.206   0.070  -0.559   0.077  -0.364   0.085   0.202  -0.190   0.124
  -0.197  -0.203  -0.113   0.278  -0.021   0.291   0.505  -0.147  -0.335  -0.013
   0.561  -0.242  -0.143  -0.455   0.207  -0.330  -0.053   0.323  -0.001   0.643
  -0.197   0.445   0.269   0.393  -0.134  -0.126  -0.026  -0.090   0.548   0.257
  -0.004   0.269  -0.338   0.029   0.528  -0.367  -0.110   0.193   0.513  -0.126
  -0.114  -0.355   0.047  -0.260   0.126  -0.272   0.144  -0.002   0.093  -0.104
   0.356  -0.299   0.109  -0.532  -0.237   0.284  -0.102  -0.315  -0.137  -0.954
  -0.233   0.149   0.031  -0.096   0.364  -0.233  -0.040  -0.613  -0.182  -0.133
  -0.229   0.152  -0.024  -0.039   0.174   0.377   0.252  -0.111  -0.025  -0.236
  -0.122  -0.110  -0.059   0.204  -0.005   0.172  -0.232  -0.113   0.266   0.023
  -0.137   0.259   0.192   0.204   0.073  -0.378  -0.118  -0.035   0.214   0.264
  -0.292   0.094   0.091  -0.015  -0.318  -0.004  -0.207   0.397  -0.507   0.059
  -0.070  -0.098  -0.031  -0.320   0.024   0.477  -0.166  -0.034  -0.047  -0.281
  -0.427  -0.251  -0.080  -0.003  -0.323  -0.047   0.324   0.144   0.092  -0.059
   0.507  -0.148  -0.596  -0.109   0.103   0.121   0.095   0.376   0.160   0.381
   0.038  -0.187   0.068   0.182   0.001  -0.320  -0.176   0.336  -0.486   0.695
   0.216   0.244   0.157  -0.207   0.210   0.329   0.224   0.258   0.169   0.207
   0.098   0.458   0.330  -0.419   0.284  -0.025   0.094  -0.242   0.233   0.081
  -0.311   0.287   0.020   0.706  -0.275   0.352   0.384  -0.309   0.145  -0.147
  -0.126   0.308  -0.336   0.218   0.182   0.470   0.024  -0.259   0.490  -0.069
   0.024   0.086  -0.226  -0.035  -0.064  -0.543   0.199  -0.592  -0.109   0.131
  -0.493  -0.298   0.108  -0.437   0.120  -0.033   0.246  -0.145  -0.034   0.065
   0.429  -0.488   0.035  -0.121  -0.010   0.073  -0.431  -0.244  -0.039  -0.033
   0.049  -0.125   0.122   0.102  -0.279   0.198  -0.442  -0.317  -0.382   0.235
   0.008   0.069   0.096   0.291   0.321  -0.380  -0.248   1.005  -0.519  -0.089
   0.175   0.259  -0.016  -0.265   0.191  -0.219  -0.004  -0.046  -0.036  -0.337
   0.180   0.109  -0.122  -0.174   0.089   0.537  -0.256   0.241  -0.105   0.022
   0.468   0.080  -0.403   0.122  -0.157   0.460  -0.112  -0.200  -0.418  -0.074
  -0.603   0.593   0.068  -0.516  -0.182  -0.300   0.105  -0.171  -0.137   0.209
   0.088  -0.630   0.303   0.457  -0.104  -0.042   0.065  -0.057  -0.302  -0.163
   0.127   0.125  -0.403  -0.256   0.086  -0.067  -0.130   0.344   0.699   0.084
   0.176   0.045  -0.325  -0.042   0.105   0.411   0.342  -0.432  -0.021   0.544
   0.334  -0.405   0.430  -0.082  -0.080  -0.385   0.002  -0.195  -0.050  -0.335
  -0.130  -0.192  -0.098   0.022   0.311  -0.236   0.044   0.078  -0.306   0.067
   0.595   0.246   0.081   0.311  -0.409   0.215  -0.253  -0.355   0.125   0.056
  -0.328   0.402   0.502  -0.642   0.090  -0.053   0.108   0.428   0.382  -0.090
  -0.040   0.011  -0.075  -0.143   0.307   0.014  -0.231  -0.032   0.106  -0.018
   0.203  -0.265  -0.121  -0.214  -0.796  -0.250   0.076  -0.189   0.085  -0.165
  -0.160  -0.023  -0.474   0.160   0.059   0.024   0.147   0.169   0.160   0.249
  -0.452  -0.513  -0.403   0.223   0.132   0.009   0.160   0.447   0.167   0.154
  -0.018  -0.123   0.059  -0.024  -0.001  -0.110  -0.242  -0.362   0.020  -0.256
  -0.281   0.045   0.406   0.067   0.035   0.511  -0.237  -0.163   0.340   0.441
  -0.176  -0.232   0.254   0.363   0.301   0.410   0.528   0.572   0.227   0.391
   0.231   0.177  -0.012   0.228   0.081   0.127   0.156   0.186   0.318  -0.173
  -0.563  -0.053   0.222  -0.064  -0.584   0.402   0.303  -0.316   0.375  -0.035
   0.470  -0.264  -0.408  -0.035  -0.034  -0.048  -0.038  -0.050   0.430  -0.331
  -0.747   0.183   0.039   0.104   0.041   0.113  -0.001   0.139  -0.317  -0.149
  -0.255  -0.159  -0.210  -0.183  -0.007   0.202   0.071  -0.081   0.181  -0.550
  -0.071  -0.547   0.295  -0.278  -0.481   0.229   0.146   0.201  -0.187  -0.272
  -0.539   0.059   0.145   0.377  -0.041  -0.213   0.089   0.321  -0.078   0.213
  -0.116  -0.378   0.009   0.294  -0.258  -0.160   0.287   0.063   0.020  -0.258
  -0.353  -0.367  -0.008  -0.085  -0.315   0.549  -0.083  -0.044  -0.157  -0.222
   0.080  -0.329  -0.084   0.253  -0.166   0.406   0.186  -0.388   0.169   0.058
   0.008   0.087  -0.219   0.369   0.110   0.387   0.077  -0.345   0.161  -0.398
   0.170   0.528  -0.079   0.037  -0.544   0.292   0.310  -0.147  -0.055  -0.277
  -0.257   0.711   0.455  -0.007  -0.085  -0.324  -0.014  -0.150  -0.055   0.190
  -0.066   0.334   0.530  -0.262   0.295   0.223   0.328  -0.097  -0.228   0.057
   0.087  -0.453   0.370   0.332  -0.052  -0.109  -0.349   0.021   0.060  -0.065
  -0.073   0.190   0.326  -0.109   0.148  -0.158   0.077   0.123  -0.271  -0.180
  -0.684  -0.009  -0.060   0.144  -0.013  -0.277  -0.654   0.068  -0.293  -0.239
   0.027   0.013  -0.234  -0.085   0.087   0.213  -0.115  -0.074  -0.576   0.442
   0.499   0.522  -0.029   0.483   0.161  -0.017  -0.146  -0.175   0.489  -0.372
   0.346  -0.058   0.206  -0.038   0.092   0.236   0.225  -0.238  -0.056   0.438
  -0.064   0.165   0.042  -0.365   0.504   0.262   0.428  -0.445   0.282  -0.061
   0.409  -0.157  -0.067  -0.223  -0.044   0.180  -0.094   0.176   0.384  -0.238
   0.060  -0.031  -0.324  -0.139  -0.024  -0.071   0.319  -0.175  -0.158  -0.148
  -0.172  -0.245  -0.310   0.115   0.057   0.277  -0.385  -0.070   0.476   0.263
  -0.047  -0.022  -0.254  -0.406  -0.049  -0.133   0.384   0.264  -0.084  -0.122
   0.421  -0.160  -0.549  -0.075  -0.070   0.310  -0.120  -0.019  -0.639  -0.120
  -0.080   0.252  -0.259  -0.365   0.186  -0.044   0.007   0.366  -0.204  -0.357
   0.059  -0.127  -0.463   0.069   0.578  -0.160   0.226  -0.202  -0.095   0.419
  -0.083  -0.094  -0.206  -0.112   0.221  -0.343  -0.186   0.176   0.262  -0.087
   0.324  -0.267  -0.178  -0.363  -0.359  -0.131  -0.060   0.140  -0.062   0.118
   0.402   0.847  -0.154  -0.189   0.139   0.078  -0.387  -0.157   0.063   0.069
  -0.192   0.195   0.029  -0.025   0.121   0.022  -0.061  -0.555  -0.038   0.003
   0.096  -0.043   0.145  -0.021   0.043  -0.185  -0.620   0.071   0.714   0.688
   0.370   0.028  -0.036   0.334  -0.388  -0.165  -0.230   0.182   0.247   0.046
  -0.276   0.017  -0.182   0.043  -0.316   0.505   0.435  -0.266   0.291   0.073
  -0.025   0.110  -0.230  -0.006  -0.487   0.266  -0.432  -0.062  -0.138   0.560
   0.124   0.123   0.173  -0.359  -0.039  -0.207  -0.200   0.015  -0.270  -0.547
  -0.314   0.281   0.115  -0.048   0.050   0.231   0.244  -0.420  -0.364  -0.063
   0.118   0.364   0.246   0.219  -0.023  -0.155   0.285   0.166   0.102   0.922
   0.235  -0.017  -0.100   0.114  -0.149  -0.116   0.299   0.379   0.421   0.300
   0.087  -0.136   0.297   0.023  -0.166  -0.007   0.244   0.889  -0.111  -0.091
  -0.159  -0.269   0.014   0.325   0.273  -0.073   0.033  -0.193   0.122  -0.164
  -0.189  -0.105  -0.132   0.074   0.061   0.325  -0.125  -0.178  -0.172   0.149
   0.141  -0.593   0.057   0.021  -0.004   0.327  -0.148  -0.224   0.033  -0.169
  -0.287   0.207  -0.322  -0.107  -0.439  -0.308  -0.272   0.033   0.031   0.133
   0.136  -0.346   0.119  -0.296   0.342  -0.212   0.036  -0.008  -0.036  -0.149
   0.137  -0.367  -0.020  -0.137  -0.194  -0.128  -0.387   0.132   0.011  -0.070
   0.174  -0.187  -0.161   0.062  -0.182  -0.026  -0.096   0.011   0.531  -0.170
   0.208   0.632  -0.058   0.060  -0.637   0.473  -0.443  -0.698  -0.171  -0.003
   0.394  -0.013   0.252   0.277   0.282  -0.016  -0.002  -0.375  -0.165   0.307
  -0.189   0.037  -0.213   0.152  -0.128  -0.233   0.043  -0.037  -0.475  -0.194
  -0.285  -0.190  -0.157   0.227   0.354  -0.132  -0.190  -0.277   0.187  -0.036
  -0.560   0.111  -0.035  -0.504  -0.404   0.141  -0.405  -0.022  -0.231   0.303
   0.403   0.095  -0.044   0.139  -0.338  -0.254   0.407  -0.309   0.285   0.204
   0.506   0.493   0.454   0.461  -0.063  -0.144   0.089   0.536  -0.007  -0.333
   0.101   0.019   0.244   0.257   0.142  -0.230  -0.069  -0.042   0.603   0.264
  -0.080   0.057   0.087  -0.001  -0.192  -0.108  -0.504  -0.382   0.525   0.172
  -0.062  -0.584  -0.194  -0.545   0.251  -0.143   0.024  -0.037  -0.328   0.303
  -0.366   0.645   0.202   0.203   0.184   0.133  -0.776  -0.129  -0.260   0.092
  -0.029   0.021   0.223   0.647   0.127   0.056  -0.049   0.119  -0.065   0.175
   0.042  -0.060  -0.272  -0.045  -0.521  -0.343  -0.306   0.603   0.125   0.119
  -0.174   0.177  -0.599   0.291  -0.103  -0.062   0.275   0.093   0.239  -0.121
   1.003   0.496   0.181   0.380  -0.162   0.116  -0.385  -0.324   0.155   0.061
  -0.402  -0.001  -0.577   0.097  -0.146  -0.408   0.162   0.241  -1.239   0.556
   0.084   0.148  -0.186   1.288   0.958   0.604  -0.510  -0.488  -0.354  -0.313
  -1.481   1.516   0.369   2.065  -1.048   0.965   0.129   0.732   0.089   0.953
   0.658   0.656   0.985  -1.105  -0.067  -0.236   1.573   1.551   1.294  -0.800
  -0.176  -2.271  -1.285  -2.525   0.418   0.267  -0.228  -0.520  -0.208  -3.193
   0.187  -0.811   0.829  -0.297   1.302   0.618   0.828   1.978   1.915   0.568
