Corrected accelerogram 20160214_001343_CULC_20 GNS Science
Site CULC      42 45 34S  172 48 09E     Cusp file:  20160214_001359_CULC
Culverden Airlie Farm
Instrument Cusp_10456
Resolution: 18-bit   Instr Period: 0.0050 s   Damping: 0.700
Accelerogram 20160214_001343_CULC_20                 Processed 2016 February 22
11 km east of CHRISTCHURCH
2016 February 14         00:13:43 UT
Epicentre  43 29 50S 172 45 18E  Bearing S03W  Dist   82km  Depth    8km M  5.70
Number of points  8192    Duration 163.82 sec
Instrument corrected data at 0.020 sec intervals
Band-pass filter transition bands are .10-.25 Hz and 24.50-25.50 Hz
Component N00E  Transverse Accelerometer Axis
Acceleration:  peak    -54.9 mm/s/s at  52.52 sec     rms      6.6 mm/s/s
Velocity:      peak    -8.16 mm/s   at  55.40 sec     rms     1.15 mm/s
Displacement:  peak   -2.145 mm     at  59.04 sec     rms    0.421 mm
    2016       2      14       0      13     430       0       0    2016       2
      43      29      50     172      45      18       8       0      14       0
      42      45      34     172      48       9       0       0     183      82
   34854     250     250    8192    8192    8192       0       0      13   19204
   200.0    0.70    0.00   0.000  0.0000   0.000   0.000   1.000     0.0    0.00
  42.759 172.803   43.50  172.76    5.70    0.00    0.00    0.00      0.      0.
  174.27    5.00    5.00  163.82  0.0050  0.0200      0.      0.      0.  9806.6
   -56.1   52.53     6.8   0.000      0.   -54.9   52.52     6.6    80.2   0.366
   -8.16   55.40    1.15    8.36   0.366   -2.14   59.04    0.42    2.44   0.366
   0.100   0.150   0.250      0.      0.  24.500   1.000  25.500      0.      0.
  -0.005   0.005  -0.006   0.005  -0.006   0.005  -0.006   0.004  -0.006   0.004
  -0.007   0.004  -0.007   0.004  -0.007   0.004  -0.007   0.003  -0.008   0.003
  -0.008   0.003  -0.008   0.002  -0.009   0.002  -0.009   0.002  -0.009   0.002
  -0.010   0.001  -0.010   0.001  -0.010   0.001  -0.010   0.001  -0.011   0.000
  -0.011   0.000  -0.011  -0.000  -0.012  -0.000  -0.012  -0.001  -0.012  -0.001
  -0.013  -0.001  -0.013  -0.001  -0.013  -0.002  -0.013  -0.002  -0.014  -0.002
  -0.014  -0.002  -0.014  -0.003  -0.014  -0.003  -0.015  -0.003  -0.015  -0.003
  -0.015  -0.003  -0.015  -0.003  -0.015  -0.004  -0.016  -0.004  -0.016  -0.004
  -0.016  -0.004  -0.016  -0.004  -0.016  -0.004  -0.016  -0.004  -0.016  -0.004
  -0.016  -0.004  -0.016  -0.004  -0.016  -0.004  -0.016  -0.004  -0.016  -0.004
  -0.016  -0.003  -0.016  -0.003  -0.016  -0.003  -0.016  -0.003  -0.016  -0.003
  -0.015  -0.002  -0.015  -0.002  -0.015  -0.002  -0.015  -0.001  -0.014  -0.001
  -0.014  -0.000  -0.014   0.000  -0.013   0.001  -0.013   0.001  -0.012   0.002
  -0.012   0.002  -0.011   0.003  -0.011   0.004  -0.010   0.004  -0.010   0.005
  -0.009   0.006  -0.008   0.006  -0.007   0.007  -0.007   0.008  -0.006   0.009
  -0.005   0.010  -0.004   0.011  -0.003   0.012  -0.002   0.013  -0.001   0.014
  -0.000   0.015   0.001   0.016   0.002   0.017   0.003   0.019   0.004   0.020
   0.005   0.021   0.007   0.022   0.008   0.024   0.009   0.025   0.010   0.026
   0.012   0.028   0.013   0.029   0.014   0.031   0.016   0.032   0.017   0.034
   0.019   0.035   0.020   0.037   0.022   0.038   0.023   0.040   0.025   0.041
   0.026   0.043   0.028   0.045   0.029   0.046   0.031   0.048   0.033   0.050
   0.034   0.052   0.036   0.054   0.037   0.055   0.039   0.057   0.040   0.059
   0.042   0.061   0.043   0.063   0.044   0.065   0.046   0.068   0.047   0.070
   0.048   0.072   0.049   0.075   0.050   0.077   0.050   0.080   0.051   0.084
   0.050   0.087   0.049   0.092   0.047   0.099   0.041   0.113   0.021   0.162
   0.005  -0.070   0.100  -0.173  -0.036  -0.272  -0.218   0.321   0.053  -0.212
  -0.255   0.150  -0.198   0.307  -0.397   0.147  -0.110   0.092  -0.391   0.026
   0.024  -0.330  -0.137  -0.017  -0.368  -0.251   0.136   0.088  -0.287  -0.313
  -0.437  -0.014  -0.148  -0.056  -0.227   0.158  -0.270  -0.343  -0.318  -0.129
   0.226  -0.367  -0.101  -0.001  -0.025   0.562  -0.115  -0.345   0.047   0.025
  -0.142  -0.539  -0.216   0.045   0.121  -0.208   0.001   0.159  -0.046   0.010
  -0.286  -0.121   0.246   0.377  -0.750  -0.200  -0.016   0.067   0.134   0.331
   0.487  -0.433  -0.041  -0.131   0.142   0.285   0.405   0.043   0.094   0.276
   0.310  -0.308   0.007   0.029  -0.254   0.027  -0.005  -0.223  -0.003  -0.250
   0.437  -0.261   0.043   0.169  -0.081   0.369   0.304   0.044  -0.265  -0.066
   0.013  -0.087  -0.033   0.480   0.176   0.442   0.205  -0.095   0.314   0.244
   0.361   0.121  -0.287   0.028   0.337   0.094   0.268  -0.002   0.138   0.105
   0.139   0.220  -0.010  -0.073   0.189   0.027  -0.139  -0.309   0.341  -0.073
   0.042  -0.241   0.217  -0.029  -0.068  -0.096  -0.529  -0.037  -0.349  -0.086
  -0.228   0.186   0.220  -0.182  -0.056   0.376   0.303  -0.072  -0.068  -0.423
   0.305   0.029   0.065  -0.188   0.314  -0.085   0.263   0.022  -0.048   0.031
  -0.512   0.058  -0.271  -0.310  -0.020  -0.013  -0.104  -0.122  -0.131   0.318
  -0.163   0.020  -0.085   0.107  -0.637   0.194  -0.181   0.287   0.100   0.002
   0.279   0.116   0.178   0.258  -0.097  -0.256  -0.205   0.135  -0.248   0.114
  -0.188  -0.518   0.104   0.206  -0.346  -0.373  -0.298   0.238  -0.282   0.095
   0.211   0.057   0.020  -0.054   0.226   0.273  -0.049  -0.070  -0.240  -0.185
   0.468  -0.031   0.047  -0.123   0.188  -0.081  -0.167  -0.197   0.120  -0.119
  -0.285   0.098   0.236  -0.297   0.265   0.057  -0.155  -0.155   0.044  -0.008
   0.079   0.083  -0.193  -0.166   0.152  -0.611  -0.022   0.183  -0.075  -0.139
   0.206  -0.015   0.296  -0.260  -0.119   0.133  -0.312   0.138  -0.089   0.294
  -0.034  -0.021  -0.317   0.027  -0.051   0.285   0.043   0.587   0.239  -0.102
   0.161   0.167   0.075   0.347   0.351   0.471   0.499   0.299   0.020   0.169
   0.421   0.382  -0.147   0.130   0.141  -0.084  -0.297  -0.045  -0.041  -0.190
  -0.133   0.310   0.629   0.267   0.150  -0.081  -0.015  -0.251  -0.063  -0.355
  -0.413  -0.431  -0.217  -0.120   0.145  -0.166   0.155  -0.072   0.093   0.093
  -0.222  -0.160  -0.413   0.046   0.093   0.225  -0.244   0.399  -0.009  -0.323
  -0.145  -0.298  -0.094   0.064  -0.375  -0.045   0.161   0.146   0.636   0.105
  -0.052   0.259   0.294   0.394   0.233  -0.072   0.111   0.140   0.200   0.091
  -0.249  -0.005  -0.223  -0.023  -0.027  -0.014   0.178  -0.085   0.078  -0.057
   0.005   0.255   0.185  -0.163  -0.072  -0.092  -0.128  -0.349  -0.261   0.104
   0.412  -0.044  -0.171   0.004  -0.015  -0.200  -0.132   0.031  -0.094  -0.357
  -0.121  -0.306  -0.217   0.318   0.105   0.107   0.294   0.191   0.022  -0.563
  -0.051   0.107  -0.015  -0.003  -0.159  -0.439  -0.016   0.219  -0.364  -0.196
   0.047   0.278   0.127  -0.348  -0.364  -0.023  -0.429  -0.035  -0.282  -0.328
  -0.147  -0.260  -0.297  -0.103  -0.110  -0.257   0.220  -0.265  -0.185  -0.261
   0.053   0.270  -0.426  -0.093   0.152  -0.052  -0.060  -0.258   0.329   0.094
   0.167  -0.085   0.201  -0.189   0.350  -0.191  -0.153   0.053  -0.373  -0.286
  -0.132  -0.164  -0.339  -0.079  -0.092   0.064   0.154   0.464   0.085  -0.265
   0.039  -0.154  -0.625  -0.063   0.106   0.154   0.280  -0.013   0.130   0.166
   0.078  -0.026   0.160  -0.026   0.077   0.113  -0.388   0.226   0.109   0.123
   0.103   0.070   0.317   0.394   0.087  -0.148   0.193   0.491   0.225  -0.164
   0.297   0.083  -0.100   0.416   0.119   0.192   0.093  -0.050   0.203  -0.071
   0.024   0.402   0.236  -0.316  -0.061  -0.026   0.150   0.169   0.343   0.105
   0.309   0.440   0.246   0.113   0.035  -0.127   0.074   0.100   0.118   0.468
  -0.174   0.406  -0.093  -0.130  -0.012   0.340  -0.047  -0.150   0.394   0.284
  -0.386   0.364   0.519  -0.099   0.395   0.202  -0.384   0.019   0.063  -0.280
   0.457   0.079  -0.205  -0.384  -0.155  -0.188  -0.306   0.101   0.087  -0.101
  -0.288   0.127   0.306   0.320  -0.335   0.325   0.064  -0.071   0.348   0.140
  -0.223  -0.005   0.319   0.024  -0.074   0.271  -0.400  -0.235  -0.390   0.068
  -0.204  -0.177  -0.051  -0.296  -0.081  -0.122  -0.227   0.413  -0.080  -0.013
  -0.112  -0.669   0.227  -0.045  -0.220  -0.242   0.307  -0.063  -0.273  -0.395
   0.008  -0.073  -0.316  -0.269  -0.071   0.485   0.014  -0.185   0.106  -0.344
  -0.131   0.003   0.083  -0.134   0.187   0.026   0.425   0.125  -0.167   0.083
  -0.170  -0.150  -0.038  -0.061  -0.080   0.137  -0.508  -0.086   0.142  -0.050
  -0.641  -0.133  -0.301   0.170   0.093   0.012   0.208   0.138   0.168  -0.019
  -0.502  -0.032  -0.036   0.024   0.147  -0.173  -0.065  -0.069   0.137   0.058
   0.197   0.008   0.017  -0.015   0.028  -0.002  -0.052   0.317   0.212  -0.022
   0.212   0.052  -0.186  -0.123   0.026   0.131  -0.401  -0.095   0.195   0.027
  -0.067  -0.242   0.140   0.015  -0.096  -0.378  -0.477  -0.150  -0.302  -0.592
  -0.351  -0.079  -0.530   0.437  -0.193  -0.162  -0.247  -0.007   0.241  -0.062
   0.368   0.584   0.257   0.150   0.256   0.323   0.122  -0.009   0.486   0.143
   0.261  -0.129   0.156  -0.552   0.054   0.354   0.183   0.129   0.219   0.327
   0.102  -0.160   0.236  -0.002  -0.257   0.159  -0.056   0.002   0.178  -0.277
  -0.220   0.289   0.010  -0.110   0.264   0.043  -0.268  -0.121   0.449   0.104
   0.249   0.057  -0.011  -0.079  -0.048  -0.137   0.217  -0.089   0.002  -0.391
  -0.247  -0.229   0.065   0.017  -0.107   0.124   0.407  -0.034  -0.109  -0.371
   0.049  -0.283  -0.175  -0.421   0.160   0.075   0.333   0.344  -0.298   0.015
   0.086  -0.142  -0.235   0.156   0.015   0.052   0.042  -0.070  -0.036   0.101
  -0.166   0.117  -0.304  -0.057   0.103   0.111   0.145  -0.100   0.268   0.112
  -0.161  -0.269   0.125   0.149   0.240   0.230   0.413   0.322   0.191   0.097
  -0.202   0.043   0.125  -0.433  -0.171  -0.119  -0.457   0.229   0.255  -0.057
  -0.413   0.373   0.173  -0.177   0.509   0.071   0.211   0.435  -0.057  -0.140
  -0.062  -0.050   0.173   0.476   0.192  -0.034  -0.186   0.057  -0.028  -0.039
  -0.124   0.060   0.022  -0.167  -0.013  -0.338  -0.424   0.135  -0.663  -0.015
   0.139   0.149   0.122  -0.210  -0.023  -0.351  -0.346   0.024  -0.154   0.053
   0.028  -0.085   0.152   0.083  -0.187   0.034   0.149  -0.078  -0.366   0.611
  -0.117   0.168  -0.211   0.370   0.308  -0.116   0.651  -0.231  -0.368   0.211
  -0.065  -0.100   0.182  -0.019   0.150   0.022   0.285   0.298  -0.121  -0.099
   0.015  -0.075   0.165  -0.198  -0.409  -0.323   0.534  -0.237  -0.159   0.215
  -0.036  -0.468  -0.383  -0.018  -0.063  -0.093   0.093   0.148   0.286  -0.580
   0.049  -0.155   0.121  -0.049   0.247  -0.234  -0.108   0.354   0.188   0.272
   0.072   0.062   0.205  -0.006   0.252  -0.324   0.094   0.352   0.067   0.094
  -0.348  -0.062   0.134   0.197   0.332  -0.217  -0.030   0.338  -0.228  -0.466
  -0.142   0.193  -0.173  -0.207  -0.182  -0.133   0.094  -0.120  -0.043  -0.127
   0.165   0.047  -0.120  -0.336  -0.045   0.277   0.107   0.547  -0.173  -0.175
   0.109   0.158  -0.575   0.022  -0.153  -0.218  -0.101  -0.173   0.245  -0.056
   0.074  -0.071  -0.126  -0.035  -0.105  -0.067   0.003   0.114   0.044  -0.397
  -0.026  -0.291  -0.051  -0.306  -0.041   0.246  -0.078   0.277   0.100  -0.345
   0.284   0.521   0.057   0.191   0.303  -0.148  -0.153   0.164  -0.576  -0.097
   0.006   0.425  -0.227  -0.090  -0.363   0.066   0.124   0.087   0.155  -0.308
  -0.166   0.253  -0.201   0.066   0.149  -0.006   0.375   0.123   0.121  -0.080
  -0.106  -0.013   0.021   0.002   0.523   0.217   0.079  -0.489  -0.104  -0.022
  -0.375  -0.070  -0.265  -0.335   0.028   0.111  -0.027   0.131  -0.036   0.327
   0.609  -0.047   0.175  -0.007   0.229  -0.037   0.129   0.423  -0.002   0.431
   0.191   0.216  -0.162  -0.025  -0.164   0.087  -0.163  -0.108   0.020  -0.658
   0.091  -0.224   0.268   0.316  -0.097   0.010  -0.163   0.231   0.126   0.170
  -0.058   0.320  -0.085   0.084  -0.172  -0.451   0.258   0.052   0.102   0.178
   0.007  -0.106  -0.226  -0.005   0.128  -0.134  -0.136  -0.055  -0.074  -0.053
   0.047   0.354   0.548  -0.061  -0.162   0.140  -0.115   0.206   0.045  -0.719
  -0.183  -0.003  -0.251   0.021  -0.292   0.282   0.265  -0.375   0.247   0.118
  -0.026   0.072  -0.015  -0.457  -0.181  -0.012   0.001   0.044   0.327  -0.069
   0.074   0.333   0.034   0.067  -0.030  -0.061  -0.171  -0.155  -0.239  -0.377
   0.055   0.376  -0.176  -0.018   0.158  -0.450  -0.171   0.137  -0.082   0.137
  -0.070   0.051   0.007  -0.328  -0.224   0.242  -0.391   0.144   0.201   0.362
   0.452   0.166  -0.191  -0.077   0.010  -0.254  -0.020   0.239  -0.069  -0.083
  -0.056   0.063   0.061  -0.239   0.192  -0.061  -0.035  -0.247   0.133  -0.202
   0.147   0.020   0.076   0.224   0.117   0.282  -0.490   0.194   0.407  -0.128
  -0.067  -0.349   0.126   0.420   0.172  -0.137  -0.476  -0.202  -0.213   0.223
   0.174   0.265   0.193   0.036  -0.149   0.198   0.100  -0.271  -0.680  -0.115
  -0.134   0.369  -0.240  -0.066   0.221  -0.161  -0.165  -0.309   0.442  -0.037
   0.309   0.030  -0.172  -0.520  -0.005  -0.108  -0.001   0.119   0.438   0.167
  -0.078   0.218  -0.118  -0.177  -0.272   0.352  -0.037  -0.208   0.292   0.089
   0.089  -0.115  -0.019  -0.481  -0.136   0.186   0.077  -0.139  -0.113   0.319
   0.152  -0.322  -0.033   0.008   0.309  -0.126   0.296   0.380   0.056   0.222
   0.219   0.128  -0.106  -0.132  -0.190   0.063  -0.024  -0.102  -0.265  -0.210
   0.422   0.280  -0.010   0.031  -0.008   0.160  -0.316   0.391  -0.130  -0.110
   0.212  -0.217   0.023   0.352   0.138  -0.305  -0.068  -0.399  -0.094  -0.291
   0.533  -0.184  -0.097  -0.347  -0.062   0.355  -0.064   0.457  -0.608  -0.024
   0.220   0.096  -0.422  -0.314   0.091  -0.128  -0.566  -0.066   0.050   0.054
  -0.194  -0.050   0.335   0.013   0.103  -0.004  -0.196   0.099   0.198  -0.027
  -0.215  -0.198  -0.270   0.129   0.403   0.230   0.224   0.048  -0.058   0.039
   0.402   0.298  -0.115   0.353   0.262  -0.027  -0.234  -0.174   0.082   0.141
  -0.116   0.028  -0.046  -0.364   0.036  -0.030  -0.135  -0.261  -0.090  -0.081
  -0.024  -0.009  -0.267   0.099  -0.110   0.119   0.285   0.256   0.229   0.119
   0.279   0.298  -0.286  -0.356  -0.175  -0.425   0.120   0.353   0.148   0.106
   0.209   0.281   0.306   0.273   0.007   0.249   0.171  -0.030  -0.255   0.235
   0.036  -0.079  -0.321  -0.349  -0.180   0.076   0.106  -0.300   0.036   0.006
   0.032  -0.131  -0.307  -0.219   0.161  -0.642  -0.033   0.274  -0.308  -0.420
  -0.303   0.056  -0.121   0.242   0.067   0.048   0.218   0.011   0.359  -0.271
  -0.004  -0.142  -0.133   0.022  -0.262  -0.100   0.236   0.326   0.129   0.292
   0.439  -0.160   0.099   0.098  -0.068  -0.142  -0.107   0.329   0.126   0.004
  -0.099   0.122   0.062   0.189   0.290   0.285  -0.109   0.322   0.252  -0.105
  -0.076  -0.313  -0.091   0.074  -0.200  -0.134  -0.113  -0.129   0.116  -0.113
   0.138   0.078  -0.125   0.099   0.463   0.193   0.288  -0.090   0.006  -0.121
  -0.028  -0.242   0.167   0.012   0.095  -0.058   0.116  -0.091   0.457  -0.095
  -0.234   0.311  -0.121  -0.223   0.022  -0.449  -0.134  -0.447   0.202  -0.118
  -0.076  -0.133   0.332  -0.208   0.058  -0.154  -0.556   0.119  -0.117  -0.575
  -0.139  -0.051   0.401  -0.090  -0.090  -0.149   0.001   0.317  -0.076  -0.308
   0.265  -0.512  -0.216   0.409  -0.137   0.392   0.717  -0.047   0.059   0.319
  -0.133   0.034  -0.419   0.004   0.146  -0.239   0.108  -0.257   0.115  -0.442
   0.292  -0.057   0.074   0.351  -0.550   0.207  -0.016   0.449  -0.204   0.001
  -0.053   0.448   0.398  -0.085  -0.173  -0.340  -0.162   0.169  -0.109   0.090
   0.128  -0.103  -0.220  -0.248  -0.045  -0.128   0.395   0.086   0.172   0.307
   0.201   0.254  -0.431  -0.007   0.052   0.415   0.303  -0.192  -0.354  -0.078
  -0.240   0.090  -0.059  -0.320   0.226  -0.207  -0.171   0.131  -0.285   0.107
  -0.353   0.026  -0.042  -0.334   0.222   0.063  -0.041   0.034   0.093   0.203
  -0.397  -0.269   0.012  -0.036  -0.051   0.183   0.267   0.210   0.265   0.018
   0.107  -0.631  -0.427  -0.135  -0.058  -0.089  -0.084  -0.054   0.207   0.171
   0.026  -0.154   0.339   0.030  -0.345   0.218  -0.050   0.052  -0.267  -0.208
   0.220  -0.265  -0.213   0.300  -0.027   0.023  -0.104   0.281   0.347  -0.160
  -0.251   0.362   0.199  -0.129  -0.020   0.215  -0.217   0.153   0.172   0.311
  -0.387  -0.096   0.094   0.306   0.051   0.207   0.119   0.198  -0.062  -0.029
   0.371  -0.255   0.210  -0.060  -0.096  -0.100   0.162   0.454   0.370   0.146
  -0.241   0.139  -0.028  -0.325  -0.397   0.004  -0.143   0.014  -0.290  -0.436
   0.252   0.300  -0.185  -0.055  -0.095   0.227  -0.537  -0.515   0.252  -0.195
   0.271  -0.607   0.142  -0.122   0.223  -0.113   0.225   0.179  -0.024   0.284
   0.256   0.119  -0.085   0.011  -0.036  -0.301  -0.144   0.133   0.207   0.231
  -0.065   0.547   0.188   0.253   0.356   0.524   0.543  -0.004  -0.065   0.063
  -0.418   0.161  -0.105   0.157   0.189  -0.178  -0.141   0.130  -0.189   0.124
  -0.296  -0.371  -0.098  -0.171   0.087  -0.230   0.176   0.175  -0.167  -0.143
   0.092   0.220  -0.261  -0.289  -0.048  -0.033  -0.365  -0.052  -0.011  -0.037
  -0.205   0.318  -0.106  -0.445  -0.457   0.065   0.111  -0.280   0.066  -0.089
  -0.376   0.026  -0.030  -0.302   0.167  -0.224   0.226  -0.203  -0.357   0.080
   0.264  -0.106  -0.118   0.097   0.208   0.049   0.147   0.220   0.250  -0.442
   0.130  -0.127  -0.269   0.116   0.148   0.028   0.277   0.005  -0.294   0.484
  -0.102  -0.037  -0.395  -0.009   0.103  -0.264   0.473  -0.023   0.358  -0.099
  -0.524  -0.012  -0.403   0.068   0.466   0.327   0.430  -0.084   0.027   0.362
  -0.156   0.257   0.119   0.253   0.011   0.411  -0.022  -0.124  -0.356   0.489
   0.079  -0.108  -0.003  -0.164   0.238  -0.087   0.377   0.330   0.205   0.082
   0.075  -0.079   0.251  -0.189   0.172  -0.211   0.009  -0.138   0.384   0.472
   0.132   0.467   0.042   0.060  -0.151   0.152  -0.156  -0.388  -0.100   0.114
  -0.581   0.224   0.291  -0.159  -0.180  -0.379   0.041   0.006   0.225  -0.113
   0.063  -0.242   0.044   0.272  -0.072   0.343  -0.143  -0.135   0.095   0.224
   0.000  -0.207  -0.236  -0.123  -0.013  -0.161  -0.045  -0.087   0.231  -0.152
   0.034   0.164   0.194   0.168  -0.319  -0.234   0.097  -0.012  -0.027   0.051
   0.206  -0.110   0.157  -0.408  -0.212  -0.363   0.045  -0.240   0.155   0.182
  -0.245  -0.045  -0.222  -0.098  -0.284  -0.067   0.018   0.233   0.146  -0.352
   0.091  -0.152   0.165   0.096  -0.157  -0.022  -0.247  -0.331  -0.579  -0.208
  -0.010  -0.094   0.301   0.340   0.177   0.220   0.040   0.166   0.125  -0.024
   0.191  -0.038   0.104  -0.228   0.359  -0.156  -0.411   0.176  -0.313  -0.079
  -0.119   0.068  -0.006  -0.132   0.116  -0.067   0.050   0.276   0.706  -0.033
  -0.332  -0.125   0.445  -0.333  -0.478  -0.199  -0.809  -0.254  -0.120  -0.091
  -0.103  -0.354  -0.370  -0.161   0.015  -0.214   0.140   0.360   0.002  -0.193
  -0.079   0.067  -0.289   0.179  -0.473  -0.493  -0.334  -0.114  -0.005   0.376
   0.156  -0.072  -0.441  -0.389   0.077  -0.153   0.407  -0.036   0.327  -0.050
  -0.311   0.077  -0.131  -0.160  -0.348  -0.240  -0.610   0.437   0.172   0.311
  -0.038  -0.255  -0.575  -0.229   0.210  -0.207  -0.103   0.300  -0.117  -0.039
   0.411  -0.059  -0.003   0.109   0.019  -0.037   0.279  -0.155  -0.053   0.049
   0.205   0.305  -0.105   0.324   0.020  -0.337  -0.373   0.380   0.008  -0.298
   0.173  -0.710   0.282   0.285   0.233  -0.064   0.222   0.258   0.168   0.202
  -0.398   0.031  -0.044  -0.098  -0.102  -0.386  -0.089  -0.321  -0.088  -0.078
   0.198   0.142   0.188   0.151   0.000   0.292  -0.116   0.259   0.097  -0.390
   0.138  -0.090  -0.047   0.029  -0.115  -0.183  -0.099   0.236  -0.162  -0.221
   0.080   0.253   0.543   0.608   0.574   0.974   0.497   1.223   1.275   1.401
   1.774   2.020   1.923   1.461   2.107   2.912   1.889   2.447   2.284   2.157
