Corrected accelerogram 20160214_001343_PRPC_20 GNS Science
Site PRPC      43 31 33S  172 40 58E     Cusp file:  20160214_001346_PRPC
Pages Road Pumping Station
Instrument Cusp_10403
Resolution: 18-bit   Instr Period: 0.0050 s   Damping: 0.700
Accelerogram 20160214_001343_PRPC_20                 Processed 2016 February 22
11 km east of CHRISTCHURCH
2016 February 14         00:13:43 UT
Epicentre  43 29 50S 172 45 18E  Bearing N62E  Dist    7km  Depth    8km M  5.70
Number of points  8192    Duration 163.82 sec
Instrument corrected data at 0.020 sec intervals
Band-pass filter transition bands are .10-.25 Hz and 24.50-25.50 Hz
Component N00E  Transverse Accelerometer Axis
Acceleration:  peak  -2725.4 mm/s/s at  42.52 sec     rms    148.4 mm/s/s
Velocity:      peak   305.73 mm/s   at  43.88 sec     rms    20.81 mm/s
Displacement:  peak -108.813 mm     at  43.60 sec     rms    8.054 mm
    2016       2      14       0      13     430       0       0    2016       2
      43      29      50     172      45      18       8       0      14       0
      43      31      33     172      40      58       0       0      62       7
   70925     250     250    8192    8192    8192       0       0      13    6334
   200.0    0.70    0.00   0.000  0.0000   0.000   0.000   1.000     0.0    0.00
  43.526 172.683   43.50  172.76    5.70    0.00    0.00    0.00      0.      0.
  354.62    5.00    5.00  163.82  0.0050  0.0200      0.      0.      0.  9806.6
 -2847.0   42.51   153.4   0.000      0. -2725.4   42.52   148.4  2866.2   1.584
  305.73   43.88   20.81  343.59   0.290 -108.81   43.60    8.05  135.19   0.290
   0.100   0.150   0.250      0.      0.  24.500   1.000  25.500      0.      0.
    -0.0     0.0    -0.0     0.0    -0.0     0.0    -0.0     0.0    -0.0     0.0
    -0.0     0.0    -0.0     0.0    -0.0     0.0    -0.0     0.0    -0.0     0.0
    -0.0     0.0    -0.0     0.0    -0.0     0.0    -0.0     0.0    -0.0     0.0
    -0.0     0.0    -0.0     0.0    -0.0     0.0    -0.0     0.0    -0.0     0.0
    -0.0     0.0    -0.0     0.0    -0.0     0.0    -0.0     0.0    -0.0     0.0
    -0.0     0.0    -0.0     0.0    -0.0     0.0    -0.0     0.0    -0.0     0.0
    -0.0     0.0    -0.0     0.0    -0.0     0.0    -0.0     0.0    -0.0     0.0
    -0.0     0.0    -0.0     0.0    -0.0     0.0    -0.0     0.0    -0.0     0.0
    -0.0     0.0    -0.0     0.0    -0.0     0.0    -0.0     0.0    -0.0     0.0
    -0.0     0.0    -0.0     0.0    -0.0     0.0    -0.0     0.0    -0.0     0.0
    -0.0     0.0    -0.0     0.0    -0.0     0.0    -0.0     0.0    -0.0     0.0
    -0.0     0.0    -0.0     0.0    -0.0     0.0    -0.0     0.0    -0.0     0.0
    -0.0     0.0    -0.0     0.0    -0.0     0.0    -0.0     0.0    -0.0     0.0
    -0.0     0.0    -0.0     0.0    -0.0     0.0    -0.0     0.0    -0.0     0.0
    -0.0     0.0    -0.0     0.0    -0.0     0.0    -0.0     0.0    -0.0     0.0
    -0.0     0.0    -0.0     0.0    -0.0     0.0    -0.0     0.0    -0.0     0.0
    -0.0     0.0    -0.0     0.0    -0.0     0.0    -0.0     0.0    -0.0     0.0
    -0.0     0.0    -0.0     0.0    -0.0     0.0    -0.0     0.0    -0.0     0.0
    -0.0     0.0    -0.0     0.0    -0.0     0.0    -0.0     0.0    -0.0     0.0
    -0.0     0.0    -0.0     0.0    -0.0     0.0    -0.0     0.0    -0.0     0.0
    -0.0     0.0    -0.0     0.0    -0.0     0.0    -0.0     0.0    -0.0     0.0
    -0.0     0.0    -0.0     0.0    -0.0     0.0    -0.0     0.0    -0.0     0.0
    -0.0     0.0    -0.0     0.0    -0.0    -0.0    -0.0    -0.0    -0.0    -0.0
    -0.0    -0.0    -0.0    -0.0    -0.0    -0.0    -0.0    -0.0     0.0    -0.0
     0.0    -0.0     0.0    -0.1     0.0    -0.1     0.1    -0.1     0.2    -0.3
     1.4    -1.0    -1.3     1.5     0.4    -1.1    -0.7     1.4    -0.7    -1.5
    -0.3     1.1     0.4     0.0     0.5    -0.9     0.6     0.8    -0.5     0.7
    -0.0    -1.1     0.5     0.6    -0.8     0.2    -0.3    -0.0     0.6    -0.5
     0.1     0.7    -0.4     0.1    -0.3     0.2    -0.3    -0.6     0.1     0.7
     0.1    -0.2     0.8    -0.3     0.5    -0.1    -0.6     1.0    -0.2    -0.2
    -0.2    -0.3     0.0     0.3     0.4    -1.0     0.6     0.5    -1.1    -0.2
     0.8    -0.1    -1.2     1.3    -0.1    -0.8     0.4     1.4    -0.7    -0.9
     0.7    -0.5    -0.3    -0.1     0.1     0.3     0.2     0.1    -0.7     1.3
    -0.2    -0.5     0.7    -0.9    -0.1     0.4     0.2    -0.4    -0.1     0.4
    -0.5     0.5     0.5     0.2     0.3    -0.1     0.1     0.2     0.1     0.2
    -0.0    -0.6    -0.1    -0.6     0.5     0.1    -0.3     0.5    -0.3     0.7
    -0.7    -0.4    -0.2    -0.6     0.7     1.0    -0.3     0.1     0.4    -0.4
    -0.4     1.0    -0.4     0.1    -0.5     0.9    -0.1    -0.2     0.2    -0.2
    -0.6     0.0     0.8    -0.6     0.6    -0.1    -0.1    -0.3    -0.8    -0.0
     0.4    -0.5     0.4    -0.3     0.1     0.0     0.0    -0.0    -0.5     0.9
     0.0     0.4     0.0    -0.2    -0.2    -0.2     0.0     0.4     0.7    -0.8
     0.1     0.3     0.1    -0.3    -0.2     0.2     0.5    -0.6    -0.2     0.0
     0.2    -0.4    -0.3     0.5    -0.6    -0.4     0.5    -0.0    -0.7     0.0
     0.1    -0.8     0.3     0.2     0.0     0.2     0.2    -0.1     0.1     0.4
     0.2    -0.6    -0.7    -0.1    -0.1     0.2    -0.5    -0.1     0.3    -0.4
    -0.4     0.0     0.3     0.4    -0.5     0.5     0.5    -0.6     1.0    -0.0
    -0.5     0.4    -0.4     0.1    -0.3     0.3     0.2     0.6    -0.3     0.7
    -0.0     0.1     0.0     0.0     0.4     0.6    -0.7     0.1    -0.4    -0.3
    -0.1    -0.1     0.1     0.0    -0.8     0.5    -0.1    -0.4     0.4    -0.5
     0.0     0.5    -0.1     0.3     0.3    -0.4    -0.3    -0.2    -0.0     0.8
     0.0    -0.2     0.3    -0.1    -0.0    -0.1     0.1     0.5    -1.1     0.2
     0.4    -0.0    -0.2     0.1    -0.2    -0.3    -0.4     0.4     0.6    -0.2
    -0.9     0.1     0.4    -0.6     0.0    -0.1     0.0     0.8    -0.2     0.9
    -0.2     0.1     0.6     0.8    -0.3    -0.1     0.5    -0.4     0.0     0.6
     0.1    -0.8     0.0     0.6    -0.3    -0.7     0.8    -0.1    -0.3     0.0
    -0.5    -0.0     0.1     0.0    -0.6     0.4     0.1    -0.9    -1.0     0.4
     0.0    -0.4    -0.1    -0.2     0.1    -0.4    -0.1     0.8     0.2    -0.5
     1.1    -0.2    -0.4    -0.1     0.2     0.4    -0.9     0.4     0.2    -0.0
    -0.4    -0.5     0.2     0.1     0.0     0.5     0.1     0.1     0.1     0.2
    -0.3    -0.9     0.2     0.8    -1.0    -0.2     0.1     0.2     0.5    -0.3
     0.0     0.2    -0.5    -0.3     1.2     0.0    -0.5    -0.2    -0.1     0.6
    -0.4    -0.3     0.6     0.3    -0.2     0.2     0.1    -0.4    -0.3     0.0
     0.3    -0.1     0.3    -0.7    -0.1     0.3     0.3    -0.1    -0.1    -0.3
    -0.1    -0.4    -0.6    -0.4     0.3     0.4    -0.0    -0.0     0.4     0.9
    -0.2    -0.1    -0.8     1.0    -0.0    -0.3     0.0     0.6     0.4     0.5
    -0.0     0.1    -0.2     0.1     0.6     0.2     0.1     0.5    -0.3     0.0
    -0.2     0.1     0.6    -0.2     0.3     0.2    -0.2    -0.7     0.6    -0.0
    -0.1     0.1     0.2    -0.3    -0.4     0.4    -0.6     0.3     0.3     0.3
     0.1    -0.3     0.1    -0.4     0.2     0.1    -0.0    -0.1    -0.4     1.2
    -1.1    -0.3     1.0    -0.3    -0.8    -0.1    -0.0    -0.1     0.5    -0.0
     0.0     0.3    -0.1    -0.2     0.2    -0.1    -0.2     0.3    -0.2    -0.2
     0.1    -0.2    -0.1     0.0     1.0    -0.1    -0.0     0.0     0.3    -0.3
     0.0    -0.0     0.4    -0.3    -0.5     0.0     0.5     0.5     0.1    -0.3
    -0.5     0.3    -0.2    -0.9    -0.2    -0.2    -0.6     0.3     0.5     0.0
    -1.0     0.0    -0.2     0.5    -0.4    -0.1    -0.0    -0.2    -0.1     0.3
    -0.7    -0.2     0.2     0.6     0.3     0.3    -1.0    -0.0     0.4     0.1
    -0.9    -0.6    -0.2     0.2     1.1    -0.3     0.1    -0.3    -0.2     0.1
    -0.3    -0.1     0.2    -1.0     0.4     1.1    -0.5    -0.5     0.2     0.2
     0.2     0.3     0.5     0.0     0.2    -0.4    -0.4     0.1     0.1    -0.1
     0.0     0.3    -0.6    -0.3     0.4     0.1    -0.5    -0.5    -0.1     0.1
     0.2    -0.1     0.4    -0.1     0.1     0.3    -0.5     0.1     0.2    -0.1
    -0.3     0.3    -0.3     0.1    -0.1    -0.0    -0.0     0.1    -0.3     0.2
    -0.2     0.4     0.3     0.0    -0.0     0.2    -0.4     0.1    -0.1    -0.2
     0.6    -0.7    -0.2    -0.4    -0.1     0.2    -0.1     0.5    -0.4     0.6
     0.2     0.2    -0.3     0.4     0.3     0.4    -0.1    -0.1    -0.3     0.8
     0.5     0.0     0.4     0.7    -0.5     0.4     0.2     0.3    -0.6     0.4
    -0.4    -0.3    -0.1     0.6     0.3    -0.6     0.6     0.7    -0.4    -0.8
     0.4     0.6    -0.5     0.2    -0.5    -0.2     0.1    -0.2    -0.6    -0.2
     1.0     0.1    -0.2     0.3    -0.0     0.8    -0.9    -0.6    -0.0     0.2
     0.0    -0.3     0.7     0.4     0.2     0.1     0.3     0.2    -0.6     0.3
     0.1    -0.0     0.2     0.4    -0.1     0.2    -0.2    -0.3    -0.4     0.2
     0.1    -0.4    -0.4     0.2    -0.1    -0.3     0.0    -0.1    -0.0    -0.4
     0.7     0.5    -0.4    -0.4    -0.1     0.6     0.3     0.1    -0.6    -0.2
    -0.1    -0.3    -0.1    -0.4     0.3     0.3     0.2    -0.0     0.1    -0.1
     0.1     0.3    -0.1     0.4     0.0     0.2    -0.0    -0.1    -0.3    -0.1
    -0.1    -0.7    -0.5     0.8    -0.2    -0.1    -0.3    -0.7    -0.2    -0.0
     0.2     0.2    -0.6    -0.1    -0.5    -0.2     0.2     0.1     0.5     0.3
    -0.6    -0.5     0.4     0.2    -0.4    -0.5    -0.2    -0.4     0.1     1.2
     0.9    -0.3     0.1    -0.3     0.3     0.3     0.1     0.4    -0.0    -0.2
    -0.5     0.5     0.5     0.3    -0.6     0.4    -0.0    -0.2     0.2    -0.2
     0.4    -0.5     0.2    -0.7    -0.9     0.1     0.4     0.3    -0.3     1.1
     0.2    -0.1    -0.0    -0.3    -0.4     0.1    -0.4    -0.4    -0.3     0.1
     0.1    -0.3     0.4     0.5     0.3    -0.1    -0.4     0.1    -0.1    -0.5
     0.4     0.4     0.4     0.3     0.5     0.2     0.3    -0.3     0.1    -0.4
     0.0    -0.0    -0.2     0.0    -0.3     0.2    -0.5    -0.3    -0.0    -0.3
     0.1     0.1     0.3    -0.1     0.7    -0.5    -0.4     0.1    -0.1     0.6
     0.1    -0.5    -0.3     0.1    -0.0     0.3     0.5    -0.6    -0.5     0.4
    -0.2     0.6    -0.5    -0.3    -0.4     0.6    -0.1     0.4    -0.4    -0.4
    -0.0    -0.5     0.2     0.4    -0.2    -0.3    -0.1     0.1    -0.2    -0.8
     0.2    -0.4     0.0     0.1    -0.3     0.6    -0.2    -0.3    -0.2    -0.5
     0.1    -0.2     0.2    -0.0    -0.1    -0.8     0.1     0.2    -0.1     0.2
     0.0     0.7     0.3    -0.4     0.5     0.5     0.4     0.1     0.2     0.0
    -0.6     0.5     0.6     0.1    -0.3     0.5     0.0     0.2    -0.7     0.1
     0.1     0.3    -0.5    -0.0     0.2     0.1     0.3    -0.2    -0.4    -0.8
     0.4     0.5     0.5     0.3    -0.1     0.1     0.0    -0.6    -0.3     0.0
     0.6     0.1     0.8    -0.8     0.1     0.2    -0.4     0.2    -0.2     0.2
     0.5     0.6    -0.4     0.0     0.2     0.1    -0.3     0.1    -0.0    -0.4
     0.4    -0.9    -1.1     0.0     0.6    -0.4     0.2     0.4     0.1     0.1
    -0.4     0.6    -0.6     0.4    -0.1    -0.1     0.3    -0.0     0.4     0.1
     0.5     0.4     0.2     0.8    -0.9    -0.1    -0.2     0.9     0.1    -0.0
     0.1     0.2     0.2    -0.6    -0.3     0.3    -0.3    -0.1     0.2    -0.3
    -0.3     0.9    -0.2     0.1     0.1     0.7     0.2     0.2     0.3    -0.2
     0.0    -0.7    -0.1    -0.1     0.5    -0.7     0.1    -0.4    -0.5     0.4
     0.2     0.1    -0.7    -0.9    -0.5    -0.2     0.4    -0.1     0.6    -0.3
    -0.0    -0.4     0.4     0.3    -0.8    -0.1    -0.1    -0.3    -0.2     0.1
    -0.2    -0.1     0.1    -0.9     0.5     0.6    -0.4    -0.4    -0.1     0.3
    -0.3    -0.6    -0.5    -0.8    -0.3     0.9     0.1    -0.7    -0.6     0.2
    -0.6     0.2     0.0     0.6     0.1    -0.4    -0.3    -0.2     0.1     0.2
     0.2     0.9    -0.8     1.3    -0.5     0.1     0.2     0.3    -0.1     0.0
    -0.2     0.4     0.4     0.4     0.5    -0.4    -0.1     0.8    -0.3     0.2
     0.2     0.4     0.2    -0.5     1.3    -0.3    -0.3    -0.7     0.3    -0.3
     0.1     0.2    -0.0     0.0    -0.5     0.3    -0.1     0.9    -0.1     0.3
    -0.1     0.2     0.5    -0.6     0.1     0.4    -0.3    -0.4     0.0     0.5
     0.0    -0.3    -0.3     0.7    -0.3     0.2     0.1    -0.3     0.2     0.3
     0.1    -0.3     0.5    -0.3    -0.2    -0.3     0.3     0.1     0.1     0.1
    -0.2    -0.3    -0.5     0.4     0.1     0.6    -0.1     0.4     0.4    -0.1
     0.3     0.2     0.6    -0.6    -0.1    -0.5     0.4     0.2    -0.4     0.6
    -0.2     0.0    -0.2     0.3     0.1     0.3     0.0    -0.9     0.3     0.1
    -0.0     0.4    -0.6    -0.1    -0.5     0.7     0.1    -0.2    -0.1     0.0
     0.3    -1.1     0.1     0.2     0.5     0.0     0.3    -0.2    -0.3    -0.2
    -0.1     1.3    -0.3     0.0     0.0     0.2    -0.2    -0.0    -0.1    -0.3
     0.0    -0.2     0.4     0.1     0.9     0.4    -0.0     0.1    -0.3     0.9
    -0.5    -0.2     0.4    -0.2    -0.3    -0.2    -0.4     0.4    -0.2     0.7
    -0.6    -0.3     0.3    -0.1    -0.1    -0.1    -0.7    -0.0     0.1     0.1
    -1.0     0.4    -0.5     0.2     0.1    -0.4     0.8    -0.5     1.1    -0.5
    -0.4     0.0    -1.4     0.7    -0.2     0.7    -0.1    -0.3    -0.3    -0.9
    -0.2     0.4     0.2     0.3     0.1    -0.4    -1.0    -0.1    -0.3    -0.0
    -0.5     0.3    -0.2    -0.2     0.1     0.8    -0.5    -0.6    -0.0     0.6
    -0.1    -0.3    -0.1    -0.2     0.3     0.0    -0.4     0.7     0.1     0.2
    -0.5     0.1     0.0     0.3    -0.3     0.3    -0.2    -0.6     0.2    -0.1
    -0.1    -0.2     0.3     0.0    -0.7     0.5    -0.5     0.4    -0.6     0.1
     0.3    -0.2    -0.3    -0.0     0.5    -0.0     0.8    -0.1    -0.1    -0.3
    -0.7     0.2     0.1     0.2    -0.7     0.4    -0.1    -0.5     0.4     0.3
     0.0    -0.4     0.3     0.4     0.3    -0.3    -0.5     0.3    -0.2    -0.0
    -0.0    -0.1    -0.0     0.5     0.2    -0.0     0.6     0.2     0.9    -0.4
    -0.7     0.7    -0.5     0.4     0.2    -0.0    -0.0     0.1    -0.0    -0.2
    -0.0     0.5     0.3     0.3    -0.5    -0.2     0.2    -0.0    -0.4     0.5
     0.3    -0.6     0.7     0.4    -0.9     0.5    -1.1     0.9     1.4    -0.6
    -0.1    -0.1     0.5     0.3     0.1     1.1     0.1     0.2    -0.3     0.7
    -0.3     0.0    -0.2     0.1    -0.1     0.1     0.1     0.1    -0.1    -0.1
    -0.1    -0.3    -0.0     0.1    -0.2    -0.1    -0.3     0.7     0.0    -0.9
    -0.9     0.9     0.4    -0.3     0.2    -0.3     0.0     0.6     0.1     0.1
    -0.8     0.4    -0.2     0.2     0.4     0.1    -0.4     1.0    -1.0     0.0
     0.4    -0.5    -0.3     0.8    -0.2    -0.8    -0.1     0.6    -0.4     0.1
    -0.8     0.1    -1.0    -0.5     0.2    -0.2    -0.3     0.3    -0.4     0.6
    -0.4    -0.5    -0.6    -0.7     0.1    -0.4    -0.3     0.7    -0.3    -0.1
    -0.3    -0.4    -0.0    -0.4    -0.1    -0.1    -0.0     0.2    -0.3    -0.5
    -0.8     0.5    -0.9    -0.4    -0.4    -0.2     0.7    -0.5    -0.3     0.0
    -0.3    -0.5    -0.9     0.7     0.1    -0.4     0.3    -0.4    -0.3    -0.4
    -0.0    -0.6     1.0     0.4    -0.3     0.6    -0.9     0.7     1.1    -1.3
    -0.3    -0.4    -0.1     0.9    -0.8     0.4    -0.5    -0.4    -0.2     0.4
    -0.1    -0.3    -0.1    -0.2    -0.2     0.1     0.2    -0.3    -0.3    -0.4
    -0.0     0.3     0.1    -0.1     0.2     0.2    -0.4     0.0     0.3    -0.3
     0.2     0.2    -0.2     0.7    -0.5    -0.3    -0.4     0.5    -0.3     0.3
     0.3     0.3     0.1    -0.1    -0.3     0.7     0.0     0.6    -0.7     0.7
     0.3     0.1     0.1    -0.0     0.1     0.9     0.0     0.3    -0.1     0.2
     0.6     0.7    -0.1     0.0     1.3     0.2     0.2     1.0    -0.9     0.2
     0.2     0.2     0.3     0.2     0.4     0.0     1.2     0.3     0.4     0.8
     0.6    -0.1     0.8     0.5    -0.1     0.7     0.1     1.1     0.5     0.9
     0.3    -0.0    -0.6     0.5     0.9     0.8     0.8    -0.0    -0.7     0.5
     0.9     1.0     0.4    -0.2     0.5     0.5     0.2     0.3     0.1     0.2
     0.1     0.4     0.1     1.1     0.2     0.3    -0.3     0.2     0.3    -0.6
     0.7     0.7    -0.4    -0.5     0.1     0.6     0.2    -0.3     0.2     0.7
    -0.5     0.3    -0.2     0.5     0.3     0.3    -0.6     0.4    -0.6     0.5
     0.2    -0.6    -0.4    -0.1    -0.4    -1.0    -0.5     0.9    -0.0     0.1
    -0.4    -0.3    -0.2    -0.2    -0.5    -0.2    -0.8     0.4    -0.3    -0.8
    -0.7    -0.1    -0.2    -0.9    -1.0    -0.2    -0.1    -1.3    -0.6    -0.4
    -0.5    -0.1    -1.3     0.5     0.5    -0.7    -0.9     0.3     0.1    -0.5
    -1.0    -0.2    -0.9    -0.3    -0.3    -0.3    -1.1     0.1    -0.1    -0.3
    -0.5     0.4    -0.4    -0.4    -0.8    -0.6    -0.7    -0.4    -0.6     0.2
    -0.4    -1.0    -0.7     0.2    -0.1    -1.0    -0.6     0.1    -0.8     0.1
     0.0    -0.2    -0.0     0.1    -0.4    -1.2     0.2     0.6    -0.2    -0.7
     0.2     0.4     0.0     0.5     0.3     0.5     0.3    -0.3     0.3    -0.1
     0.2     1.4     0.8    -0.1    -0.4     0.2     0.4     1.3     0.7     0.9
    -0.2     0.1     1.1     0.6     0.3     1.0     0.2     0.7     0.0     1.1
     0.7     1.0     0.0     1.5    -0.2     1.4     0.7     0.2     0.6     0.7
     0.8     1.2     1.1     1.4     0.2     1.1     1.0     1.8     0.6     1.8
     0.8     0.9     1.0     0.5     1.2     0.7     0.9     1.5     0.9     1.2
     0.6     0.8     0.4     1.9     0.6     1.4     1.1     1.3     0.4     1.7
     1.0     1.1     0.9     1.4     1.2     1.2     0.4     0.6     1.2     1.0
     0.7     1.0     1.6     0.7     0.0     1.8     0.6     0.9     1.7     0.9
     0.0     0.6    -0.1     0.8    -0.1     0.9    -0.1     0.2     0.5     0.6
    -0.4     0.7    -0.6    -0.4    -0.7     0.3     0.3     0.1    -0.4    -0.0
    -1.1     0.3    -0.4    -0.9    -1.2    -0.5    -0.8    -0.3    -1.4    -1.1
    -1.4    -0.8    -0.9    -1.5    -2.3    -1.3    -1.7    -1.8    -1.2    -1.2
    -2.4    -1.1    -2.3    -1.6    -2.1    -2.3    -2.6    -1.4    -2.2    -2.5
    -2.4    -1.2    -3.3    -2.7    -3.3    -2.3    -3.5    -2.5    -3.2    -2.6
    -3.8    -3.7    -3.6    -2.9    -2.7    -2.5    -4.6    -2.7    -4.3    -3.7
    -2.6    -3.0    -3.8    -3.6    -4.1    -3.9    -4.6    -4.8    -4.2    -4.1
    -4.4    -3.1    -4.6    -4.0    -4.5    -3.7    -5.0    -4.1    -4.2    -3.8
    -4.6    -3.6    -4.0    -4.8    -4.8    -4.1    -4.3    -3.2    -3.6    -4.3
    -4.9    -3.4    -4.0    -3.8    -3.8    -3.4    -4.6    -3.4    -4.6    -2.9
    -3.4    -2.6    -4.1    -2.4    -3.2    -3.5    -4.5    -2.7    -3.3    -1.5
    -3.1    -2.7    -2.0    -1.8    -3.4    -1.3    -3.0    -1.9    -3.0    -1.0
    -1.2    -1.4    -2.1    -0.9    -1.9    -0.8    -1.3     0.3    -1.7    -0.2
    -0.5     0.6    -0.2     1.1    -0.5     0.8     0.9     1.3     0.1     2.5
     0.5     2.7     1.0     3.2     2.0     3.6     1.5     2.8     2.7     3.9
     2.1     4.0     3.9     4.7     4.1     5.3     4.5     6.3     4.1     5.6
     5.6     6.8     4.5     7.1     6.1     7.1     6.2     8.8     6.6     8.9
     7.2     9.4     7.2     9.3     7.8    10.3     8.0    10.5     9.0    10.9
     9.5    12.1     9.7    11.7    10.0    12.9    10.1    12.8    11.5    13.1
    10.1    14.0    11.5    14.5    12.0    14.0    12.6    14.9    11.1    15.1
    13.0    16.5    11.3    16.4    12.6    16.4    11.4    17.8    12.3    17.5
    12.3    16.9    13.4    18.4    11.6    18.5    12.8    18.9    12.9    18.8
    11.9    18.8    11.1    18.8    11.2    18.3     9.7    14.8     4.0     6.8
