Corrected accelerogram 20160214_001343_RHSC_20 GNS Science
Site RHSC      43 32 10S  172 33 52E     Cusp file:  20160214_001347_RHSC
Riccarton High School
Instrument Cusp_10405
Resolution: 18-bit   Instr Period: 0.0050 s   Damping: 0.700
Accelerogram 20160214_001343_RHSC_20                 Processed 2016 February 22
11 km east of CHRISTCHURCH
2016 February 14         00:13:43 UT
Epicentre  43 29 50S 172 45 18E  Bearing N74E  Dist   16km  Depth    8km M  5.70
Number of points  8177    Duration 163.52 sec
Instrument corrected data at 0.020 sec intervals
Band-pass filter transition bands are .10-.25 Hz and 24.50-25.50 Hz
Component N00E  Horizontal Axis 1
Acceleration:  peak   -605.3 mm/s/s at  27.58 sec     rms     54.5 mm/s/s
Velocity:      peak   -71.93 mm/s   at  24.82 sec     rms     7.57 mm/s
Displacement:  peak  -26.243 mm     at  25.02 sec     rms    3.469 mm
    2016       2      14       0      13     430       0       0    2016       2
      43      29      50     172      45      18       8       0      14       0
      43      32      10     172      33      52       0       0      74      16
   30707     250     250    8177    8177    8177       0       0      13   27657
   200.0    0.70    0.00   0.000  0.0000   0.000   0.000   1.000     0.0    0.00
  43.536 172.564   43.50  172.76    5.70    0.00    0.00    0.00      0.      0.
  153.53    5.00    5.00  163.52  0.0050  0.0200      0.      0.      0.  9806.6
  -620.8   27.57    56.4   0.000      0.  -605.3   27.58    54.5   724.6   1.404
  -71.93   24.82    7.57   74.96   0.247  -26.24   25.02    3.47   26.33   0.247
   0.100   0.150   0.250      0.      0.  24.500   1.000  25.500      0.      0.
    -0.0     0.0    -0.0     0.0    -0.0     0.0    -0.0     0.0    -0.0     0.0
    -0.0     0.0    -0.0     0.0    -0.0     0.0    -0.0     0.0    -0.0     0.0
    -0.0     0.0    -0.0     0.0    -0.0     0.0    -0.0     0.0    -0.0     0.0
    -0.0     0.0    -0.0     0.0    -0.0     0.0    -0.0     0.0    -0.0     0.0
    -0.0     0.0    -0.0     0.0    -0.0     0.0    -0.0     0.0    -0.0     0.0
    -0.0     0.0    -0.0     0.0    -0.0     0.0    -0.0     0.0    -0.0     0.0
    -0.0     0.0    -0.0     0.0    -0.0     0.0    -0.0     0.0    -0.0     0.0
    -0.0     0.0    -0.0     0.0    -0.0     0.0    -0.0     0.0    -0.0     0.0
    -0.0     0.0    -0.0     0.0    -0.0     0.0    -0.0     0.0    -0.0     0.0
    -0.0     0.0    -0.0     0.0    -0.0     0.0    -0.0     0.0    -0.0     0.0
    -0.0     0.0    -0.0     0.0    -0.0     0.0    -0.0     0.0    -0.0     0.0
    -0.0     0.0    -0.0     0.0    -0.0     0.0    -0.0     0.0    -0.0     0.0
    -0.0     0.0    -0.0     0.0    -0.0     0.0    -0.0     0.0    -0.0     0.0
    -0.0     0.0    -0.0     0.0    -0.0     0.0    -0.0     0.0    -0.0     0.0
    -0.0     0.0    -0.0     0.0    -0.0     0.0    -0.0     0.0    -0.0     0.0
    -0.0     0.0    -0.0     0.0    -0.0     0.0    -0.0     0.0    -0.0     0.0
    -0.0     0.0    -0.0     0.0    -0.0     0.0    -0.0     0.0    -0.0     0.0
    -0.0     0.0    -0.0     0.0    -0.0     0.0    -0.0     0.0    -0.0     0.0
    -0.0     0.0    -0.0     0.0    -0.0     0.0    -0.0     0.0    -0.0     0.0
    -0.0     0.0    -0.0     0.0    -0.0     0.0    -0.0     0.0    -0.0     0.0
    -0.0     0.0    -0.0     0.0    -0.0     0.0     0.0     0.0     0.0     0.0
     0.0     0.0     0.0     0.0     0.0     0.0     0.0     0.0     0.0     0.0
     0.0     0.0     0.0     0.0     0.0     0.0     0.0     0.0     0.0     0.0
     0.0     0.0     0.0     0.0     0.0     0.0     0.0     0.0     0.0     0.0
     0.0     0.0     0.1     0.0     0.1     0.0     0.1     0.0     0.1    -0.0
     0.4    -0.1    -0.1    -0.8     0.1     0.1    -0.0     0.2     0.5    -0.2
    -0.4    -0.4    -0.7    -0.2    -0.4     0.1    -0.5    -0.0     0.3    -0.4
    -0.4    -0.1    -0.2     0.3    -0.1    -0.1    -0.1     0.2    -0.7     0.0
    -0.3    -0.0     0.2     0.1     0.1    -0.3    -0.7    -0.3    -0.2    -0.4
    -0.1     0.1     0.3    -0.2    -0.1    -0.1     0.2     0.2    -0.1     0.3
    -0.1     0.6    -0.2     0.1     0.1    -0.0     0.1     0.3     0.5     0.4
     0.1     0.0    -0.1     0.3     0.1     0.1     0.2    -0.2    -0.5     0.1
    -0.6    -0.0     0.0     0.3    -0.1     0.5    -0.2     0.5     0.4    -0.1
     0.1     0.1    -0.0     0.0     0.7     0.2     0.5     0.5    -0.3    -0.3
     0.1    -0.2    -0.1     0.1     0.4     0.4     0.2    -0.3    -0.1     0.4
     0.2    -0.3     0.5     0.1    -0.1     0.4    -0.1    -0.1    -0.1     0.1
     0.3    -0.3    -0.3     0.2    -0.4    -0.2     0.1     0.4    -0.4     0.2
    -0.3    -0.2    -0.4     0.8    -0.3     0.1     0.5     0.0     0.0    -0.2
     0.2     0.2     0.3    -0.1    -0.6    -0.1     0.2     0.2    -0.2     0.2
    -0.0     0.3     0.1    -0.0    -0.1    -0.2    -0.6    -0.2    -0.5     0.0
    -0.0    -0.9    -0.1     0.1    -0.2     0.1    -0.1    -0.0     0.1    -0.4
     0.3     0.1     0.0    -0.1    -0.4    -0.1    -0.5     0.0     0.1     0.2
    -0.1    -0.5    -0.0    -0.1     0.1     0.2    -0.3     0.1     0.2     0.3
    -0.3    -0.8    -0.2    -0.0    -0.1    -0.1     0.2    -0.6     0.3     0.4
     0.3     0.5    -0.1     0.3     0.2    -0.3    -0.2     0.5     0.3    -0.2
     0.2    -0.0     0.1     0.0    -0.3     0.0    -0.2    -0.0     0.3     0.1
    -0.5     0.7    -0.6    -0.1     0.2    -0.1    -0.2     0.1     0.1     0.2
    -0.2     0.1    -0.3     0.6     0.7    -0.1    -0.0     0.0     0.0    -0.1
    -0.1    -0.4     0.1     0.3     0.1    -0.0     0.1     0.1    -0.4     0.1
     0.1     0.2    -0.0    -0.2    -0.3    -0.1     0.2     0.2    -0.2    -0.3
    -0.0    -0.1    -0.1     0.1    -0.2     0.5     0.1    -0.1     0.2    -0.3
    -0.4     0.4    -0.1    -0.0    -0.1     0.0     0.5    -0.1     0.7     0.3
     0.2     0.6     0.0    -0.1    -0.1    -0.1     0.4     0.1     0.2     0.3
     0.2     0.4    -0.2    -0.0    -0.6    -0.2    -0.1    -0.1     0.1    -0.1
     0.2    -0.2     0.1    -0.1    -0.6     0.2    -0.5     0.4     0.4     0.3
    -0.3     0.2     0.0    -0.2     0.3     0.1    -0.2     0.3     0.2    -0.1
    -0.3    -0.5    -0.1    -0.3     0.3     0.1    -0.1    -0.0    -0.6     0.3
    -0.0     0.5    -0.6    -0.5     0.1     0.0    -0.0    -0.2     0.3    -0.2
     0.4     0.3    -0.5     0.3    -0.1     0.1    -0.0    -0.6    -0.4     0.3
     0.1    -0.1     0.0    -0.2     0.3    -0.1    -0.1    -0.1    -0.0     0.1
    -0.2    -0.6     0.1    -0.1    -0.1     0.6     0.1    -0.4     0.0    -0.1
     0.0     0.1    -0.3     0.4    -0.8    -0.3     0.2     0.1    -0.4    -0.1
    -0.5     0.1     0.4     0.4    -0.2    -0.2     0.1    -0.1    -0.1    -0.1
     0.0    -0.0    -0.2    -0.5    -0.5    -0.2    -0.1    -0.3    -0.3     0.3
    -0.3     0.4     0.0     0.5    -0.1     0.1     0.1     0.5    -0.0     0.2
     0.4     0.1    -0.2    -0.1     0.2     0.3     0.3    -0.1     0.1    -0.0
    -0.3     0.2    -0.1     0.5    -0.4     0.1    -0.2     0.0     0.0     0.1
     0.2    -0.2     0.1    -0.4    -0.2     0.4    -0.0     0.2    -0.1     0.0
     0.3     0.8    -0.1    -0.2     0.0    -0.3     0.2    -0.3     0.1     0.2
     0.5     0.2     0.3    -0.3    -0.4    -0.2    -0.3    -0.2     0.4     0.5
    -0.1     0.7    -0.1     0.3     0.0     0.1    -0.3     0.0     0.7     0.6
     0.5    -0.3    -0.2    -0.1     0.3     0.7     0.1    -0.1     0.4     0.2
    -0.5    -0.6     0.2    -0.1    -0.5     0.1    -0.3     0.3     0.1     0.5
     0.5     0.0     0.2    -0.1    -0.1     0.5     0.2    -0.3    -0.6    -0.0
     0.5    -0.2    -0.3    -0.1    -0.5    -0.6    -0.2    -0.2    -0.1    -0.1
    -0.5    -0.4    -0.3    -0.2     0.0     0.1     0.2     0.2     0.0    -0.2
    -0.1     0.2     0.0     0.4     0.4    -0.3     0.4    -0.4    -0.5    -0.2
    -0.6    -0.1    -0.1     0.2    -0.0    -0.4    -0.6     0.6    -0.5    -0.2
    -0.2    -0.2    -0.6    -0.2    -0.3    -0.2    -0.6     0.3    -0.2    -0.4
    -0.2     0.3     0.1    -0.1    -0.3     0.3     0.1    -0.2     0.1    -0.1
    -0.5    -0.5     0.1     0.2    -0.0    -0.6    -0.3    -0.7     0.1    -0.1
     0.3     0.1    -0.1    -0.4    -0.6    -0.6    -0.3    -0.1    -0.3     0.2
    -0.1    -0.0     0.5    -0.1    -0.2    -0.1    -0.0    -0.3     0.2    -0.1
     0.2     0.3     0.1     0.1     0.2     0.3    -0.0    -0.3     0.4    -0.2
     0.1     0.2    -0.2     0.2     0.7     0.0    -0.2     0.1     0.4     0.5
    -0.2     0.0    -0.1     0.3     0.2     0.7    -0.1    -0.2     0.7     0.6
     0.2    -0.1    -0.2     0.6    -0.0     0.4    -0.1    -0.1     0.3     0.3
    -0.0    -0.0     0.4     0.5    -0.0    -0.3    -0.4     0.4     0.6    -0.0
     0.1     0.0    -0.0     0.5    -0.2     0.2    -0.2     0.5     0.1    -0.0
    -0.2     0.2    -0.3     0.5    -0.0     0.2    -0.4     0.1    -0.0     0.4
    -0.2     0.4    -0.5     0.3    -0.5     0.4    -0.1     0.4    -0.0     0.2
     0.4    -0.2    -0.4     0.2     0.1     0.3     0.3     0.5     0.0     0.3
     0.6     0.2    -0.1     0.3     0.5     0.5    -0.2    -0.0    -0.2     0.0
     0.1    -0.3     0.2     0.1    -0.1     0.5     0.1    -0.3    -0.0    -0.4
     0.2     0.2    -0.1     0.1    -0.7     0.3    -0.1    -0.3     0.0    -0.0
     0.4    -0.6    -0.2     0.2     0.1     0.4     0.3     0.4    -0.5    -0.1
    -0.3    -0.8    -0.3    -0.1    -0.5    -0.2    -0.4    -0.7    -0.3    -0.3
    -0.7    -0.6    -0.2    -0.2    -0.2    -0.3    -0.1    -0.6     0.1    -0.1
     0.2    -0.1    -0.4    -0.6    -0.8    -0.1    -0.2    -0.4    -0.2     0.2
     0.1    -0.4    -1.2     0.1    -0.4    -0.3    -0.0    -0.4    -0.2    -0.0
     0.1    -0.7    -0.9     0.3    -0.3    -0.5    -0.6    -0.1    -0.7     0.1
     0.1     0.4     0.4    -0.4    -0.4     0.0     0.2     0.0    -0.0     0.1
     0.1     0.1    -0.5    -0.4    -0.3    -0.0     0.2     0.3     0.2     0.6
    -0.1     0.2     0.2     0.1     0.4     0.4     0.1     0.5     0.5     0.2
     0.9     0.6    -0.1     0.2     0.5     1.2     0.7     0.3     0.4     0.4
     1.1     1.1     0.6     0.6     0.4     1.0     0.4     1.0     0.8     0.7
     1.6     1.0     0.9     1.5     0.7     0.9     0.9     1.4     1.2     1.3
     0.9     0.6     1.1     1.0     1.2     1.2     0.8     0.7     1.7     1.1
     1.2     1.2     0.7     0.8     1.0     1.1     0.9     1.1     1.1     1.3
     1.1     1.2     1.1     1.1     1.3     0.8     0.8     1.0     0.4     1.4
     1.5     1.4     0.9     1.5     1.2     0.6     0.7     1.1     0.6     1.1
     0.9     1.6     0.5     0.7     1.1     1.0     0.2     0.5     0.2     0.8
     0.5     1.1    -0.0     0.3     0.5     0.5     0.4     0.7     0.2     0.1
     0.3    -0.1     0.3    -0.1    -0.2    -0.1    -0.4     0.2    -0.1    -0.3
    -0.3    -0.3    -1.1    -0.6    -0.5    -0.2    -0.4     0.0    -0.6    -1.0
    -0.3    -0.8    -0.8    -0.9    -1.0    -1.3    -1.6    -1.0    -1.7    -1.4
    -1.9    -0.8    -1.9    -1.8    -2.4    -1.7    -1.9    -2.0    -2.1    -2.1
    -2.6    -2.1    -2.2    -2.0    -2.6    -2.1    -2.9    -2.7    -2.1    -2.9
    -2.3    -2.7    -2.7    -2.5    -2.9    -2.8    -3.0    -2.9    -2.6    -3.0
    -3.7    -3.2    -3.4    -3.6    -3.2    -3.9    -3.7    -3.7    -4.3    -3.6
    -3.7    -4.0    -4.2    -3.9    -4.2    -4.3    -4.1    -4.0    -4.2    -4.5
    -4.2    -4.2    -4.5    -4.6    -4.2    -4.1    -4.4    -4.6    -4.3    -3.9
    -4.4    -4.6    -4.5    -4.6    -4.6    -4.8    -5.0    -4.6    -5.0    -4.3
    -4.3    -4.2    -4.5    -3.9    -4.3    -3.9    -5.1    -4.0    -4.3    -3.9
    -4.2    -3.1    -3.5    -2.4    -2.3    -1.9    -3.0    -2.6    -3.6    -3.7
    -3.6    -1.7    -1.4    -0.3    -1.8    -5.9    -7.1    -2.1     0.6     2.8
     4.9     4.1    -5.7   -15.4   -14.3    -5.4     1.7     8.1     3.9    -6.4
    -8.0    -0.3     8.4    17.4    15.8    -3.0    -9.2   -16.8   -26.8    -2.5
    13.2     0.8    -9.6    17.0    39.2    10.8   -24.1    -3.7    26.8    35.9
    43.8    32.8   -11.7   -40.8   -67.2   -56.1     9.0    64.7    68.6    18.8
    -5.5    38.5    53.2    11.4   -17.4   -23.2   -14.2   -46.2   -57.5    -0.8
    36.5    73.4    83.0    47.8    60.6    98.7    55.1   -47.5  -100.3   -54.1
    -1.5    17.3    10.8   -24.5   -55.2   -23.8   -28.4   -10.8    90.4   163.5
   155.2    91.2    17.8   -29.2   -22.9    20.4    23.1   -44.1   -76.5   -66.3
    -1.2    70.1    61.9    29.9    -6.4   -10.1    27.4    -8.4     5.1    62.5
    71.1    87.3    90.6    84.4    72.2    33.1   -64.3  -162.9  -163.7   -78.5
    12.0    68.1    84.2   148.6   166.0   121.5    29.4   -77.1  -112.2   -48.1
    50.7    68.1   106.7   131.5    44.0   -52.1  -124.3  -127.7   -23.2    83.0
   133.1   121.1    85.8     7.0   -47.6   -36.6   -27.6   -74.5  -143.7  -128.5
   -68.8     5.3   129.6   150.7    55.6   -63.5  -126.2  -123.1  -109.4   -30.3
    72.9    91.7    71.7    67.7     6.5  -133.6  -242.4  -201.9  -158.2  -149.9
   -87.3    -1.1    32.2     9.7    18.9    18.5   -25.1   -88.1  -127.5  -107.8
   -66.1   -49.4    86.0   222.0   267.1   241.3   245.9   295.7   152.3  -124.6
  -246.7  -209.7  -161.1  -144.9  -122.8  -174.9  -275.5  -351.0  -320.5  -127.2
   164.0   317.9   314.7   232.1    49.9  -156.2  -337.4  -457.5  -524.0  -557.9
  -489.3  -292.6   -28.6   159.9   255.8   286.0   227.6    98.1   -16.1   -51.5
   -11.5    50.1   115.2   217.4   324.8   322.2   211.7    32.9  -107.7  -138.5
  -133.5  -130.8   -93.4   -76.6   -55.0   -76.6  -169.6  -232.1  -204.4  -132.2
  -136.3  -214.1  -200.5   -47.1    71.3    15.1  -173.8  -265.4  -219.1  -131.2
   -81.4   -25.7    71.9   155.3   306.1   488.0   587.4   548.0   476.8   424.9
   381.9   335.8   214.5   105.9   139.7   169.2   122.0    70.8    44.5    31.8
    23.0    37.6    49.3    53.6    65.7    25.5   -54.8  -134.0  -237.2  -279.8
  -218.7  -152.6  -150.0  -171.9  -115.4   -45.4   -32.1   -47.9  -132.4  -189.0
   -56.0   230.4   513.0   599.0   482.9   396.4   411.1   415.7   325.1   157.6
    -9.8  -122.5  -131.4   -92.6   -68.0     1.0   112.7   154.2    74.6   -72.6
  -210.2  -327.3  -419.1  -455.1  -437.7  -321.8   -77.8   140.0   188.6   124.4
    21.9   -67.9  -147.0  -226.5  -281.7  -313.8  -338.0  -269.8   -39.4   181.0
   290.4   297.5   218.0    73.2   -82.8  -157.4  -116.2   -26.4     9.3    49.1
   121.8   157.3   136.3    50.0  -102.1  -246.2  -310.9  -278.8  -179.0   -75.8
    -4.9     8.7     5.3   -33.0   -62.9    -0.2   106.3   171.0   206.5   244.9
   279.2   227.5    90.1    16.1    62.8   153.4   234.2   292.9   301.7   238.7
   157.9   108.2    67.8    17.5   -48.3  -151.1  -286.1  -376.2  -348.5  -245.2
   -68.1   179.5   358.8   374.6   271.4   117.8  -126.8  -403.7  -576.6  -605.3
  -515.0  -384.8  -271.3  -151.0    33.4   242.6   370.8   364.7   273.2   131.0
   -19.0   -83.0    -5.7   163.8   301.6   309.8   158.3   -99.1  -321.2  -433.4
  -466.6  -411.1  -253.7   -41.5   143.2   261.6   329.1   337.0   219.2    -0.8
  -196.4  -310.9  -378.0  -381.4  -301.7  -206.3  -139.5   -63.9    20.4    81.4
   126.0   171.8   226.7   277.0   313.4   324.5   284.7   224.1   166.8   133.8
   134.7   124.4    77.4   -19.7  -169.8  -299.8  -334.4  -275.5  -120.8    81.6
   230.5   265.9   190.9    51.3   -99.1  -220.5  -292.4  -337.5  -365.1  -373.8
  -364.1  -307.4  -176.6   -18.1   125.3   225.6   256.8   226.2   191.8   191.7
   216.0   226.8   207.4   127.2     4.2   -71.9   -50.5    43.0   131.2   150.7
    87.4     1.4   -53.5   -87.2  -103.8  -115.1  -105.8   -60.5    10.4    61.4
    53.4   -19.0  -119.9  -195.2  -220.4  -185.1  -105.4   -31.4     2.3     1.5
   -21.8   -57.2   -73.8   -66.9   -57.2    -6.7    90.0   178.6   228.0   237.7
   195.4   122.4    72.9    28.0   -50.0  -160.6  -252.1  -289.5  -289.3  -265.4
  -207.8  -130.1   -60.9   -15.9    -0.5    -4.3   -26.7   -51.8   -50.8   -15.0
    13.2    -3.1   -43.9   -79.1  -101.8  -108.8   -98.8   -83.1   -62.6   -16.1
    64.0   157.7   257.1   340.3   389.0   400.0   389.7   342.9   238.2   119.0
    49.0    19.6    14.7    44.0    98.9   149.7   175.0   176.9   181.2   171.1
   115.4    27.1   -57.2  -107.0  -107.5   -62.5    18.4   102.9   158.6   175.1
   191.1   215.4   229.1   233.4   220.6   162.2    48.7   -83.8  -172.1  -181.8
  -155.9  -119.2   -69.6   -26.3    -8.4     4.0    27.7    48.8    58.1    52.4
    24.2    -8.8   -33.7   -48.6   -60.7   -65.9   -56.0   -31.1   -19.1   -37.3
   -84.9  -133.9  -147.7  -135.6  -117.3  -108.1   -98.0   -97.7  -120.7  -146.7
  -151.5  -144.4  -129.4  -128.6  -148.5  -179.3  -200.0  -200.1  -176.6  -142.0
  -103.5   -74.7   -59.8   -51.4   -52.6   -50.9   -33.9    -6.0    14.0    -8.0
   -67.6  -112.1  -110.2   -77.8   -31.0    13.5    57.7    96.0   113.2    99.6
    60.3    11.0   -49.0  -118.2  -160.2  -149.0  -104.5   -58.7   -16.6    19.0
    37.1    39.0    36.0    34.9    27.5     7.9    -7.9    -9.8    25.0    95.4
   163.3   207.9   215.0   196.3   168.6   137.5   101.6    63.7    54.0    54.1
    36.0    19.2    21.7    40.6    59.9    50.2    23.2    -5.6   -21.2   -16.6
   -10.0   -26.3   -55.7   -79.6   -81.3   -51.9   -15.4    23.8    74.4   124.4
   139.2   114.0    78.4    70.5    93.3   115.4   139.2   171.1   202.3   217.6
   191.8   118.9    33.9   -41.4  -115.6  -181.0  -219.0  -219.6  -192.8  -146.9
  -100.4   -60.4   -13.2    39.1    87.8   125.6   152.8   173.0   185.9   177.6
   145.6   100.3    46.6   -16.3   -84.0  -136.1  -154.7  -147.1  -124.8   -92.0
   -68.0   -52.1   -37.3   -22.6   -10.7    -6.2    -4.1     0.3     0.9    -2.9
   -25.2   -64.8  -104.6  -148.0  -178.8  -185.4  -178.9  -173.5  -164.4  -139.8
   -94.2   -26.2    62.0   147.9   215.1   252.7   269.8   265.2   241.1   198.3
   138.0    67.4    -4.3   -69.1  -107.9  -106.9   -79.2   -67.8   -84.5  -103.5
  -120.3  -133.7  -135.5  -128.2  -113.4   -89.0   -55.3   -13.5    35.1    75.0
    90.4    68.4     5.9   -60.9   -93.3   -98.5   -82.1   -55.2   -12.0    50.0
   113.2   164.9   192.1   174.5   109.0    27.3   -30.0   -51.0   -51.1   -34.1
   -16.2   -20.9   -46.1   -67.3   -71.9   -53.4   -23.3    -3.5     3.7     5.0
    11.3    28.3    44.9    54.0    61.8    52.9    26.6   -21.6   -77.6  -117.0
  -134.1  -142.2  -149.9  -133.5   -76.5    -9.3    49.8   102.3   141.6   157.4
   133.6    82.4    32.5   -10.2   -55.8   -90.0  -102.4  -102.4  -105.8  -106.8
   -92.0   -72.0   -53.8   -31.1    -4.5     7.6    -7.1   -30.2   -38.6   -41.4
   -40.0   -25.6     7.2    50.3    96.5   132.4   150.9   144.2   109.7    58.0
    19.0     7.5    25.3    51.9    80.2   105.5   121.1   124.9   107.3    69.4
    24.7   -10.6   -34.7   -53.4   -55.2   -35.3   -10.5     5.4    12.3     9.9
    -9.0   -45.2   -77.6   -89.2   -71.8   -40.5   -20.3   -10.9    -5.7    -3.7
    -7.5   -12.9   -14.7   -10.8    -5.4     7.5    24.9    40.0    45.7    40.6
    28.2    11.5    -9.9   -34.7   -63.0   -80.8   -79.0   -51.3    -2.7    55.1
   106.0   140.7   158.1   160.6   150.1   123.1    86.2    55.2    30.9     8.9
    -2.1     3.8    14.4    28.0    34.7    24.7    11.4     8.5     8.0     2.1
     2.0     8.5     6.7    -5.5   -19.1   -36.0   -54.8   -73.6   -86.8   -95.7
   -97.5   -85.1   -73.0   -69.2   -69.8   -71.9   -71.6   -67.3   -58.0   -31.8
     6.2    36.3    55.1    63.7    60.9    42.0    10.3   -15.2   -22.6   -19.4
   -10.0     7.3    30.7    47.6    48.8    36.0    21.9    13.8    14.3    24.0
    35.8    35.7    23.4     8.6     4.8    14.1    30.1    47.4    52.2    32.5
    -9.6   -57.3   -90.3   -99.1   -89.7   -70.6   -47.9   -20.9     1.8    15.9
    18.1    11.9     6.1     2.1   -12.5   -37.3   -54.9   -61.9   -67.7   -72.3
   -66.5   -54.9   -44.5   -33.2   -13.9     4.6    12.3    23.1    43.6    52.7
    46.6    33.9    18.9     1.5    -8.0    -4.2     4.3    12.0    11.3     3.2
