Corrected accelerogram 20160214_001343_MPSS_20 GNS Science
Site MPSS      43 29 58S  172 38 32E     Cusp file:  20160214_001346_MPSS
Mairehau Primary School
Instrument Cusp_42009
Resolution: 18-bit   Instr Period: 0.0050 s   Damping: 0.700
Accelerogram 20160214_001343_MPSS_20                 Processed 2016 February 22
11 km east of CHRISTCHURCH
2016 February 14         00:13:43 UT
Epicentre  43 29 50S 172 45 18E  Bearing N89E  Dist    9km  Depth    8km M  5.70
Number of points  8192    Duration 163.82 sec
Instrument corrected data at 0.020 sec intervals
Band-pass filter transition bands are .10-.25 Hz and 24.50-25.50 Hz
Component N00E  Horizontal Axis 1
Acceleration:  peak   1922.6 mm/s/s at  43.56 sec     rms    131.7 mm/s/s
Velocity:      peak  -184.12 mm/s   at  43.98 sec     rms    16.84 mm/s
Displacement:  peak  -50.541 mm     at  44.20 sec     rms    6.178 mm
    2016       2      14       0      13     430       0       0    2016       2
      43      29      50     172      45      18       8       0      14       0
      43      29      58     172      38      32       0       0      89       9
   38525     250     250    8192    8192    8192       0       0      13    6576
   200.0    0.70    0.00   0.000  0.0000   0.000   0.000   1.000     0.0    0.00
  43.499 172.642   43.50  172.76    5.70    0.00    0.00    0.00      0.      0.
  192.62    5.00    5.00  163.82  0.0050  0.0200      0.      0.      0.  9806.6
  1898.3   43.56   136.1   0.000      0.  1922.6   43.56   131.7  2018.1   1.428
 -184.12   43.98   16.84  192.94   0.366  -50.54   44.20    6.18   51.75   0.192
   0.100   0.150   0.250      0.      0.  24.500   1.000  25.500      0.      0.
     0.0    -0.0     0.0    -0.0     0.0    -0.0     0.0    -0.0     0.0    -0.0
     0.0    -0.0     0.0    -0.0     0.0    -0.0     0.0    -0.0     0.0    -0.0
     0.0    -0.0     0.0    -0.0     0.0    -0.0     0.0    -0.0     0.0    -0.0
     0.0    -0.0     0.0    -0.0     0.0    -0.0     0.0    -0.0     0.0    -0.0
     0.0    -0.0     0.0    -0.0     0.0    -0.0     0.0    -0.0     0.0    -0.0
     0.0    -0.0     0.0    -0.0     0.0    -0.0     0.0    -0.0     0.0    -0.0
     0.0    -0.0     0.0    -0.0     0.0    -0.0     0.0    -0.0     0.0    -0.0
     0.0    -0.0     0.0    -0.0     0.0    -0.0     0.0    -0.0     0.0    -0.0
     0.0    -0.0     0.0    -0.0     0.0    -0.0     0.0    -0.0     0.0    -0.0
     0.0    -0.0     0.0    -0.0     0.0    -0.0     0.0    -0.0     0.0    -0.0
     0.0    -0.0     0.0    -0.0     0.0    -0.0     0.0    -0.0     0.0    -0.0
     0.0    -0.0     0.0    -0.0     0.0    -0.0     0.0    -0.0     0.0    -0.0
     0.0    -0.0     0.0    -0.0     0.0    -0.0     0.0    -0.0     0.0    -0.0
     0.0    -0.0     0.0    -0.0     0.0    -0.0     0.0    -0.0     0.0    -0.0
     0.0    -0.0     0.0    -0.0     0.0    -0.0     0.0    -0.0     0.0    -0.0
     0.0    -0.0     0.0    -0.0     0.0    -0.0     0.0    -0.0     0.0    -0.0
     0.0    -0.0     0.0    -0.0     0.0    -0.0     0.0    -0.0     0.0    -0.0
     0.0    -0.0     0.0    -0.0     0.0    -0.0     0.0    -0.0     0.0    -0.0
     0.0    -0.0     0.0    -0.0     0.0    -0.0     0.0    -0.0     0.0    -0.0
     0.0    -0.0     0.0    -0.0     0.0    -0.0     0.0    -0.0     0.0    -0.0
     0.0    -0.0     0.0    -0.0     0.0    -0.0     0.0    -0.0     0.0    -0.0
     0.0    -0.0     0.0    -0.0     0.0    -0.0     0.0    -0.0     0.0    -0.0
     0.0    -0.0     0.0    -0.0     0.0    -0.0     0.0    -0.0     0.0    -0.0
     0.0    -0.0     0.0    -0.0     0.0    -0.0     0.0    -0.0     0.0    -0.0
     0.0    -0.0     0.0    -0.0     0.0    -0.0     0.0    -0.0     0.0    -0.0
     0.1     0.0     0.1    -0.0     0.2    -0.1    -0.1     0.1     0.1     0.1
     0.0     0.1     0.1     0.1     0.0    -0.1    -0.1    -0.1     0.2    -0.0
    -0.1     0.1    -0.1    -0.0     0.1     0.3    -0.0    -0.1     0.0     0.0
    -0.1     0.1     0.0     0.0    -0.0    -0.1     0.0    -0.0    -0.1    -0.2
     0.1    -0.0     0.0     0.0     0.1     0.1     0.1     0.2     0.1     0.1
     0.1    -0.1    -0.1    -0.2    -0.1     0.0     0.1     0.1     0.2     0.1
     0.1     0.1     0.1    -0.0    -0.1    -0.0    -0.1    -0.1    -0.0    -0.1
    -0.2    -0.2     0.0    -0.1     0.0     0.1     0.1     0.1     0.2     0.1
     0.0    -0.0    -0.1    -0.0     0.0    -0.1    -0.0     0.0     0.1     0.1
     0.0    -0.0    -0.0    -0.2    -0.0    -0.1     0.1     0.1    -0.1    -0.1
     0.1     0.2     0.3     0.1    -0.2    -0.0    -0.2    -0.0    -0.0    -0.1
    -0.0    -0.1    -0.0     0.1    -0.1    -0.0     0.0    -0.1    -0.0    -0.0
    -0.1    -0.1     0.0     0.1     0.1    -0.1    -0.0     0.1    -0.0    -0.1
     0.0    -0.1    -0.1    -0.0     0.1    -0.1    -0.0    -0.0    -0.0     0.1
     0.0     0.0     0.1    -0.1    -0.0    -0.0    -0.1    -0.1    -0.1    -0.1
    -0.1    -0.0    -0.0     0.1     0.0    -0.1     0.1     0.0    -0.1    -0.0
    -0.0    -0.1     0.3     0.0    -0.1    -0.0    -0.0    -0.1     0.0     0.1
    -0.0    -0.0    -0.0    -0.0    -0.1    -0.2     0.2    -0.0    -0.0     0.1
     0.0    -0.1    -0.0     0.1     0.1     0.0     0.1     0.1    -0.0    -0.1
    -0.0    -0.0    -0.2     0.1     0.0     0.1     0.2    -0.1    -0.2    -0.0
     0.1    -0.0    -0.1    -0.1    -0.1     0.0     0.0     0.0    -0.0    -0.0
    -0.1     0.0     0.0     0.0     0.0     0.2     0.2    -0.0    -0.1    -0.1
    -0.0     0.0     0.0    -0.1     0.0     0.0     0.0     0.1     0.0    -0.0
     0.1     0.1     0.0    -0.0    -0.0    -0.1     0.2     0.2     0.1    -0.0
     0.0     0.2    -0.1    -0.0     0.1     0.1     0.0     0.0    -0.0    -0.1
    -0.0     0.0     0.2    -0.1    -0.2     0.0     0.1    -0.2    -0.1    -0.0
     0.0    -0.0     0.2     0.2    -0.1    -0.1    -0.0    -0.1    -0.0    -0.1
    -0.0     0.0     0.1     0.1     0.1    -0.1     0.1     0.2    -0.1    -0.2
     0.1     0.1    -0.1    -0.2    -0.0    -0.0    -0.1     0.2     0.2     0.0
     0.2     0.2     0.1    -0.1    -0.1    -0.1    -0.0    -0.1    -0.0     0.0
     0.2     0.1    -0.1    -0.2    -0.2    -0.1    -0.2    -0.2    -0.1    -0.1
     0.0     0.2     0.1     0.0     0.1    -0.1     0.1     0.0    -0.1     0.0
    -0.0     0.0     0.0    -0.1    -0.1    -0.2    -0.0     0.1     0.0    -0.1
     0.1     0.2    -0.1    -0.1    -0.1    -0.1    -0.0    -0.1    -0.2    -0.1
     0.1     0.1     0.0     0.0     0.0     0.1     0.2    -0.2    -0.2    -0.0
     0.2     0.1     0.0    -0.0     0.0     0.0    -0.0     0.1    -0.0    -0.0
     0.2     0.1    -0.1    -0.2    -0.0    -0.0     0.1     0.1     0.1     0.0
     0.1    -0.1    -0.1    -0.1    -0.1    -0.0     0.0     0.0     0.1    -0.0
     0.1    -0.1     0.1    -0.0     0.0    -0.1    -0.0    -0.1    -0.1    -0.0
     0.1     0.1     0.0    -0.1    -0.1     0.0    -0.0    -0.2    -0.0     0.1
     0.0     0.1     0.0    -0.0     0.1    -0.1     0.0    -0.0     0.0     0.0
     0.1     0.2     0.0     0.2     0.0     0.0     0.0    -0.2    -0.0     0.0
     0.1     0.0     0.3     0.1     0.0     0.1     0.1     0.1    -0.1    -0.2
     0.1     0.1    -0.2     0.0     0.2     0.1     0.1     0.1    -0.0    -0.0
     0.1    -0.1    -0.0     0.1    -0.0    -0.0    -0.1    -0.2     0.1    -0.1
    -0.1     0.1     0.0    -0.0     0.1    -0.1     0.0    -0.0     0.1    -0.2
    -0.1    -0.0    -0.0     0.0     0.1     0.0     0.1     0.1     0.0     0.0
     0.0     0.1     0.2    -0.1    -0.1     0.1    -0.2     0.0     0.1    -0.1
    -0.1    -0.1    -0.0    -0.1     0.1    -0.0    -0.0    -0.0    -0.1    -0.2
     0.0    -0.0    -0.0    -0.0     0.0    -0.1     0.0     0.1     0.1     0.1
    -0.0    -0.2    -0.1    -0.1    -0.1     0.1    -0.1    -0.2    -0.1     0.1
    -0.0    -0.2     0.1     0.0    -0.1     0.0    -0.0    -0.2    -0.0     0.1
     0.0    -0.0    -0.0     0.0    -0.1    -0.0     0.0    -0.2    -0.1    -0.1
    -0.1    -0.0     0.1     0.2     0.2    -0.0     0.0    -0.1    -0.1    -0.2
    -0.0     0.1    -0.1    -0.0     0.1     0.1     0.1    -0.1     0.1    -0.1
    -0.1    -0.0     0.0    -0.1     0.1    -0.0    -0.1     0.1     0.2     0.0
    -0.1     0.1     0.1    -0.1    -0.1     0.1     0.2     0.0     0.0    -0.1
    -0.0     0.1     0.0    -0.1     0.1     0.1     0.0     0.0     0.1    -0.0
    -0.1    -0.1     0.0    -0.0    -0.1     0.0     0.1     0.1     0.1     0.2
     0.1     0.0     0.0    -0.1     0.0    -0.1    -0.1    -0.2     0.0     0.0
    -0.0     0.1    -0.0    -0.0    -0.0     0.0     0.1    -0.0    -0.1    -0.0
    -0.0    -0.1    -0.0    -0.1     0.2     0.0     0.2     0.1     0.1    -0.0
    -0.1     0.1     0.1    -0.1    -0.1     0.2     0.1    -0.0     0.0    -0.1
     0.0    -0.1    -0.0     0.1     0.0    -0.0     0.1     0.0    -0.1    -0.0
     0.1    -0.1     0.0     0.1     0.2     0.1    -0.1     0.1     0.0    -0.1
     0.1     0.1    -0.0     0.0     0.1     0.0     0.1    -0.2     0.1     0.0
     0.1     0.0     0.0    -0.1     0.0    -0.1    -0.1    -0.1     0.1     0.0
     0.1     0.0     0.1     0.1     0.0     0.0    -0.1     0.1     0.0    -0.2
     0.1     0.0    -0.0    -0.0     0.0    -0.0     0.0    -0.1    -0.0    -0.0
     0.1     0.1    -0.1    -0.2    -0.1    -0.0    -0.0    -0.1     0.1    -0.1
    -0.0    -0.0    -0.0    -0.0    -0.0    -0.1    -0.0    -0.0     0.0    -0.1
    -0.1    -0.1    -0.0    -0.1    -0.1     0.0    -0.1    -0.1     0.0    -0.1
     0.0     0.2     0.1    -0.1    -0.0    -0.2    -0.0     0.2     0.1    -0.1
    -0.0    -0.1     0.0    -0.1     0.0     0.0     0.0     0.1     0.1     0.0
     0.0    -0.1    -0.0    -0.0    -0.1    -0.2    -0.1     0.1     0.0    -0.1
     0.1     0.1     0.1    -0.1    -0.1     0.1     0.0     0.0    -0.0     0.1
     0.0    -0.1    -0.1    -0.0     0.1    -0.0    -0.0     0.1     0.2     0.0
    -0.0     0.1     0.1    -0.1    -0.1     0.0     0.2     0.0     0.1    -0.0
     0.0    -0.0    -0.1     0.1     0.1    -0.0    -0.1     0.0     0.1     0.0
     0.1     0.1    -0.0    -0.3    -0.1    -0.0     0.1    -0.0    -0.0     0.1
     0.1    -0.0     0.1     0.1    -0.0    -0.1    -0.0    -0.0     0.1    -0.0
    -0.0     0.1     0.0     0.0     0.1     0.1    -0.0     0.0     0.0     0.1
     0.2    -0.0    -0.0     0.1    -0.0    -0.1    -0.0    -0.0     0.1    -0.0
    -0.1    -0.1    -0.0     0.0    -0.1    -0.0     0.0     0.1    -0.0    -0.1
     0.1     0.1     0.1     0.1     0.2     0.0    -0.1    -0.0    -0.1    -0.1
     0.0    -0.2    -0.0    -0.1    -0.1    -0.1    -0.1    -0.0     0.1    -0.0
    -0.0    -0.1    -0.1    -0.1     0.0     0.0    -0.0    -0.1     0.0    -0.1
    -0.0    -0.0    -0.0     0.0     0.0     0.1     0.1    -0.1     0.0    -0.1
    -0.0    -0.1    -0.1     0.0     0.0    -0.0     0.1     0.0    -0.1    -0.2
     0.1    -0.1    -0.0     0.1     0.1    -0.0    -0.1    -0.1    -0.0     0.0
     0.0    -0.0    -0.1    -0.1    -0.0    -0.0    -0.0     0.0     0.0    -0.0
    -0.1     0.1     0.2     0.0     0.1    -0.0     0.0    -0.0    -0.1    -0.0
    -0.0    -0.1     0.0     0.0     0.1     0.1     0.0    -0.1    -0.1    -0.1
    -0.1     0.0     0.2     0.2     0.1    -0.1    -0.2     0.1     0.0    -0.1
     0.1     0.0    -0.0    -0.0    -0.0     0.1     0.2    -0.0    -0.1     0.0
    -0.1    -0.1    -0.0     0.0     0.0     0.1    -0.1    -0.1    -0.1    -0.0
     0.1     0.0     0.1    -0.0     0.1     0.1     0.0    -0.1     0.0    -0.0
    -0.1    -0.1     0.0    -0.0    -0.1    -0.1     0.1    -0.0     0.1    -0.1
    -0.1     0.1     0.1    -0.0     0.1     0.1     0.1    -0.0     0.1    -0.0
    -0.0    -0.1     0.0    -0.1    -0.0     0.1     0.2     0.0     0.2     0.1
    -0.0     0.1     0.0    -0.1     0.0    -0.1     0.0    -0.0     0.1    -0.0
     0.1     0.0    -0.0     0.0     0.1     0.1     0.0     0.0     0.0    -0.1
     0.1     0.1     0.1    -0.2    -0.0     0.0     0.1    -0.0     0.1    -0.0
     0.0    -0.1     0.1     0.0     0.1    -0.0     0.1     0.1     0.2     0.1
     0.0     0.0    -0.0    -0.0     0.0     0.0     0.0    -0.0    -0.0    -0.0
     0.0    -0.0     0.1     0.1    -0.1    -0.2    -0.0    -0.0    -0.1    -0.1
     0.0    -0.0     0.1     0.1     0.0    -0.1    -0.1    -0.1    -0.0    -0.1
    -0.0    -0.1    -0.1    -0.1    -0.1    -0.2    -0.1     0.0     0.1     0.1
    -0.0    -0.0     0.1    -0.1    -0.1    -0.0    -0.0    -0.1     0.0    -0.0
    -0.1    -0.1    -0.1    -0.1    -0.2    -0.2    -0.0    -0.0     0.0     0.0
     0.1     0.1    -0.1    -0.1     0.0    -0.1    -0.0     0.1     0.1    -0.0
     0.1    -0.1     0.0    -0.0    -0.0    -0.1    -0.2    -0.2    -0.1    -0.1
    -0.0    -0.1     0.1     0.0     0.1     0.1     0.1     0.0    -0.0    -0.1
    -0.0     0.2     0.2     0.1     0.1    -0.1     0.1    -0.1    -0.1    -0.1
    -0.1    -0.0     0.1    -0.1    -0.0     0.1     0.1     0.0     0.2     0.1
    -0.0    -0.2     0.0     0.0    -0.0     0.0     0.1     0.1     0.1    -0.0
    -0.0     0.0     0.1     0.1     0.2    -0.0     0.1    -0.0     0.1    -0.0
     0.0    -0.1     0.0    -0.1    -0.0    -0.0     0.2     0.1     0.1     0.0
     0.1    -0.0     0.1    -0.1     0.1     0.1     0.2     0.1     0.0     0.1
    -0.0    -0.0     0.1     0.0     0.0    -0.0    -0.0     0.0     0.1     0.0
     0.0     0.0     0.0    -0.0     0.1     0.0     0.1    -0.0     0.1     0.1
     0.0     0.0     0.0    -0.1    -0.0     0.0    -0.0     0.1     0.2     0.1
     0.1    -0.0     0.1     0.1     0.1    -0.0     0.1    -0.1     0.1    -0.0
    -0.0    -0.0    -0.1    -0.1    -0.0    -0.0     0.1    -0.1     0.1     0.0
     0.1     0.0     0.0    -0.0    -0.1    -0.2    -0.1     0.0     0.1     0.0
     0.0    -0.0    -0.1    -0.1     0.0    -0.0     0.1    -0.1    -0.3    -0.0
     0.1    -0.0     0.1    -0.1     0.1     0.0     0.1    -0.0    -0.1    -0.1
     0.0    -0.1     0.0    -0.1    -0.0    -0.2    -0.1    -0.1    -0.1    -0.0
    -0.1    -0.1    -0.0    -0.0     0.0    -0.0    -0.0    -0.0    -0.0    -0.1
     0.0     0.1     0.1    -0.0    -0.0    -0.0    -0.0    -0.2    -0.1    -0.0
    -0.1    -0.2    -0.1    -0.1     0.1    -0.0     0.0    -0.0    -0.1    -0.1
     0.0    -0.1     0.0    -0.1     0.0     0.0    -0.0    -0.1     0.0    -0.1
    -0.1    -0.1    -0.0    -0.2     0.0    -0.0    -0.0    -0.1     0.0    -0.0
    -0.1    -0.1     0.0    -0.0     0.0    -0.0    -0.0    -0.0     0.0    -0.1
     0.0    -0.1     0.0    -0.1     0.0    -0.1     0.1     0.0     0.0    -0.0
     0.1    -0.0     0.1    -0.1    -0.0    -0.1     0.0     0.0     0.0     0.0
     0.0    -0.1     0.0     0.0     0.0     0.0     0.1     0.1     0.1     0.1
     0.1     0.0     0.1     0.2     0.1    -0.0     0.1     0.1     0.2     0.0
     0.1     0.1     0.0    -0.1    -0.0     0.0     0.1     0.0     0.1     0.2
     0.0    -0.0     0.1     0.1     0.1     0.2     0.2     0.0     0.2     0.1
     0.1     0.0    -0.0    -0.0     0.1    -0.1    -0.1    -0.0     0.1     0.0
     0.1     0.2     0.2     0.1     0.1     0.0     0.2     0.0     0.0    -0.2
     0.1     0.1     0.1     0.1     0.2    -0.0     0.1    -0.0     0.1    -0.0
    -0.0    -0.1     0.1     0.0     0.0    -0.1    -0.0    -0.1    -0.1    -0.1
    -0.1    -0.0     0.1    -0.0     0.2    -0.0    -0.1    -0.1     0.1    -0.0
     0.0    -0.1     0.1    -0.1    -0.1    -0.1     0.1    -0.1    -0.0    -0.2
    -0.0    -0.0     0.0    -0.1    -0.1    -0.2    -0.1    -0.1    -0.1    -0.1
    -0.0    -0.2    -0.2    -0.2    -0.0    -0.1    -0.0    -0.2    -0.2    -0.2
    -0.2    -0.2    -0.0    -0.0    -0.1    -0.1    -0.2    -0.3    -0.0    -0.2
    -0.1    -0.2    -0.1    -0.0    -0.2    -0.3    -0.2    -0.3    -0.1    -0.0
    -0.1    -0.1    -0.1    -0.3    -0.2    -0.2    -0.1    -0.1    -0.1    -0.2
    -0.1    -0.1    -0.3    -0.3     0.0    -0.1     0.0    -0.2    -0.2    -0.2
    -0.1    -0.2    -0.1    -0.2     0.0    -0.2     0.1    -0.1     0.1     0.0
     0.1    -0.1    -0.1    -0.1    -0.1    -0.2    -0.2     0.0     0.2    -0.1
     0.1    -0.0     0.0     0.0     0.1    -0.1     0.0    -0.0     0.1     0.1
     0.1     0.0    -0.0    -0.0     0.1     0.0     0.2     0.2     0.2     0.2
     0.1     0.1     0.0    -0.1     0.2    -0.0     0.1     0.1     0.2     0.2
     0.3     0.2     0.3     0.2     0.2     0.1     0.2     0.1     0.2     0.2
     0.3     0.3     0.3     0.1     0.3     0.4     0.3     0.1     0.3     0.2
     0.4     0.2     0.3     0.1     0.2     0.1     0.2     0.2     0.2     0.2
     0.2     0.2     0.2     0.2     0.3     0.3     0.3     0.2     0.3     0.1
     0.2     0.1     0.3     0.2     0.3     0.2     0.3     0.2     0.3     0.2
     0.1     0.0     0.1     0.1     0.1     0.1     0.3     0.1     0.3     0.1
     0.1    -0.0     0.1    -0.0     0.2    -0.0     0.2     0.0     0.2     0.1
     0.1    -0.1     0.0    -0.1     0.1    -0.0     0.0    -0.1     0.0    -0.2
    -0.1    -0.1    -0.0    -0.2    -0.1    -0.3    -0.2    -0.3    -0.1    -0.3
    -0.2    -0.3    -0.2    -0.2    -0.1    -0.2    -0.1    -0.4    -0.2    -0.4
    -0.4    -0.4    -0.4    -0.4    -0.2    -0.4    -0.3    -0.4    -0.4    -0.5
    -0.3    -0.4    -0.3    -0.5    -0.3    -0.4    -0.4    -0.6    -0.4    -0.5
    -0.4    -0.5    -0.4    -0.5    -0.4    -0.5    -0.3    -0.3    -0.4    -0.5
    -0.3    -0.5    -0.3    -0.5    -0.5    -0.5    -0.3    -0.4    -0.3    -0.5
    -0.3    -0.5    -0.3    -0.3    -0.3    -0.4    -0.2    -0.4    -0.3    -0.4
    -0.1    -0.3    -0.3    -0.4    -0.0    -0.2    -0.1    -0.1    -0.0    -0.1
    -0.1    -0.1     0.1    -0.1    -0.2    -0.1     0.1     0.1     0.1     0.1
     0.1     0.2     0.3     0.1     0.3     0.3     0.4     0.2     0.4     0.3
     0.4     0.3     0.4     0.3     0.4     0.6     0.7     0.6     0.7     0.5
     0.7     0.6     0.6     0.6     0.9     0.7     0.9     0.8     1.1     0.9
     1.0     0.8     1.1     0.9     1.2     1.1     1.2     1.0     1.1     1.1
     1.1     1.1     1.3     1.2     1.3     1.3     1.5     1.2     1.4     1.3
     1.7     1.4     1.5     1.3     1.5     1.4     1.6     1.5     1.6     1.5
     1.7     1.5     1.7     1.6     1.7     1.5     1.5     1.4     1.8     1.5
     1.7     1.4     1.6     1.4     1.7     1.5     1.7     1.6     1.7     1.5
     1.6     1.4     1.6     1.6     1.6     1.4     1.6     1.2     1.4     1.1
     1.3     1.1     1.4     1.2     1.3     0.9     1.1     0.8     0.9     0.9
     1.0     0.7     0.8     0.6     0.9     0.6     0.6     0.4     0.6     0.4
     0.3     0.2     0.5     0.1     0.1    -0.2    -0.0    -0.2    -0.1    -0.4
    -0.3    -0.5    -0.5    -0.9    -0.4    -0.8    -0.8    -1.1    -1.0    -1.2
    -1.0    -1.4    -1.3    -1.6    -1.4    -1.6    -1.5    -2.0    -1.8    -2.0
    -2.0    -2.3    -2.1    -2.4    -2.3    -2.7    -2.6    -2.9    -2.7    -2.9
    -2.8    -3.3    -3.0    -3.3    -3.1    -3.5    -3.4    -3.8    -3.6    -4.3
    -4.0    -4.1    -4.1    -4.3    -4.1    -4.3    -4.1    -4.6    -4.5    -4.8
    -4.8    -4.9    -5.0    -5.3    -5.0    -5.4    -5.0    -5.3    -5.1    -5.5
    -5.2    -5.6    -5.4    -5.6    -5.5    -6.0    -5.8    -6.0    -5.7    -6.0
    -5.6    -6.0    -5.7    -6.2    -6.0    -6.4    -6.2    -6.5    -6.2    -6.5
    -6.0    -6.4    -5.9    -6.3    -5.9    -6.4    -6.0    -6.4    -6.0    -6.3
    -5.8    -6.3    -5.7    -6.2    -5.7    -6.2    -5.7    -6.2    -5.5    -6.0
    -5.4    -5.9    -5.1    -5.6    -5.0    -5.5    -4.8    -5.3    -4.6    -5.2
    -4.2    -4.9    -4.2    -4.8    -3.9    -4.5    -3.7    -4.6    -3.4    -4.2
    -3.1    -3.9    -2.5    -3.3    -2.2    -3.4    -2.1    -2.9    -1.6    -2.8
    -1.3    -2.4    -0.9    -2.1    -0.3    -1.5     0.9    -2.4    -0.8    -0.4
     4.2     4.5    -3.1    -1.4    11.6     3.4     0.1    -7.6    20.4    22.8
