Corrected accelerogram 20160214_001343_FJDS_20 GNS Science
Site FJDS      43 23 21S  170 11 03E     Cusp file:  20160214_001421_FJDS
Franz Josef DOC
Instrument Cusp_42153
Resolution: 18-bit   Instr Period: 0.0050 s   Damping: 0.700
Accelerogram 20160214_001343_FJDS_20                 Processed 2016 February 22
11 km east of CHRISTCHURCH
2016 February 14         00:13:43 UT
Epicentre  43 29 50S 172 45 18E  Bearing S86E  Dist  209km  Depth    8km M  5.70
Number of points  8192    Duration 163.82 sec
Instrument corrected data at 0.020 sec intervals
Band-pass filter transition bands are .10-.25 Hz and 24.50-25.50 Hz
Component N00E  Horizontal Axis 1
Acceleration:  peak     -9.2 mm/s/s at  80.48 sec     rms      1.6 mm/s/s
Velocity:      peak    -1.42 mm/s   at  87.52 sec     rms     0.32 mm/s
Displacement:  peak   -0.556 mm     at  76.10 sec     rms    0.121 mm
    2016       2      14       0      13     430       0       0    2016       2
      43      29      50     172      45      18       8       0      14       0
      43      23      21     170      11       3       0       0      94     209
   34079     250     250    8192    8192    8192       0       0      13   41938
   200.0    0.70    0.00   0.000  0.0000   0.000   0.000   1.000     0.0    0.00
  43.389 170.184   43.50  172.76    5.70    0.00    0.00    0.00      0.      0.
  170.39    5.00    5.00  163.82  0.0050  0.0200      0.      0.      0.  9806.6
    -9.2   80.47     1.6   0.000      0.    -9.2   80.48     1.6    10.9   0.528
   -1.42   87.52    0.32    1.52   0.528   -0.56   76.10    0.12    0.63   0.229
   0.100   0.150   0.250      0.      0.  24.500   1.000  25.500      0.      0.
  -0.000  -0.001  -0.000  -0.001  -0.000  -0.001  -0.000  -0.001  -0.000  -0.001
  -0.000  -0.001  -0.000  -0.001  -0.000  -0.001  -0.000  -0.001  -0.000  -0.001
  -0.000  -0.001  -0.000  -0.001  -0.000  -0.001  -0.000  -0.001  -0.000  -0.001
  -0.000  -0.001  -0.000  -0.001  -0.000  -0.001  -0.000  -0.001  -0.000  -0.001
  -0.000  -0.001  -0.000  -0.001  -0.000  -0.001  -0.000  -0.001  -0.000  -0.000
  -0.000  -0.000  -0.000  -0.000  -0.000  -0.000   0.000  -0.000   0.000  -0.000
   0.000  -0.000   0.000  -0.000   0.000  -0.000   0.000   0.000   0.000   0.000
   0.000   0.000   0.000   0.000   0.001   0.000   0.001   0.000   0.001   0.000
   0.001   0.001   0.001   0.001   0.001   0.001   0.001   0.001   0.001   0.001
   0.001   0.001   0.001   0.001   0.001   0.001   0.001   0.001   0.001   0.001
   0.001   0.001   0.001   0.001   0.002   0.001   0.002   0.002   0.002   0.002
   0.002   0.002   0.002   0.002   0.002   0.002   0.002   0.002   0.002   0.002
   0.002   0.002   0.002   0.002   0.002   0.002   0.002   0.002   0.002   0.002
   0.002   0.002   0.002   0.002   0.002   0.002   0.002   0.002   0.002   0.002
   0.002   0.002   0.002   0.002   0.002   0.002   0.002   0.002   0.002   0.002
   0.002   0.002   0.002   0.002   0.002   0.002   0.002   0.002   0.002   0.002
   0.002   0.002   0.002   0.002   0.002   0.002   0.002   0.002   0.002   0.002
   0.002   0.002   0.002   0.002   0.001   0.002   0.001   0.002   0.001   0.002
   0.001   0.002   0.001   0.002   0.001   0.002   0.001   0.002   0.001   0.002
   0.001   0.002   0.000   0.002   0.000   0.002   0.000   0.002  -0.000   0.002
  -0.000   0.002  -0.000   0.002  -0.001   0.002  -0.001   0.002  -0.001   0.002
  -0.001   0.002  -0.002   0.002  -0.002   0.002  -0.002   0.002  -0.002   0.002
  -0.003   0.003  -0.003   0.003  -0.003   0.003  -0.004   0.003  -0.004   0.004
  -0.005   0.004  -0.005   0.005  -0.006   0.005  -0.007   0.006  -0.008   0.007
  -0.009   0.008  -0.010   0.010  -0.012   0.012  -0.015   0.016  -0.021   0.026
  -0.120   0.048  -0.050  -0.054  -0.091  -0.045  -0.094  -0.106   0.062   0.055
   0.049   0.031  -0.081  -0.020   0.083  -0.078  -0.095   0.037  -0.019  -0.115
  -0.110  -0.077   0.170  -0.076   0.016  -0.101   0.025  -0.078   0.013  -0.020
   0.068  -0.140  -0.072   0.081  -0.125  -0.004  -0.133  -0.091   0.052   0.040
   0.123  -0.071   0.015   0.034  -0.082   0.141  -0.074  -0.101  -0.124  -0.069
   0.050  -0.008  -0.139   0.122  -0.041   0.040  -0.040   0.036  -0.048   0.025
  -0.085   0.047   0.058   0.095   0.028   0.095  -0.034   0.150   0.160   0.020
  -0.053   0.145  -0.011  -0.024   0.064   0.056   0.042   0.076   0.096   0.036
   0.119  -0.049  -0.029   0.052   0.171  -0.009   0.095  -0.042   0.185  -0.022
   0.053   0.003   0.104   0.013   0.057  -0.028   0.099  -0.080   0.143   0.068
   0.037   0.020   0.060  -0.059   0.073   0.037   0.120  -0.049  -0.020   0.017
   0.053   0.079  -0.020   0.140   0.057  -0.043  -0.020   0.152   0.075   0.202
  -0.024   0.058  -0.045   0.041  -0.052   0.177   0.008   0.049  -0.024   0.061
  -0.109  -0.056  -0.001   0.067   0.007   0.042  -0.121  -0.069  -0.002   0.014
  -0.036   0.004  -0.040   0.049   0.131  -0.056  -0.117  -0.026   0.038  -0.065
  -0.048  -0.144  -0.061  -0.012  -0.004  -0.184   0.064  -0.173   0.030  -0.088
  -0.013  -0.089   0.033  -0.215  -0.080  -0.171  -0.030  -0.133   0.042  -0.187
  -0.005  -0.193  -0.025  -0.038  -0.112  -0.018  -0.030  -0.125  -0.092  -0.133
  -0.040   0.027  -0.083   0.019   0.064  -0.122  -0.014   0.053  -0.015  -0.146
  -0.049   0.102  -0.103  -0.024   0.055  -0.020  -0.055   0.079  -0.060  -0.047
  -0.049   0.035  -0.026  -0.024  -0.029  -0.065   0.001  -0.063  -0.058   0.017
  -0.058   0.147   0.091   0.020   0.111  -0.084   0.009  -0.040   0.027   0.105
  -0.021  -0.100   0.159   0.083   0.115  -0.022   0.059  -0.054   0.076  -0.091
   0.074  -0.043  -0.009  -0.103   0.033   0.047  -0.011  -0.009  -0.021   0.011
   0.188  -0.088  -0.019   0.010   0.100  -0.012   0.142  -0.047   0.060  -0.032
   0.049  -0.064  -0.053   0.115   0.002   0.052  -0.086   0.081  -0.021  -0.034
   0.118   0.057  -0.045   0.027  -0.037   0.152   0.056   0.125  -0.009   0.038
   0.116   0.023  -0.116   0.085   0.037  -0.050   0.007   0.063   0.075   0.076
   0.224   0.084   0.113  -0.037   0.079  -0.041  -0.020  -0.091   0.030  -0.016
  -0.085   0.113  -0.010   0.017  -0.022   0.056   0.002  -0.010  -0.028  -0.024
  -0.137   0.070  -0.016  -0.035   0.023  -0.063  -0.063  -0.037  -0.048   0.090
   0.012  -0.033   0.276  -0.058  -0.054   0.103  -0.017   0.005  -0.049   0.120
  -0.011  -0.004   0.008   0.040  -0.066   0.143   0.052   0.001  -0.208  -0.003
  -0.021  -0.046  -0.001   0.161  -0.126   0.030  -0.131  -0.056  -0.067  -0.016
  -0.013   0.093  -0.153  -0.053   0.006   0.082  -0.077  -0.067  -0.024  -0.127
  -0.006  -0.001  -0.018  -0.035   0.022  -0.103  -0.041  -0.079   0.006  -0.121
  -0.008   0.041   0.092   0.102   0.006   0.064  -0.015   0.001   0.025  -0.032
  -0.065   0.066   0.085   0.072   0.039  -0.049   0.085   0.062   0.025   0.015
   0.004   0.109   0.005  -0.129  -0.136   0.162  -0.017   0.078   0.022   0.117
   0.066   0.050  -0.024   0.077  -0.115   0.096  -0.124   0.169   0.028   0.036
  -0.050   0.075  -0.147   0.041  -0.014  -0.018  -0.055  -0.002  -0.100  -0.080
  -0.080   0.110  -0.008  -0.048  -0.100  -0.102  -0.085  -0.102  -0.046  -0.029
  -0.060   0.015   0.005  -0.003  -0.099  -0.143   0.024  -0.085  -0.049   0.034
   0.031  -0.150  -0.107  -0.110   0.030  -0.034  -0.026   0.025   0.025   0.069
   0.167   0.029   0.006   0.064   0.087   0.052   0.081  -0.040  -0.066  -0.050
  -0.105   0.008   0.066   0.039  -0.110  -0.087  -0.106   0.074  -0.034   0.101
  -0.007  -0.131  -0.057   0.114  -0.050   0.052  -0.028   0.036  -0.031   0.030
   0.079   0.000  -0.077  -0.072   0.047   0.025   0.073   0.006  -0.021   0.073
   0.066   0.019  -0.105   0.020   0.029   0.072   0.006  -0.038   0.125  -0.065
   0.088  -0.031   0.038  -0.014   0.180  -0.023   0.169  -0.066   0.029  -0.022
   0.093   0.024  -0.071  -0.062   0.045   0.112  -0.075   0.079  -0.118  -0.011
   0.056  -0.019   0.064  -0.056   0.085  -0.013  -0.031  -0.015  -0.028   0.096
   0.032   0.049   0.069   0.043   0.018  -0.005   0.024  -0.024  -0.054  -0.019
   0.046   0.061   0.034  -0.003   0.063  -0.045   0.033  -0.141  -0.012  -0.069
  -0.021  -0.050  -0.001   0.005   0.020  -0.126   0.137   0.056   0.125  -0.137
   0.050   0.004   0.023  -0.041   0.021   0.015   0.176   0.093   0.147  -0.002
   0.088  -0.068   0.022   0.078  -0.018   0.005   0.050   0.014  -0.023  -0.174
  -0.085  -0.030  -0.043  -0.147   0.048  -0.061  -0.041  -0.147   0.064   0.092
  -0.090  -0.053   0.019   0.081   0.072   0.050  -0.005   0.051  -0.033  -0.024
  -0.158  -0.009  -0.110  -0.003  -0.009  -0.046  -0.086  -0.128  -0.147  -0.029
  -0.005  -0.160  -0.023   0.036   0.043  -0.030   0.038   0.044  -0.174   0.006
   0.024  -0.037   0.011   0.007  -0.031  -0.016   0.036   0.056   0.110  -0.005
   0.032  -0.006   0.059  -0.161  -0.023  -0.006   0.037  -0.081   0.093  -0.033
   0.100   0.179   0.078  -0.023   0.011   0.110  -0.085   0.053   0.100   0.084
  -0.027   0.075   0.064   0.048   0.004   0.001   0.049   0.015  -0.135   0.058
  -0.105   0.017  -0.002   0.052  -0.114   0.037  -0.107   0.068  -0.027  -0.006
  -0.213   0.005  -0.052  -0.138  -0.133  -0.056   0.005  -0.072   0.015  -0.013
   0.133   0.015   0.044   0.060   0.021  -0.062  -0.006  -0.055   0.012  -0.060
   0.035  -0.053   0.006  -0.000   0.058   0.046  -0.021  -0.018   0.052  -0.069
  -0.002  -0.011   0.130   0.070   0.071   0.054   0.007   0.043   0.034   0.069
  -0.061   0.042   0.041  -0.099   0.065   0.100  -0.098   0.184  -0.134   0.014
  -0.146  -0.071  -0.176  -0.037  -0.247  -0.012   0.029   0.021   0.004   0.100
  -0.140   0.027   0.014  -0.053  -0.029  -0.033   0.066   0.085  -0.026   0.007
  -0.006   0.097  -0.029   0.121   0.098  -0.025   0.029   0.076   0.098   0.014
   0.044  -0.029   0.046  -0.181   0.076  -0.159   0.055   0.004   0.144   0.008
   0.049  -0.049   0.073  -0.081   0.085   0.051  -0.039   0.021  -0.016   0.097
   0.043  -0.007  -0.011   0.064   0.176  -0.036  -0.159   0.026  -0.011   0.101
   0.079   0.052   0.049   0.058   0.056   0.218   0.053   0.118   0.002   0.042
  -0.037   0.001  -0.047   0.086  -0.033   0.077  -0.092  -0.002  -0.015  -0.008
   0.020  -0.031  -0.001  -0.018  -0.083  -0.081  -0.051  -0.124  -0.002  -0.028
   0.001  -0.094  -0.062   0.062   0.104   0.031   0.045  -0.049   0.012   0.003
   0.003  -0.125   0.075   0.006   0.108  -0.171   0.019   0.016  -0.120  -0.057
   0.001   0.008  -0.042   0.131   0.041  -0.007   0.009   0.039  -0.075  -0.046
   0.037   0.046  -0.072  -0.013  -0.110  -0.066  -0.199  -0.130  -0.011   0.004
  -0.048  -0.044  -0.177  -0.044   0.006   0.154  -0.104   0.053   0.023  -0.113
  -0.063   0.057   0.072   0.004   0.060   0.044  -0.125   0.001  -0.099  -0.138
   0.008  -0.168  -0.046  -0.152  -0.043  -0.108   0.057  -0.014   0.007  -0.073
   0.038  -0.084   0.070  -0.083  -0.019  -0.192   0.112   0.016   0.037  -0.081
   0.064   0.061   0.044   0.019   0.005  -0.033  -0.072  -0.060   0.044   0.025
  -0.022  -0.044   0.063   0.012   0.064   0.025   0.076   0.066  -0.019   0.056
   0.074   0.058  -0.037  -0.020   0.078   0.136  -0.009   0.097   0.014   0.092
  -0.056   0.007  -0.005   0.081  -0.028   0.041   0.030   0.040  -0.071  -0.117
  -0.045   0.016  -0.111   0.017   0.094   0.021  -0.015  -0.069  -0.062   0.002
   0.036   0.063  -0.043   0.013   0.080  -0.075  -0.012  -0.020   0.252  -0.026
   0.055  -0.082  -0.004   0.066   0.065  -0.022   0.148  -0.007   0.054   0.057
   0.022   0.065   0.065   0.220   0.043   0.178   0.033  -0.087  -0.079   0.008
   0.024   0.002  -0.033   0.120  -0.069  -0.046   0.011   0.180   0.067   0.075
  -0.014   0.162  -0.084   0.057  -0.014  -0.009   0.032   0.147  -0.009   0.017
   0.007   0.090  -0.070   0.065   0.083   0.044   0.006  -0.031  -0.011  -0.061
  -0.011  -0.079   0.001  -0.028  -0.091  -0.002   0.091  -0.003   0.113  -0.148
  -0.111   0.021   0.110  -0.039  -0.009  -0.032  -0.006  -0.130   0.006  -0.013
   0.089  -0.026   0.058  -0.026  -0.041  -0.030  -0.156   0.047  -0.094  -0.071
  -0.052  -0.004  -0.006   0.038  -0.040  -0.055  -0.003  -0.048  -0.006  -0.084
  -0.087   0.167  -0.105  -0.077  -0.063   0.096  -0.109  -0.116  -0.136  -0.023
  -0.093   0.033   0.106   0.085  -0.081  -0.055  -0.188  -0.030   0.017  -0.037
   0.030  -0.084   0.060  -0.026  -0.026  -0.047   0.056  -0.044  -0.009  -0.103
  -0.072  -0.026   0.032  -0.051   0.249  -0.065   0.011   0.004   0.053  -0.126
   0.109  -0.152  -0.049  -0.035   0.050  -0.115  -0.071  -0.049   0.007   0.039
   0.047  -0.001   0.049  -0.059   0.072   0.015   0.038  -0.102  -0.003  -0.040
   0.067   0.165  -0.069  -0.038  -0.040   0.043  -0.076   0.061   0.053  -0.089
   0.117   0.127  -0.042   0.119   0.209   0.143  -0.038  -0.105  -0.051   0.018
  -0.071  -0.042   0.007  -0.044   0.166  -0.097   0.042   0.121   0.077  -0.059
   0.027  -0.113  -0.059  -0.047   0.026  -0.064   0.006   0.048   0.171  -0.037
   0.099  -0.038   0.092  -0.087   0.047   0.044  -0.013   0.046  -0.010  -0.005
  -0.033  -0.017   0.037   0.213  -0.156  -0.067   0.020   0.049  -0.173   0.018
   0.089   0.044  -0.089   0.001  -0.008   0.181  -0.086   0.076  -0.168   0.009
   0.001   0.071  -0.070   0.042  -0.085  -0.009  -0.101   0.042  -0.074   0.042
   0.035  -0.024  -0.003  -0.008  -0.001   0.022  -0.041   0.052   0.030   0.091
   0.073   0.053   0.041  -0.021  -0.009   0.043   0.177   0.013  -0.021   0.017
   0.137   0.071  -0.175   0.082   0.132  -0.068  -0.137  -0.042  -0.051  -0.034
  -0.015   0.087  -0.071   0.048   0.027   0.009  -0.088  -0.011  -0.019   0.137
  -0.059   0.029  -0.018  -0.122  -0.078  -0.008  -0.058  -0.021  -0.166   0.021
  -0.083   0.014  -0.125   0.092  -0.041   0.010  -0.190  -0.052   0.032   0.135
  -0.018   0.074  -0.046   0.093   0.067   0.022   0.048   0.021   0.014  -0.012
  -0.072   0.061   0.003   0.099   0.003  -0.004  -0.063  -0.029  -0.045   0.006
   0.071   0.046   0.071  -0.015   0.029  -0.023   0.033   0.059  -0.015  -0.029
   0.010   0.221  -0.022  -0.006   0.004   0.093   0.030   0.040   0.155  -0.037
  -0.090  -0.018   0.070   0.059  -0.075  -0.011  -0.158  -0.063  -0.045  -0.007
   0.021   0.028  -0.072  -0.006  -0.053   0.008  -0.225   0.003   0.048   0.106
   0.010  -0.037   0.031  -0.021  -0.010  -0.056  -0.180   0.006  -0.054  -0.071
  -0.076  -0.053   0.094  -0.142   0.026  -0.052   0.126  -0.022   0.019   0.045
   0.181   0.070   0.065  -0.121   0.079   0.037   0.076  -0.060   0.052  -0.063
   0.039  -0.052   0.144   0.009   0.013  -0.017   0.003   0.032   0.004  -0.035
  -0.039  -0.105  -0.003  -0.037   0.050   0.015   0.036   0.023  -0.029  -0.110
   0.056   0.045   0.054  -0.022   0.117   0.148   0.067   0.087  -0.006   0.080
  -0.120  -0.010   0.079   0.047  -0.020  -0.050  -0.004   0.135  -0.108  -0.039
  -0.187   0.010   0.118   0.057  -0.061  -0.081   0.030  -0.074  -0.104  -0.070
   0.122  -0.071  -0.039  -0.058   0.025   0.001   0.025  -0.097   0.006  -0.084
   0.030   0.046   0.023  -0.149  -0.010  -0.080   0.036  -0.002   0.036  -0.003
  -0.023  -0.019   0.035  -0.105   0.075  -0.182  -0.097  -0.062   0.029  -0.069
   0.099  -0.160  -0.161  -0.075   0.066  -0.068  -0.001  -0.033   0.124   0.001
  -0.014   0.079  -0.013  -0.088  -0.032   0.109  -0.087   0.010   0.043   0.034
  -0.110   0.103  -0.012   0.142  -0.078  -0.102   0.021   0.113  -0.010  -0.022
   0.047   0.004   0.023   0.038   0.001   0.085   0.112   0.025   0.043  -0.068
   0.140  -0.117   0.018  -0.100  -0.123  -0.023  -0.023   0.009   0.084   0.006
   0.125  -0.038   0.124   0.030   0.047   0.130   0.021   0.025   0.098  -0.061
   0.010   0.065   0.043   0.023   0.136   0.027  -0.005   0.143  -0.079   0.037
  -0.044   0.019   0.028   0.021   0.024   0.025  -0.069   0.097  -0.214  -0.015
   0.010   0.093  -0.008   0.001   0.013   0.137  -0.057   0.072  -0.067  -0.003
   0.137  -0.007   0.011  -0.029  -0.015  -0.062   0.011  -0.018  -0.077  -0.096
  -0.111   0.121   0.064   0.018   0.021  -0.061   0.071   0.178   0.022  -0.095
   0.023   0.001  -0.010  -0.042  -0.020  -0.075   0.016  -0.171   0.033   0.116
  -0.076   0.010  -0.021  -0.019   0.064  -0.069  -0.036  -0.029  -0.053  -0.017
  -0.009  -0.013  -0.067   0.016  -0.005  -0.080   0.004   0.088  -0.086  -0.002
  -0.067  -0.052  -0.027   0.066  -0.134   0.024  -0.041   0.011  -0.099   0.076
  -0.077   0.075  -0.208   0.063  -0.028   0.095  -0.078   0.136  -0.128   0.034
   0.020   0.024  -0.058   0.080   0.024  -0.151  -0.003   0.000  -0.049  -0.083
   0.073   0.034  -0.080  -0.117  -0.019   0.005   0.045  -0.164  -0.044   0.054
   0.050  -0.041   0.143  -0.079  -0.025  -0.005   0.060   0.081   0.117   0.078
   0.098   0.016   0.189   0.039   0.186   0.032  -0.018   0.025   0.054  -0.022
  -0.044  -0.017  -0.133   0.054  -0.108   0.077  -0.031  -0.057  -0.028   0.136
  -0.028   0.098  -0.175  -0.080  -0.091   0.054  -0.071   0.060  -0.098   0.035
  -0.070   0.000  -0.111  -0.024  -0.053  -0.136   0.117   0.092   0.005   0.062
   0.050   0.130   0.026  -0.027  -0.008  -0.030  -0.151   0.037  -0.040  -0.110
   0.062   0.064  -0.043   0.041   0.137  -0.027  -0.067  -0.001   0.160  -0.061
   0.102   0.093   0.006  -0.034   0.128   0.019  -0.101   0.062   0.046   0.059
  -0.057   0.088   0.113   0.077   0.073   0.018   0.067   0.048   0.092   0.091
  -0.094  -0.012  -0.047   0.135  -0.197   0.038   0.002  -0.029  -0.185   0.133
  -0.145   0.031  -0.140   0.062   0.017  -0.087  -0.051  -0.011   0.017   0.072
  -0.033  -0.020   0.034   0.037   0.053   0.024   0.051  -0.032  -0.029   0.005
   0.025  -0.118  -0.068  -0.063  -0.012  -0.103  -0.033  -0.032   0.100  -0.168
  -0.003  -0.030   0.040  -0.056   0.064  -0.056   0.153  -0.094   0.010  -0.028
   0.109   0.062   0.037   0.017   0.188  -0.040   0.111   0.013   0.131   0.024
   0.012   0.036  -0.145  -0.031  -0.097   0.096  -0.077  -0.091  -0.262  -0.015
   0.038  -0.149  -0.076  -0.064  -0.042   0.006  -0.099   0.082  -0.128   0.051
   0.032   0.037   0.014  -0.023  -0.051   0.053   0.024   0.097  -0.048  -0.061
   0.246   0.063  -0.021   0.111   0.034  -0.047   0.095  -0.027   0.175   0.065
  -0.006   0.160   0.207  -0.105  -0.072  -0.211   0.088  -0.135  -0.027  -0.140
   0.036  -0.071  -0.228  -0.321   0.008   0.039   0.206  -0.089  -0.007  -0.187
  -0.110  -0.261  -0.003   0.008   0.013  -0.059   0.072  -0.143  -0.088  -0.050
   0.180   0.165  -0.034   0.168  -0.140  -0.107  -0.272  -0.236  -0.010  -0.078
  -0.124  -0.163   0.089   0.018  -0.113   0.182   0.066  -0.023  -0.155   0.086
   0.047   0.047   0.286   0.137   0.123   0.181   0.177   0.044  -0.080   0.051
   0.403   0.204  -0.121  -0.149  -0.018  -0.008  -0.178   0.169   0.741   0.397
  -0.064  -0.386  -0.145  -0.092  -0.246  -0.061   0.081   0.099   0.001  -0.034
  -0.215  -0.276   0.404   0.383   0.360   0.094   0.181  -0.147  -0.272  -0.122
  -0.073   0.177   0.098  -0.365  -0.091   0.197  -0.110  -0.255  -0.080   0.097
   0.079  -0.192   0.265   0.391   0.172  -0.003   0.199   0.397  -0.236  -0.302
  -0.329  -0.273  -0.189   0.030   0.154  -0.020  -0.427  -0.479  -0.371   0.068
   0.319   0.729   0.647   0.066  -0.288  -0.188  -0.043  -0.461  -0.734   0.330
   0.823   0.582   0.560  -0.169  -0.161   0.319   0.185   0.173   0.281   0.057
   0.213  -0.435  -0.367  -0.161   0.496   0.395  -0.207  -0.130  -0.253   0.049
  -0.304  -0.638   0.119   0.172   0.017  -0.375  -0.249  -0.259  -0.876  -1.028
  -0.884  -0.681  -0.141   0.505   0.811   0.766   0.923   0.749   0.697   0.309
  -0.243   0.066   0.095   0.188  -0.096  -0.160   0.124   0.338   0.304   0.017
  -0.294   0.024   0.342   0.894   0.615   0.363  -0.188  -0.560  -1.224  -1.797
  -1.839  -1.657  -1.033  -0.827  -0.591   0.046   0.532   0.777   0.516   0.398
   0.746   1.625   1.540   0.880   0.503   0.446   0.173   0.066   0.154  -0.047
   0.172   0.000   0.035  -0.187   0.781   1.073   0.952   0.471   0.365   0.425
   0.186  -0.716  -1.759  -2.449  -2.899  -3.186  -2.652  -1.649  -0.145   0.052
  -0.013   0.491   0.715   0.586   0.102   0.289   0.398   0.526   0.776   1.003
