Corrected accelerogram 20160214_001343_STKS_20 GNS Science
Site STKS      43 36 24S  172 38 42E     Cusp file:  20160214_001347_STKS
Sign of the Kiwi
Instrument Cusp_42281
Resolution: 18-bit   Instr Period: 0.0050 s   Damping: 0.700
Accelerogram 20160214_001343_STKS_20                 Processed 2016 February 22
11 km east of CHRISTCHURCH
2016 February 14         00:13:43 UT
Epicentre  43 29 50S 172 45 18E  Bearing N36E  Dist   15km  Depth    8km M  5.70
Number of points  8192    Duration 163.82 sec
Instrument corrected data at 0.020 sec intervals
Band-pass filter transition bands are .10-.25 Hz and 24.50-25.50 Hz
Component N00E  Horizontal Axis 1
Acceleration:  peak   -389.3 mm/s/s at  44.06 sec     rms     23.4 mm/s/s
Velocity:      peak   -28.23 mm/s   at  43.16 sec     rms     2.69 mm/s
Displacement:  peak  -12.116 mm     at  43.74 sec     rms    1.286 mm
    2016       2      14       0      13     430       0       0    2016       2
      43      29      50     172      45      18       8       0      14       0
      43      36      24     172      38      42       0       0      36      15
   35983     250     250    8192    8192    8192       0       0      13    7633
   200.0    0.70    0.00   0.000  0.0000   0.000   0.000   1.000     0.0    0.00
  43.607 172.645   43.50  172.76    5.70    0.00    0.00    0.00      0.      0.
  179.91    5.00    5.00  163.82  0.0050  0.0200      0.      0.      0.  9806.6
  -391.9   44.06    24.4   0.000      0.  -389.3   44.06    23.4   509.7   2.878
  -28.23   43.16    2.69   46.55   0.275  -12.12   43.74    1.29   12.83   0.256
   0.100   0.150   0.250      0.      0.  24.500   1.000  25.500      0.      0.
    -0.0     0.0    -0.0     0.0    -0.0     0.0    -0.0     0.0    -0.0     0.0
    -0.0     0.0    -0.0     0.0    -0.0     0.0    -0.0     0.0    -0.0     0.0
    -0.0     0.0    -0.0     0.0    -0.0     0.0    -0.0     0.0    -0.0     0.0
    -0.0     0.0    -0.0     0.0    -0.0     0.0    -0.0     0.0    -0.0     0.0
    -0.0     0.0    -0.0     0.0    -0.0     0.0    -0.0     0.0    -0.0     0.0
    -0.0     0.0    -0.0     0.0    -0.0     0.0    -0.0     0.0    -0.0     0.0
    -0.0     0.0    -0.0     0.0    -0.0     0.0    -0.0     0.0    -0.0     0.0
    -0.0     0.0    -0.0     0.0    -0.0     0.0    -0.0     0.0    -0.0     0.0
    -0.0     0.0    -0.0     0.0    -0.0     0.0    -0.0     0.0    -0.0     0.0
    -0.0     0.0    -0.0     0.0    -0.0     0.0    -0.0     0.0    -0.0     0.0
    -0.0     0.0    -0.0     0.0    -0.0     0.0    -0.0     0.0    -0.0     0.0
    -0.0     0.0    -0.0     0.0    -0.0     0.0    -0.0     0.0    -0.0     0.0
    -0.0     0.0    -0.0     0.0    -0.0     0.0    -0.0     0.0    -0.0     0.0
    -0.0     0.0    -0.0     0.0    -0.0     0.0    -0.0     0.0    -0.0     0.0
    -0.0     0.0    -0.0     0.0    -0.0     0.0    -0.0     0.0    -0.0     0.0
    -0.0     0.0    -0.0     0.0    -0.0     0.0    -0.0     0.0    -0.0     0.0
    -0.0     0.0    -0.0     0.0    -0.0     0.0    -0.0     0.0    -0.0     0.0
    -0.0     0.0    -0.0     0.0    -0.0     0.0    -0.0     0.0    -0.0     0.0
    -0.0     0.0    -0.0     0.0    -0.0     0.0    -0.0     0.0    -0.0     0.0
    -0.0     0.0    -0.0     0.0    -0.0     0.0    -0.0     0.0    -0.0     0.0
    -0.0     0.0    -0.0     0.0    -0.0     0.0    -0.0     0.0    -0.0     0.0
    -0.0     0.0    -0.0     0.0    -0.0     0.0    -0.0     0.0    -0.0     0.0
    -0.0     0.0    -0.0     0.0    -0.0     0.0    -0.0     0.0    -0.0     0.0
    -0.0     0.0    -0.0     0.0    -0.0     0.0    -0.0     0.0    -0.0     0.0
    -0.0     0.0    -0.0     0.0    -0.0     0.0    -0.0     0.0    -0.1     0.0
    -0.0     0.0     0.0     0.0    -0.0     0.1    -0.1     0.0     0.1    -0.0
    -0.1     0.0     0.0     0.1     0.0     0.1    -0.0     0.2    -0.0     0.0
     0.1     0.0    -0.0     0.1     0.0     0.0    -0.0     0.2    -0.1    -0.0
    -0.0     0.0    -0.0     0.1     0.0    -0.0    -0.0     0.1     0.1     0.1
     0.0     0.1    -0.0    -0.0    -0.1    -0.1    -0.1     0.0     0.0    -0.1
     0.0    -0.1    -0.1     0.1    -0.0     0.0    -0.1     0.1    -0.0    -0.0
    -0.0    -0.1    -0.0    -0.1    -0.0    -0.0    -0.1     0.0     0.0     0.0
     0.1     0.0    -0.0     0.0    -0.0    -0.0    -0.0     0.0     0.0     0.1
     0.0     0.1     0.0     0.1    -0.1     0.0    -0.1     0.1     0.0     0.0
     0.0     0.0    -0.1    -0.1    -0.1     0.0    -0.1     0.1     0.0     0.1
     0.0     0.1    -0.1     0.0     0.0    -0.0    -0.0     0.1     0.0     0.1
    -0.0     0.1    -0.0     0.1    -0.0     0.0    -0.1     0.0    -0.2    -0.0
     0.1     0.1    -0.0     0.1    -0.0     0.1    -0.0     0.1     0.0     0.1
     0.0     0.0    -0.1     0.0    -0.0     0.0     0.0    -0.1    -0.1     0.0
    -0.1     0.1    -0.1     0.0     0.0    -0.0    -0.0     0.1    -0.0     0.1
    -0.0     0.1    -0.0     0.2    -0.0     0.1     0.0     0.1    -0.0     0.0
    -0.1     0.0    -0.0     0.0    -0.1     0.0    -0.1     0.0    -0.1     0.0
    -0.0    -0.0    -0.0     0.1    -0.1     0.0     0.0     0.0    -0.1    -0.0
     0.0    -0.0    -0.2     0.1    -0.1     0.0    -0.1     0.1    -0.1    -0.0
     0.0     0.1     0.0     0.0    -0.0    -0.0    -0.1    -0.2    -0.1    -0.1
    -0.2     0.0    -0.0     0.0     0.0    -0.1     0.1    -0.0    -0.1    -0.0
    -0.1     0.0    -0.1     0.1    -0.0     0.1    -0.0     0.1    -0.1     0.1
    -0.2     0.1     0.0     0.1    -0.1     0.1    -0.1     0.1    -0.1     0.0
    -0.1     0.0    -0.1     0.0    -0.1     0.0    -0.1    -0.0    -0.0     0.0
    -0.0     0.1    -0.1    -0.0    -0.2    -0.0    -0.0    -0.1    -0.1    -0.1
    -0.1     0.0     0.0     0.1    -0.0     0.1    -0.1     0.2     0.0     0.1
    -0.1     0.1     0.0     0.0    -0.0    -0.0     0.1    -0.0     0.0    -0.0
     0.1     0.1    -0.1     0.0     0.1    -0.0    -0.1     0.1     0.0     0.0
    -0.0     0.1    -0.2     0.1    -0.1     0.1    -0.1     0.1     0.0     0.2
    -0.0     0.1     0.0     0.1    -0.1     0.1     0.0     0.1     0.0     0.0
    -0.1     0.0     0.1     0.0     0.1     0.1    -0.0     0.0     0.0    -0.0
    -0.0     0.0     0.0     0.0     0.1     0.1    -0.1     0.0    -0.0     0.0
    -0.0     0.0     0.0     0.0    -0.1     0.0     0.0     0.2     0.0    -0.0
     0.0    -0.1    -0.1     0.1     0.0     0.0    -0.1    -0.0    -0.0     0.0
     0.0    -0.0     0.0     0.0    -0.0     0.1    -0.1    -0.0    -0.0     0.0
    -0.1    -0.1    -0.2     0.0    -0.1     0.1     0.0     0.0    -0.2     0.0
    -0.1     0.0    -0.0     0.1    -0.0     0.0     0.0     0.0    -0.1     0.1
    -0.0     0.0    -0.0    -0.0    -0.1     0.1    -0.1    -0.0     0.0     0.0
    -0.0     0.1     0.0     0.1     0.0     0.1    -0.1     0.0     0.0     0.1
     0.0     0.1    -0.0    -0.0    -0.0    -0.0     0.0     0.1     0.0     0.1
    -0.0     0.1     0.0     0.2    -0.0     0.1     0.1     0.1     0.1     0.1
     0.1    -0.0    -0.0     0.1    -0.1    -0.0    -0.1     0.0    -0.1    -0.0
    -0.0     0.0    -0.1     0.0    -0.2     0.1    -0.0     0.1    -0.0    -0.0
    -0.1     0.0    -0.0     0.0    -0.0     0.1    -0.0     0.1     0.0    -0.0
    -0.1     0.0    -0.0     0.1    -0.0     0.1    -0.0    -0.0    -0.1     0.0
    -0.2    -0.0    -0.1     0.1    -0.1    -0.0    -0.0    -0.0    -0.0    -0.0
    -0.1    -0.0    -0.2    -0.0    -0.1     0.0    -0.1     0.0    -0.2     0.0
     0.0     0.0    -0.1     0.0    -0.0    -0.0    -0.1     0.0     0.0     0.1
    -0.1     0.0    -0.1    -0.0    -0.2     0.0    -0.1     0.0     0.0     0.0
     0.0     0.1    -0.2     0.0    -0.0     0.0    -0.1     0.0    -0.0     0.1
     0.0     0.1    -0.1     0.0    -0.0     0.1    -0.0     0.0    -0.1     0.1
    -0.0     0.1    -0.1     0.1    -0.0     0.1    -0.1     0.1    -0.0     0.1
     0.1     0.0     0.1     0.0    -0.1    -0.0     0.0     0.1     0.0     0.2
    -0.0     0.1    -0.1    -0.0    -0.0     0.0    -0.0     0.0    -0.1     0.1
     0.1     0.0    -0.0    -0.1     0.1     0.1    -0.1    -0.0     0.1     0.0
    -0.0     0.1    -0.1     0.0    -0.0     0.0     0.1     0.1     0.0     0.0
     0.0    -0.0    -0.0     0.0    -0.1     0.1     0.0     0.1     0.0     0.1
    -0.1     0.1     0.0    -0.0    -0.0     0.1    -0.1     0.1    -0.1     0.1
    -0.1    -0.0    -0.0     0.1    -0.1     0.0     0.0     0.0    -0.1    -0.0
    -0.1     0.1    -0.1     0.1    -0.1     0.1    -0.0     0.1    -0.1     0.1
    -0.0     0.0     0.0     0.1    -0.2    -0.0     0.1     0.1    -0.0     0.1
    -0.0     0.0     0.0     0.0    -0.1     0.0     0.1    -0.0    -0.0    -0.0
    -0.1     0.1    -0.0     0.0    -0.1     0.0    -0.0     0.1    -0.1     0.1
    -0.0    -0.1    -0.0    -0.1    -0.0     0.0    -0.1    -0.0     0.0    -0.1
    -0.1    -0.0    -0.2     0.0    -0.1     0.0    -0.0    -0.1    -0.1     0.0
    -0.1     0.0     0.1     0.0    -0.1    -0.0    -0.1     0.1    -0.1     0.0
    -0.0     0.0    -0.1     0.0    -0.1    -0.0    -0.1     0.1    -0.0     0.0
     0.0     0.0    -0.1     0.0    -0.0     0.0    -0.0     0.1    -0.0     0.0
    -0.1     0.1    -0.1     0.0    -0.1     0.1    -0.0     0.1    -0.1     0.0
    -0.1     0.1    -0.0     0.0     0.0    -0.1    -0.1     0.1    -0.1     0.0
    -0.0     0.0    -0.1     0.1    -0.1     0.1    -0.1     0.0    -0.1     0.0
    -0.1     0.1     0.0     0.0    -0.0     0.1    -0.0    -0.1    -0.1     0.0
     0.0     0.1     0.0     0.0     0.0     0.1    -0.1     0.1    -0.0     0.1
     0.0     0.0    -0.1     0.1    -0.1    -0.0    -0.0     0.0    -0.0     0.1
    -0.0     0.1    -0.0     0.1    -0.0     0.1    -0.0     0.0     0.1     0.1
     0.1     0.2     0.0     0.1     0.0     0.2     0.1     0.1    -0.0     0.0
    -0.0     0.1    -0.1    -0.1    -0.2    -0.0    -0.1     0.1    -0.1    -0.0
    -0.0     0.1    -0.0     0.0    -0.0     0.0     0.0     0.0    -0.0    -0.0
    -0.1     0.0     0.0     0.1     0.0     0.2     0.0     0.0    -0.0     0.1
    -0.1     0.0     0.0    -0.1    -0.1    -0.0    -0.0     0.1    -0.0     0.0
    -0.0     0.1    -0.1     0.0    -0.0     0.1     0.0     0.1    -0.1    -0.0
    -0.1     0.0     0.0    -0.0     0.0     0.1    -0.0     0.0    -0.1    -0.0
    -0.1    -0.0     0.0     0.0    -0.1     0.0    -0.1    -0.0    -0.1    -0.0
    -0.1     0.0    -0.0     0.1    -0.0     0.0    -0.1     0.1    -0.1     0.0
    -0.1     0.0    -0.1     0.0    -0.1    -0.0    -0.1     0.1    -0.1     0.1
    -0.1    -0.0    -0.1    -0.1    -0.1     0.1    -0.0     0.1    -0.1     0.0
    -0.1     0.0     0.0    -0.0    -0.1     0.0    -0.2     0.0    -0.2    -0.0
    -0.1     0.0    -0.1     0.1    -0.1     0.1    -0.0     0.0    -0.1    -0.0
    -0.1    -0.0    -0.1     0.1     0.0     0.1    -0.0    -0.0    -0.0     0.2
     0.1     0.1     0.0    -0.0    -0.0     0.1    -0.0     0.0    -0.1     0.1
    -0.0     0.2    -0.0     0.0    -0.1     0.0     0.0     0.1     0.0     0.1
     0.0     0.0    -0.1     0.1     0.2     0.0    -0.0    -0.0    -0.1     0.1
     0.1    -0.0    -0.1     0.0    -0.1     0.0     0.0     0.0    -0.1    -0.1
    -0.1     0.1    -0.0     0.1     0.0     0.1     0.0    -0.0    -0.0     0.1
    -0.1     0.0     0.1     0.0    -0.0     0.1     0.0     0.1    -0.0     0.1
    -0.1     0.0    -0.0     0.1    -0.1    -0.1    -0.0     0.1     0.0     0.0
    -0.1     0.1    -0.0     0.0     0.0    -0.1     0.0     0.0    -0.0     0.0
    -0.0     0.1    -0.1    -0.0    -0.1     0.1    -0.1     0.2    -0.1    -0.0
    -0.0     0.2    -0.0     0.0    -0.1     0.1     0.0     0.0     0.0    -0.0
    -0.1    -0.1    -0.2    -0.0    -0.1     0.1    -0.3     0.0    -0.1    -0.0
     0.0    -0.0    -0.0     0.1    -0.0     0.1    -0.0     0.0    -0.1     0.0
    -0.1    -0.0     0.0     0.0    -0.1    -0.0     0.1     0.1    -0.0     0.1
    -0.1     0.1    -0.0     0.0     0.1     0.1    -0.1     0.1     0.1     0.0
    -0.0     0.1     0.0     0.1    -0.0     0.1    -0.1     0.1    -0.1     0.1
    -0.1     0.0    -0.0     0.1     0.0     0.1    -0.1     0.0    -0.2     0.1
    -0.2     0.0    -0.1     0.0    -0.0     0.1    -0.1     0.0    -0.1     0.1
    -0.0     0.1    -0.0     0.1    -0.0     0.0     0.0     0.1    -0.1     0.0
    -0.1     0.1    -0.1     0.1    -0.0     0.1    -0.1    -0.0    -0.1     0.0
    -0.0    -0.0    -0.0     0.1    -0.0     0.0    -0.0     0.1    -0.1     0.0
    -0.1     0.0    -0.1     0.0    -0.1     0.0    -0.1     0.1     0.0     0.1
     0.0     0.1    -0.1     0.0    -0.1     0.1    -0.2     0.0    -0.1     0.0
    -0.1     0.1    -0.1     0.0    -0.1     0.1    -0.0     0.1    -0.0     0.1
    -0.1     0.1    -0.0     0.1    -0.1     0.0    -0.0     0.2    -0.1     0.1
     0.0     0.1    -0.1     0.1    -0.1     0.1    -0.1     0.0     0.0     0.1
     0.0     0.1    -0.0     0.1     0.1     0.1    -0.1     0.2    -0.1     0.2
    -0.0     0.0     0.0     0.0     0.1     0.1    -0.0     0.1     0.1     0.1
    -0.0     0.2     0.1     0.1     0.0     0.1    -0.1     0.1    -0.1     0.1
    -0.1     0.1    -0.1     0.1    -0.0     0.1    -0.1     0.0    -0.2     0.0
    -0.0     0.1     0.0     0.1    -0.1    -0.0    -0.1     0.1    -0.1     0.1
    -0.1     0.1    -0.1    -0.0    -0.0    -0.0    -0.0     0.1    -0.0     0.1
    -0.1     0.1    -0.1     0.1    -0.0    -0.1    -0.1     0.1    -0.1     0.0
    -0.0     0.1    -0.1     0.1    -0.1    -0.1    -0.1     0.1    -0.1     0.0
    -0.0     0.0    -0.1     0.0    -0.1    -0.0    -0.1    -0.0    -0.0     0.1
    -0.2     0.0     0.1     0.0    -0.2     0.1    -0.1    -0.0    -0.1     0.0
    -0.0     0.1    -0.1     0.0    -0.0    -0.0    -0.2    -0.0    -0.1     0.1
    -0.0     0.0    -0.0     0.1    -0.0     0.1    -0.0     0.0     0.0     0.1
    -0.2     0.1    -0.0     0.1    -0.1     0.0    -0.1     0.0    -0.0     0.0
    -0.1     0.1    -0.1     0.1    -0.2    -0.0    -0.1    -0.1    -0.2     0.1
    -0.1    -0.0    -0.1     0.1    -0.0     0.1    -0.2     0.1    -0.0    -0.0
    -0.1     0.1    -0.0     0.1    -0.1     0.1    -0.1     0.2    -0.0     0.1
    -0.0     0.1     0.0     0.1    -0.0    -0.0    -0.0     0.1    -0.1     0.2
    -0.1     0.1     0.0     0.2    -0.0     0.1    -0.0     0.1    -0.0     0.1
    -0.1     0.1    -0.1     0.1    -0.0     0.0    -0.1     0.1    -0.1     0.2
    -0.1     0.1    -0.1     0.1    -0.1     0.0    -0.1     0.1    -0.1     0.1
    -0.0     0.1    -0.0     0.0    -0.0     0.1    -0.0     0.1    -0.0     0.2
    -0.1     0.1    -0.1     0.1    -0.1    -0.0    -0.1     0.1    -0.1     0.0
    -0.0     0.1    -0.2     0.0    -0.1     0.1    -0.1     0.0     0.0     0.0
    -0.1    -0.1    -0.1     0.1    -0.1     0.1    -0.0     0.0    -0.1     0.1
    -0.1     0.1     0.0     0.1    -0.1     0.1    -0.1     0.0    -0.0     0.0
    -0.1     0.1    -0.2    -0.0    -0.1     0.1    -0.1     0.1    -0.1     0.0
    -0.1     0.1    -0.2     0.1    -0.1     0.1    -0.1     0.0     0.0     0.0
    -0.1    -0.0    -0.1    -0.0    -0.1     0.1    -0.1     0.0    -0.1     0.0
    -0.1    -0.0    -0.2    -0.0    -0.1     0.0    -0.2    -0.1    -0.1     0.1
    -0.1     0.0    -0.2     0.1    -0.1     0.1    -0.0     0.1    -0.0     0.0
    -0.1    -0.0    -0.1     0.0    -0.0    -0.0    -0.1    -0.0    -0.1     0.1
    -0.1     0.1    -0.0     0.0    -0.1    -0.0    -0.1     0.0    -0.1     0.1
    -0.1     0.0    -0.1     0.1    -0.1     0.1    -0.0    -0.0    -0.2     0.1
    -0.1     0.0    -0.1    -0.0    -0.0     0.1    -0.0     0.1    -0.0     0.1
     0.0     0.1    -0.1     0.1    -0.0     0.0    -0.1    -0.1    -0.2     0.0
    -0.2     0.1    -0.0     0.2    -0.0     0.3    -0.1     0.2    -0.2     0.2
    -0.1     0.2     0.0     0.2    -0.1     0.2    -0.1     0.1    -0.1     0.1
    -0.1     0.2     0.0     0.1     0.0     0.2     0.0     0.2     0.1     0.0
    -0.0     0.1     0.0     0.2    -0.0     0.2     0.0     0.2     0.0     0.2
     0.1     0.1    -0.0     0.1     0.0     0.2     0.0     0.1     0.1     0.2
    -0.1     0.2    -0.1     0.1     0.0     0.1     0.0     0.1     0.0     0.0
     0.1    -0.0     0.0     0.0    -0.0     0.1    -0.0     0.1     0.0     0.1
    -0.1     0.1     0.1     0.1    -0.0     0.2    -0.1     0.0    -0.1     0.1
    -0.0     0.2    -0.0     0.1    -0.0     0.1    -0.1     0.1     0.0     0.2
    -0.1     0.0    -0.2     0.1    -0.0     0.1     0.0     0.2    -0.1     0.1
    -0.1     0.0    -0.1    -0.0    -0.2     0.0    -0.2     0.1    -0.1     0.1
    -0.1     0.1    -0.1     0.1    -0.2     0.1    -0.1     0.1    -0.2     0.1
    -0.1     0.0    -0.1     0.1    -0.2    -0.0    -0.2    -0.0    -0.1     0.1
    -0.1     0.1    -0.1    -0.0     0.0     0.1    -0.1     0.1    -0.1     0.1
     0.1     0.1    -0.1     0.0     0.0     0.1    -0.1     0.1    -0.1     0.1
    -0.0    -0.1     0.1     0.1    -0.2    -0.0    -0.1     0.1    -0.2     0.2
    -0.2     0.1    -0.1     0.1    -0.0    -0.0     0.1     0.0    -0.0    -0.0
     0.0     0.0    -0.0    -0.0    -0.1     0.1    -0.0     0.1    -0.0     0.0
    -0.0    -0.0     0.0     0.0    -0.0     0.1    -0.1     0.1    -0.1    -0.1
     0.0     0.2    -0.2     0.2    -0.1     0.1    -0.1     0.1    -0.2     0.2
    -0.1     0.1    -0.2    -0.0    -0.1     0.2    -0.1     0.1    -0.1     0.2
    -0.0     0.2     0.1     0.2     0.0     0.3     0.0     0.1    -0.1     0.3
    -0.0     0.2     0.0     0.2     0.1     0.2     0.0     0.2    -0.1     0.2
     0.0     0.3    -0.1     0.2     0.0     0.3     0.0     0.3     0.1     0.2
     0.1     0.1     0.0     0.2     0.1     0.3     0.1     0.3     0.2     0.2
     0.1     0.2     0.0     0.2     0.2     0.3     0.1     0.2     0.1     0.3
    -0.0     0.3    -0.0     0.2     0.1     0.2     0.0     0.2     0.1     0.2
    -0.0     0.2    -0.0     0.1     0.0     0.2     0.0     0.2    -0.1    -0.0
    -0.1     0.1    -0.1    -0.0    -0.1    -0.0    -0.2     0.1    -0.1    -0.0
    -0.1    -0.0    -0.2    -0.1    -0.3    -0.2    -0.2    -0.1    -0.3    -0.2
    -0.4    -0.1    -0.3    -0.1    -0.3    -0.2    -0.4    -0.2    -0.4    -0.3
    -0.5    -0.2    -0.4    -0.3    -0.4    -0.3    -0.4    -0.4    -0.4    -0.4
    -0.6    -0.4    -0.6    -0.5    -0.7    -0.4    -0.7    -0.5    -0.7    -0.5
    -0.7    -0.5    -0.8    -0.5    -0.8    -0.5    -0.7    -0.6    -0.7    -0.6
    -0.8    -0.6    -0.8    -0.6    -0.7    -0.6    -0.6    -0.6    -0.7    -0.6
    -0.9    -0.8    -0.8    -0.7    -0.8    -0.8    -0.9    -0.7    -0.9    -0.7
    -0.9    -0.7    -0.8    -0.8    -0.9    -0.6    -0.9    -0.7    -0.9    -0.7
    -0.9    -0.7    -0.9    -0.7    -0.9    -0.8    -0.8    -0.7    -0.8    -0.7
    -0.7    -0.5    -0.7    -0.7    -0.7    -0.7    -0.8    -0.6    -0.7    -0.5
    -0.6    -0.5    -0.5    -0.4    -0.6    -0.4    -0.5    -0.4    -0.5    -0.4
    -0.5    -0.3    -0.4    -0.3    -0.4    -0.3    -0.3    -0.2    -0.3    -0.1
    -0.3    -0.1    -0.2     0.1     0.0     0.1    -0.0     0.0     0.1     0.1
     0.1     0.3     0.3     0.4     0.3     0.4     0.4     0.6     0.5     0.6
     0.5     0.7     0.8     0.8     0.8     0.8     0.9     0.9     0.9     1.0
     1.0     1.1     1.1     1.2     1.3     1.4     1.4     1.5     1.5     1.5
     1.6     1.7     1.7     1.7     1.9     1.9     1.9     1.9     2.1     2.1
     2.2     2.2     2.3     2.3     2.4     2.4     2.4     2.5     2.6     2.5
     2.7     2.7     2.7     2.7     2.9     2.8     3.1     3.0     3.2     2.9
     3.3     3.1     3.4     3.0     3.5     3.2     3.5     3.1     3.7     3.3
     3.8     3.3     4.0     3.4     4.1     3.2     4.1     3.2     4.3     3.2
     4.5     3.0     4.6     2.1     3.5     0.6     2.0     0.4     0.7    -4.6
    -0.5   -10.6    -7.5    -6.0    -0.1    -4.2    -5.3     7.0    11.3    14.2
