Corrected accelerogram 20160214_001343_CCCC_20 GNS Science
Site CCCC      43 32 17S  172 38 51E     Cusp file:  20160214_001347_CCCC
Christchurch Cathedral College
Instrument Cusp_331
Resolution: 18-bit   Instr Period: 0.0050 s   Damping: 0.700
Accelerogram 20160214_001343_CCCC_20                 Processed 2016 February 22
11 km east of CHRISTCHURCH
2016 February 14         00:13:43 UT
Epicentre  43 29 50S 172 45 18E  Bearing N63E  Dist   10km  Depth    8km M  5.70
Number of points  4111    Duration  82.20 sec
Instrument corrected data at 0.020 sec intervals
Band-pass filter transition bands are .10-.25 Hz and 24.50-25.50 Hz
Component N00E  Horizontal Axis 1
Acceleration:  peak  -1516.4 mm/s/s at  43.18 sec     rms    163.5 mm/s/s
Velocity:      peak   193.99 mm/s   at  42.82 sec     rms    22.80 mm/s
Displacement:  peak  -64.064 mm     at  42.54 sec     rms    8.026 mm
    2016       2      14       0      13     430       0       0    2016       2
      43      29      50     172      45      18       8       0      14       0
      43      32      17     172      38      51       0       0      63      10
   14444     250     250    4111    4111    4111       0       0      13    8404
   200.0    0.70    0.00   0.000  0.0000   0.000   0.000   1.000     0.0    0.00
  43.538 172.647   43.50  172.76    5.70    0.00    0.00    0.00      0.      0.
   72.22    5.00    5.00   82.20  0.0050  0.0200      0.      0.      0.  9806.6
 -1535.4   43.19   174.6   0.000      0. -1516.4   43.18   163.5  1717.3   1.440
  193.99   42.82   22.80  208.75   0.403  -64.06   42.54    8.03   71.21   0.397
   0.100   0.150   0.250      0.      0.  24.500   1.000  25.500      0.      0.
     0.0    -0.0     0.0    -0.0     0.0    -0.0     0.0    -0.0     0.0    -0.0
     0.0    -0.0     0.0    -0.0     0.0    -0.0     0.0    -0.0     0.0    -0.0
     0.0    -0.0     0.0    -0.0     0.0    -0.0     0.0    -0.0     0.0    -0.0
     0.0    -0.0     0.0    -0.0     0.0    -0.0     0.0    -0.0     0.0    -0.0
     0.0    -0.0     0.0    -0.0     0.0    -0.0     0.0    -0.0     0.0    -0.0
     0.0    -0.0     0.0    -0.0     0.0     0.0     0.0     0.0     0.0     0.0
     0.0     0.0     0.0     0.0     0.0     0.0     0.0     0.0     0.0     0.0
     0.0     0.0     0.0     0.0     0.0     0.0     0.0     0.0     0.0     0.0
     0.0     0.0     0.0     0.0     0.0     0.0     0.0     0.0     0.0     0.0
     0.0     0.0     0.0     0.0     0.0     0.0     0.0     0.0     0.0     0.0
     0.0     0.0     0.0     0.0     0.0     0.0     0.0     0.0     0.0     0.0
     0.0     0.0     0.0     0.0     0.0     0.0     0.0    -0.0     0.0    -0.0
     0.0    -0.0     0.0    -0.0     0.0    -0.0    -0.0    -0.0    -0.0    -0.0
    -0.0    -0.0    -0.0    -0.0    -0.0    -0.0    -0.0    -0.0    -0.0    -0.0
    -0.0    -0.0    -0.0    -0.0    -0.0    -0.0    -0.0    -0.0    -0.0    -0.0
    -0.0    -0.0    -0.0    -0.0    -0.0    -0.0    -0.0    -0.0    -0.0    -0.0
    -0.0    -0.0    -0.0    -0.0    -0.0    -0.0    -0.0    -0.0    -0.0    -0.0
    -0.0    -0.0    -0.0    -0.0    -0.0    -0.0    -0.0    -0.0    -0.0    -0.0
    -0.0    -0.0    -0.0    -0.0    -0.0    -0.0    -0.0    -0.0    -0.0    -0.0
    -0.0    -0.0    -0.0    -0.0    -0.0    -0.0    -0.0    -0.0    -0.0    -0.0
    -0.0    -0.0    -0.0    -0.0    -0.0    -0.0    -0.0    -0.0    -0.0    -0.0
    -0.0    -0.0    -0.0    -0.0    -0.0    -0.0    -0.0    -0.0    -0.0     0.0
    -0.0     0.0    -0.0     0.0    -0.0     0.0    -0.0     0.0    -0.0     0.0
    -0.0     0.0    -0.0     0.0     0.0     0.0     0.0     0.0     0.0     0.0
     0.0     0.0     0.0     0.1     0.0     0.1     0.0     0.1     0.0     0.1
    -3.2    -2.0     0.1     1.3    -0.4     3.8    -4.3    -8.1     4.0    -0.5
    -1.2     5.1     5.0    -1.1     2.3    -3.9     0.6     0.0    -1.3    -1.5
     0.1     9.7     6.1     0.0    -2.1     2.8    -0.6    -3.9    -1.0    -2.6
    -1.6    -4.2    -1.6     2.8     2.3    -4.2    -1.4     4.7     1.7     1.3
    -4.6    -0.4     0.3     3.4     3.0     4.4   -11.4    -1.3    -0.7    -6.9
    -2.5     4.7    -0.7     0.6    -1.8     0.4     3.7     5.2     3.8    -6.4
    -2.2    -1.1     3.5    -2.2     5.0     0.2    -0.9    -2.7     7.2    -0.3
     2.7    -2.0     0.1    -1.3    -0.1    -4.6    -5.7     1.7     3.0     2.6
     7.1     6.0    -3.2     0.1    -0.6    -4.5    -1.3    -0.7    -2.2    -1.5
    -1.5     3.1     3.1     0.7    -0.8     0.5    -3.2    -0.9     4.9    -1.5
     0.9     1.4    -2.1     4.1     2.3    -0.5     0.5     5.5    -3.9     0.0
     3.1    -3.9    -7.1     0.1     2.9     2.8    -3.3    -5.2     2.0     4.3
    -7.7    -4.1    -2.1    -8.7     5.4     1.0     3.0     8.9     7.5    -0.8
     3.8     2.1    -2.1    -1.2     1.7     0.7    -2.0     0.7    -6.8    -1.9
    -4.2    -1.1     2.2     3.6     3.8     2.2     2.6    -6.4    -1.2     0.5
    -1.1     2.5    -3.7     4.5     3.7     5.4     2.2     4.5    -0.6    -3.2
     3.0     4.5    -1.6    -1.2     3.1     2.6    -0.2     1.1     2.0    -0.7
    -0.0     0.7    -0.0    -4.5     0.2    -4.2     1.3     1.4     1.3    -6.9
     0.8     0.2    -1.6    -4.3    -0.2    -1.2     3.8    -7.8     2.2    -9.3
     1.3    -6.0    -0.6    -1.8    -6.5     1.6     1.8    -1.9    -3.1    -0.5
     5.6     0.5     2.3    -3.8    -6.1    -0.1    -4.5    -0.8    -2.9    -2.2
    -2.5     6.8    -0.6    -2.6    -5.0    -0.9     1.9    -1.2     3.6     2.6
    -1.4    -5.1     3.2    -0.8    -3.9     3.4     5.5    -6.2    -1.8     3.0
     1.4     6.9     4.2     1.4    -3.7    -5.3    -0.7    -0.1    -5.7    -0.7
    -3.0     1.3    -1.4    -2.9     0.8    -0.2    -1.0    11.5    -1.5    -2.4
     5.5    -1.0     2.1     1.5    -0.0     8.4    -1.5    -4.4    -0.7    -6.7
     2.2     4.7    -3.9     1.2     3.9    -4.3     8.7     2.4     2.1    -0.9
    -0.6    -0.1     3.5    -4.5    -4.6     1.4     4.2     0.4     2.9    -2.0
    -0.7    -1.0     2.6     2.4     1.9    -0.6     4.1     4.1     3.8     2.0
    -0.1     5.6     3.2     1.4     5.0     0.8    -5.1     3.1    -3.6     4.4
     0.7    -4.7     7.9    -1.5    -5.4    -9.6    -0.8     3.7    -0.5     0.4
    -1.6     6.8    -0.3    -1.0    -1.5     2.2    -2.5    -0.4    -1.2     1.2
     1.9     6.4     1.9    -2.1    -0.1    -1.9    -0.0     1.6     4.9    -3.6
     3.1    -5.5    -0.8     1.7    -0.5    -1.1    -1.2    -5.7    -1.9     4.3
     1.2    -3.3    -1.2     5.7     1.6    -4.9    -1.2     3.4    -0.7    -0.7
    -2.6     1.4     0.1     2.0    -6.1    -1.8     1.2     1.2     2.0     2.8
    -2.9    -2.0    -0.2    -2.3     0.0     4.2     3.5    -4.2    -2.4     2.7
     0.6    -4.8     1.9    -0.7     1.2    -1.2    -3.2    -4.3    -0.1     5.1
    -1.9     0.6    -2.6    -6.3    -1.6    -2.2     1.0    -5.1    -3.4    -0.4
    -0.6    -1.8    -5.4     5.4     0.6    -0.2    -2.8    -0.9    -8.8    -0.5
     0.4    -6.0     1.0    -4.5     0.3     1.0    -2.8     4.1    -0.7    -3.8
    -2.7    -1.6     7.1     8.7     4.0    -4.8    -0.5    -2.5    -1.0    -1.1
     9.9    -2.0    -3.1     2.9     3.6     2.0     6.2    -2.7     3.2     2.5
    -7.7    -0.7     8.2    -2.8    -6.2    -3.9    -2.4     3.1     6.7     2.9
    -3.4     5.1     9.4     6.0    -3.9    -4.6     3.0     4.9    -0.5    -2.3
     2.4     1.2    -1.9    -1.2     3.5     0.8    -5.8     1.2    -0.5     2.9
     2.2    -0.1     0.9    -2.2     0.9    -4.4     1.6    -2.3     1.8     4.1
    -1.5     6.2    -1.5     0.8     4.1     1.8     0.3    -4.6    -4.6    -3.4
     3.9     4.6    -1.8     2.7    -3.4    -3.1    -1.8    -0.8    -1.9    -1.2
     1.5     1.6    -0.8     2.8     4.8     3.4    -3.8    -0.6     0.9    -2.0
    -4.1    -2.7     0.1    -3.6     1.6     0.3    -3.0    -2.6     1.1     2.9
     2.3     1.1    -4.5    -0.4    -0.2    -0.6     1.3     1.8     2.1     2.3
     3.8     6.3    -5.4    -6.1     8.6    -2.2     4.2    -0.3     0.2    -0.3
     1.9    -0.2    -2.0    -0.3     4.1     1.9    -9.1     3.0    -0.0     7.7
    -3.0     3.5     1.7    -4.9    -0.5    -5.9    -0.0     3.2     0.8    -3.1
    -4.1     2.0    -4.5     5.0     0.3    -4.8    -4.4     4.4    -3.0    -1.6
    -3.2     0.3     3.2    -1.7    -2.2     0.6    -8.2     8.0     3.7    -4.5
    -0.3    -3.6     5.8    -0.9    -5.3    -3.0     0.7    -3.8    -2.0     0.7
    -0.7     6.7    -4.0     2.1     1.9    -3.5    -0.8     3.9    -0.9     3.2
    -2.1    -2.7     4.4    -3.2     5.1    -2.6     1.5    -1.2     1.9    -2.6
     2.3     1.7    -1.1     2.3    -0.7     3.5    -4.4    -0.9    -3.8     1.7
    -0.2    -1.2    -4.1     1.8     1.7    -0.1     5.8     2.7    -1.1    -4.4
     5.7    -1.7     5.0     5.7     0.3     6.4    -4.6     1.8     4.5    -3.6
     2.4     0.3     1.6     4.0    -0.8    -2.3    -2.9     5.4     2.7    -2.1
    -4.8    -1.6    -5.9     4.0     0.7    -6.6     7.7    -1.0    -1.5    -1.4
    -0.9    -3.1     0.4    -1.8    -1.1    -5.9     1.1     4.5     2.8     0.1
    -4.9     1.7     2.1    -4.6    -1.6    -3.5    -0.9    -0.5    -6.5     1.8
    -5.2    -3.9    -1.7     1.1     1.2     2.7    -3.2     0.6    -5.4     4.6
     1.6    -2.3     2.6     4.6    -0.7    -0.7    -1.4     0.5    -3.6     5.0
    -1.6    -1.5    -2.3    -1.8     2.8    -2.6     3.5     0.6     3.8    -5.0
    -3.4    -0.9     1.1    -0.4     3.0     3.6     5.2     7.6    -4.2    -1.9
     1.6    -0.7    -7.2     3.0    -1.3     3.2     3.1     4.5    -0.3     2.3
    -3.9     6.4     5.3    -0.4    -0.6     0.0    -2.4     9.1     3.6    -4.0
    -5.7    -4.7     6.2    -1.4    -2.1    -2.4     4.1     2.8     4.3     0.5
    -1.6     0.5    -1.6    -1.9     2.7    -3.3    -1.8    -2.4     0.3    -6.0
    -5.4     7.6     3.5     5.8     1.0    -6.1     4.5     6.2    -1.4     0.9
     0.3     5.4     2.7    -3.9    -0.5     2.0     0.5     2.7    -5.7    -2.1
    -3.3    -7.0     5.3     2.4    -2.3    -2.4     0.5    -2.4     2.2     4.1
    -6.4     1.1    -0.6     3.2     5.8     5.6    -3.0     2.5    -2.0    -3.8
    -2.1    -2.2     1.2     0.4     0.0     4.3    -2.9    -0.3    -2.6     4.1
    -5.8     2.8     1.0    -2.3     5.3     0.9    -4.5    -2.0    -1.1    -2.9
     6.5    -0.3    -2.7    -0.6    -4.5     6.1    -3.1    -1.1    -0.8    -2.1
    -0.6    -4.0    -0.1    -4.1     4.3    -9.6    -1.3     1.8     5.0     1.5
    -5.4     2.0     1.4    -3.4    -1.1     4.1    -6.9     3.3     4.1    -4.8
    -4.8    -1.6     7.2    -2.5    -1.5     1.5     4.6    -4.5     1.8    -1.7
    -3.9     5.5    -0.5     0.1    -0.4    -1.9    -1.7     0.9     0.0     2.6
    -1.8    -3.3     3.7     2.6    -3.0     1.1    -4.0    -2.2     1.3    -0.3
    -0.8     3.0    -3.0    -1.7     0.9   -11.6    -2.4     3.5     6.7    -6.4
     0.8     2.0    -5.8     2.6     1.5    -4.8     5.7     1.5     3.8     5.5
    -3.6    -2.5     1.6     3.1     1.2     1.6    -1.3     4.4    -0.5     0.4
    -0.3    -7.5     5.8    -7.5    -2.0     0.5    -2.1    -1.3     3.9     1.5
    -3.5     2.9    -2.4     1.0    -0.9     2.5    -4.2     2.5     6.4     1.2
     4.3     4.7     2.2     4.7    -3.3     5.9     6.0     3.2    -5.6    -0.1
    -0.2     1.3     0.5    -6.8    -0.8     3.5     2.9    -3.8     6.0     6.3
     4.9    -0.9    -0.7    -0.5    -1.3    -5.6     1.0    -3.3     2.0     2.0
    -1.3    -1.7     4.7    -9.0     2.9     2.9    -2.3     1.2     2.9    -0.1
    -1.4     2.6    -4.5     1.5    -0.8     1.4     0.0     7.2     5.0    -1.5
    -1.4     7.7    -3.0    -2.4     0.1    -4.3    -0.4     0.5     2.8    -2.0
     0.0    -6.5    -2.2    -5.0     1.1     0.4    -0.2    -2.7     0.5    -2.0
     3.5     3.4    -3.6    -0.9     0.9     1.4    10.7    -2.4    -7.8     3.6
    -1.7    -0.6    -2.5    -2.5    -1.3     4.3    -3.0    -2.9     1.8    -2.9
    -4.0     1.9    -1.2     1.3     4.1     6.4    -1.2    -0.0    -4.2    -8.5
     2.9    -7.0     0.4    -2.2    -4.4    -2.5    -1.4     6.2     0.4     0.0
    -6.8     1.8    -4.6    -1.3    -2.5     1.0     0.0    -0.1    -2.2     0.1
     8.1    10.3    -0.1    -1.9     3.8     2.8    -1.5     0.8     4.4     1.7
     7.4    -0.6     4.7    -4.5     1.2    -4.3    -0.1    -5.6    -2.9    -0.8
     4.5     0.9     3.2    -0.1     2.8    -1.3    -6.3    -2.5     2.2    -2.9
    -1.5    -2.9    -3.4     0.3    -7.7    -0.1    -0.4     4.7    -5.8     0.7
     2.9    -2.9    -3.1    -5.4    -0.9    -1.1     4.8     1.8    -0.5     0.0
     2.3     1.0    -1.6     1.9     5.8     3.6     1.4    -1.6     2.9     3.8
     5.6    -2.2     8.8     2.5     7.3    -1.6    -0.3    -0.3    -2.2     4.3
     1.2    -0.5    -1.9    -4.3     0.1    -2.9    -2.0    -2.9    -0.6    -5.4
    -3.9     0.7    -0.5    -5.3     1.9     0.9    -2.5     1.2    -6.1     2.7
     7.3    -0.7     0.4     3.0    -4.3    -6.1     2.9   -11.3    -5.0    -3.6
     0.9     8.9     0.5     0.4     5.5     0.2     2.7    -0.4     6.2     4.9
     7.8     6.1    -4.7    -1.4    -1.5    -2.0     0.2    -0.3    -0.9    -2.5
    -1.8    -1.4     4.5     2.6     1.1     2.5    -0.2    -8.0    -0.8     6.9
     2.0    -9.2    -4.2     5.8     0.2     1.7    -2.6    -1.0     1.8     1.2
     1.0    -4.5     0.1    -2.6    -2.3     2.5     1.0     4.2    -0.7    -4.6
    -6.9     4.8     1.3    -5.8    -0.8     2.1     2.9     1.4    -0.1     1.6
     0.9     0.4    -2.2    -4.1    -0.7     1.7     2.5     3.2     2.0     1.3
     2.3    -0.5     0.2     2.3     4.1     0.9    -4.3    -3.3     0.7     0.2
    -0.9    -1.9     4.9     4.3     5.2     5.4    -7.5    -0.8    -0.3     4.1
     2.4     1.2     0.8     3.5    -2.8     0.5    -2.3    -7.4    -4.0    -1.8
    -0.0     0.4    -3.4    -8.8     0.1     5.0    -0.2     0.8     1.0     6.6
     0.5    -1.4     0.5     3.2    -4.6     4.5    -4.1    -4.7    -2.3    -9.6
    -1.3    -5.5    -1.7     0.9    -1.5     1.3     2.4    -0.1    -6.7    -4.0
    -1.3     6.2    -2.6     2.3    -0.4    -0.5    -0.7    -3.4    -3.1    -5.5
    -0.8    -2.9     2.1     1.9     3.8     3.8     3.1     8.3     8.8     2.4
    -0.4    -7.6     1.0    -1.3     2.0     1.2     2.5     3.7    -5.1     1.3
    -6.4     1.4    -2.7    -3.9     5.3     8.4     6.8     5.9     1.8    -4.0
     1.8     1.8    -4.8     1.5     3.7    -2.3    -3.8     2.2    -2.6    -1.7
    -1.7    -2.7    -3.4     3.5     3.1     3.1    -1.2     1.5     1.6    -3.2
     0.6     5.1     2.7     1.5     1.9     0.2    -0.2    -2.8    -7.1     0.3
     6.9    -0.7     1.6    -5.5     2.4    -1.7     3.4     1.0    -1.2    -2.1
     1.4     1.5     6.4     2.4    -3.2    -4.9    -6.5     0.7    -4.9     2.2
     3.9    -1.0    -1.7    -2.0     1.0     2.3    -4.2    -1.0    -4.7    -2.7
     1.3     4.6     1.9     2.1     2.4    -0.9     2.5    -4.2    -1.1     1.3
    -4.4     3.9    -8.1    -3.4    -2.2     1.3    10.6    -6.9    -1.0    -2.9
    -0.1     2.3     0.7    -3.6    -0.9     4.9    -1.4    -2.4     0.0    -0.9
     3.5     2.0     3.2    -1.7     3.1    -4.1    -2.1    -8.6     1.4   -12.4
     3.1    -2.6    -1.6     4.1     3.9    -0.9    -4.4    -3.4     0.6     3.4
    -1.3    -1.8    -1.7    -6.8     3.1     3.0     2.5     5.5     1.9     6.4
    -3.1     0.2    -4.1     3.8     1.4    -2.4    -3.4     6.8     1.2    -4.8
     0.9     2.3    -4.7    -3.1     3.1     0.1     2.3     4.4    -4.5    -0.6
     3.7     0.4     0.0     4.4     1.7    -1.9    -6.0    -5.2     7.7     5.0
     5.2    -0.8     0.8     2.7    -2.0     1.9     0.9    -1.9     1.9     4.8
     1.9     0.7    -1.0     4.1     0.6    -0.5    -0.5    -3.7     0.1    -1.1
     5.9    -2.5    -1.3    -0.0     2.9     1.9     4.6    -3.4    -2.1     4.0
     0.6    -2.9    -1.2     2.7    -2.2     1.5     3.4    -6.5     0.7    -1.7
     5.0     2.4    -5.3    -0.9    -1.2     2.0     3.1     0.4     4.5    -6.9
     2.0     4.0    -1.8     0.0    -3.2     5.3     1.9     6.4    -1.6     6.6
     1.4    -4.1     2.1     1.2    -6.0     1.9     1.2     4.5     1.8    -1.4
    -0.8    -3.7    -1.9     5.5    -3.8    -5.4    -2.8     5.7    -1.9     2.5
     0.4    -1.8    -8.2    -4.5    -4.8    -5.1    -4.8    -2.8    -3.9     0.2
    -4.1     0.7     5.0    -3.2    -7.0    -0.4    -5.1     3.6     0.5     3.7
     0.8     1.4    -1.2     6.1     2.9    -3.8    -4.1     3.3    -1.5     0.2
    -6.1    -2.9    -1.3     0.3     3.2     2.6     0.1     2.0    -2.8    -1.5
    -6.6    -4.5     1.5    -2.4     4.4     1.0     2.7    -7.7    -4.5     1.0
     0.5     2.8    -5.3    -1.4     4.8     3.4    -2.6    -1.7     7.3     6.3
    -8.1     0.2    -7.9    -3.5     4.1    -1.5    -1.1    -4.6     2.6    -1.4
    -3.5     5.5    -1.8    -7.6     0.5    -1.7     6.2    -0.0     2.5     2.1
     2.8    -1.9     4.8     5.9    -3.3     0.6     2.8    -2.2    -1.3     1.4
     6.1    -6.0     7.3    -1.2    -0.2    -0.6     0.8     0.2     1.7    -2.6
     9.6     2.5    -0.2     6.3     2.1     2.5     2.0    -4.5    -2.2     2.1
     1.4     2.6     0.7     8.1     9.1     1.2    -1.3    -0.4    -3.5     6.7
     3.4    -2.5    -1.6     4.5    -4.3     2.2    -1.6     1.9     1.1     6.9
    -2.8     0.4     0.1    -0.3    -1.1    -4.4     1.7    -0.8    -1.1    -1.7
    -0.9     0.9    -4.4     2.3     5.6    -0.8     4.8     7.1    -0.7    -1.3
    -0.9    -1.9     1.5     0.9    -1.4    -1.8     4.7     5.0     0.4    -1.9
     1.7     2.6     0.8     5.3    -1.3    -3.1    -3.5    -1.8     0.7    -1.9
    -1.5     0.3    -1.9    -1.2    -2.9     4.8    -1.0    -3.3    -2.4     3.8
     3.9    -2.3     4.6     3.3     0.7     3.9    -0.6    -4.1     0.3     3.3
     5.7    -0.5     3.5    -0.2    -3.2     5.3    -1.7     7.4    -3.4     3.7
    -1.9    -5.1    -0.8     2.0    -4.4    -5.3     4.0    -2.3     0.8    -4.1
     0.1     4.1    -1.4    -1.7    -2.4    -0.6     0.1    -0.4    -5.9    -7.8
    -1.6    -0.2     0.8    -5.6    -8.5     3.1    -5.2     2.8    -1.4    -2.0
    -2.4    -5.3    -5.4     3.8    -8.7    -5.7     4.7    -6.7     1.0    -4.8
    -0.6    -7.8    -3.1    -2.2     0.3    -3.2    -4.2    -1.3    -0.2    -3.9
    -2.5    -0.4     1.3    -2.2     1.5    -5.0    -3.3    -3.3    -0.3    -1.1
    -3.4    -0.4    -5.7    -3.8    -0.3    -5.4    -3.8    -1.9    -5.2   -10.0
    -0.3    -2.8    -6.6    -4.0    -9.5     1.6    -4.7    -4.1     2.9    -3.4
    -6.0     2.1     0.7    -2.9    -4.2    -2.5    -5.4    -0.8    -4.4    -4.6
     0.8     3.0    -2.5     0.8    -6.9    -1.4    -6.7    -0.1    -1.6    -2.2
    -4.4    -4.7    -0.9    -2.1    -4.6     0.2     1.5     0.6    -0.5     8.4
    -6.5     2.4    -3.1    -0.9     5.0    -7.1    -3.7    -5.3    -4.9    -9.0
     2.6     1.9     0.9     0.3    -1.4     3.8     6.0    -3.1     2.5    -1.8
    -0.1     5.9    -2.5     1.8    -2.5     0.4     5.0     2.5    -3.8     4.8
    -3.4     0.3    10.7     7.6     2.8     6.2    -1.6     3.2     8.1     4.7
    14.1    -1.3     2.6     1.2     2.0     0.9     7.9     5.7     8.0     4.9
     5.3     9.9    10.0     4.0    13.2     7.2     4.9     5.4     5.6     0.7
     6.0     3.0     3.1     3.8     6.0     2.3     6.3     8.8     6.3     5.1
     6.9     6.2    12.0     8.3     9.9     6.6     4.4     9.1     4.2    12.3
    14.9    10.6    14.1    11.2     8.1     8.4     7.1    13.7     6.7    19.8
    13.0    12.6     8.5    12.0     3.4     7.5    22.9    14.1    12.4     7.5
    11.5    13.3     5.0    12.9    13.6     4.2     8.1    19.2    18.5     9.8
     8.3     3.1     2.9     6.1    14.2     7.1    19.9    -5.5    -4.4    14.4
    42.0    47.1    44.7    34.2    -1.3   -13.5    -8.7    -7.4   -24.2   -34.0
   -31.8   -39.2     4.8    35.7    52.4    65.7    60.3    18.6    -2.6   -13.9
   -39.5   -21.1   -18.9   -10.0    -9.7     4.4    39.3    68.3   101.1   116.7
    72.8    32.6     6.4   -41.3   -71.7   -69.1   -89.2   -84.1   -77.0   -90.8
