Corrected accelerogram 20160214_001343_WEL_20 GNS Science
Site WEL       41 17 03S  174 46 05E     Quanterra file:  20160214_001428_WEL
Wellington
Instrument Quanterra_299
Resolution: 24-bit   Instr Period: 0.0050 s   Damping: 0.700
Accelerogram 20160214_001343_WEL_20                  Processed 2016 February 22
11 km east of CHRISTCHURCH
2016 February 14         00:13:43 UT
Epicentre  43 29 50S 172 45 18E  Bearing S33W  Dist  297km  Depth    8km M  5.70
Number of points  8192    Duration 163.82 sec
Instrument corrected data at 0.020 sec intervals
Band-pass filter transition bands are .10-.25 Hz and 24.50-25.50 Hz
Component N00E  Transverse Accelerometer Axis
Acceleration:  peak      2.8 mm/s/s at  72.14 sec     rms      0.5 mm/s/s
Velocity:      peak    -0.59 mm/s   at 120.78 sec     rms     0.11 mm/s
Displacement:  peak    0.198 mm     at 120.38 sec     rms    0.050 mm
    2016       2      14       0      13     430       0       0    2016       2
      43      29      50     172      45      18       8       0      14       0
      41      17       3     174      46       5       0       0     213     297
   37000     250     250    8192    8192    8192       0       0      13   48000
   200.0    0.70    0.00   0.000  0.0000   0.000   0.000   1.000     0.0    0.00
  41.284 174.768   43.50  172.76    5.70    0.00    0.00    0.00      0.      0.
  185.00    5.00    5.00  163.82  0.0050  0.0200      0.      0.      0.  9806.6
     2.9   72.14     0.5   0.000      0.     2.8   72.14     0.5     4.2   0.409
   -0.59  120.78    0.11    0.68   0.409    0.20  120.38    0.05    0.25   0.259
   0.100   0.150   0.250      0.      0.  24.500   1.000  25.500      0.      0.
   0.000  -0.001   0.000  -0.001   0.000  -0.000   0.000  -0.000   0.000  -0.000
   0.000  -0.000   0.000  -0.000   0.000  -0.000   0.000  -0.000   0.000  -0.000
   0.000  -0.000   0.000  -0.000   0.001  -0.000   0.001  -0.000   0.001   0.000
   0.001   0.000   0.001   0.000   0.001   0.000   0.001   0.000   0.001   0.000
   0.001   0.000   0.001   0.000   0.001   0.000   0.001   0.000   0.001   0.001
   0.001   0.001   0.001   0.001   0.001   0.001   0.001   0.001   0.001   0.001
   0.002   0.001   0.002   0.001   0.002   0.001   0.002   0.001   0.002   0.001
   0.002   0.001   0.002   0.001   0.002   0.001   0.002   0.001   0.002   0.001
   0.002   0.001   0.002   0.001   0.002   0.001   0.002   0.001   0.002   0.001
   0.002   0.001   0.002   0.001   0.002   0.001   0.002   0.001   0.002   0.001
   0.002   0.001   0.002   0.001   0.002   0.001   0.002   0.001   0.002   0.001
   0.002   0.001   0.002   0.001   0.002   0.001   0.002   0.001   0.002   0.001
   0.002   0.001   0.002   0.001   0.002   0.001   0.002   0.001   0.002   0.001
   0.002   0.001   0.002   0.001   0.002   0.001   0.002   0.001   0.002   0.001
   0.002   0.000   0.001   0.000   0.001   0.000   0.001   0.000   0.001  -0.000
   0.001  -0.000   0.001  -0.000   0.001  -0.000   0.001  -0.001   0.000  -0.001
   0.000  -0.001   0.000  -0.001   0.000  -0.001  -0.000  -0.002  -0.000  -0.002
  -0.001  -0.002  -0.001  -0.002  -0.001  -0.003  -0.001  -0.003  -0.001  -0.003
  -0.001  -0.003  -0.002  -0.004  -0.002  -0.004  -0.002  -0.004  -0.002  -0.005
  -0.003  -0.005  -0.003  -0.005  -0.003  -0.005  -0.003  -0.006  -0.003  -0.006
  -0.004  -0.007  -0.004  -0.007  -0.004  -0.007  -0.004  -0.008  -0.005  -0.008
  -0.005  -0.009  -0.005  -0.009  -0.005  -0.009  -0.006  -0.010  -0.006  -0.010
  -0.006  -0.011  -0.006  -0.011  -0.006  -0.012  -0.007  -0.012  -0.007  -0.013
  -0.007  -0.014  -0.007  -0.014  -0.007  -0.015  -0.007  -0.015  -0.007  -0.016
  -0.007  -0.017  -0.007  -0.018  -0.007  -0.019  -0.006  -0.020  -0.006  -0.021
  -0.009   0.024   0.061   0.028  -0.015  -0.034   0.062   0.006  -0.040   0.041
  -0.009  -0.011   0.081  -0.011   0.046  -0.004  -0.031   0.096  -0.065   0.078
   0.003   0.065  -0.020   0.011   0.020  -0.011  -0.024   0.050   0.001   0.035
  -0.020   0.028  -0.019   0.013   0.041  -0.024  -0.030   0.067   0.046  -0.067
  -0.012   0.038  -0.004  -0.008  -0.028   0.027   0.068  -0.089   0.128  -0.028
  -0.000   0.023  -0.039   0.013   0.020   0.030  -0.028  -0.044   0.044   0.034
  -0.014  -0.004   0.025   0.031  -0.044   0.009   0.024   0.046  -0.001  -0.029
  -0.017   0.004  -0.015   0.014   0.029  -0.032  -0.008   0.020  -0.021  -0.081
   0.130  -0.045  -0.011   0.017  -0.099   0.010  -0.018   0.072  -0.027  -0.052
   0.014   0.014  -0.043   0.035  -0.010   0.030  -0.041  -0.019   0.012   0.058
  -0.032  -0.013   0.021  -0.014  -0.001   0.005   0.011  -0.043   0.051  -0.002
  -0.054  -0.004  -0.014   0.043  -0.026  -0.029   0.000   0.020  -0.030   0.039
   0.031  -0.037   0.016  -0.048   0.013  -0.024   0.003   0.047  -0.071  -0.013
  -0.044   0.010  -0.006   0.045  -0.033   0.022  -0.045   0.012  -0.006  -0.002
   0.005  -0.019   0.006   0.063  -0.059   0.013   0.060   0.022  -0.044  -0.024
   0.054  -0.027  -0.006  -0.013  -0.010   0.046   0.046  -0.097   0.077  -0.016
   0.030  -0.046  -0.004  -0.000  -0.046  -0.010   0.060  -0.032  -0.024  -0.011
   0.043  -0.005   0.082  -0.024  -0.041  -0.012   0.043  -0.064   0.015   0.028
  -0.032   0.017   0.006   0.022  -0.024   0.035  -0.027  -0.022   0.027  -0.022
  -0.004   0.000   0.003  -0.054   0.034  -0.005   0.043  -0.003  -0.060   0.045
   0.023  -0.003   0.032  -0.014  -0.017   0.031  -0.032  -0.007   0.070   0.001
  -0.036   0.006   0.038   0.003  -0.015   0.010  -0.011  -0.043   0.043  -0.007
   0.075   0.041  -0.105   0.059  -0.023  -0.034  -0.021   0.062   0.008  -0.016
   0.002  -0.000   0.001   0.019  -0.006   0.016  -0.024   0.006  -0.018   0.005
   0.001  -0.041   0.044  -0.025   0.009  -0.012  -0.016   0.000   0.029  -0.019
  -0.054  -0.045   0.041   0.013  -0.058  -0.021  -0.001   0.014   0.026  -0.043
  -0.018   0.023   0.034  -0.044   0.007   0.007   0.008  -0.019  -0.016   0.012
  -0.000   0.059   0.028  -0.088  -0.041   0.069   0.003  -0.052  -0.000   0.029
   0.010   0.043  -0.029  -0.037  -0.011   0.026   0.017  -0.024   0.019   0.001
  -0.029  -0.019  -0.002  -0.026   0.021   0.015   0.013  -0.008   0.030   0.035
   0.004   0.004  -0.062   0.007   0.018   0.000  -0.009  -0.002  -0.034   0.001
   0.029  -0.022   0.001   0.045  -0.048   0.047   0.030  -0.067   0.007   0.112
  -0.028  -0.118   0.087   0.029  -0.038   0.040   0.011  -0.008  -0.040  -0.020
   0.016  -0.045   0.016   0.043  -0.063  -0.003   0.086  -0.001  -0.080   0.082
  -0.001  -0.055   0.018   0.048   0.007  -0.048   0.027   0.073  -0.071  -0.065
   0.038   0.014   0.040   0.008  -0.015  -0.001  -0.018  -0.014  -0.030   0.053
  -0.013  -0.086   0.063   0.004  -0.043  -0.010   0.043  -0.012   0.024   0.070
  -0.020  -0.011  -0.020   0.003   0.036   0.037  -0.008  -0.021   0.028   0.014
  -0.057  -0.034   0.072  -0.028   0.001   0.027  -0.016  -0.036   0.061  -0.023
   0.036  -0.056  -0.045   0.064  -0.044   0.036   0.057  -0.047  -0.041   0.047
   0.027  -0.068  -0.032   0.066   0.024  -0.068  -0.024   0.019  -0.001   0.028
  -0.024   0.019  -0.052   0.075   0.027  -0.002  -0.056   0.010  -0.012  -0.015
   0.011   0.068  -0.112   0.058   0.066  -0.028  -0.014  -0.080   0.095   0.003
  -0.028   0.030  -0.048   0.018   0.040  -0.054   0.039   0.009  -0.029  -0.039
  -0.005   0.009   0.040  -0.020  -0.020   0.040  -0.001  -0.038  -0.058   0.008
   0.071  -0.104   0.055   0.055  -0.053  -0.001   0.081  -0.012  -0.066   0.011
   0.056   0.034  -0.020  -0.024   0.021   0.031   0.008  -0.064   0.016   0.017
   0.005   0.027  -0.036   0.004   0.031  -0.002   0.033  -0.010  -0.025   0.018
  -0.041  -0.019   0.015  -0.040  -0.012   0.077   0.027  -0.070  -0.018  -0.017
   0.075  -0.040  -0.046   0.068  -0.010  -0.030  -0.034   0.067   0.027  -0.041
  -0.071  -0.046   0.014   0.075  -0.025  -0.049  -0.050   0.049   0.030  -0.041
  -0.027   0.061   0.005  -0.066  -0.029   0.030   0.026  -0.002  -0.075   0.017
   0.053  -0.041  -0.017   0.007  -0.044   0.011  -0.042  -0.002   0.085  -0.049
  -0.007  -0.043   0.072  -0.001  -0.055   0.052   0.043  -0.062  -0.014   0.038
   0.070  -0.068  -0.041   0.032   0.078  -0.018  -0.048   0.061   0.029  -0.055
   0.034   0.014  -0.072   0.092  -0.108   0.019   0.025  -0.023  -0.021   0.067
   0.029   0.004  -0.021  -0.014   0.042  -0.006  -0.019  -0.024   0.022   0.052
  -0.032  -0.051   0.053   0.019  -0.001  -0.010   0.042   0.002  -0.031  -0.002
   0.100  -0.053  -0.004   0.060  -0.030  -0.010  -0.038   0.006   0.032   0.008
   0.001  -0.043  -0.006  -0.022  -0.011  -0.022   0.015   0.021  -0.009  -0.074
   0.013   0.062  -0.013  -0.026   0.031  -0.027   0.044   0.055  -0.052  -0.043
   0.081  -0.048  -0.010   0.051  -0.052   0.059  -0.015   0.014  -0.063   0.047
   0.019  -0.050   0.052   0.030  -0.038  -0.027   0.065   0.004  -0.031  -0.003
  -0.005   0.022   0.006  -0.017  -0.033   0.033  -0.070   0.076  -0.018  -0.042
   0.008   0.013  -0.011   0.033   0.022  -0.057   0.009   0.024  -0.025  -0.028
   0.054   0.014   0.015   0.005  -0.039   0.056   0.038  -0.018  -0.062   0.067
  -0.014   0.007   0.032  -0.077   0.001   0.140  -0.065  -0.078   0.042   0.092
  -0.106   0.060  -0.071   0.025   0.035  -0.036  -0.026  -0.021   0.039  -0.016
   0.016  -0.022  -0.011   0.014   0.037  -0.045   0.006   0.001  -0.015  -0.016
   0.035  -0.051  -0.003   0.063   0.017  -0.061   0.016   0.055  -0.031  -0.107
   0.070   0.048  -0.048  -0.006  -0.079  -0.002   0.093   0.002  -0.039  -0.028
   0.023  -0.025  -0.066  -0.005  -0.020   0.021   0.059  -0.051  -0.032  -0.012
   0.028   0.048  -0.019  -0.004   0.018  -0.048   0.013   0.024   0.026   0.030
  -0.010   0.020  -0.077   0.065   0.033   0.027   0.006   0.039  -0.007  -0.062
  -0.054   0.055   0.049  -0.064  -0.030  -0.037   0.033  -0.000  -0.038  -0.037
   0.039  -0.004  -0.018   0.013   0.003   0.018  -0.025  -0.035   0.009  -0.006
   0.054   0.059   0.022  -0.135   0.014   0.082  -0.038   0.027   0.025  -0.023
  -0.020  -0.014  -0.009   0.092  -0.037  -0.043   0.002   0.056   0.021  -0.038
  -0.019   0.063  -0.053   0.013  -0.016   0.014   0.018  -0.009   0.007  -0.014
   0.007  -0.017   0.104  -0.064  -0.051   0.054  -0.048   0.054  -0.014   0.026
   0.002  -0.071  -0.025   0.013   0.061  -0.009  -0.064   0.016   0.045  -0.060
  -0.004   0.073  -0.036   0.005   0.003  -0.053  -0.004   0.008  -0.002   0.037
  -0.038  -0.018  -0.032  -0.018   0.014   0.060  -0.042  -0.025   0.016   0.006
  -0.000  -0.048   0.046   0.079  -0.020  -0.009  -0.048  -0.001   0.027   0.040
  -0.008  -0.038   0.019   0.100  -0.083  -0.000  -0.002  -0.019   0.014  -0.039
  -0.029   0.043   0.019   0.020  -0.056  -0.024   0.100  -0.022  -0.023  -0.046
   0.077   0.041  -0.090  -0.028   0.015   0.074   0.009  -0.078  -0.005   0.010
   0.017   0.023  -0.051   0.024   0.003   0.006  -0.033   0.021   0.062  -0.028
   0.004  -0.038  -0.017   0.010   0.010  -0.033  -0.002   0.043   0.039  -0.050
  -0.030   0.027   0.045   0.000  -0.058   0.029   0.003   0.066  -0.026  -0.050
   0.034   0.033  -0.014   0.000  -0.035   0.048   0.041  -0.069   0.041   0.032
   0.014  -0.100   0.064  -0.013   0.040  -0.004   0.048   0.022  -0.132   0.028
   0.081   0.004  -0.092   0.075  -0.006  -0.039  -0.039   0.034   0.029   0.041
  -0.061   0.008   0.063   0.058  -0.112   0.026   0.100  -0.043   0.004   0.029
  -0.070   0.063  -0.002   0.018   0.046  -0.087  -0.027   0.011   0.088  -0.052
  -0.012  -0.052   0.030   0.056  -0.089  -0.058   0.014   0.059  -0.013  -0.028
   0.022  -0.016  -0.033   0.005  -0.029   0.016   0.035  -0.048   0.007  -0.009
  -0.013  -0.031  -0.037  -0.043   0.054   0.061  -0.030  -0.018   0.003   0.048
   0.002  -0.014   0.053  -0.056   0.036  -0.026   0.024  -0.027  -0.025   0.090
   0.006  -0.086   0.004   0.107  -0.029  -0.016  -0.013  -0.003  -0.064   0.020
   0.054  -0.011  -0.030  -0.014   0.055   0.002  -0.092   0.027   0.061  -0.024
  -0.031   0.050   0.013  -0.064   0.051   0.012  -0.034  -0.030   0.070  -0.032
   0.053  -0.022  -0.042  -0.029   0.049   0.016  -0.023   0.003  -0.042   0.044
   0.020  -0.025  -0.026  -0.008  -0.006  -0.035   0.044  -0.006  -0.029  -0.021
  -0.007   0.000  -0.011  -0.030  -0.006  -0.010   0.018  -0.014  -0.030  -0.015
   0.042   0.058  -0.057  -0.014  -0.035   0.006   0.019   0.001  -0.012   0.052
  -0.038   0.030   0.012  -0.020   0.045  -0.033  -0.077   0.055   0.040  -0.036
  -0.065  -0.022   0.111  -0.021   0.003  -0.027   0.040   0.024  -0.046  -0.004
   0.097   0.025  -0.054  -0.004   0.015   0.030  -0.005  -0.084   0.038   0.015
  -0.021  -0.033   0.048   0.018  -0.039  -0.017  -0.017   0.089  -0.032   0.023
  -0.023  -0.050   0.052   0.044  -0.075   0.031   0.023   0.013   0.010  -0.026
   0.069   0.009  -0.016  -0.046   0.026  -0.012   0.021   0.020  -0.046   0.029
   0.105  -0.047  -0.032  -0.058   0.070  -0.005  -0.032  -0.051   0.008   0.051
  -0.061   0.012  -0.008  -0.066   0.032   0.032  -0.027  -0.008   0.040   0.020
  -0.028  -0.032   0.056   0.084  -0.133   0.017   0.098  -0.023  -0.087   0.080
   0.011  -0.068   0.030   0.063  -0.057  -0.014   0.007   0.013   0.090   0.023
  -0.041  -0.072   0.032   0.035  -0.018  -0.005  -0.012  -0.022   0.011   0.002
  -0.002   0.034  -0.024   0.023  -0.009  -0.046   0.059   0.030   0.018  -0.031
  -0.020   0.013  -0.005  -0.021  -0.019   0.034   0.062  -0.068  -0.036   0.011
   0.033  -0.026  -0.025  -0.025   0.062  -0.009   0.036  -0.018  -0.025   0.034
  -0.008  -0.017   0.015  -0.039   0.028   0.012  -0.034  -0.022   0.069   0.036
  -0.063  -0.019  -0.016   0.089   0.045  -0.046  -0.032   0.039  -0.004  -0.038
  -0.001   0.043   0.004  -0.016  -0.008  -0.014  -0.035  -0.009   0.013   0.007
   0.001  -0.039   0.013  -0.042   0.009   0.003  -0.010  -0.003  -0.009  -0.038
   0.004   0.036  -0.040   0.016   0.044  -0.032   0.002   0.022   0.018  -0.019
  -0.038   0.033  -0.008  -0.038  -0.045   0.026   0.005  -0.010  -0.013  -0.070
   0.070  -0.007   0.019  -0.018   0.023   0.012   0.003   0.043  -0.082   0.002
   0.056   0.030  -0.085   0.018  -0.039   0.001   0.080   0.005  -0.088   0.025
   0.023   0.018  -0.024  -0.036  -0.040   0.072   0.080  -0.003  -0.126  -0.032
   0.094   0.126  -0.175  -0.058   0.122  -0.035  -0.019   0.071   0.009  -0.073
   0.026   0.072   0.044  -0.146   0.097  -0.010  -0.026  -0.009   0.121  -0.026
  -0.116   0.096  -0.051   0.028   0.182  -0.115  -0.133   0.136   0.042   0.055
  -0.136  -0.014   0.161  -0.054  -0.038   0.013  -0.006   0.087  -0.084  -0.005
   0.102  -0.094  -0.044   0.060  -0.013  -0.021  -0.029   0.017   0.001  -0.036
   0.020   0.000  -0.036   0.012  -0.031   0.028   0.018  -0.027   0.010  -0.037
   0.009  -0.023  -0.001   0.034  -0.027   0.023   0.053  -0.048   0.030  -0.037
   0.028  -0.020  -0.017   0.054  -0.060  -0.026   0.011   0.010   0.052  -0.042
  -0.069   0.054   0.012   0.059   0.064  -0.028  -0.042  -0.015   0.037   0.030
  -0.039  -0.021   0.037  -0.012   0.048  -0.000  -0.110  -0.002   0.083   0.017
  -0.022  -0.020  -0.023  -0.004   0.013   0.004  -0.005   0.012  -0.008   0.023
  -0.018   0.031  -0.051   0.053   0.034  -0.024  -0.042  -0.025   0.013  -0.019
   0.098   0.030  -0.025  -0.017  -0.007  -0.047   0.023   0.025   0.024  -0.055
  -0.005   0.102  -0.037  -0.079   0.003   0.050  -0.032  -0.020   0.001  -0.031
  -0.010  -0.034   0.025  -0.015  -0.022   0.008   0.020  -0.071  -0.014  -0.010
  -0.014   0.031  -0.044   0.035  -0.031  -0.059   0.083   0.068  -0.024  -0.055
   0.047   0.025  -0.022   0.062  -0.007  -0.050   0.039  -0.038   0.012  -0.025
   0.042   0.006  -0.027  -0.054   0.049  -0.003   0.027   0.016  -0.005  -0.037
   0.026   0.012   0.036  -0.036  -0.035   0.029  -0.014  -0.001  -0.016  -0.057
   0.051   0.017  -0.023  -0.024   0.031  -0.023  -0.012  -0.009   0.013   0.029
  -0.001   0.040   0.019  -0.030  -0.008   0.027   0.044  -0.023  -0.053   0.062
   0.035  -0.019  -0.029   0.009  -0.040   0.003   0.026   0.081  -0.039  -0.012
   0.007   0.036  -0.019   0.005  -0.024  -0.018  -0.027  -0.005   0.013   0.028
   0.011  -0.034  -0.038   0.094  -0.009  -0.030   0.019  -0.002   0.028   0.014
  -0.022   0.018   0.027  -0.020  -0.004  -0.000  -0.015   0.031  -0.039  -0.019
  -0.004  -0.021   0.032  -0.033  -0.013  -0.028  -0.016  -0.027   0.029  -0.019
  -0.021   0.028  -0.003  -0.050   0.045   0.046  -0.065  -0.020   0.028  -0.008
   0.038  -0.034   0.031   0.044  -0.037   0.020   0.032  -0.058   0.046  -0.001
  -0.038   0.035   0.006  -0.031   0.012   0.033  -0.005  -0.021   0.005   0.041
  -0.043   0.014   0.021  -0.066  -0.063   0.029   0.152  -0.069  -0.045  -0.032
   0.027   0.172  -0.243   0.135   0.039  -0.292   0.347   0.021  -0.370   0.284
   0.094  -0.324   0.210   0.049  -0.177   0.166  -0.126  -0.004   0.176  -0.198
   0.101  -0.045  -0.104   0.282  -0.199   0.038   0.171  -0.353   0.373  -0.042
  -0.326   0.307  -0.072  -0.235   0.299   0.111  -0.353   0.239   0.079  -0.171
   0.043   0.010   0.098  -0.057  -0.058  -0.010   0.098   0.030  -0.023  -0.107
   0.089   0.016  -0.023   0.042  -0.074   0.032   0.080  -0.172   0.090  -0.024
   0.026   0.008  -0.030   0.080  -0.077  -0.070   0.102  -0.024  -0.044  -0.011
   0.035   0.054  -0.039   0.021  -0.034  -0.001   0.025  -0.009  -0.008   0.020
  -0.072  -0.025   0.014  -0.004  -0.009   0.047  -0.045   0.046  -0.035   0.025
   0.036  -0.070   0.038   0.031  -0.024  -0.017  -0.021  -0.011   0.031  -0.031
   0.024  -0.022   0.022  -0.021  -0.009   0.000  -0.021  -0.018   0.031   0.008
  -0.002  -0.011  -0.020   0.005  -0.013   0.035   0.030  -0.067   0.029   0.066
  -0.075   0.038   0.014  -0.025  -0.020   0.017   0.019  -0.045   0.051  -0.031
   0.036  -0.052   0.010  -0.060   0.033   0.030  -0.047  -0.008  -0.027  -0.011
   0.053  -0.046  -0.015   0.028   0.004  -0.057  -0.030   0.105  -0.007  -0.068
   0.029   0.004   0.051  -0.009   0.013  -0.043   0.020   0.026  -0.010  -0.009
   0.005   0.012  -0.036   0.012   0.008   0.021  -0.035   0.030   0.011   0.032
  -0.040  -0.022  -0.035   0.108  -0.006  -0.014  -0.030  -0.010   0.059  -0.012
  -0.052   0.093  -0.002  -0.015  -0.035   0.025  -0.008  -0.020   0.048   0.013
  -0.037   0.005   0.032   0.040  -0.055   0.017   0.010  -0.028  -0.022   0.026
  -0.024  -0.036   0.061  -0.002  -0.042   0.026  -0.009  -0.011  -0.038   0.041
   0.009  -0.071   0.058   0.023  -0.097   0.075   0.008  -0.080   0.024  -0.034
   0.032   0.054  -0.104   0.027   0.019  -0.033   0.055  -0.041  -0.045   0.093
  -0.092  -0.047   0.042  -0.095   0.021   0.013  -0.011   0.051  -0.050   0.018
   0.025  -0.076   0.010   0.022   0.055  -0.054  -0.057   0.055  -0.037  -0.009
  -0.001  -0.017   0.021  -0.036  -0.016  -0.024   0.000  -0.003   0.019  -0.035
   0.060  -0.001  -0.005   0.004   0.022  -0.076  -0.045   0.156   0.054  -0.186
  -0.027   0.181   0.003  -0.140   0.052   0.069   0.014  -0.077   0.064   0.007
   0.037   0.021   0.020  -0.010   0.003   0.019  -0.003  -0.031   0.052   0.022
  -0.081   0.072  -0.034  -0.046   0.069  -0.027  -0.036  -0.031   0.007   0.089
   0.042   0.022  -0.011   0.057  -0.014   0.018   0.092   0.030   0.058  -0.097
  -0.048  -0.014  -0.165  -0.083   0.080   0.152   0.131   0.041  -0.021  -0.116
  -0.101   0.049   0.296   0.271   0.218   0.115  -0.272  -0.175  -0.176  -0.009
   0.047  -0.143   0.104   0.008  -0.026  -0.148   0.146   0.507   0.155  -0.245
   0.050   0.117  -0.028   0.080   0.257   0.002  -0.309   0.051  -0.096  -0.229
  -0.128  -0.032   0.120   0.051   0.033   0.068   0.185   0.083  -0.062  -0.091
   0.464   0.260  -0.330  -0.586  -0.109   0.216  -0.022  -0.000   0.345   0.146
  -0.733  -0.373  -0.058  -0.219  -0.132  -0.031   0.026  -0.114   0.315   0.470
  -0.053  -0.176  -0.171  -0.150  -0.200   0.008   0.202   0.008  -0.019  -0.170
  -0.339   0.174   0.603   0.124  -0.678  -0.798  -0.152  -0.034  -0.323   0.940
   1.281  -0.531  -0.854   0.690   0.958  -0.642  -0.327   1.206   0.414  -1.349
  -0.608   0.729  -0.243  -0.967   0.857   0.565  -1.352  -0.682   0.846   0.654
