Corrected accelerogram 20160214_001343_SCAC_20 GNS Science
Site SCAC      42 56 19S  172 55 18E     Cusp file:  20160214_001358_SCAC
Scargill
Instrument Cusp_10414
Resolution: 18-bit   Instr Period: 0.0050 s   Damping: 0.700
Accelerogram 20160214_001343_SCAC_20                 Processed 2016 February 22
11 km east of CHRISTCHURCH
2016 February 14         00:13:43 UT
Epicentre  43 29 50S 172 45 18E  Bearing S12W  Dist   64km  Depth    8km M  5.70
Number of points  3426    Duration  68.50 sec
Instrument corrected data at 0.020 sec intervals
Band-pass filter transition bands are .10-.25 Hz and 24.50-25.50 Hz
Component N00E  Horizontal Axis 1
Acceleration:  peak   -175.7 mm/s/s at  20.12 sec     rms     22.6 mm/s/s
Velocity:      peak    -9.44 mm/s   at  20.18 sec     rms     2.07 mm/s
Displacement:  peak    1.933 mm     at  45.92 sec     rms    0.613 mm
    2016       2      14       0      13     430       0       0    2016       2
      43      29      50     172      45      18       8       0      14       0
      42      56      19     172      55      18       0       0     192      64
   11705     250     250    3426    3426    3426       0       0      13   48124
   200.0    0.70    0.00   0.000  0.0000   0.000   0.000   1.000     0.0    0.00
  42.939 172.922   43.50  172.76    5.70    0.00    0.00    0.00      0.      0.
   58.52    5.00    5.00   68.50  0.0050  0.0200      0.      0.      0.  9806.6
  -176.4   20.13    24.4   0.000      0.  -175.7   20.12    22.6   204.2   2.722
   -9.44   20.18    2.07   14.80   0.287    1.93   45.92    0.61    2.59   0.281
   0.100   0.150   0.250      0.      0.  24.500   1.000  25.500      0.      0.
     0.0     0.0     0.0     0.0     0.0     0.0     0.0     0.0     0.0     0.0
     0.0     0.0     0.0     0.0     0.0     0.0     0.0     0.0     0.0     0.0
     0.0     0.0     0.0     0.0     0.0     0.0     0.0     0.0     0.0     0.0
     0.0     0.0     0.0     0.0     0.0     0.0     0.0     0.0     0.0    -0.0
     0.0    -0.0     0.0    -0.0     0.0    -0.0     0.0    -0.0    -0.0    -0.0
    -0.0    -0.0    -0.0    -0.0    -0.0    -0.0    -0.0    -0.0    -0.0    -0.0
    -0.0    -0.0    -0.0    -0.0    -0.0    -0.0    -0.0    -0.0    -0.0    -0.0
    -0.0    -0.0    -0.0    -0.0    -0.0    -0.0    -0.0    -0.0    -0.0    -0.0
    -0.0    -0.0    -0.0    -0.0    -0.0    -0.0    -0.0    -0.0    -0.0    -0.0
    -0.0    -0.0    -0.0    -0.0    -0.0    -0.0    -0.0    -0.0    -0.0    -0.0
    -0.0    -0.0    -0.0    -0.0    -0.0    -0.0    -0.0    -0.0    -0.0    -0.0
    -0.0    -0.0    -0.0    -0.0    -0.0    -0.0    -0.0    -0.0    -0.0    -0.0
    -0.0    -0.0    -0.0    -0.0    -0.0    -0.0    -0.0    -0.0    -0.0     0.0
     0.0     0.0     0.0     0.0     0.0     0.0     0.0     0.0     0.0     0.0
     0.0     0.0     0.0     0.0     0.0     0.0     0.0     0.0     0.0     0.0
     0.0     0.0     0.0     0.0     0.0     0.0     0.0     0.0     0.0     0.0
     0.0     0.0     0.0     0.0     0.0     0.0     0.0     0.0     0.0     0.0
     0.0     0.0     0.0     0.0     0.0     0.0     0.0     0.0     0.0     0.0
     0.0     0.0     0.0     0.0     0.0     0.0     0.0     0.0     0.0     0.0
     0.0     0.0     0.0     0.0     0.0     0.0     0.0     0.0     0.0     0.0
     0.0     0.0     0.0     0.0     0.0     0.0     0.0     0.0     0.0     0.0
     0.0    -0.0     0.0    -0.0     0.0    -0.0     0.0    -0.0     0.0    -0.0
     0.0    -0.0     0.0    -0.0     0.0    -0.0     0.0    -0.0     0.0    -0.0
     0.0    -0.0     0.0    -0.0     0.0    -0.0     0.0    -0.0     0.0    -0.0
     0.0    -0.0     0.0    -0.0     0.0    -0.0     0.0    -0.0     0.0    -0.1
     0.2    -0.2     0.1    -0.1    -0.2     0.1    -0.2    -0.0     0.2     0.0
    -0.2     0.2     0.2    -0.2    -0.4     0.1    -0.3    -0.1     0.2    -0.0
    -0.5    -0.1    -0.5     0.3     0.1    -0.2     0.3     0.2    -0.0    -0.1
    -0.0     0.0     0.2     0.2     0.4    -0.3    -0.4     0.3     0.1     0.2
     0.2     0.3    -0.0    -0.3     0.0     0.1    -0.3     0.1    -0.3    -0.7
    -0.1    -0.1    -0.0    -0.2     0.2     0.1     0.2     0.1    -0.1     0.1
    -0.0    -0.1     0.6    -0.1    -0.1     0.4     0.1    -0.2    -0.0     0.3
    -0.3     0.1    -0.0     0.3    -0.2    -0.0     0.3     0.3    -0.3    -0.0
     0.1     0.1    -0.4     0.1    -0.1     0.4     0.2    -0.2    -0.2     0.5
    -0.2     0.0     0.5     0.2     0.0    -0.2    -0.1    -0.3     0.3    -0.1
     0.1    -0.2    -0.0    -0.2     0.2     0.0    -0.2     0.0    -0.0     0.1
    -0.2     0.2    -0.2     0.1    -0.1    -0.3    -0.1     0.2    -0.3    -0.1
    -0.3     0.3     0.1    -0.0    -0.1    -0.3     0.1     0.0    -0.1    -0.1
     0.2    -0.1     0.2    -0.3     0.2    -0.4     0.2    -0.2    -0.3    -0.0
    -0.2    -0.1     0.1     0.2     0.0     0.2     0.1    -0.3     0.1    -0.1
    -0.2    -0.0     0.6    -0.0    -0.2     0.2    -0.0    -0.2     0.1     0.0
     0.1     0.1    -0.2    -0.1     0.2     0.2     0.3     0.3     0.2     0.0
    -0.2     0.2     0.3     0.1    -0.3     0.2     0.0     0.2     0.0    -0.3
    -0.5     0.0     0.6     0.4    -0.2     0.4     0.3     0.4     0.3    -0.3
    -0.4     0.3     0.1    -0.0    -0.2     0.2    -0.2    -0.0    -0.3    -0.4
    -0.5     0.2     0.4    -0.2    -0.0     0.3     0.3    -0.1    -0.5    -0.1
     0.0     0.3     0.1    -0.2     0.1    -0.4     0.3     0.1     0.3     0.2
     0.0     0.2     0.3     0.3     0.1    -0.2     0.1     0.2     0.3     0.1
    -0.2     0.2    -0.1    -0.0     0.5    -0.1    -0.1    -0.2     0.0     0.5
    -0.2     0.1    -0.2     0.2    -0.1     0.1     0.1    -0.3     0.1    -0.2
    -0.0    -0.4     0.3    -0.2    -0.4     0.3    -0.2     0.7    -0.4     0.0
     0.2    -0.0     0.2    -0.5    -0.4     0.1     0.1     0.0    -0.1     0.3
    -0.0    -0.0    -0.1    -0.4    -0.2    -0.2     0.4     0.2     0.3    -0.4
     0.0    -0.5     0.2    -0.0     0.1     0.5     0.1    -0.3     0.2    -0.6
     0.2    -0.2     0.3    -0.3    -0.2     0.2    -0.5    -0.6    -0.2    -0.2
    -0.1    -0.3    -0.1    -0.4    -0.1    -0.2    -0.5    -0.3    -0.4     0.1
     0.2    -0.1     0.0    -0.2    -0.3    -0.6    -0.4    -0.0    -0.2    -0.1
     0.1    -0.0    -0.3    -0.4    -0.3    -0.5    -0.4     0.0    -0.4     0.2
     0.1    -0.2     0.0     0.1    -0.0    -0.1    -0.0     0.0    -0.1    -0.3
    -0.3    -0.3     0.4    -0.3    -0.1    -0.3    -0.7    -0.3    -0.5    -0.2
    -0.3    -0.1    -0.0     0.0     0.1     0.3     0.0    -0.0    -0.0     0.2
     0.3    -0.1     0.0    -0.4     0.0    -0.1     0.1     0.2    -0.1     0.0
    -0.3    -0.4     0.6     0.0    -0.0    -0.1    -0.4    -0.7     0.4    -0.3
    -0.1    -0.1    -0.1    -0.4    -0.1    -0.2     0.1    -0.2    -0.1    -0.6
    -0.5     0.2     0.2     0.1    -0.3     0.0    -0.2     0.0    -0.8    -0.5
     0.1    -0.0     0.2    -0.2    -0.3     0.4     0.1    -0.4    -0.2    -0.4
    -0.4    -0.2    -0.4    -0.0    -0.1     0.2    -0.2     0.2     0.4     0.5
     1.3     1.0     1.5     1.4     1.7     2.2     3.0     2.3     3.0     2.8
     2.4     1.7     1.5     0.2     0.3     1.7     2.7     1.4     1.7     2.0
     2.4     4.5     3.7     1.6     1.9     3.0     2.7     3.6     4.2     2.7
     2.6     0.9    -1.7    -3.2    -5.7    -4.7    -3.0    -1.8    -1.8    -4.4
    -0.4     2.8     2.7     6.2     5.2     2.5     3.3     2.5     4.2     0.3
    -9.8    -2.1     1.1    -2.0   -12.1    -6.9    -1.8    -4.8    -3.1     6.4
     6.0     8.9    12.5    23.1    12.2     4.8     9.9     8.8    -9.4   -14.5
   -10.1   -16.2   -20.4   -17.9   -21.9   -23.0   -14.2    -3.2    15.5    14.5
     9.1    16.3    20.3    22.5    -0.3    -6.7    -6.9   -12.0   -19.5   -35.9
   -17.7   -16.7   -20.0   -19.6    10.8     3.5    -8.3    -2.3     1.6    14.9
    11.6    12.0    18.3    23.9     2.3    -2.8    -3.5   -20.3   -28.6   -28.1
   -33.8   -28.8     2.9     2.3   -15.8    -3.5    30.0    18.3    -1.3    15.5
    21.6    19.3    30.6    26.2    20.4    22.2   -11.6   -28.4   -26.5   -29.1
   -46.6   -29.2     7.6    12.5    32.8    29.5    27.0    40.6    18.0    18.0
    46.4    43.6    -9.6    -3.5    15.0   -18.7   -35.6   -10.7   -35.0   -63.8
   -43.7   -37.2   -32.9     1.3     6.4   -16.5    26.8    45.2    34.6    28.7
    27.7     7.3     4.0    -0.1   -11.6   -19.3   -25.9   -43.0   -38.2   -21.0
     4.1    30.2    27.1    25.7    53.2    46.0    13.4    35.3    49.2    11.2
    -5.8   -11.4   -20.3     1.3    10.5     3.0     2.7    -8.0   -33.4   -49.9
   -61.9   -45.6     1.4    28.6    26.3    41.3    45.5    17.3    21.3     5.2
   -19.0   -21.1   -11.1   -31.3   -45.1     6.4    19.6     6.3     2.3    22.7
    12.9    -6.1    -7.1   -10.7   -10.1    -0.3    17.1    25.1    19.0    -5.7
   -15.2   -17.1   -34.5   -16.3     9.6    19.6    17.7    18.1    19.4    14.6
    32.3    23.2   -15.6   -49.5   -66.8   -46.8   -26.5   -22.3    -4.4     5.9
    11.0     1.4    -7.5    -0.2     6.6    14.7    18.2     1.6   -12.8     5.4
    17.0    -7.7   -31.9   -33.3   -28.3   -11.0    12.0     5.7     1.7    17.3
    39.6    37.5    26.2     3.1    -7.8     3.7    17.2    17.6    -8.6   -40.7
   -54.8   -44.2   -27.0     3.0    39.0    48.8    32.1    24.1    17.7    -7.1
   -22.7   -43.3   -47.1   -27.7     4.3     7.7    -8.0    -3.7     8.6    15.2
     9.0   -15.7   -34.8   -31.9   -33.4   -36.3   -27.4     2.0    30.6    43.3
    48.6    41.6    28.2    19.3     8.0    14.0    21.3    19.0    17.9     7.6
   -17.9   -30.2   -20.0    -9.6     7.3    31.4    33.5    15.3    -2.7     1.1
     5.8    -2.3    -6.8   -10.2   -10.4     4.8    15.5    18.4    18.8    14.7
    12.1    -6.1   -29.5   -47.1   -65.8   -64.8   -45.8   -10.7    27.7    53.1
    55.2    51.3    48.2    35.7    12.7   -12.2   -14.0    -9.7   -11.6   -11.8
    -7.5   -10.9    -7.5    -0.5    -0.6   -10.3   -17.7   -13.1    -5.7    22.2
    50.5    43.2    17.2   -11.8   -27.1   -30.9   -40.7   -47.1   -39.0   -24.2
   -17.5   -23.7   -20.4    -7.3     0.5     9.7    18.8    25.7    21.8    11.2
     3.1     5.2     7.8    22.4    39.8    35.9    23.9    10.9    -2.6   -10.8
    -6.3     0.1    -3.2   -11.9   -18.5   -20.0   -27.3   -33.8   -17.2     2.4
     0.9    -5.1    -5.7     4.6    23.1    33.3    18.1     2.9     3.6    -1.7
   -15.9   -27.6   -29.1    -8.4    19.3    21.6     7.4    -0.6     3.2    15.6
    19.0    14.1    -0.2    -6.8    -6.0    -6.9    -9.8   -11.1    -7.5     0.4
     9.9    19.2    16.4     9.5     5.7     3.6     5.0     4.0     2.7     5.8
    18.2    24.9    21.6    21.8    18.9    12.7    -1.9   -12.6    -3.7     4.7
     4.6     2.1    -3.8   -18.7   -22.6   -16.2    -9.9     0.3    10.0    18.2
    14.8     7.5    -0.7    -6.9   -11.6   -12.1   -12.7   -13.8    -7.4    -2.4
    -7.7   -18.1   -25.0   -22.5   -25.8   -33.1   -25.1    -8.9     3.4     5.9
     4.3     8.8    18.7    26.9    15.6    -2.9   -19.8   -27.0   -15.5    -4.4
     2.0    -2.9    -2.7    -2.9   -13.0   -17.3   -10.9     0.4     7.1    11.5
    15.0    18.8    23.5    28.0    27.5    23.5    13.2   -15.2   -55.0   -79.2
   -78.5   -68.2   -59.6   -47.2   -22.8     2.5    25.7    46.8    63.2    65.8
    49.1    24.4     2.3   -16.5   -20.0    -3.7    24.7    45.0    49.1    37.9
    11.1   -23.7   -53.2   -74.1   -78.3   -71.8   -56.3   -16.2    52.0   120.2
   155.2   156.4   129.3    87.6    43.5    -2.8   -48.1   -86.0  -106.6  -112.9
  -103.3   -75.7   -22.2    33.7    60.6    55.9    35.5    16.6    10.0    21.3
    38.4    37.0     4.4   -30.9   -30.0     0.3    31.6    43.2    32.8    11.5
    -8.4   -20.9   -36.1   -46.3   -49.7   -44.6   -25.4     9.9    38.8    64.5
    81.9    61.7    21.2   -29.4   -85.7  -144.1  -175.7  -164.4  -115.6   -30.1
    48.5   102.6   132.3   122.9    93.0    65.4    43.4     8.4   -26.5   -70.1
  -114.4  -120.4   -82.4   -46.5    -8.7    28.4    50.1    61.3    50.7    33.1
    20.2    -8.2   -27.1   -22.5   -11.8     3.1    26.3    57.6    95.3   132.3
   135.3    80.2    11.2    -8.9    13.0    38.2    34.7     7.5   -27.6   -63.6
   -75.9   -51.1   -29.2   -36.9   -59.8   -58.3   -41.1   -40.6   -55.9   -71.9
   -72.6   -48.6     3.2    58.1    85.7    79.9    66.4    51.7    20.2   -22.8
   -49.9   -36.3     5.3    37.3    52.9    51.3    26.2    -1.9   -16.2   -20.1
   -23.9   -33.1   -43.1   -49.3   -68.8   -89.1   -82.1   -44.6   -18.8    -8.4
     4.6    39.3    83.3    81.7    43.4    19.6     8.0     2.1     6.1    18.0
    22.3     7.8   -13.9   -29.8   -27.7    -3.5    21.0    26.9    16.1     8.8
    -0.7   -15.2   -29.3   -40.6   -33.3    -5.9    19.9    30.6    22.1    -7.0
   -47.4   -63.6   -39.3     0.9    41.8    78.0    95.1    90.0    73.9    58.5
    48.8    34.5     1.9   -45.6   -81.3   -86.4   -69.3   -45.0   -27.1   -30.7
   -40.4   -36.5   -17.1    22.9    72.1    94.0    69.2    26.7    -9.0   -25.8
   -19.2    -1.7     9.6     6.3    -9.0   -16.2    -8.2     5.4    13.2    19.2
    29.8    32.2    28.7    25.8    27.4    17.6    -6.0   -24.4   -25.3   -25.5
   -38.3   -49.7   -43.7   -30.8   -19.5    -8.4     2.0     9.1    11.5    15.3
    16.7     3.3   -22.3   -34.9   -32.5   -27.3   -11.5    18.6    46.1    51.7
    37.0    29.9    33.8    33.3    20.4    -0.3   -24.3   -40.1   -39.9   -21.0
    -5.4   -10.8   -30.2   -47.1   -49.5   -44.8   -38.8   -27.7   -10.1     8.1
    15.3     8.5     4.0    12.6    38.0    67.3    86.8    77.9    59.6    57.3
    52.9    32.8     5.3   -13.5   -25.8   -36.8   -47.2   -46.9   -32.1   -23.8
   -28.0   -35.5   -39.1   -34.2   -15.1     5.4    10.2     4.1    -3.3   -16.3
   -35.1   -44.3   -38.1   -27.9   -21.9   -10.6     6.5    20.5    30.8    43.1
    62.1    83.5    93.9    88.9    72.2    46.9    12.5   -25.5   -58.4   -77.4
   -80.1   -72.3   -58.2   -38.0   -17.5    -0.1    12.6    18.9    24.8    27.4
    17.5    -7.1   -32.3   -52.1   -67.9   -72.6   -66.3   -53.7   -41.9   -30.7
   -11.3     7.7    16.9    12.4     3.4    -0.2     3.4    10.7    23.3    42.1
    58.3    74.3    82.1    75.0    60.7    49.4    41.2    32.9    25.4    17.2
    13.1    13.3    10.9    10.7    10.8     9.5     4.2    -2.7   -10.7   -20.7
   -37.0   -58.6   -76.7   -85.3   -85.6   -80.4   -72.0   -58.2   -36.0    -5.6
    24.9    44.6    54.8    61.9    62.3    53.2    42.1    38.7    40.7    36.4
    22.5     9.3     0.7    -6.8   -11.7   -16.3   -16.4   -12.6    -2.5     8.1
    17.1    19.3    13.1     4.3     0.1     0.4    -4.6   -13.6   -23.8   -31.2
   -36.9   -39.5   -40.4   -35.4   -24.6    -9.9     4.3    14.6    20.5    24.5
    30.7    39.1    50.4    60.7    60.8    54.2    47.0    39.2    29.5    17.9
     3.1   -13.7   -29.4   -43.1   -53.8   -60.9   -63.8   -68.4   -69.2   -63.4
   -49.4   -27.9    -5.2    13.8    35.1    52.5    60.1    64.1    68.4    64.3
    49.3    25.9    -1.9   -24.5   -37.6   -42.6   -40.8   -32.5   -17.1     1.7
    19.9    30.7    32.6    30.9    26.1    13.6    -3.3   -12.1   -12.0   -13.4
   -18.7   -23.6   -27.2   -25.0   -17.8    -5.8     8.9    23.0    31.6    32.7
    23.1     7.2    -7.0   -20.7   -37.6   -48.7   -52.3   -54.4   -54.9   -52.3
   -45.5   -40.4   -35.5   -27.7   -15.1     0.9    19.6    35.2    47.8    54.8
    63.6    71.8    71.8    62.1    46.0    28.9    13.7    -2.6   -17.5   -27.7
   -32.1   -30.1   -30.7   -36.4   -40.5   -41.5   -38.2   -34.6   -30.0   -24.6
   -16.6    -9.8    -2.9     5.1    12.2    13.8    10.1     5.3    -1.2    -4.9
    -2.8     5.5    14.4    23.4    32.8    43.3    49.0    46.3    36.6    26.0
    13.0    -0.2   -13.5   -21.5   -27.8   -33.6   -35.4   -34.0   -29.5   -24.1
   -18.0   -10.3    -4.1     1.7     7.5    13.3    16.8    19.9    19.9    17.0
    15.1    13.0     9.9     7.0     4.0     2.7     3.3     6.5    10.8    16.9
    25.4    32.6    37.2    33.2    22.4    11.1     3.0    -1.4    -0.1     2.1
     4.0     6.3     4.8     2.8     0.4    -1.8    -4.8   -11.0   -17.5   -24.6
   -32.8   -39.9   -45.6   -49.4   -48.5   -44.4   -35.2   -22.1    -5.2    12.1
    26.4    37.9    45.5    51.4    53.9    53.8    50.0    39.9    25.0     8.9
    -3.5   -13.0   -21.0   -31.1   -42.8   -53.8   -60.3   -60.7   -57.1   -49.7
   -38.6   -26.7   -19.8   -15.2    -8.0    -0.5     6.3    11.1    16.9    20.3
    23.3    27.8    29.5    30.0    30.4    29.4    30.6    31.9    31.0    27.0
    23.7    19.0    11.5     3.2    -5.9   -17.4   -31.5   -43.0   -48.9   -52.3
   -50.5   -41.9   -33.1   -28.1   -24.0   -19.3   -14.5   -11.7    -6.7    -0.2
     4.7     7.8     7.8     7.9    10.5    16.7    25.0    33.0    38.4    41.1
    41.9    37.7    28.1    16.5     5.8    -2.3    -8.2   -10.8   -10.1    -9.2
    -7.3    -3.8     1.5     6.6    11.5    15.4    20.5    23.4    24.0    23.0
    22.7    23.8    24.9    23.8    17.5    12.6     5.2    -5.0   -14.5   -21.1
   -23.4   -27.2   -30.6   -31.5   -31.7   -31.4   -31.9   -31.7   -33.6   -35.5
   -34.7   -29.7   -23.2   -14.9    -0.8    13.9    28.6    39.1    41.9    40.3
    36.3    33.1    27.5    20.0    12.1     5.4     0.2    -3.6    -7.1   -12.0
   -18.2   -24.0   -28.5   -29.7   -29.5   -25.7   -19.3   -13.4    -8.0    -5.6
    -3.4     3.4    13.3    20.0    24.8    27.4    28.2    32.6    35.3    34.4
    31.6    29.1    26.4    24.1    20.7    12.7     4.3    -4.2    -9.4   -12.6
   -13.3   -13.9   -14.7   -16.4   -17.4   -17.0   -13.7    -8.0    -3.9    -2.0
    -3.6    -6.7    -7.2    -4.8    -1.1     3.1     8.5    14.2    17.3    16.5
    13.3     9.8     5.1     1.2    -1.2    -3.9    -6.6    -6.6    -5.9    -7.3
   -10.9   -13.1   -11.7    -9.7    -9.1   -11.7   -14.1   -15.6   -15.8   -17.6
   -18.2   -16.7   -14.1   -10.6    -6.9    -3.9    -0.7     3.4     8.8    14.5
    19.9    22.0    20.4    19.7    16.4    12.8     8.2     1.8    -4.6    -8.4
   -10.7   -11.6   -13.7   -15.6   -16.3   -13.9   -10.2    -7.4    -4.6    -2.4
     1.0     4.4     6.1     5.1     1.0    -3.2    -5.8    -6.0    -8.3   -10.3
   -13.5   -14.7   -12.4    -9.8    -6.7    -2.1     3.6    10.3    15.6    19.1
    20.1    18.7    14.8    10.6     6.9     4.2     2.1     1.5     4.1     5.4
     5.4     5.4     6.4     8.0     8.9     7.7     7.0     5.3     4.2     4.3
     4.2     3.6     3.1     1.1    -0.3    -3.4    -8.9   -15.3   -20.1   -22.3
   -23.1   -23.3   -22.7   -22.6   -24.0   -28.1   -31.9   -31.1   -24.8   -19.6
   -15.3   -12.0    -8.4    -5.6    -3.7     0.9     7.4    12.9    17.3    20.0
    24.0    29.7    35.7    41.1    43.9    44.5    43.6    42.2    39.4    35.3
    28.7    19.3     9.1     0.2    -8.9   -17.2   -26.1   -32.0   -36.2   -38.7
   -37.4   -32.9   -27.0   -22.2   -17.9   -13.1    -6.5     1.1     5.6     8.3
     9.6    10.0     7.9     5.1     2.4    -0.6    -3.6    -5.9    -5.4    -1.2
     5.1    10.2    13.6    14.4    13.0     9.7     6.9     5.4     5.0     5.1
     3.4     3.2     3.4     3.4     4.0     4.9     4.6     3.9     3.3     2.5
     0.9    -0.2    -2.2    -5.5    -6.8    -9.3    -9.7    -9.2    -6.6    -3.4
    -0.9     1.5     3.7     4.8     9.2    13.1    16.6    17.7    15.8    12.0
     8.2     5.6     3.5    -0.5    -5.4    -7.1    -7.4    -8.7   -10.1   -11.4
   -12.3   -11.9    -9.7    -6.5    -2.2     2.3     5.7     7.5     7.6     4.9
     1.7    -0.9    -4.7    -6.4    -8.4    -7.8    -5.2    -3.5    -1.0     1.1
     2.3     3.9     4.7     5.4     4.6     3.3     2.9    -0.1    -2.8    -4.0
    -3.8    -2.5    -1.9    -2.2    -2.9    -2.7    -2.3    -1.7     0.4     1.7
     2.2     0.6     0.3     2.9     5.0     8.0    10.7    12.0    11.1     9.1
     3.9    -3.7   -11.4   -17.1   -21.6   -24.1   -25.1   -24.7   -26.3   -26.5
   -25.5   -22.0   -17.7   -13.7    -9.7    -4.8     0.4     4.7     7.7    12.9
    16.2    19.4    20.2    20.1    19.9    19.3    19.8    18.5    16.4    12.8
