Corrected accelerogram 20160214_001343_PPHS_20 GNS Science
Site PPHS      43 29 34S  172 36 25E     Cusp file:  20160214_001346_PPHS
Christchurch Papanui High School
Instrument Cusp_42261
Resolution: 18-bit   Instr Period: 0.0050 s   Damping: 0.700
Accelerogram 20160214_001343_PPHS_20                 Processed 2016 February 22
11 km east of CHRISTCHURCH
2016 February 14         00:13:43 UT
Epicentre  43 29 50S 172 45 18E  Bearing S88E  Dist   12km  Depth    8km M  5.70
Number of points  8192    Duration 163.82 sec
Instrument corrected data at 0.020 sec intervals
Band-pass filter transition bands are .10-.25 Hz and 24.50-25.50 Hz
Component N00E  Horizontal Axis 1
Acceleration:  peak    666.2 mm/s/s at  43.56 sec     rms     66.5 mm/s/s
Velocity:      peak   -71.11 mm/s   at  44.24 sec     rms     9.01 mm/s
Displacement:  peak  -26.250 mm     at  48.10 sec     rms    3.999 mm
    2016       2      14       0      13     430       0       0    2016       2
      43      29      50     172      45      18       8       0      14       0
      43      29      34     172      36      25       0       0      92      12
   36717     250     250    8192    8192    8192       0       0      13    6990
   200.0    0.70    0.00   0.000  0.0000   0.000   0.000   1.000     0.0    0.00
  43.493 172.607   43.50  172.76    5.70    0.00    0.00    0.00      0.      0.
  183.58    5.00    5.00  163.82  0.0050  0.0200      0.      0.      0.  9806.6
  -677.9   43.40    68.7   0.000      0.   666.2   43.56    66.5   750.9   2.551
  -71.11   44.24    9.01   86.07   0.290  -26.25   48.10    4.00   34.80   0.290
   0.100   0.150   0.250      0.      0.  24.500   1.000  25.500      0.      0.
     0.0     0.0     0.0     0.0     0.0     0.0     0.0     0.0     0.0     0.0
     0.0     0.0     0.0     0.0     0.0     0.0     0.0     0.0     0.0     0.0
     0.0     0.0     0.0     0.0     0.0     0.0     0.0     0.0     0.0     0.0
     0.0     0.0     0.0     0.0     0.0     0.0     0.0     0.0     0.0     0.0
     0.0     0.0     0.0     0.0     0.0     0.0     0.0     0.0     0.0     0.0
     0.0     0.0     0.0     0.0     0.0     0.0     0.0     0.0     0.0     0.0
     0.0     0.0     0.0     0.0     0.0     0.0     0.0     0.0     0.0     0.0
     0.0     0.0     0.0     0.0     0.0     0.0     0.0     0.0     0.0     0.0
     0.0     0.0     0.0     0.0     0.0     0.0     0.0     0.0     0.0     0.0
     0.0     0.0     0.0     0.0     0.0     0.0     0.0     0.0     0.0     0.0
     0.0     0.0     0.0    -0.0     0.0    -0.0     0.0    -0.0     0.0    -0.0
     0.0    -0.0    -0.0    -0.0    -0.0    -0.0    -0.0    -0.0    -0.0    -0.0
    -0.0    -0.0    -0.0    -0.0    -0.0    -0.0    -0.0    -0.0    -0.0    -0.0
    -0.0    -0.0    -0.0    -0.0    -0.0    -0.0    -0.0    -0.0    -0.0    -0.0
    -0.0    -0.0    -0.0    -0.0    -0.0    -0.0    -0.0    -0.0    -0.0    -0.0
    -0.0    -0.0    -0.0    -0.0    -0.0    -0.0    -0.0    -0.0    -0.0    -0.0
    -0.0    -0.0    -0.0    -0.0    -0.0    -0.0    -0.0    -0.0    -0.0    -0.0
    -0.0    -0.0    -0.0    -0.0    -0.0    -0.0    -0.0    -0.0    -0.0    -0.0
    -0.0    -0.0    -0.0    -0.0    -0.0    -0.0    -0.0    -0.0    -0.0    -0.0
    -0.0    -0.0    -0.0    -0.0    -0.0    -0.0    -0.0    -0.0    -0.0    -0.0
    -0.0    -0.0    -0.0    -0.0    -0.0    -0.0    -0.0    -0.0    -0.0    -0.0
    -0.0    -0.0    -0.0    -0.0    -0.0    -0.0    -0.0    -0.0    -0.0    -0.0
    -0.0    -0.0    -0.0    -0.0    -0.0    -0.0    -0.0    -0.0    -0.0    -0.0
    -0.0    -0.0    -0.0    -0.0    -0.0    -0.0    -0.0    -0.0    -0.0    -0.0
    -0.0    -0.0    -0.0    -0.0    -0.0    -0.0    -0.0    -0.0    -0.0    -0.0
    -0.1     0.1     0.3     0.2     0.1    -0.2     0.0     0.2    -0.0    -0.1
    -0.2     0.1    -0.0    -0.3    -0.2     0.1    -0.0     0.0     0.3     0.1
     0.0     0.2     0.2    -0.1     0.0    -0.1     0.1     0.2     0.1    -0.4
    -0.2     0.4     0.3    -0.1     0.1     0.0     0.1     0.3     0.4    -0.1
    -0.3     0.1     0.2    -0.0    -0.5    -0.5     0.5     0.6    -0.2    -0.5
     0.2     0.6     0.1    -0.5    -0.4     0.4     0.2    -0.1    -0.3    -0.2
     0.3     0.2    -0.3    -0.4    -0.1     0.3    -0.0    -0.2    -0.0     0.2
    -0.0    -0.2    -0.1     0.5     0.1    -0.5    -0.4     0.3     0.3    -0.2
    -0.6     0.2     0.8    -0.1    -0.9    -0.2     0.3     0.1    -0.2    -0.1
     0.2     0.3     0.1     0.1     0.2     0.1    -0.3    -0.6    -1.0     0.4
     0.6    -0.3     0.2    -0.2     0.9     0.5    -0.5    -0.4    -0.2     0.0
     0.2     0.1    -0.3     0.2     0.7     0.4    -0.8    -0.4    -0.1     0.1
    -0.5     0.0     0.2    -0.1     0.2    -0.2     0.1     0.1     0.1     0.4
     0.3     0.3    -0.2    -0.6     0.1     0.0    -0.4    -0.3     0.4     0.3
     0.1     0.3     0.1    -0.2     0.1     0.2    -0.5    -0.5    -0.2     0.5
     0.6     0.4     0.6     0.1    -0.7    -0.2    -0.5    -0.7    -0.2     0.3
     0.3     0.3     0.6     0.1     0.1     0.1     0.2    -0.6    -0.3     0.1
     0.1     0.3     0.1    -0.2     0.1    -0.0    -0.2    -0.1    -0.0     0.1
    -0.0    -0.1    -0.2    -0.3     0.1     0.0     0.1     0.1     0.3    -0.0
    -0.3    -0.2    -0.2    -0.2     0.2     0.2    -0.2     0.0     0.3     0.4
    -0.2    -0.2    -0.0     0.1     0.1    -0.2    -0.3    -0.0     0.1     0.2
     0.0     0.1     0.5     0.2    -0.2    -0.2    -0.1    -0.1     0.2    -0.1
    -0.4     0.0     0.3     0.3    -0.1    -0.2     0.4     0.3    -0.1    -0.4
    -0.3     0.0    -0.1    -0.4    -0.3    -0.0     0.3     0.2     0.0     0.0
    -0.2     0.1     0.3     0.0    -0.1    -0.2    -0.0     0.1     0.0    -0.2
    -0.2     0.2    -0.0    -0.2    -0.2     0.1     0.3     0.2    -0.3    -0.3
     0.3     0.5    -0.2    -0.4     0.1     0.3    -0.1    -0.3    -0.1    -0.1
    -0.1     0.1     0.0    -0.1     0.1     0.1     0.1    -0.0    -0.2     0.1
     0.1    -0.0     0.0    -0.2    -0.2     0.0    -0.0    -0.2     0.1     0.0
     0.1     0.3     0.1    -0.1    -0.1    -0.1    -0.0    -0.1     0.0    -0.2
    -0.0     0.1     0.0    -0.0    -0.0     0.0     0.1    -0.2    -0.1     0.2
     0.5     0.2    -0.1     0.1     0.1     0.1    -0.0     0.0    -0.1     0.0
     0.0     0.1     0.0    -0.1     0.1     0.3     0.3     0.0    -0.1     0.1
     0.0     0.1     0.1     0.1     0.1     0.1     0.3    -0.0    -0.4    -0.1
     0.0     0.1    -0.1    -0.2    -0.3     0.2     0.2     0.1    -0.2     0.0
     0.4     0.2    -0.0    -0.3    -0.2     0.1     0.0    -0.0    -0.3    -0.2
     0.1    -0.0    -0.0     0.0    -0.1     0.2     0.3     0.0    -0.2     0.0
     0.0    -0.1     0.0    -0.1    -0.2     0.0     0.1    -0.0    -0.0     0.1
     0.0    -0.0     0.0     0.0     0.0     0.1    -0.1    -0.1     0.0     0.0
    -0.1     0.0     0.0     0.0    -0.1     0.1    -0.0     0.0    -0.1    -0.1
     0.1     0.0    -0.2    -0.4     0.2     0.2    -0.2    -0.1     0.1     0.2
     0.3    -0.1    -0.1     0.2     0.2    -0.0    -0.1     0.1     0.1    -0.2
    -0.2    -0.2    -0.2    -0.1    -0.5    -0.3     0.1     0.2     0.3     0.1
    -0.1    -0.3     0.2     0.2    -0.4    -0.2     0.0    -0.1    -0.1    -0.1
    -0.3     0.1     0.3    -0.1    -0.1    -0.1     0.3     0.1     0.0     0.1
    -0.1    -0.2    -0.0     0.1    -0.2    -0.0     0.1     0.2     0.1     0.1
    -0.0    -0.2    -0.2    -0.1     0.1    -0.0    -0.0     0.2     0.4     0.1
    -0.0    -0.0    -0.0    -0.2    -0.0     0.1    -0.0    -0.1    -0.1     0.2
     0.3     0.0     0.2     0.3    -0.0    -0.2    -0.1    -0.1    -0.1     0.1
     0.1     0.0     0.2     0.3    -0.0    -0.2    -0.1     0.2     0.2    -0.0
    -0.0    -0.0     0.0     0.1     0.1    -0.2     0.1     0.4     0.0    -0.0
     0.1     0.1     0.1    -0.1    -0.2    -0.3    -0.3    -0.2     0.2     0.3
     0.0    -0.1     0.1     0.2    -0.1    -0.1    -0.1    -0.2    -0.1     0.0
     0.1     0.1    -0.0    -0.2    -0.2     0.1     0.3    -0.0    -0.2     0.2
     0.1    -0.1    -0.2     0.1     0.0    -0.2    -0.1    -0.0     0.0     0.2
    -0.1    -0.3    -0.1     0.2    -0.0    -0.1    -0.1    -0.1    -0.0     0.2
    -0.0    -0.0    -0.0     0.2    -0.0    -0.3    -0.3    -0.1     0.2     0.2
    -0.3    -0.4     0.0     0.2     0.1     0.1    -0.2     0.0     0.0     0.0
     0.0     0.0     0.1     0.0     0.1    -0.1    -0.0    -0.2    -0.0     0.2
    -0.1    -0.2    -0.1     0.1     0.1    -0.2    -0.2    -0.0     0.2     0.2
    -0.0    -0.1     0.1     0.3    -0.2    -0.2    -0.1    -0.2     0.0     0.1
    -0.1    -0.1    -0.0    -0.3    -0.3    -0.1     0.2     0.2     0.0     0.0
    -0.1    -0.1     0.0     0.0     0.2     0.1    -0.3    -0.2    -0.0     0.1
    -0.0     0.1     0.2    -0.0    -0.2     0.1    -0.2    -0.0     0.2     0.1
     0.0    -0.3    -0.2     0.3     0.4     0.2    -0.1     0.0     0.1     0.0
    -0.5    -0.2     0.2     0.1    -0.4    -0.1     0.3    -0.0    -0.0     0.4
     0.1    -0.4     0.2     0.3    -0.0    -0.0    -0.0    -0.2     0.3    -0.1
    -0.1    -0.2     0.0     0.3    -0.2    -0.3     0.7     0.4    -0.0    -0.0
    -0.1     0.2     0.1    -0.3    -0.1    -0.0     0.2     0.0    -0.6     0.0
     0.5    -0.1    -0.2     0.0     0.2    -0.1    -0.2    -0.1     0.1     0.2
    -0.2     0.1     0.0    -0.2    -0.0     0.0    -0.1    -0.1    -0.1     0.2
     0.0     0.1     0.0     0.1     0.1     0.1     0.0     0.1    -0.1    -0.1
    -0.0    -0.2    -0.5    -0.2    -0.1    -0.1     0.1     0.2     0.2     0.2
     0.1     0.2     0.1    -0.1     0.1    -0.0    -0.2    -0.1    -0.1    -0.4
    -0.1     0.0     0.1    -0.2     0.0     0.2     0.1    -0.1    -0.0     0.2
     0.3     0.1    -0.2    -0.4    -0.2     0.1     0.2    -0.0    -0.2     0.1
     0.2     0.2     0.0    -0.0     0.0     0.2    -0.1    -0.2    -0.1    -0.1
     0.1     0.1    -0.2     0.2     0.1     0.1    -0.1     0.1     0.2    -0.0
    -0.0     0.1     0.2    -0.3     0.1     0.3     0.1    -0.1    -0.1    -0.0
    -0.0    -0.0    -0.2    -0.0    -0.0     0.0    -0.2     0.0     0.2    -0.0
     0.0    -0.0    -0.1     0.1     0.2    -0.2    -0.1     0.1    -0.1    -0.2
    -0.0    -0.0    -0.1    -0.2     0.0     0.2     0.2     0.1     0.1     0.0
     0.1    -0.0     0.1    -0.0    -0.2    -0.1     0.1    -0.1    -0.1     0.2
     0.1     0.1    -0.0    -0.1     0.1     0.0    -0.0    -0.1     0.1    -0.1
     0.0    -0.1     0.3     0.3    -0.3    -0.2     0.2     0.0    -0.1     0.0
    -0.0    -0.1    -0.1    -0.3    -0.0     0.1     0.1     0.1    -0.1     0.2
     0.1    -0.2    -0.3    -0.0     0.1     0.1    -0.3    -0.1     0.2     0.1
     0.2     0.4     0.1    -0.3    -0.0    -0.0     0.1    -0.0    -0.1    -0.1
    -0.0    -0.2    -0.0     0.0     0.3    -0.1    -0.1    -0.1     0.0     0.0
    -0.1    -0.1    -0.3     0.1     0.2     0.1    -0.1    -0.0     0.1     0.0
    -0.3    -0.1    -0.0    -0.1    -0.1    -0.5     0.2     0.5    -0.1    -0.1
     0.4     0.1    -0.3    -0.3    -0.0     0.3    -0.0    -0.1    -0.1    -0.0
     0.3     0.2    -0.4     0.0     0.4     0.4    -0.1    -0.3    -0.2    -0.2
    -0.1     0.2     0.1    -0.1     0.1     0.2     0.2    -0.2    -0.4    -0.1
     0.1    -0.1    -0.2     0.0     0.1    -0.1    -0.0     0.1    -0.1    -0.1
     0.1    -0.1    -0.1     0.1     0.1     0.2    -0.0     0.1     0.0    -0.1
    -0.0     0.1     0.2    -0.2    -0.2    -0.1     0.1     0.2     0.2     0.2
     0.1     0.1    -0.0    -0.1    -0.0    -0.1    -0.2     0.2     0.0    -0.1
     0.1     0.3    -0.1    -0.1     0.1     0.1     0.2    -0.1    -0.2    -0.1
    -0.2    -0.2     0.0    -0.1     0.1     0.2     0.0     0.1    -0.1    -0.1
    -0.1    -0.3     0.0    -0.1     0.1     0.2     0.1     0.0     0.1     0.1
    -0.1    -0.1    -0.0    -0.0     0.1     0.1     0.1     0.1     0.1     0.0
     0.1    -0.2    -0.2     0.1     0.2     0.0    -0.1     0.0     0.1     0.1
    -0.1    -0.2    -0.3     0.0     0.2     0.1     0.1     0.2    -0.1     0.1
     0.1    -0.3    -0.1     0.1    -0.1    -0.0     0.0     0.4    -0.0    -0.2
     0.3     0.2    -0.4    -0.1     0.2    -0.1    -0.1     0.2     0.1    -0.0
    -0.0     0.2     0.2    -0.1    -0.0     0.1    -0.3    -0.2     0.1    -0.2
    -0.0     0.1     0.1     0.1     0.2     0.1    -0.1    -0.0    -0.1    -0.3
    -0.2    -0.2     0.0     0.1    -0.2    -0.1    -0.1     0.2    -0.0    -0.3
    -0.4    -0.0     0.1     0.0     0.1     0.4     0.1     0.3     0.2    -0.3
    -0.1    -0.2    -0.1    -0.1     0.1    -0.1    -0.2     0.1     0.1    -0.1
    -0.1    -0.2    -0.0     0.2    -0.3    -0.3     0.2    -0.3    -0.1     0.3
    -0.3    -0.2     0.0    -0.2     0.1     0.2    -0.0     0.3     0.2    -0.3
    -0.0    -0.0    -0.4    -0.1    -0.1    -0.2    -0.0     0.6     0.1     0.0
    -0.1    -0.0    -0.2     0.1    -0.3     0.2     0.1     0.0     0.2     0.0
    -0.1     0.3     0.1    -0.3    -0.2    -0.2     0.2     0.1    -0.2    -0.2
     0.3     0.2    -0.4     0.1     0.1     0.2     0.3    -0.3    -0.0     0.2
     0.1    -0.1     0.1    -0.2    -0.3     0.1     0.3     0.0    -0.1    -0.2
     0.2     0.4     0.1    -0.1     0.0     0.3     0.0    -0.2     0.0    -0.0
     0.0    -0.1    -0.3     0.1    -0.1    -0.3     0.1     0.1     0.0     0.2
    -0.0    -0.1    -0.0     0.0    -0.1    -0.3     0.0     0.1    -0.1     0.1
     0.2     0.1    -0.0    -0.1     0.0    -0.0    -0.4    -0.0     0.0    -0.0
    -0.2    -0.0     0.2     0.3     0.1     0.1     0.0     0.1     0.1    -0.0
    -0.1     0.1     0.1    -0.1     0.1     0.0    -0.0    -0.1     0.0     0.2
     0.2    -0.3     0.0     0.1    -0.0     0.1    -0.0    -0.4    -0.1     0.2
     0.1    -0.0    -0.1     0.0    -0.0    -0.2    -0.0     0.0    -0.1     0.0
     0.2     0.2     0.1    -0.0     0.0     0.1    -0.1    -0.1    -0.1     0.1
     0.3     0.1    -0.1    -0.0     0.0     0.2     0.1     0.1     0.1    -0.1
    -0.3    -0.0     0.1     0.1    -0.0    -0.2     0.1     0.1     0.2     0.1
     0.1    -0.1    -0.1    -0.2    -0.0    -0.2    -0.1    -0.1    -0.0    -0.1
     0.2    -0.1    -0.0     0.1     0.2     0.0     0.0     0.1     0.0    -0.1
    -0.2    -0.1    -0.0     0.0     0.2    -0.0     0.1     0.0    -0.1     0.1
    -0.1    -0.1    -0.1    -0.0     0.0     0.0     0.2     0.3     0.1    -0.1
    -0.1    -0.1    -0.2     0.0    -0.2    -0.2     0.0     0.0     0.2     0.1
    -0.2    -0.1     0.1     0.1    -0.1     0.2     0.2    -0.1     0.0     0.2
     0.0    -0.1    -0.0     0.1     0.0    -0.1    -0.1     0.2     0.0    -0.1
    -0.0     0.2     0.1    -0.1    -0.2    -0.2    -0.3    -0.3    -0.0     0.3
     0.4     0.1    -0.1     0.2     0.2    -0.1    -0.1     0.1    -0.2    -0.2
    -0.1    -0.0     0.1     0.2     0.1    -0.1     0.1     0.1     0.1    -0.1
     0.0     0.1     0.1     0.2     0.1    -0.1    -0.1     0.0    -0.0     0.1
    -0.0    -0.1     0.5     0.4     0.2     0.2     0.2     0.1    -0.1     0.1
    -0.1     0.0     0.1     0.2     0.2    -0.1    -0.0     0.1     0.1     0.1
     0.2     0.1     0.0    -0.1     0.0     0.2     0.1     0.1     0.1    -0.1
    -0.1     0.1     0.1     0.2     0.2     0.3     0.0    -0.1     0.0    -0.2
    -0.1     0.2     0.1     0.0    -0.4     0.0     0.3     0.1     0.1     0.1
    -0.0    -0.1    -0.1    -0.0     0.0    -0.2    -0.1    -0.1    -0.1    -0.1
     0.0    -0.1    -0.2    -0.2    -0.2    -0.1     0.1    -0.1    -0.1     0.0
    -0.2    -0.3    -0.1    -0.3    -0.2     0.2     0.2    -0.2    -0.1     0.0
    -0.1    -0.2    -0.2    -0.1    -0.0    -0.3    -0.2     0.1    -0.0    -0.1
    -0.3    -0.1    -0.2    -0.2     0.1     0.1    -0.0     0.0    -0.2    -0.2
    -0.1     0.0    -0.1    -0.0    -0.1    -0.1    -0.1     0.1    -0.3    -0.3
     0.1     0.1    -0.1    -0.1    -0.1    -0.1    -0.1    -0.1    -0.1    -0.0
    -0.1     0.1     0.0    -0.3    -0.2    -0.2     0.1     0.0    -0.2    -0.2
     0.0     0.1     0.1    -0.2    -0.2    -0.2    -0.2     0.1     0.1    -0.1
    -0.1    -0.0    -0.1    -0.4    -0.0     0.1    -0.2    -0.2     0.2     0.0
    -0.0     0.1    -0.0    -0.1     0.0     0.2    -0.1     0.1     0.1    -0.0
    -0.1    -0.1    -0.1    -0.0     0.0     0.0    -0.1     0.1    -0.0     0.1
     0.1     0.2    -0.0     0.1     0.3     0.1    -0.0     0.3     0.2     0.0
    -0.0    -0.2    -0.1     0.0     0.2     0.2     0.1    -0.0     0.1     0.4
     0.3     0.2     0.2    -0.0     0.0     0.1    -0.1     0.0     0.2     0.1
     0.2     0.1    -0.1     0.1     0.1     0.2     0.3     0.2    -0.1     0.3
     0.2    -0.0     0.0     0.1    -0.0    -0.1     0.2     0.2    -0.0     0.1
     0.2    -0.0    -0.2     0.1     0.3     0.1    -0.3     0.0     0.2     0.1
    -0.2     0.0     0.2     0.1     0.0    -0.1    -0.0     0.1    -0.2    -0.1
     0.1    -0.0    -0.0    -0.2     0.0     0.1    -0.2    -0.3    -0.1    -0.1
    -0.1     0.1    -0.2    -0.1     0.2    -0.2    -0.4    -0.3     0.1     0.0
    -0.1    -0.3    -0.0    -0.2    -0.2    -0.2    -0.1    -0.4    -0.3    -0.7
    -0.4     0.0    -0.3    -0.3    -0.1    -0.0    -0.2    -0.3    -0.3    -0.3
    -0.4    -0.2    -0.5    -0.7    -0.4    -0.3    -0.5    -0.2    -0.2    -0.2
    -0.3    -0.4    -0.4    -0.2    -0.1    -0.3    -0.5    -0.5    -0.3    -0.3
    -0.7    -0.4    -0.4    -0.4    -0.3    -0.3    -0.4    -0.4    -0.3    -0.4
    -0.3     0.0    -0.4    -0.5    -0.4    -0.1    -0.3    -0.6    -0.4    -0.5
    -0.3    -0.2    -0.2    -0.4    -0.1     0.1    -0.3    -0.6    -0.5    -0.3
    -0.1    -0.1    -0.1    -0.2    -0.2    -0.2    -0.1    -0.3     0.1    -0.2
    -0.3    -0.1     0.1     0.0    -0.4    -0.3     0.1     0.2     0.1    -0.0
     0.2     0.0    -0.0     0.2     0.1     0.2     0.3     0.2    -0.2     0.1
     0.4     0.3     0.5     0.0     0.1     0.4     0.5     0.7     0.3     0.0
     0.8     0.8     0.1     0.6     0.6     0.5     0.4     0.6     0.5     0.6
     1.1     1.0     0.4     0.6     1.0     0.7     0.7     0.9     0.9     0.7
     0.9     1.1     1.0     1.0     1.2     1.1     0.9     0.9     1.0     0.9
     1.2     1.3     1.1     1.0     1.2     1.4     1.6     1.3     1.2     1.5
     1.0     1.1     1.1     1.5     1.7     1.3     1.2     1.4     1.4     1.5
     1.5     1.6     1.5     1.3     1.4     1.3     1.7     1.7     1.3     1.5
     1.5     1.4     1.2     1.3     1.7     1.8     1.2     1.0     1.5     1.8
     1.4     1.2     1.5     1.8     1.7     1.1     1.1     1.3     1.4     1.2
     1.2     1.2     1.5     1.6     1.3     1.4     1.3     1.2     1.2     1.1
     1.0     0.9     0.9     1.2     1.1     1.0     0.9     0.8     0.9     1.1
     1.0     0.6     0.7     0.5     0.4     0.5     0.7     0.6     0.7     0.5
     0.5     0.4     0.2    -0.0     0.0    -0.0    -0.1    -0.1    -0.1    -0.1
     0.0    -0.2    -0.3    -0.1    -0.3    -0.7    -0.8    -0.5    -0.5    -0.8
    -1.0    -0.9    -1.0    -1.3    -1.3    -1.5    -0.9    -0.8    -1.7    -2.1
    -1.6    -1.3    -1.6    -1.7    -2.4    -2.4    -2.0    -1.9    -2.3    -2.4
    -2.5    -2.3    -2.3    -2.7    -2.8    -2.6    -2.3    -2.8    -3.2    -3.5
    -3.2    -2.9    -3.3    -3.7    -3.7    -3.7    -3.6    -3.4    -3.3    -3.8
    -4.1    -4.3    -4.5    -4.3    -4.2    -4.2    -4.5    -4.6    -4.3    -4.6
    -4.8    -4.9    -4.9    -4.9    -4.8    -5.2    -4.9    -5.0    -5.4    -5.4
    -5.4    -5.3    -5.7    -5.5    -5.5    -5.5    -5.7    -5.6    -6.1    -6.0
    -5.9    -5.8    -6.2    -6.3    -6.2    -5.9    -6.1    -6.4    -6.3    -6.4
    -5.9    -6.3    -6.7    -6.8    -6.6    -6.3    -6.4    -6.5    -6.5    -6.7
    -6.6    -6.2    -6.3    -5.6    -5.4    -4.9    -4.0    -3.3    -1.8    -0.3
