Corrected accelerogram 20160214_001343_REHS_20 GNS Science
Site REHS      43 31 19S  172 38 07E     Cusp file:  20160214_001346_REHS
Christchurch Resthaven
Instrument Cusp_42259
Resolution: 18-bit   Instr Period: 0.0050 s   Damping: 0.700
Accelerogram 20160214_001343_REHS_20                 Processed 2016 February 22
11 km east of CHRISTCHURCH
2016 February 14         00:13:43 UT
Epicentre  43 29 50S 172 45 18E  Bearing N74E  Dist   10km  Depth    8km M  5.70
Number of points  8192    Duration 163.82 sec
Instrument corrected data at 0.020 sec intervals
Band-pass filter transition bands are .10-.25 Hz and 24.50-25.50 Hz
Component N00E  Transverse Accelerometer Axis
Acceleration:  peak   1576.7 mm/s/s at  44.50 sec     rms    117.7 mm/s/s
Velocity:      peak   261.25 mm/s   at  44.76 sec     rms    18.00 mm/s
Displacement:  peak  -76.033 mm     at  44.46 sec     rms    6.400 mm
    2016       2      14       0      13     430       0       0    2016       2
      43      29      50     172      45      18       8       0      14       0
      43      31      19     172      38       7       0       0      74      10
   39063     250     250    8192    8192    8192       0       0      13    6903
   200.0    0.70    0.00   0.000  0.0000   0.000   0.000   1.000     0.0    0.00
  43.522 172.635   43.50  172.76    5.70    0.00    0.00    0.00      0.      0.
  195.31    5.00    5.00  163.82  0.0050  0.0200      0.      0.      0.  9806.6
  1605.0   44.49   121.6   0.000      0.  1576.7   44.50   117.7  1959.3   1.239
  261.25   44.76   18.00  293.65   0.354  -76.03   44.46    6.40   85.33   0.354
   0.100   0.150   0.250      0.      0.  24.500   1.000  25.500      0.      0.
     0.0    -0.0     0.0    -0.0     0.0    -0.0     0.0    -0.0     0.0    -0.0
     0.0    -0.0     0.0    -0.0     0.0    -0.0     0.0    -0.0     0.0    -0.0
     0.0    -0.0     0.0    -0.0     0.0    -0.0     0.0    -0.0     0.0    -0.0
     0.0    -0.0     0.0    -0.0     0.0    -0.0     0.0    -0.0     0.0    -0.0
     0.0    -0.0     0.0    -0.0     0.0    -0.0     0.0    -0.0    -0.0    -0.0
    -0.0    -0.0    -0.0    -0.0    -0.0    -0.0    -0.0    -0.0    -0.0    -0.0
    -0.0    -0.0    -0.0    -0.0    -0.0    -0.0    -0.0    -0.0    -0.0    -0.0
    -0.0    -0.0    -0.0    -0.0    -0.0    -0.0    -0.0    -0.0    -0.0    -0.0
    -0.0    -0.0    -0.0    -0.0    -0.0    -0.0    -0.0    -0.0    -0.0    -0.0
    -0.0    -0.0    -0.0    -0.0    -0.0    -0.0    -0.0    -0.0    -0.0    -0.0
    -0.0    -0.0    -0.0    -0.0    -0.0    -0.0    -0.0    -0.0    -0.0    -0.0
    -0.0    -0.0    -0.0    -0.0    -0.0    -0.0    -0.0    -0.0    -0.0    -0.0
    -0.0    -0.0    -0.0    -0.0    -0.0    -0.0    -0.0    -0.0    -0.0    -0.0
    -0.0    -0.0    -0.0    -0.0    -0.0    -0.0    -0.0    -0.0    -0.0    -0.0
    -0.0    -0.0    -0.0    -0.0    -0.0    -0.0    -0.0    -0.0    -0.0    -0.0
    -0.0    -0.0     0.0    -0.0     0.0    -0.0     0.0    -0.0     0.0    -0.0
     0.0    -0.0     0.0    -0.0     0.0     0.0     0.0     0.0     0.0     0.0
     0.0     0.0     0.0     0.0     0.0     0.0     0.0     0.0     0.0     0.0
     0.0     0.0     0.0     0.0     0.0     0.0     0.0     0.0     0.1     0.0
     0.1     0.0     0.1     0.0     0.1     0.0     0.1     0.1     0.1     0.1
     0.1     0.1     0.1     0.1     0.1     0.1     0.1     0.1     0.1     0.1
     0.1     0.1     0.1     0.1     0.1     0.1     0.1     0.1     0.1     0.1
     0.1     0.1     0.1     0.1     0.1     0.1     0.1     0.1     0.1     0.1
     0.1     0.1     0.1     0.1     0.1     0.1     0.1     0.1     0.2     0.1
     0.2     0.1     0.2     0.1     0.2     0.1     0.2     0.1     0.2     0.2
     0.1    -0.1    -0.1    -0.3     0.1    -0.1     0.1    -0.2    -0.5    -0.0
    -0.1    -0.0    -0.3    -0.4    -0.2    -0.2    -0.1    -0.1    -0.1     0.1
    -0.1    -0.3    -0.1    -0.2    -0.1    -0.2    -0.2    -0.3     0.0    -0.1
     0.3    -0.1    -0.2    -0.4    -0.1    -0.1    -0.3    -0.1     0.1    -0.1
    -0.2     0.0    -0.2    -0.2    -0.2    -0.2    -0.0     0.1    -0.0    -0.3
    -0.1     0.1     0.0     0.0     0.0     0.4     0.2    -0.4    -0.1     0.1
    -0.3    -0.3    -0.1     0.5     0.0    -0.2    -0.3    -0.2    -0.0    -0.0
    -0.2     0.1     0.1    -0.2    -0.1     0.2     0.2    -0.0    -0.3    -0.0
    -0.1     0.0    -0.1    -0.1     0.2    -0.2    -0.0     0.1     0.1     0.0
    -0.1    -0.0    -0.1     0.2     0.1    -0.4    -0.1    -0.0     0.2     0.0
     0.1     0.1    -0.1     0.1    -0.1    -0.0    -0.1     0.3     0.2     0.1
    -0.2    -0.1     0.1     0.1     0.1     0.2     0.0    -0.0    -0.0     0.0
     0.0    -0.1    -0.0     0.1    -0.0     0.0     0.2     0.1     0.1    -0.0
    -0.0     0.2     0.0    -0.1    -0.1     0.1     0.1     0.3     0.0    -0.1
     0.1     0.1     0.3     0.1     0.2     0.1     0.0    -0.1     0.1    -0.2
    -0.2     0.2     0.2    -0.0     0.1     0.1     0.0     0.1    -0.1    -0.2
     0.0     0.2     0.1    -0.1     0.3     0.1    -0.1    -0.2    -0.1     0.0
    -0.0     0.1     0.4    -0.0    -0.0     0.0     0.3     0.1    -0.0    -0.4
    -0.4     0.1     0.2    -0.0     0.1     0.0     0.0     0.1    -0.1    -0.1
    -0.2     0.1    -0.1    -0.0     0.0     0.0     0.1     0.1     0.1     0.1
     0.2     0.1    -0.0     0.0    -0.0    -0.1    -0.0    -0.0    -0.0    -0.0
     0.0    -0.0    -0.0     0.3     0.3     0.0    -0.1    -0.1    -0.1    -0.1
    -0.1    -0.1    -0.1    -0.0     0.2     0.0    -0.1    -0.0     0.1    -0.0
    -0.3     0.0    -0.1    -0.2    -0.2     0.3     0.3     0.1    -0.2    -0.0
     0.1     0.1     0.1     0.1    -0.0    -0.2    -0.1     0.2     0.1    -0.3
    -0.1     0.2     0.2    -0.2     0.0     0.1     0.0    -0.1     0.0    -0.0
    -0.0    -0.3    -0.0    -0.1     0.0     0.3     0.2     0.0    -0.1    -0.0
    -0.2     0.0     0.2     0.3    -0.1    -0.1    -0.2    -0.2    -0.0    -0.3
    -0.1     0.3     0.2    -0.1     0.1    -0.2    -0.2     0.2     0.2    -0.2
    -0.1     0.2    -0.0    -0.1    -0.1     0.2     0.1    -0.3     0.0     0.2
     0.1    -0.2    -0.3     0.2     0.3    -0.1    -0.3    -0.0     0.1     0.0
    -0.2     0.0     0.1    -0.0    -0.1     0.0     0.0    -0.4    -0.3     0.1
     0.4     0.1    -0.5    -0.4     0.1     0.2     0.2    -0.1    -0.0    -0.0
     0.0     0.2    -0.3    -0.2    -0.1     0.1     0.4     0.2    -0.0    -0.0
    -0.3    -0.2    -0.0     0.1    -0.0    -0.1     0.2     0.1    -0.3    -0.1
    -0.1     0.1    -0.2     0.1     0.5    -0.1    -0.3    -0.0     0.2     0.1
    -0.1     0.0     0.2     0.1    -0.1    -0.1     0.4     0.1    -0.3    -0.3
     0.1    -0.0     0.2     0.1    -0.2     0.0     0.1     0.2     0.2     0.0
    -0.2    -0.2     0.2    -0.2     0.1    -0.2    -0.1     0.0    -0.0     0.0
     0.5     0.3     0.1     0.1    -0.2     0.1    -0.1    -0.0     0.1    -0.1
    -0.0     0.1     0.3     0.1    -0.2     0.1     0.3    -0.1    -0.3     0.1
     0.2     0.2     0.1    -0.0     0.0     0.1    -0.1    -0.3     0.2    -0.0
    -0.0     0.1     0.1    -0.2    -0.0     0.1     0.2    -0.1    -0.1     0.0
     0.0    -0.3    -0.1    -0.1     0.0     0.2    -0.0    -0.1    -0.2     0.3
     0.1    -0.2    -0.2    -0.0     0.0    -0.0    -0.0     0.0    -0.1    -0.3
    -0.0     0.1     0.2     0.1    -0.3    -0.2     0.1     0.4     0.3    -0.1
    -0.1    -0.2     0.0     0.1     0.0    -0.1     0.0    -0.1     0.1     0.2
    -0.1    -0.1     0.1    -0.0     0.1    -0.0    -0.1     0.1     0.2    -0.1
    -0.0     0.1     0.1     0.1     0.2    -0.1    -0.1    -0.0    -0.1     0.1
    -0.0    -0.2    -0.0    -0.3    -0.3    -0.4     0.0     0.1    -0.0     0.1
     0.1     0.2    -0.3    -0.4     0.0     0.2     0.1    -0.0    -0.0    -0.0
     0.0    -0.2    -0.1    -0.3    -0.0     0.2     0.0    -0.2    -0.1    -0.0
     0.1    -0.0    -0.1    -0.1     0.3     0.1     0.0     0.1     0.0    -0.0
    -0.1    -0.1    -0.4    -0.0     0.4     0.0    -0.2     0.3     0.3    -0.2
    -0.2    -0.0     0.3     0.2     0.4    -0.1    -0.2    -0.3    -0.0     0.1
     0.4     0.1    -0.1     0.2     0.1    -0.2    -0.1     0.1     0.0     0.2
     0.2     0.2     0.2    -0.0    -0.2     0.0     0.1    -0.1     0.1    -0.0
    -0.1    -0.1    -0.1     0.0    -0.1    -0.1    -0.1     0.1     0.2     0.1
     0.2    -0.2     0.0    -0.0    -0.0     0.0    -0.0    -0.1    -0.2    -0.1
     0.1     0.1     0.0    -0.0    -0.1    -0.2    -0.1     0.0     0.1    -0.2
    -0.0     0.2     0.2     0.2    -0.1    -0.1     0.1    -0.1     0.0     0.1
     0.2     0.0    -0.1    -0.3     0.1     0.2     0.0     0.0     0.0     0.0
    -0.0    -0.0    -0.1    -0.0     0.2     0.3     0.1    -0.2    -0.2     0.0
     0.2     0.0    -0.1    -0.1     0.3     0.4     0.1    -0.2    -0.5    -0.3
     0.3     0.0    -0.1    -0.0     0.1    -0.2     0.3     0.3     0.1    -0.2
    -0.0     0.0     0.1    -0.2    -0.0    -0.1    -0.1     0.0     0.3    -0.1
    -0.1     0.1    -0.2    -0.3     0.1     0.0    -0.1     0.0    -0.0    -0.3
    -0.2     0.1     0.1     0.1     0.1     0.1    -0.1     0.0     0.1    -0.2
    -0.2    -0.2     0.0    -0.1    -0.2     0.1    -0.1     0.2     0.2    -0.1
    -0.1    -0.2    -0.0    -0.0     0.2     0.2    -0.1    -0.0     0.1     0.1
     0.1    -0.2    -0.2     0.0     0.1    -0.1    -0.1     0.0     0.0    -0.2
    -0.1    -0.1     0.1    -0.0     0.0     0.1     0.0     0.2     0.2    -0.2
    -0.2     0.0    -0.1     0.4     0.2    -0.1    -0.2    -0.2    -0.2    -0.1
     0.0     0.2     0.0    -0.0    -0.1    -0.2    -0.1    -0.3     0.2     0.5
     0.1    -0.2    -0.0     0.1     0.2     0.1     0.1    -0.0     0.1     0.1
    -0.1    -0.1     0.0     0.1     0.3    -0.1    -0.1    -0.3    -0.3    -0.0
     0.2     0.0     0.1     0.1    -0.0     0.1     0.2    -0.1    -0.4    -0.1
    -0.1     0.1    -0.1     0.3     0.0     0.2     0.2     0.1    -0.1    -0.0
    -0.0    -0.1     0.1    -0.1    -0.1    -0.1     0.0    -0.1     0.0    -0.0
     0.0     0.1     0.2     0.0     0.3     0.2     0.0    -0.1    -0.2    -0.1
     0.1     0.0     0.2     0.2     0.2    -0.0    -0.0    -0.2     0.1     0.1
     0.0    -0.1    -0.1     0.0     0.1     0.0    -0.1     0.0    -0.1     0.1
    -0.0    -0.2    -0.0     0.2     0.2     0.1     0.1     0.1    -0.1    -0.0
     0.2    -0.0    -0.2    -0.1     0.2    -0.1    -0.1    -0.2     0.1     0.0
     0.2     0.2     0.2     0.1    -0.1    -0.1    -0.1     0.1     0.2    -0.1
    -0.1     0.0     0.1    -0.3     0.3     0.1     0.0    -0.2    -0.5    -0.2
    -0.0     0.1    -0.0     0.2     0.2     0.2     0.4    -0.2    -0.4    -0.1
    -0.1    -0.2    -0.5    -0.2     0.1     0.0     0.0    -0.0     0.2    -0.2
    -0.1     0.1     0.2    -0.2    -0.3    -0.1     0.1    -0.1    -0.2     0.1
     0.3     0.2     0.1     0.0    -0.1    -0.5    -0.1     0.1     0.0    -0.0
    -0.4    -0.1    -0.1     0.1     0.1    -0.0    -0.0    -0.1     0.0     0.0
     0.1    -0.1    -0.1    -0.1    -0.2     0.1    -0.1    -0.0     0.2    -0.2
    -0.1    -0.1    -0.1     0.0    -0.0    -0.1     0.0     0.2     0.1    -0.1
    -0.2     0.1     0.2    -0.2    -0.2     0.1     0.3     0.1    -0.1    -0.3
     0.1     0.1     0.3     0.2    -0.3    -0.2     0.1     0.0     0.2    -0.1
    -0.0     0.0     0.1    -0.1    -0.1     0.2     0.2     0.0     0.0     0.0
     0.1     0.0     0.1    -0.1    -0.0    -0.0    -0.1    -0.3    -0.0     0.1
     0.0    -0.2    -0.2     0.1     0.3     0.3    -0.0    -0.2    -0.1     0.3
     0.3     0.1    -0.1     0.1     0.2     0.0    -0.0    -0.0    -0.2     0.1
     0.2    -0.0    -0.0    -0.3    -0.1     0.2     0.2     0.2     0.2    -0.0
     0.1     0.1     0.1     0.0    -0.2    -0.1     0.1     0.2     0.0     0.2
    -0.0    -0.1     0.1    -0.1    -0.1     0.1     0.2     0.1    -0.3    -0.1
     0.1    -0.0     0.2     0.4     0.0     0.0    -0.0    -0.1     0.1    -0.1
    -0.0    -0.2     0.2    -0.0     0.1     0.1     0.0    -0.1     0.1     0.1
     0.0    -0.1     0.0    -0.2    -0.1    -0.2     0.1     0.1    -0.1    -0.1
     0.0    -0.0    -0.1    -0.1    -0.2     0.1     0.1     0.1     0.3     0.0
     0.1     0.0    -0.1    -0.1    -0.1    -0.1    -0.2    -0.3    -0.1     0.5
     0.1    -0.2    -0.1    -0.2    -0.1    -0.0    -0.0    -0.3    -0.3    -0.1
     0.0     0.1     0.0    -0.2     0.0     0.1     0.2     0.1     0.1     0.0
    -0.0    -0.3    -0.1    -0.2     0.1     0.1    -0.2    -0.1     0.1    -0.2
    -0.0    -0.1    -0.1     0.0    -0.0    -0.0     0.4    -0.1    -0.4    -0.5
    -0.1     0.1     0.0     0.1     0.3     0.1    -0.2    -0.2     0.2    -0.1
    -0.4     0.1    -0.2     0.0     0.2     0.2     0.0    -0.0    -0.0    -0.2
     0.1     0.2     0.3    -0.1     0.0     0.1     0.0     0.1     0.1    -0.4
    -0.2     0.2     0.0     0.0    -0.0     0.2     0.3    -0.1    -0.4    -0.0
     0.2     0.2    -0.0     0.1    -0.1     0.1    -0.0    -0.2     0.3    -0.0
    -0.1     0.1    -0.1     0.1     0.3     0.2    -0.0     0.1     0.2    -0.1
     0.1     0.0     0.2     0.0    -0.1    -0.2     0.5     0.4    -0.0    -0.0
     0.3     0.2     0.0    -0.1     0.1     0.1    -0.0     0.0     0.1    -0.1
    -0.0     0.1     0.1     0.1     0.2     0.2     0.1     0.3     0.0    -0.2
    -0.0    -0.2     0.0     0.1     0.2    -0.0    -0.1     0.1     0.1     0.1
     0.3     0.0     0.1     0.0     0.1    -0.1     0.1     0.2    -0.1     0.0
    -0.1    -0.3     0.1     0.3    -0.2    -0.2    -0.0    -0.0     0.1    -0.1
    -0.0     0.3     0.1    -0.0     0.0    -0.2    -0.3     0.0    -0.1     0.1
    -0.1     0.1     0.4    -0.5    -0.3    -0.1    -0.3     0.0    -0.1    -0.3
    -0.1    -0.1     0.0    -0.1     0.1    -0.2     0.1     0.1    -0.5    -0.4
     0.1    -0.2    -0.1     0.2     0.1    -0.0    -0.1     0.1    -0.1    -0.4
    -0.1    -0.4    -0.0     0.3    -0.0    -0.1     0.1     0.1     0.3    -0.0
    -0.2    -0.2    -0.0     0.0    -0.1    -0.1     0.0    -0.1    -0.3    -0.2
    -0.2    -0.2     0.2     0.2    -0.0    -0.3    -0.2    -0.1     0.3     0.3
    -0.3    -0.4    -0.1     0.2    -0.0    -0.5    -0.0     0.2    -0.2    -0.6
     0.2     0.3     0.2    -0.2     0.1     0.1    -0.1     0.1     0.3    -0.1
    -0.3    -0.0     0.1    -0.0     0.1    -0.2    -0.1    -0.0     0.3    -0.2
    -0.3     0.3     0.4     0.0    -0.3     0.1     0.0    -0.1     0.4    -0.3
    -0.2     0.3     0.2     0.1    -0.2    -0.1     0.3     0.1     0.1    -0.3
     0.1     0.3     0.2     0.1    -0.1    -0.0     0.2    -0.0     0.1     0.2
     0.2    -0.2     0.2     0.2    -0.2    -0.4     0.4     0.1     0.1    -0.1
    -0.1     0.4     0.7     0.1     0.2     0.5    -0.1    -0.3     0.2     0.2
    -0.3    -0.1     0.2     0.3    -0.0    -0.1     0.5     0.5    -0.3     0.1
     0.4     0.1    -0.4     0.0     0.8     0.2    -0.2     0.3     0.5    -0.5
    -0.6     0.2    -0.1    -0.5     0.2     0.6     0.1    -0.3    -0.3    -0.3
     0.4     0.3     0.1    -0.2     0.1    -0.0     0.0     0.0     0.2    -0.4
    -0.3     0.3     0.3     0.1     0.1     0.3     0.2     0.0    -0.4    -0.2
    -0.1     0.2     0.2    -0.5    -0.2     0.3     0.1    -0.2    -0.1    -0.1
     0.1    -0.2    -0.4     0.1     0.1     0.0    -0.3    -0.4     0.1    -0.0
    -0.5    -0.3    -0.1    -0.1    -0.1    -0.4    -0.3    -0.1    -0.4    -0.5
     0.0     0.2    -0.0    -0.4    -0.6    -0.2     0.1    -0.2    -0.3    -0.1
    -0.3    -0.0    -0.2    -0.2    -0.1    -0.5    -0.4    -0.1    -0.3    -0.5
    -0.3    -0.2     0.1    -0.2    -0.4    -0.3     0.1    -0.0    -0.1    -0.1
    -0.2    -0.0    -0.1    -0.5    -0.0     0.0    -0.1    -0.2    -0.2    -0.4
    -0.1    -0.1    -0.4    -0.0     0.0    -0.3     0.2    -0.1    -0.2    -0.3
    -0.3     0.2     0.1    -0.2    -0.1    -0.1     0.2     0.1    -0.4    -0.2
     0.1    -0.1     0.2     0.1     0.1     0.1     0.1    -0.1     0.3     0.5
    -0.4    -0.2     0.3     0.1     0.0     0.0     0.1     0.3     0.5    -0.2
     0.5     0.4    -0.2    -0.2    -0.0     0.1     0.4     0.3     0.0    -0.3
     0.3     0.6     0.1     0.1     0.3     0.3     0.4     0.1    -0.1     0.2
     0.5     0.2     0.4     0.4     0.6     0.5     0.4     0.1     0.4     0.4
     0.2     0.1     0.1     0.3     0.4     0.1     0.3     0.4     0.4     0.1
     0.2     0.1     0.4     0.4    -0.0     0.0     0.3     0.3     0.4     0.4
     0.3     0.3     0.3     0.2     0.2     0.2     0.2     0.0     0.2    -0.0
     0.2     0.3     0.6     0.4     0.2     0.1     0.4     0.3     0.2    -0.0
     0.1     0.2     0.3    -0.0    -0.0     0.0     0.1     0.1    -0.1     0.1
     0.2     0.1     0.2    -0.1    -0.2    -0.1     0.4     0.4    -0.2     0.0
     0.2    -0.4    -0.2    -0.1     0.1     0.2    -0.1     0.0    -0.5    -0.4
     0.0    -0.1    -0.3     0.0    -0.5    -0.1    -0.2    -0.5    -0.2     0.0
     0.1    -0.3    -0.3     0.0    -0.6    -0.4    -0.1    -0.7    -0.2    -0.2
    -0.6    -1.0    -1.0    -0.3    -0.1    -0.2    -0.0    -0.4    -0.3    -0.5
    -1.0    -0.4    -0.1    -0.2    -0.8    -0.7     0.1    -0.4    -0.7    -0.9
    -0.4    -0.3    -0.6    -0.8    -0.7    -0.2    -0.1    -0.8    -0.5    -0.6
    -0.5    -0.2    -0.3    -0.4    -0.4    -0.6    -0.5    -0.7    -0.3    -0.3
    -0.3    -0.5    -0.3    -0.6    -0.2    -0.3    -0.4    -0.6    -0.1    -0.3
    -0.6    -0.2    -0.2    -0.2    -0.0    -0.1     0.3    -0.3    -0.6    -0.4
    -0.2     0.1     0.1     0.0     0.3     0.1     0.0    -0.0    -0.2     0.1
     0.6     0.4     0.3     0.1     0.2     0.6     0.3     0.2     0.3     0.2
     0.5     0.7     0.3     0.2     0.8     1.0     1.1     0.4     0.4     0.7
     0.8     0.4     0.8     0.7     0.8     1.1     0.8     0.9     1.0     0.9
     1.0     0.9     0.8     1.1     0.8     1.1     1.4     1.2     1.2     1.1
     1.2     1.3     1.4     0.9     1.4     1.5     1.1     1.2     1.4     1.5
     1.7     1.2     1.1     1.5     1.5     1.3     1.0     1.4     1.8     1.8
     1.7     1.6     1.3     1.3     1.6     1.6     1.4     1.3     1.5     1.6
     1.4     1.2     1.4     1.3     1.3     1.3     1.4     1.1     0.9     1.1
     1.3     1.1     1.3     1.1     1.2     1.4     1.3     1.0     0.9     1.0
     0.9     0.9     0.8     0.7     0.7     0.7     1.0     0.7     0.5     0.4
     0.7     0.4    -0.1    -0.1     0.4     0.2     0.4     0.1     0.3    -0.4
    -0.2    -0.2    -0.4    -0.5    -0.3    -0.4    -0.5    -0.9    -0.7    -0.8
    -0.5    -1.1    -1.0    -1.1    -0.9    -1.1    -1.2    -1.4    -1.1    -1.6
    -1.5    -1.5    -2.0    -2.0    -1.6    -1.9    -1.9    -2.1    -2.4    -2.6
    -2.1    -2.3    -2.4    -2.4    -2.4    -3.1    -2.9    -2.8    -3.0    -3.1
    -3.0    -3.1    -3.4    -3.4    -3.3    -3.5    -3.4    -3.4    -4.1    -3.9
    -3.8    -4.1    -4.0    -3.6    -4.1    -4.1    -3.8    -4.1    -4.0    -4.3
    -4.4    -4.4    -4.6    -4.6    -5.0    -4.8    -4.4    -4.5    -4.7    -4.8
    -4.6    -4.8    -4.5    -4.7    -5.2    -5.2    -4.9    -4.8    -5.3    -4.9
    -4.6    -4.9    -5.0    -4.9    -5.0    -4.7    -4.5    -4.8    -5.1    -5.0
    -4.6    -4.7    -5.1    -4.6    -4.8    -5.0    -4.3    -4.3    -4.2    -4.5
    -4.2    -4.1    -3.9    -4.1    -3.7    -3.7    -4.1    -4.2    -3.9    -3.6
    -4.1    -3.3    -3.1    -3.3    -3.2    -3.0    -2.7    -2.6    -3.0    -2.5
    -2.1    -2.5    -1.7    -2.0    -2.7    -1.5    -1.6    -1.3    -1.3    -1.8
    -1.1    -0.3    -1.0    -0.8    -0.4     0.4     0.5     0.1    -0.3     0.2
     0.7     0.6     0.9     2.3     0.9     1.4     2.4     1.5     2.4     2.2
     1.0     3.8     3.4     3.3     3.8     3.9     3.9     5.3     5.6     6.8
