Corrected accelerogram 20160214_001343_DSLC_20 GNS Science
Site DSLC      43 40 03S  172 11 53E     Basalt file:  20160214_001353_DSLC
Dunsandel School
Instrument Basalt_2424
Resolution: 24-bit   Instr Period: 0.0050 s   Damping: 0.700
Accelerogram 20160214_001343_DSLC_20                 Processed 2016 February 22
11 km east of CHRISTCHURCH
2016 February 14         00:13:43 UT
Epicentre  43 29 50S 172 45 18E  Bearing N67E  Dist   49km  Depth    8km M  5.70
Number of points  6900    Duration 137.98 sec
Instrument corrected data at 0.020 sec intervals
Band-pass filter transition bands are .10-.25 Hz and 24.50-25.50 Hz
Component N00E  Horizontal Axis 1
Acceleration:  peak    170.5 mm/s/s at  49.92 sec     rms     13.5 mm/s/s
Velocity:      peak    12.32 mm/s   at  53.06 sec     rms     2.38 mm/s
Displacement:  peak   -4.892 mm     at  68.96 sec     rms    1.309 mm
    2016       2      14       0      13     430       0       0    2016       2
      43      29      50     172      45      18       8       0      14       0
      43      40       3     172      11      53       0       0      67      49
   25600     250     250    6900    6900    6900       0       0      13   13000
   200.0    0.70    0.00   0.000  0.0000   0.000   0.000   1.000     0.0    0.00
  43.667 172.198   43.50  172.76    5.70    0.00    0.00    0.00      0.      0.
  128.00    5.00    5.00  137.98  0.0050  0.0200      0.      0.      0.  9806.6
   175.7   49.91    14.2   0.000      0.   170.5   49.92    13.5   218.5   1.395
   12.32   53.06    2.38   17.22   0.296   -4.89   68.96    1.31    8.23   0.235
   0.100   0.150   0.250      0.      0.  24.500   1.000  25.500      0.      0.
    -0.0    -0.0    -0.0    -0.0     0.0    -0.0     0.0    -0.0     0.0    -0.0
     0.0    -0.0     0.0    -0.0     0.0    -0.0     0.0    -0.0     0.0     0.0
     0.0     0.0     0.0     0.0     0.0     0.0     0.0     0.0     0.0     0.0
     0.0     0.0     0.0     0.0     0.0     0.0     0.0     0.0     0.0     0.0
     0.0     0.0     0.0     0.0     0.0     0.0     0.0     0.0     0.0     0.0
     0.0     0.0     0.0     0.0     0.0     0.0     0.0     0.0     0.0     0.0
     0.0     0.0     0.0     0.0     0.0     0.0     0.0     0.0     0.0     0.0
     0.0     0.0     0.0     0.0     0.0     0.0     0.0     0.0     0.0     0.0
     0.0     0.0     0.0     0.0     0.0     0.0     0.0     0.0     0.0     0.0
     0.0     0.0     0.0     0.0     0.0     0.0     0.0     0.0     0.0     0.0
     0.0     0.0     0.0     0.0     0.0     0.0     0.0     0.0     0.0     0.0
     0.0     0.0     0.0     0.0     0.0     0.0     0.0     0.0     0.0     0.0
     0.0     0.0     0.0     0.0     0.0     0.0     0.0     0.0     0.0     0.0
     0.0     0.0     0.0     0.0     0.0     0.0     0.0     0.0     0.0     0.0
     0.0     0.0     0.0     0.0     0.0     0.0     0.0     0.0     0.0     0.0
     0.0     0.0     0.0     0.0     0.0    -0.0     0.0    -0.0     0.0    -0.0
    -0.0    -0.0    -0.0    -0.0    -0.0    -0.0    -0.0    -0.0    -0.0    -0.0
    -0.0    -0.0    -0.0    -0.0    -0.0    -0.0    -0.0    -0.0    -0.0    -0.0
    -0.0    -0.0    -0.0    -0.0    -0.0    -0.0    -0.0    -0.0    -0.0    -0.0
    -0.0    -0.0    -0.0    -0.0    -0.0    -0.0    -0.0    -0.0    -0.0    -0.0
    -0.0    -0.0    -0.0    -0.0    -0.0    -0.0    -0.0    -0.0    -0.0    -0.0
    -0.0    -0.0    -0.0    -0.0    -0.0    -0.0    -0.0    -0.0    -0.0    -0.0
    -0.0    -0.0    -0.0    -0.0    -0.0    -0.0    -0.0    -0.0    -0.0    -0.0
    -0.0    -0.0    -0.0    -0.0    -0.0    -0.0    -0.0    -0.0    -0.0    -0.0
    -0.0    -0.0    -0.0    -0.0    -0.0    -0.0    -0.0    -0.0    -0.0    -0.0
     0.0     0.0     0.0     0.0     0.0     0.0     0.0     0.0     0.0     0.0
     0.0     0.0     0.1     0.0     0.1     0.0     0.0     0.0     0.0     0.0
     0.0     0.1     0.0     0.0     0.0     0.1     0.0     0.0    -0.0     0.0
     0.0    -0.0     0.0     0.0    -0.0     0.0     0.0     0.0     0.0     0.0
     0.0    -0.0    -0.0     0.0     0.0     0.0     0.0     0.0    -0.0     0.0
     0.0     0.0     0.0     0.0     0.0     0.0    -0.0     0.0    -0.0     0.0
     0.0    -0.0     0.0    -0.0     0.0     0.0    -0.0    -0.0    -0.0    -0.0
     0.0     0.0    -0.0     0.0     0.0     0.0     0.0     0.0     0.0     0.0
     0.0     0.0    -0.0    -0.0     0.0     0.0     0.0     0.0     0.0     0.0
     0.0    -0.0    -0.0     0.0     0.0    -0.0    -0.0     0.0    -0.0    -0.0
    -0.0    -0.0    -0.0    -0.0    -0.0     0.0    -0.0     0.0     0.0     0.0
    -0.0    -0.0     0.0     0.0    -0.0    -0.0    -0.0    -0.0     0.0    -0.0
    -0.0     0.0    -0.0     0.0    -0.0    -0.0    -0.0     0.0    -0.0     0.0
    -0.0    -0.0    -0.0    -0.0    -0.0    -0.0    -0.0    -0.0     0.0    -0.0
    -0.0    -0.0    -0.0    -0.0    -0.0    -0.0     0.0     0.0    -0.0    -0.0
    -0.0    -0.0     0.0     0.0    -0.0    -0.0     0.0    -0.0     0.0     0.0
    -0.0    -0.0     0.0    -0.0    -0.0     0.0     0.0    -0.0     0.0    -0.0
    -0.0    -0.0    -0.0     0.0     0.0    -0.0    -0.0     0.0     0.0    -0.0
    -0.0    -0.0    -0.0    -0.0    -0.0    -0.0    -0.0    -0.0    -0.0    -0.0
    -0.0     0.0     0.0     0.0    -0.0    -0.0    -0.0    -0.0    -0.0    -0.0
    -0.0     0.0     0.0    -0.0    -0.0     0.0     0.0    -0.0    -0.0     0.0
     0.0     0.0    -0.0     0.0    -0.0     0.0     0.0    -0.0    -0.0    -0.0
     0.0    -0.0    -0.0    -0.0    -0.0    -0.0    -0.0     0.0    -0.0    -0.0
     0.0     0.1    -0.0    -0.0    -0.0     0.0     0.0     0.0     0.0     0.0
     0.0    -0.0    -0.0     0.0     0.0     0.0    -0.0     0.0     0.0    -0.0
    -0.0     0.0     0.0     0.0     0.0    -0.0     0.0     0.0     0.0    -0.0
     0.0     0.0    -0.0     0.0     0.0    -0.0    -0.0    -0.0     0.0    -0.0
    -0.0     0.0     0.0    -0.0    -0.0    -0.0    -0.0     0.0     0.0    -0.0
    -0.0     0.0    -0.0    -0.0     0.0     0.0     0.0     0.0     0.0    -0.0
     0.0     0.0     0.0    -0.0     0.0    -0.0    -0.0     0.0     0.0     0.0
    -0.0     0.0     0.0    -0.0     0.0    -0.0    -0.0     0.0     0.0    -0.0
     0.0     0.0    -0.0     0.0    -0.0     0.0     0.0     0.0    -0.0    -0.0
     0.0     0.0    -0.0     0.0     0.0    -0.0     0.0    -0.0    -0.0    -0.0
    -0.0    -0.0     0.0    -0.0    -0.0     0.0     0.0    -0.0     0.0    -0.0
     0.0    -0.0     0.0     0.0     0.0     0.0     0.0    -0.0     0.0     0.0
    -0.0    -0.0     0.0     0.0    -0.0    -0.0    -0.0    -0.0     0.0    -0.0
     0.0     0.0    -0.0     0.0    -0.0    -0.0     0.0    -0.0    -0.0    -0.0
    -0.0     0.0     0.0    -0.0    -0.0    -0.0     0.0    -0.0     0.0     0.0
     0.0     0.0    -0.0    -0.0     0.0     0.0     0.0    -0.0    -0.0     0.0
    -0.0     0.0     0.0     0.0    -0.0     0.0     0.0    -0.0    -0.0    -0.0
     0.0     0.0     0.0    -0.0     0.0    -0.0    -0.0    -0.0     0.0     0.0
     0.0     0.0    -0.0     0.0     0.0    -0.0     0.0     0.0     0.0    -0.0
    -0.0    -0.0    -0.0    -0.0    -0.0    -0.0    -0.0     0.0     0.0     0.0
    -0.0    -0.0    -0.0    -0.0    -0.0     0.0     0.0    -0.0    -0.0    -0.0
     0.0    -0.0     0.0     0.0     0.0    -0.0     0.0    -0.0     0.0    -0.0
    -0.0     0.0     0.0     0.0    -0.0     0.0     0.0     0.0    -0.0    -0.0
     0.0     0.0     0.0     0.0    -0.0     0.0     0.0     0.0     0.0     0.0
     0.0     0.0     0.0    -0.0    -0.0    -0.0     0.0     0.0     0.0    -0.0
    -0.0    -0.0     0.0     0.0    -0.0    -0.0     0.0    -0.0     0.0     0.0
    -0.0    -0.0    -0.0    -0.0     0.0    -0.0     0.0    -0.0    -0.0     0.0
     0.0    -0.0    -0.0     0.0     0.0     0.0     0.0     0.0    -0.0    -0.0
     0.0    -0.0     0.0    -0.0     0.0    -0.0    -0.0    -0.0     0.0     0.0
    -0.0    -0.0    -0.0     0.0     0.0     0.0    -0.0     0.0     0.0    -0.0
     0.0    -0.0     0.0    -0.0     0.0    -0.0    -0.0     0.0     0.0     0.0
    -0.0    -0.0    -0.0     0.0    -0.0     0.0     0.0    -0.0     0.0    -0.0
    -0.0     0.0     0.0    -0.0     0.0     0.0    -0.0     0.0     0.0     0.0
    -0.0     0.0     0.0     0.0    -0.0    -0.0     0.0    -0.0     0.0    -0.0
     0.0     0.0     0.0    -0.0     0.0    -0.0    -0.0     0.0    -0.0    -0.0
    -0.0     0.0     0.0     0.0     0.0    -0.0     0.0    -0.0     0.0     0.0
    -0.0     0.0     0.0     0.0     0.0     0.0     0.0     0.0     0.0    -0.0
     0.0    -0.0    -0.0    -0.0     0.0    -0.0    -0.0     0.0    -0.0     0.0
    -0.0    -0.0     0.0    -0.0    -0.0     0.0    -0.0    -0.0     0.0    -0.0
    -0.0    -0.0    -0.0    -0.0     0.0     0.0    -0.0     0.0    -0.0    -0.0
     0.0     0.0     0.0     0.0     0.0     0.0     0.1    -0.0     0.0    -0.0
    -0.0     0.0    -0.0    -0.0     0.0    -0.0    -0.0     0.0     0.0     0.0
    -0.0    -0.0    -0.0     0.0     0.0    -0.0    -0.0    -0.0    -0.0     0.0
    -0.0    -0.0    -0.0    -0.0    -0.0     0.0     0.0     0.0    -0.0    -0.0
    -0.0    -0.0    -0.0     0.0     0.0     0.0    -0.0    -0.0     0.0    -0.0
     0.0     0.0     0.0     0.0    -0.0    -0.0     0.0     0.0    -0.0     0.0
    -0.0    -0.0    -0.0    -0.0    -0.0     0.0    -0.0     0.0    -0.0     0.0
     0.0    -0.0     0.0    -0.0     0.0    -0.0     0.0    -0.0    -0.0     0.0
    -0.0     0.0     0.0    -0.0     0.0     0.0    -0.0    -0.0     0.0    -0.0
    -0.0     0.0    -0.0     0.0     0.0    -0.0     0.0    -0.0    -0.0    -0.0
    -0.0     0.0     0.0    -0.0     0.0    -0.0     0.0     0.0    -0.0     0.0
     0.0     0.0     0.0    -0.0     0.0     0.0     0.0     0.0     0.0     0.0
    -0.0    -0.0     0.0     0.0    -0.0     0.0    -0.0     0.0     0.0     0.0
     0.0     0.0    -0.0    -0.0     0.0    -0.0    -0.0     0.0     0.0    -0.0
    -0.0     0.0     0.0    -0.0     0.0    -0.0    -0.0     0.0     0.0    -0.0
    -0.0     0.0     0.0     0.0     0.0    -0.0    -0.0     0.0     0.0     0.0
     0.0    -0.0     0.0     0.0     0.0    -0.0     0.0    -0.0     0.0     0.0
    -0.0     0.0     0.0     0.0    -0.0    -0.0    -0.0     0.0     0.0    -0.0
     0.0     0.0     0.0    -0.0    -0.0    -0.0    -0.0     0.0    -0.0    -0.0
     0.0    -0.0    -0.0     0.0     0.0     0.0    -0.0     0.0     0.0    -0.0
    -0.0    -0.0     0.0    -0.0    -0.0    -0.0     0.0     0.0     0.0    -0.0
    -0.0     0.0    -0.0    -0.0     0.0     0.0    -0.0    -0.0     0.0     0.0
    -0.0    -0.0     0.0    -0.0    -0.0    -0.0    -0.0     0.0     0.0    -0.0
     0.0    -0.0    -0.0     0.0    -0.0     0.0     0.0    -0.0    -0.0    -0.0
     0.0     0.0     0.0    -0.0    -0.0    -0.0     0.0    -0.0    -0.0    -0.0
    -0.0    -0.0     0.0     0.0    -0.0    -0.0     0.0     0.0     0.0    -0.0
    -0.0     0.0    -0.0    -0.0     0.0    -0.0     0.0     0.0     0.0     0.0
    -0.0    -0.0     0.0     0.0    -0.0     0.0    -0.0     0.0     0.0    -0.0
     0.0    -0.0    -0.0    -0.0     0.0    -0.0    -0.0     0.0    -0.0     0.0
     0.0     0.0    -0.0    -0.0    -0.0    -0.0     0.0     0.0     0.0     0.0
    -0.0    -0.0     0.0     0.0     0.0     0.0    -0.0     0.0    -0.0     0.0
    -0.0    -0.0    -0.0     0.0     0.0    -0.0    -0.0     0.0     0.0    -0.0
     0.0     0.0     0.0    -0.0     0.0    -0.0    -0.0    -0.0     0.0    -0.0
     0.0     0.0     0.0    -0.0     0.0     0.0    -0.0     0.0    -0.0     0.0
     0.0     0.0     0.0    -0.0     0.0    -0.0     0.0     0.0    -0.0     0.0
    -0.0     0.0    -0.0     0.0     0.0    -0.0     0.0     0.0    -0.0    -0.0
    -0.0     0.0     0.0    -0.0    -0.0     0.0     0.0    -0.0     0.0    -0.0
    -0.0     0.0    -0.0     0.0    -0.0     0.0     0.0     0.0     0.0     0.0
    -0.0    -0.0    -0.0    -0.0    -0.0    -0.0    -0.0     0.0    -0.0     0.0
     0.0    -0.0     0.0    -0.0    -0.0    -0.0     0.0     0.0     0.0    -0.0
     0.0     0.0     0.0     0.0     0.0    -0.0    -0.0    -0.0     0.0     0.0
    -0.0    -0.0    -0.0    -0.0     0.0     0.0     0.0    -0.0     0.0    -0.0
    -0.0    -0.0    -0.0    -0.0    -0.0    -0.0    -0.0    -0.0    -0.0    -0.0
    -0.0    -0.0    -0.0    -0.0    -0.0     0.0     0.0    -0.0    -0.0     0.0
    -0.0    -0.0     0.0    -0.0     0.0     0.0    -0.0    -0.0    -0.0     0.0
    -0.0    -0.0     0.0     0.0    -0.0     0.0     0.0    -0.0    -0.0     0.0
    -0.0    -0.0     0.0    -0.0    -0.0     0.0     0.0    -0.0     0.0     0.0
    -0.0    -0.0     0.0     0.0    -0.0     0.0     0.0    -0.0     0.0    -0.0
     0.0    -0.0    -0.0     0.0    -0.0    -0.0    -0.0     0.0     0.0    -0.0
    -0.0    -0.0     0.0    -0.0    -0.0     0.0    -0.0    -0.0     0.0    -0.0
     0.0     0.0     0.0     0.0    -0.0     0.0    -0.0    -0.0    -0.0     0.0
    -0.0    -0.0    -0.0     0.0     0.0     0.0     0.0    -0.0    -0.0    -0.0
    -0.0     0.0    -0.0     0.0    -0.0     0.0    -0.0     0.0    -0.0     0.0
    -0.0     0.0    -0.0    -0.0     0.0    -0.0     0.0    -0.0    -0.0    -0.0
     0.0     0.0     0.0     0.0    -0.0     0.0    -0.0     0.0    -0.0     0.0
    -0.0    -0.0    -0.0    -0.0    -0.0     0.0     0.0     0.0    -0.0     0.0
    -0.0    -0.0    -0.0     0.0     0.0    -0.0     0.0    -0.0    -0.0    -0.0
     0.0     0.0     0.0     0.0    -0.0     0.0    -0.0    -0.0     0.0    -0.0
    -0.0    -0.0    -0.0    -0.0     0.0    -0.0     0.0    -0.0     0.0     0.0
    -0.0     0.0    -0.0    -0.0     0.0    -0.0     0.0    -0.0     0.0    -0.0
    -0.0    -0.0    -0.0    -0.0     0.0     0.0    -0.0     0.0    -0.0     0.0
    -0.0    -0.0    -0.0    -0.0     0.0    -0.0     0.0     0.0    -0.0     0.0
    -0.0     0.0     0.0    -0.0    -0.0    -0.0     0.0    -0.0    -0.0     0.0
    -0.0    -0.0    -0.0     0.0     0.0    -0.0     0.0    -0.0    -0.0    -0.0
    -0.0    -0.0    -0.0     0.0    -0.0    -0.0    -0.0    -0.0    -0.0     0.0
    -0.0     0.0    -0.0    -0.0     0.0     0.0     0.0    -0.0     0.0    -0.0
     0.0    -0.0    -0.0     0.0     0.0     0.0    -0.0     0.0    -0.0    -0.0
     0.0    -0.0     0.0     0.0    -0.0    -0.0    -0.0     0.0    -0.0    -0.0
     0.0    -0.0    -0.0    -0.0     0.0     0.0    -0.0     0.0     0.0     0.0
    -0.0     0.0     0.0    -0.0    -0.0     0.0    -0.0    -0.0     0.0    -0.0
    -0.0    -0.0     0.0    -0.0     0.0    -0.0     0.0    -0.0     0.0     0.0
    -0.0     0.0     0.0    -0.0     0.0     0.1     0.0    -0.0     0.0     0.0
    -0.0    -0.0     0.0     0.0    -0.0     0.0    -0.0     0.0    -0.0    -0.0
     0.0    -0.0     0.0     0.0    -0.0     0.1    -0.0    -0.0     0.0    -0.0
     0.0    -0.0     0.0     0.0    -0.0    -0.0     0.0     0.0    -0.0     0.0
    -0.0     0.0    -0.0    -0.0     0.0     0.0     0.0     0.0     0.0     0.0
     0.0    -0.0     0.0     0.0    -0.0    -0.0     0.0    -0.0     0.0     0.0
     0.0    -0.0    -0.0     0.0    -0.0    -0.0    -0.0    -0.0     0.0    -0.0
    -0.0     0.0    -0.0     0.0     0.0    -0.0    -0.0    -0.0    -0.0     0.0
    -0.0    -0.0     0.0     0.0    -0.0    -0.0     0.0     0.0    -0.0    -0.0
    -0.0    -0.0    -0.0    -0.0     0.0    -0.0     0.0    -0.0     0.0    -0.0
    -0.0    -0.0     0.0    -0.0    -0.0     0.1    -0.0    -0.0     0.0     0.0
    -0.0    -0.0    -0.0    -0.0    -0.0     0.0    -0.0    -0.0    -0.0    -0.0
     0.0     0.0    -0.0    -0.0     0.0    -0.0     0.0    -0.0    -0.0    -0.0
     0.1    -0.1    -0.0     0.0     0.0    -0.0    -0.0     0.1    -0.1     0.0
     0.1    -0.0     0.0     0.0     0.0     0.0    -0.0     0.0    -0.0    -0.0
     0.0    -0.0     0.0    -0.0     0.0    -0.0    -0.0     0.0    -0.0    -0.0
     0.0    -0.0     0.0    -0.0    -0.0    -0.0    -0.0     0.0    -0.0    -0.0
     0.0     0.0     0.0    -0.0     0.0    -0.0    -0.0     0.0     0.0     0.0
     0.0     0.0     0.0     0.0    -0.1     0.1    -0.0    -0.0     0.0    -0.1
     0.1    -0.1     0.1    -0.0     0.0     0.0    -0.1     0.0    -0.0     0.0
    -0.0     0.0     0.0    -0.0    -0.0    -0.0     0.0    -0.0     0.1     0.0
    -0.1     0.1    -0.0    -0.0    -0.0    -0.0     0.0    -0.0    -0.0    -0.0
     0.1    -0.0    -0.0    -0.0     0.0    -0.0    -0.0     0.1    -0.1     0.1
    -0.1    -0.0     0.0    -0.0    -0.0     0.0     0.0    -0.0    -0.0     0.0
     0.0    -0.0     0.0     0.0    -0.0     0.0    -0.0     0.0    -0.0    -0.0
     0.0    -0.0     0.0    -0.0    -0.0    -0.0    -0.0    -0.0     0.0    -0.0
    -0.0     0.0    -0.0     0.1    -0.1     0.0     0.0    -0.0    -0.0     0.0
     0.1    -0.0     0.0     0.0     0.0    -0.1    -0.0     0.0    -0.0    -0.0
    -0.0    -0.0     0.0    -0.0    -0.0    -0.0    -0.0     0.0    -0.0    -0.0
     0.0    -0.0     0.0    -0.0     0.0     0.0    -0.0    -0.0    -0.0     0.0
     0.0    -0.0    -0.0    -0.0     0.0    -0.0    -0.0     0.0    -0.0    -0.0
    -0.0    -0.0    -0.0    -0.0    -0.0     0.0    -0.0    -0.0    -0.0    -0.0
    -0.0    -0.0    -0.0     0.0     0.0    -0.0    -0.0    -0.0    -0.0    -0.0
    -0.0    -0.0    -0.0     0.0    -0.0    -0.0     0.1    -0.0    -0.0    -0.0
    -0.0    -0.0    -0.1     0.1     0.0    -0.0    -0.0    -0.0    -0.0    -0.0
    -0.0    -0.0    -0.0    -0.0    -0.0    -0.0    -0.0    -0.0    -0.0    -0.0
    -0.0    -0.0     0.0    -0.0    -0.0    -0.0    -0.0    -0.0    -0.0    -0.0
    -0.0    -0.0    -0.0    -0.0    -0.0    -0.0    -0.0    -0.0    -0.0     0.0
     0.0     0.0    -0.0     0.0    -0.0     0.0     0.0     0.0     0.0    -0.0
    -0.0    -0.0    -0.0     0.0    -0.0    -0.0    -0.0    -0.0    -0.0    -0.0
    -0.0    -0.0    -0.0    -0.0    -0.0    -0.0    -0.0    -0.0    -0.0    -0.0
    -0.0    -0.0    -0.0    -0.0    -0.0    -0.0    -0.0    -0.1    -0.0    -0.0
    -0.0    -0.0     0.0    -0.0    -0.0    -0.0    -0.0    -0.0    -0.0     0.0
    -0.0    -0.0    -0.0    -0.0     0.0    -0.0    -0.0     0.0     0.0    -0.0
    -0.0     0.0    -0.0    -0.0     0.0    -0.0     0.0    -0.0     0.0     0.0
    -0.0     0.0     0.0    -0.0     0.0     0.0     0.0     0.0     0.0     0.0
     0.0     0.0     0.0     0.0     0.0     0.0     0.0     0.0     0.0     0.0
     0.0     0.0     0.0     0.0     0.0     0.0     0.0     0.0     0.0     0.0
     0.1     0.0     0.0     0.0     0.0     0.0     0.0     0.0     0.0     0.0
     0.0     0.0     0.1     0.0     0.1     0.0     0.0     0.1     0.1     0.0
     0.0     0.0     0.0     0.1     0.0     0.0     0.0     0.1     0.1     0.0
     0.1     0.0     0.1     0.0     0.1     0.0     0.0     0.0     0.0     0.1
     0.0     0.1     0.1     0.0     0.1     0.1     0.1     0.1     0.0     0.0
     0.1     0.1     0.0     0.1     0.1     0.0     0.0     0.1     0.1     0.1
     0.1     0.0     0.1     0.1     0.0     0.0     0.0     0.0     0.0     0.1
     0.1     0.1     0.1     0.1     0.1     0.0     0.1     0.1     0.0     0.0
     0.0     0.0     0.0     0.1     0.1     0.0     0.0     0.0     0.0     0.1
     0.1     0.0     0.0     0.0     0.0     0.0     0.0     0.0     0.0     0.1
     0.1     0.0     0.0     0.0     0.0     0.0     0.0     0.0    -0.0     0.0
     0.0     0.0     0.0    -0.0     0.0     0.0    -0.0     0.0    -0.0    -0.0
    -0.0    -0.0    -0.0    -0.0    -0.0    -0.0    -0.0    -0.0    -0.0    -0.0
    -0.0    -0.1    -0.0    -0.0    -0.0    -0.0    -0.0    -0.0    -0.1    -0.1
    -0.0    -0.0    -0.1    -0.1    -0.1    -0.1    -0.1    -0.1    -0.1    -0.1
    -0.0    -0.1    -0.1    -0.1    -0.1    -0.1    -0.0    -0.1    -0.1    -0.1
    -0.1    -0.1    -0.1    -0.1    -0.1    -0.1    -0.1    -0.1    -0.1    -0.1
    -0.1    -0.1    -0.1    -0.1    -0.1    -0.1    -0.2    -0.1    -0.1    -0.1
    -0.2    -0.1    -0.2    -0.1    -0.1    -0.0     0.0     0.1     0.2     0.2
