Corrected accelerogram 20160214_001343_WVAS_20 GNS Science
Site WVAS      43 04 18S  170 44 14E     Basalt file:  20160214_001414_WVAS
Kakapotahi
Instrument Basalt_2139
Resolution: 24-bit   Instr Period: 0.0050 s   Damping: 0.700
Accelerogram 20160214_001343_WVAS_20                 Processed 2016 February 22
11 km east of CHRISTCHURCH
2016 February 14         00:13:43 UT
Epicentre  43 29 50S 172 45 18E  Bearing S73E  Dist  171km  Depth    8km M  5.70
Number of points  7150    Duration 142.98 sec
Instrument corrected data at 0.020 sec intervals
Band-pass filter transition bands are .10-.25 Hz and 24.50-25.50 Hz
Component N00E  Horizontal Axis 1
Acceleration:  peak    -10.9 mm/s/s at  68.82 sec     rms      1.8 mm/s/s
Velocity:      peak    -1.63 mm/s   at  72.32 sec     rms     0.28 mm/s
Displacement:  peak   -0.661 mm     at  73.38 sec     rms    0.151 mm
    2016       2      14       0      13     430       0       0    2016       2
      43      29      50     172      45      18       8       0      14       0
      43       4      18     170      44      14       0       0     107     171
   26600     250     250    7150    7150    7150       0       0      13   34000
   200.0    0.70    0.00   0.000  0.0000   0.000   0.000   1.000     0.0    0.00
  43.072 170.737   43.50  172.76    5.70    0.00    0.00    0.00      0.      0.
  133.00    5.00    5.00  142.98  0.0050  0.0200      0.      0.      0.  9806.6
   -10.9   63.77     1.8   0.000      0.   -10.9   68.82     1.8    16.6   1.154
   -1.63   72.32    0.28    1.90   0.220   -0.66   73.38    0.15    0.70   0.186
   0.100   0.150   0.250      0.      0.  24.500   1.000  25.500      0.      0.
   0.001   0.000   0.001   0.000   0.001   0.000   0.001   0.000   0.000   0.000
   0.000  -0.000   0.000  -0.000   0.000  -0.000   0.000  -0.000   0.000  -0.000
   0.000  -0.000  -0.000  -0.000  -0.000  -0.001  -0.000  -0.001  -0.000  -0.001
  -0.000  -0.001  -0.000  -0.001  -0.001  -0.001  -0.001  -0.001  -0.001  -0.001
  -0.001  -0.001  -0.001  -0.001  -0.001  -0.001  -0.001  -0.001  -0.001  -0.002
  -0.001  -0.002  -0.001  -0.002  -0.002  -0.002  -0.002  -0.002  -0.002  -0.002
  -0.002  -0.002  -0.002  -0.002  -0.002  -0.002  -0.002  -0.002  -0.002  -0.002
  -0.002  -0.003  -0.002  -0.003  -0.002  -0.003  -0.002  -0.003  -0.003  -0.003
  -0.003  -0.003  -0.003  -0.003  -0.003  -0.003  -0.003  -0.003  -0.003  -0.003
  -0.003  -0.003  -0.003  -0.003  -0.003  -0.003  -0.003  -0.003  -0.003  -0.003
  -0.003  -0.003  -0.003  -0.003  -0.003  -0.003  -0.003  -0.003  -0.003  -0.003
  -0.003  -0.003  -0.003  -0.003  -0.003  -0.003  -0.003  -0.003  -0.003  -0.003
  -0.003  -0.003  -0.003  -0.003  -0.003  -0.003  -0.003  -0.003  -0.003  -0.003
  -0.002  -0.003  -0.002  -0.002  -0.002  -0.002  -0.002  -0.002  -0.002  -0.002
  -0.002  -0.002  -0.002  -0.002  -0.001  -0.001  -0.001  -0.001  -0.001  -0.001
  -0.001  -0.001  -0.001  -0.001  -0.000  -0.000  -0.000  -0.000   0.000   0.000
   0.000   0.001   0.001   0.001   0.001   0.001   0.001   0.001   0.001   0.002
   0.002   0.002   0.002   0.002   0.002   0.003   0.003   0.003   0.003   0.004
   0.004   0.004   0.004   0.004   0.004   0.005   0.005   0.005   0.005   0.006
   0.006   0.006   0.006   0.007   0.006   0.007   0.007   0.008   0.007   0.008
   0.008   0.009   0.008   0.009   0.009   0.010   0.009   0.010   0.010   0.011
   0.010   0.012   0.011   0.012   0.011   0.013   0.012   0.013   0.012   0.014
   0.013   0.015   0.013   0.015   0.013   0.016   0.014   0.017   0.014   0.017
   0.015   0.018   0.015   0.019   0.016   0.019   0.016   0.020   0.017   0.021
   0.017   0.022   0.017   0.023   0.017   0.024   0.017   0.026   0.016   0.029
  -0.002  -0.024  -0.051  -0.010  -0.004  -0.029  -0.019  -0.007  -0.007  -0.012
   0.010  -0.034  -0.036  -0.028  -0.009  -0.036  -0.013  -0.035  -0.038  -0.058
  -0.004  -0.036   0.008   0.003  -0.054  -0.016  -0.008  -0.008  -0.016  -0.016
  -0.013   0.000  -0.013   0.016  -0.004  -0.044  -0.016  -0.010  -0.012   0.005
  -0.018  -0.027   0.006  -0.046  -0.004   0.023  -0.006   0.001  -0.043  -0.002
   0.020   0.010  -0.029  -0.020  -0.014   0.003   0.017  -0.024  -0.024  -0.001
   0.005  -0.011   0.005   0.016  -0.009   0.016   0.020  -0.015  -0.003  -0.001
   0.016   0.022  -0.016   0.029  -0.005  -0.009  -0.017   0.002  -0.032  -0.008
   0.037   0.002  -0.021  -0.035  -0.039  -0.006  -0.005  -0.016   0.041  -0.012
  -0.050  -0.039  -0.006  -0.019   0.024  -0.004   0.011  -0.025   0.006  -0.003
   0.035  -0.027   0.018  -0.018   0.019   0.018   0.032   0.004   0.012  -0.009
  -0.031   0.017  -0.025   0.020   0.008  -0.027   0.017   0.010   0.007   0.032
  -0.003  -0.007   0.031   0.012  -0.005   0.012   0.010  -0.010   0.003  -0.020
   0.047   0.002   0.019  -0.020   0.012   0.007  -0.037   0.030   0.014  -0.047
  -0.017  -0.002   0.014   0.014  -0.021   0.024   0.022  -0.001   0.005   0.029
   0.018   0.030   0.004   0.016   0.025  -0.022  -0.007  -0.012   0.014   0.018
   0.027   0.012   0.005  -0.014   0.008   0.028   0.019   0.025   0.004  -0.044
  -0.015   0.019  -0.001   0.020   0.028   0.002   0.013   0.008   0.010  -0.006
  -0.018   0.006  -0.018  -0.011  -0.006   0.031  -0.038  -0.007   0.010   0.033
  -0.003   0.011  -0.025  -0.002   0.022   0.025   0.003  -0.022  -0.015  -0.018
   0.022   0.041   0.027   0.015  -0.024  -0.012   0.026  -0.018   0.006  -0.003
   0.027   0.015   0.004   0.002  -0.016  -0.018   0.030  -0.027  -0.010  -0.016
  -0.044  -0.007   0.030  -0.004   0.013  -0.021  -0.041  -0.001   0.001   0.027
   0.011   0.026  -0.008   0.014  -0.007   0.020   0.017   0.015  -0.021  -0.016
  -0.023   0.010   0.020   0.011  -0.051  -0.032  -0.022   0.008  -0.017  -0.026
  -0.016   0.029  -0.018  -0.017  -0.056   0.009  -0.012   0.000  -0.011   0.000
   0.003  -0.024   0.024   0.012   0.019  -0.003  -0.037  -0.037   0.015   0.022
  -0.016  -0.018   0.004  -0.007   0.009  -0.002   0.030  -0.016   0.021  -0.012
   0.013  -0.046  -0.016  -0.005   0.009   0.018  -0.004  -0.015   0.015   0.011
   0.037  -0.045  -0.003   0.023  -0.000  -0.014   0.005   0.018   0.012  -0.030
  -0.016   0.018  -0.020  -0.005  -0.024  -0.007   0.012   0.019   0.009   0.022
   0.001  -0.027   0.017   0.016   0.008  -0.020  -0.001   0.031  -0.027  -0.002
   0.000   0.001   0.004  -0.012   0.013   0.007  -0.007   0.002  -0.010   0.010
   0.011   0.020  -0.012   0.013  -0.028   0.010   0.015   0.014   0.014   0.015
   0.014  -0.003  -0.005  -0.025  -0.004  -0.002  -0.005  -0.001   0.002  -0.003
   0.022   0.007   0.025  -0.011  -0.014  -0.002   0.039   0.016   0.016   0.012
  -0.016   0.004  -0.004   0.007   0.005  -0.006  -0.008   0.012   0.016  -0.010
   0.018  -0.012  -0.011   0.020  -0.014   0.022  -0.015   0.019  -0.010   0.006
   0.015   0.015   0.011  -0.007   0.010   0.022  -0.024  -0.021  -0.038   0.005
   0.016  -0.000  -0.004   0.015  -0.031  -0.053   0.020  -0.015   0.001   0.023
  -0.009  -0.049   0.014  -0.031   0.007  -0.011   0.011   0.014   0.015   0.027
  -0.012  -0.022   0.016  -0.006  -0.006  -0.013   0.029  -0.060  -0.021   0.007
  -0.008  -0.015   0.017  -0.012  -0.015  -0.007   0.000  -0.011   0.010   0.019
  -0.009   0.015  -0.002   0.002   0.004  -0.002   0.006  -0.002  -0.001   0.009
  -0.017  -0.004  -0.023  -0.023  -0.036   0.005   0.015   0.018  -0.001   0.000
   0.019   0.013   0.014   0.018  -0.002   0.003   0.006  -0.011   0.027   0.000
   0.000   0.000   0.007  -0.008   0.021  -0.014   0.020   0.012  -0.028   0.005
   0.028  -0.002   0.003  -0.030   0.020  -0.005   0.008   0.019   0.011   0.006
  -0.058  -0.022  -0.000   0.010  -0.008   0.019  -0.010   0.014  -0.009   0.018
  -0.013  -0.031   0.054  -0.000   0.017  -0.035   0.029  -0.004  -0.024   0.009
   0.009  -0.013   0.031  -0.011   0.012  -0.019   0.023   0.008  -0.049   0.004
  -0.003   0.010   0.025  -0.008  -0.017   0.009  -0.032  -0.007  -0.022  -0.011
   0.019   0.005  -0.031   0.023   0.002  -0.014   0.015   0.014   0.019  -0.006
   0.015  -0.004  -0.004  -0.005  -0.016  -0.001   0.007  -0.002  -0.012  -0.001
  -0.020   0.007   0.002   0.022   0.036   0.008  -0.009  -0.017  -0.034   0.012
  -0.015  -0.012   0.023  -0.006  -0.007   0.005   0.005  -0.005   0.027  -0.009
  -0.053   0.010   0.017   0.015   0.004  -0.021   0.019   0.012  -0.028  -0.008
   0.019  -0.019   0.001   0.016  -0.011   0.016   0.015  -0.017  -0.004   0.009
  -0.026   0.011  -0.011   0.001  -0.020  -0.005  -0.004  -0.011   0.022   0.011
  -0.002  -0.007   0.007  -0.001  -0.010   0.005   0.014   0.018  -0.002   0.008
  -0.000   0.001  -0.002   0.004   0.020   0.017  -0.019  -0.004   0.004  -0.004
   0.015  -0.030  -0.005  -0.009   0.014   0.015   0.000  -0.034   0.005   0.003
  -0.029  -0.002   0.013  -0.012   0.020  -0.012   0.006   0.006  -0.006   0.012
   0.004  -0.024  -0.008   0.013   0.023   0.013  -0.006   0.003   0.022   0.011
   0.015   0.012   0.009  -0.007   0.007  -0.004  -0.004  -0.004   0.020   0.008
   0.007  -0.032   0.021  -0.007   0.011   0.013   0.014   0.010  -0.011   0.018
   0.002  -0.027  -0.001  -0.022  -0.009  -0.016   0.005   0.004  -0.003   0.009
  -0.000  -0.002  -0.001   0.015   0.011  -0.010   0.018   0.005  -0.002  -0.017
  -0.009  -0.000  -0.024   0.002  -0.011   0.011  -0.021  -0.007  -0.002  -0.009
  -0.021   0.019   0.004  -0.001  -0.003   0.004   0.016  -0.013   0.016   0.013
  -0.012   0.009  -0.002  -0.005   0.016  -0.016  -0.007   0.003   0.003  -0.011
   0.024  -0.001   0.023  -0.020  -0.024  -0.004   0.006  -0.014   0.008   0.000
  -0.007   0.018  -0.017  -0.012   0.020  -0.019  -0.006   0.003   0.001  -0.022
  -0.023  -0.008   0.002  -0.012   0.012   0.008   0.013   0.007   0.018   0.009
   0.021  -0.024  -0.015  -0.003  -0.009  -0.020  -0.016   0.016   0.005  -0.026
   0.006  -0.009  -0.008  -0.001   0.016  -0.025  -0.002   0.010   0.012   0.011
  -0.005   0.007   0.014  -0.016   0.020  -0.013   0.009   0.006  -0.012   0.020
   0.011  -0.052   0.002   0.017   0.008   0.015   0.010   0.017   0.018   0.004
   0.017  -0.019  -0.008  -0.005   0.005   0.003  -0.028  -0.015  -0.007  -0.001
  -0.030   0.012   0.009   0.008   0.014   0.010   0.011   0.006  -0.011   0.011
   0.013  -0.015   0.006   0.009   0.012   0.004  -0.009  -0.018   0.029  -0.004
  -0.019  -0.015   0.003   0.012   0.007   0.042   0.024   0.004  -0.010   0.001
  -0.004  -0.001  -0.016  -0.030   0.019  -0.002  -0.010   0.022   0.014  -0.024
  -0.015  -0.007   0.015  -0.027  -0.001  -0.012  -0.015   0.006   0.035   0.020
   0.009  -0.011   0.011   0.010   0.011   0.001  -0.013   0.016   0.010  -0.013
   0.029   0.007  -0.044   0.016   0.010   0.012   0.007   0.010   0.009   0.013
   0.009   0.009   0.014  -0.019   0.021  -0.028  -0.001  -0.010  -0.021  -0.007
   0.006   0.006  -0.007   0.001  -0.005   0.026   0.002  -0.010  -0.033   0.007
   0.023   0.004  -0.030   0.016  -0.010  -0.037   0.004   0.015  -0.017  -0.033
  -0.002  -0.024   0.018  -0.005  -0.032  -0.012  -0.031  -0.037  -0.016  -0.015
   0.018  -0.016  -0.010  -0.015   0.006  -0.008   0.003  -0.003  -0.008   0.024
  -0.014   0.009   0.005  -0.013  -0.009   0.002  -0.007   0.001  -0.007   0.016
   0.004   0.016   0.007  -0.001  -0.015  -0.030   0.009   0.009  -0.015   0.019
   0.009   0.010   0.006   0.011   0.008   0.021  -0.020   0.014  -0.017  -0.021
   0.013   0.013   0.007   0.015  -0.009   0.023  -0.005  -0.006  -0.014  -0.020
   0.023   0.002   0.012   0.008   0.015   0.021   0.005   0.011   0.020  -0.014
   0.010   0.010   0.012  -0.019   0.013  -0.003  -0.004   0.017   0.022  -0.009
  -0.001  -0.029  -0.002   0.008   0.010  -0.009  -0.001   0.017   0.004   0.012
  -0.017  -0.017   0.007  -0.032   0.008   0.026   0.004   0.012   0.012  -0.006
  -0.001   0.020  -0.021  -0.019   0.018  -0.017   0.012  -0.007   0.000   0.010
  -0.020   0.026   0.008   0.009   0.005   0.012   0.010  -0.011  -0.004  -0.009
   0.020  -0.007  -0.011   0.023  -0.007  -0.009  -0.035  -0.021   0.005  -0.015
   0.001  -0.015   0.020  -0.008  -0.004  -0.021  -0.012   0.009   0.009   0.005
   0.009  -0.020   0.024  -0.040   0.004   0.013  -0.020   0.014   0.006   0.011
  -0.000  -0.005   0.025  -0.015   0.009  -0.010  -0.041   0.006   0.009  -0.004
   0.021   0.017  -0.012   0.003  -0.002  -0.003   0.024  -0.003   0.017   0.002
   0.018   0.006   0.025  -0.015  -0.054  -0.006  -0.012   0.010   0.008   0.007
   0.024  -0.032   0.006   0.033  -0.017   0.003   0.020   0.008   0.006  -0.013
  -0.006  -0.017  -0.016   0.007  -0.013  -0.001  -0.005  -0.006   0.016  -0.007
  -0.014   0.002   0.010   0.007   0.012   0.007   0.007   0.013   0.006  -0.009
  -0.019   0.001  -0.007  -0.006   0.011  -0.025   0.006   0.013   0.018  -0.020
  -0.021  -0.009   0.016   0.009  -0.004   0.012  -0.029   0.020  -0.002   0.027
  -0.037   0.001  -0.013   0.024  -0.019   0.007  -0.013  -0.019  -0.026  -0.014
   0.022   0.008  -0.020  -0.004  -0.010   0.015   0.006   0.041   0.013  -0.017
  -0.040  -0.000  -0.024  -0.028   0.011  -0.007   0.027   0.007   0.015   0.012
  -0.012  -0.022   0.030  -0.007   0.020  -0.009   0.000   0.014   0.014  -0.027
  -0.007   0.020   0.012   0.004   0.010  -0.009  -0.004  -0.007   0.025  -0.002
  -0.032   0.001  -0.003  -0.017  -0.009   0.011   0.018   0.008   0.005   0.022
  -0.060  -0.032   0.023   0.006   0.014   0.000   0.017   0.019   0.009   0.009
   0.018   0.006   0.005  -0.013   0.061  -0.047  -0.061  -0.000   0.008   0.006
   0.009   0.021  -0.005  -0.020   0.003   0.014  -0.030  -0.022   0.014   0.008
   0.013   0.011   0.003   0.026  -0.020   0.020   0.011   0.012  -0.006  -0.000
   0.005  -0.006  -0.011   0.015   0.011  -0.014   0.018  -0.003  -0.018  -0.002
  -0.002  -0.022  -0.018  -0.011  -0.006  -0.007   0.023  -0.011  -0.007  -0.012
   0.025   0.001   0.021  -0.010  -0.006   0.003   0.021   0.013   0.014  -0.014
  -0.028   0.010   0.015  -0.022  -0.031   0.008   0.014  -0.008   0.003   0.012
  -0.016   0.005   0.017  -0.016   0.013  -0.015   0.011   0.017   0.009   0.013
   0.012   0.013  -0.001  -0.047   0.022   0.042  -0.020   0.011  -0.000  -0.017
  -0.010   0.020   0.027  -0.004  -0.008  -0.012  -0.009   0.009   0.004   0.001
   0.014   0.002   0.021  -0.045  -0.022  -0.050  -0.007  -0.012   0.020  -0.050
   0.006   0.001  -0.043   0.012  -0.009  -0.001  -0.014   0.023  -0.014   0.018
  -0.018   0.011   0.003  -0.015   0.016   0.024  -0.014   0.003  -0.003  -0.008
   0.001   0.017  -0.009  -0.007   0.006   0.010  -0.016  -0.013  -0.014   0.013
  -0.041  -0.008   0.038  -0.005  -0.007   0.005   0.013  -0.019  -0.011   0.019
   0.001   0.018  -0.011   0.001   0.018   0.020  -0.011  -0.017   0.018   0.024
   0.022   0.001   0.028   0.001   0.027  -0.005  -0.016  -0.020   0.018   0.001
   0.029  -0.048  -0.020   0.012  -0.013   0.004   0.031  -0.041  -0.000   0.015
   0.001  -0.007   0.003  -0.009  -0.008  -0.002  -0.018  -0.009  -0.029   0.004
   0.019   0.036   0.004   0.020  -0.005  -0.008   0.019   0.005   0.017   0.017
  -0.004  -0.041   0.003   0.009   0.005  -0.028   0.009   0.015   0.012   0.005
   0.019  -0.015  -0.006  -0.040   0.022  -0.005   0.033  -0.074   0.029  -0.010
  -0.006   0.019  -0.049   0.020  -0.025   0.022   0.012  -0.016   0.005   0.009
   0.014   0.008   0.021   0.004   0.023  -0.010  -0.005   0.005   0.002  -0.020
  -0.032  -0.004   0.020   0.003   0.003   0.009  -0.017   0.004  -0.012  -0.025
  -0.000  -0.006   0.022   0.006   0.016  -0.026   0.018  -0.000  -0.033   0.016
   0.012  -0.015   0.008   0.014   0.009   0.015   0.004   0.012  -0.012  -0.016
   0.018   0.008   0.003  -0.011   0.013   0.017  -0.017  -0.035   0.018   0.011
  -0.001  -0.034  -0.023   0.027  -0.014   0.004   0.008   0.018   0.010   0.002
   0.016   0.003   0.015  -0.039   0.017   0.000  -0.003   0.005  -0.016   0.017
  -0.022  -0.009   0.006   0.008   0.014   0.008  -0.015  -0.024  -0.025   0.005
  -0.025   0.004  -0.014   0.023  -0.009  -0.003  -0.009   0.011  -0.020  -0.015
  -0.005   0.009  -0.009   0.019   0.006   0.007  -0.015  -0.027  -0.009   0.003
  -0.006   0.009  -0.010  -0.012   0.012   0.006   0.013   0.023  -0.014  -0.030
   0.025   0.011   0.020  -0.001   0.011  -0.038   0.017   0.009  -0.012  -0.002
   0.016   0.005   0.022   0.000  -0.021   0.020  -0.038  -0.007  -0.002   0.012
   0.010  -0.030   0.030  -0.003   0.019  -0.001   0.024  -0.002  -0.013   0.011
  -0.005  -0.013   0.028  -0.000   0.013  -0.015   0.006   0.007   0.022  -0.003
   0.018  -0.006   0.016  -0.012  -0.005   0.003  -0.004   0.018  -0.019   0.001
   0.012  -0.027   0.021   0.004  -0.013   0.004  -0.018   0.020   0.011  -0.011
  -0.021  -0.005   0.021   0.007   0.007   0.006   0.007   0.010   0.017   0.012
   0.003   0.001   0.006   0.003   0.009  -0.013  -0.039  -0.008  -0.038  -0.002
  -0.010   0.011  -0.009   0.010   0.014  -0.007  -0.012   0.025  -0.036  -0.011
   0.019  -0.022   0.009  -0.004   0.012  -0.005  -0.014   0.023  -0.002  -0.010
   0.003   0.018  -0.001  -0.012   0.005  -0.013   0.011  -0.014   0.014   0.007
  -0.015  -0.001  -0.018  -0.020   0.004  -0.017  -0.016   0.016   0.004  -0.016
  -0.014   0.000   0.010  -0.004   0.013   0.004   0.012   0.033  -0.019   0.004
   0.014   0.008  -0.023  -0.026   0.018  -0.007   0.008  -0.018   0.014   0.011
   0.004  -0.033   0.024  -0.010   0.023  -0.030  -0.021  -0.027  -0.014   0.009
   0.011  -0.007  -0.023   0.014   0.006   0.007   0.011   0.006   0.007   0.006
   0.004   0.013   0.006   0.016  -0.012  -0.003  -0.012  -0.030  -0.003  -0.020
   0.018   0.001   0.017  -0.003  -0.008  -0.037   0.022   0.005  -0.007   0.001
   0.012   0.001   0.016   0.006   0.016  -0.001   0.014  -0.001   0.012  -0.003
   0.020  -0.018  -0.004  -0.023   0.028  -0.032  -0.025   0.007   0.009  -0.004
  -0.005  -0.002  -0.016  -0.009  -0.008   0.012   0.002   0.011  -0.003   0.006
   0.010   0.005   0.015  -0.011  -0.008  -0.022  -0.006   0.018  -0.004   0.005
   0.009  -0.015  -0.025   0.006   0.008  -0.013   0.001   0.010  -0.002  -0.031
   0.019   0.005   0.018  -0.004  -0.012   0.016  -0.024  -0.010   0.055  -0.007
   0.030  -0.023  -0.038  -0.002  -0.003   0.011   0.015   0.008   0.019  -0.009
  -0.005  -0.032  -0.011   0.003  -0.011   0.016   0.016  -0.012   0.009   0.011
   0.018   0.009  -0.024  -0.009  -0.002   0.001  -0.008   0.015   0.006   0.017
  -0.038  -0.011   0.015  -0.038   0.010   0.009   0.010  -0.032   0.005   0.012
   0.021   0.009  -0.005   0.016  -0.032   0.010   0.017   0.018   0.010   0.019
  -0.013   0.018   0.001  -0.005   0.021   0.010   0.029   0.036   0.026   0.010
   0.029  -0.027   0.001  -0.012  -0.009   0.030   0.011   0.010   0.010   0.019
   0.010   0.027   0.012   0.016   0.012   0.029  -0.027   0.000   0.024  -0.011
   0.013  -0.003   0.019   0.020  -0.012  -0.002  -0.040  -0.031   0.003   0.009
   0.017   0.012   0.007   0.031   0.046  -0.001  -0.045  -0.057  -0.069  -0.047
   0.009   0.044   0.049  -0.001  -0.022   0.002   0.004  -0.027  -0.013  -0.070
  -0.016  -0.027   0.046   0.021   0.047   0.016  -0.027  -0.095  -0.072  -0.063
   0.098   0.039   0.055   0.030   0.000   0.018   0.022  -0.007   0.035  -0.064
  -0.109  -0.116  -0.050  -0.001   0.069   0.164   0.021   0.069  -0.058   0.024
  -0.024  -0.014   0.048  -0.219  -0.071   0.105   0.158   0.209   0.124  -0.028
  -0.173  -0.305  -0.118  -0.058  -0.062   0.129   0.064  -0.027   0.074   0.120
   0.095   0.051  -0.239  -0.246  -0.098   0.032   0.253   0.009  -0.134  -0.175
  -0.201  -0.039  -0.145   0.131  -0.012  -0.071   0.016  -0.183   0.104   0.123
   0.258   0.077  -0.104  -0.473  -0.301  -0.074   0.246   0.381   0.340  -0.190
  -0.118  -0.710  -0.060   0.573   0.610   0.662  -0.081  -0.310  -0.350  -0.347
   0.038   0.148  -0.191  -0.137   0.045   0.364  -0.020  -0.032  -0.344  -0.456
  -0.107   0.374   0.985   0.283   0.449   0.117   0.012  -0.310  -0.780   0.005
  -0.160   0.014   0.381   0.638   0.334  -0.370  -0.595  -0.315   0.100   0.482
  -0.236  -0.458  -0.422  -0.657   0.442   0.324   0.354  -0.055  -0.836  -0.934
