Corrected accelerogram 20160214_001343_QRZ_20 GNS Science
Site QRZ       40 49 32S  172 31 45E     Basalt file:  20160214_001438_QRZ
Quartz Range
Instrument Basalt_2140
Resolution: 24-bit   Instr Period: 0.0050 s   Damping: 0.700
Accelerogram 20160214_001343_QRZ_20                  Processed 2016 February 22
11 km east of CHRISTCHURCH
2016 February 14         00:13:43 UT
Epicentre  43 29 50S 172 45 18E  Bearing S04E  Dist  297km  Depth    8km M  5.70
Number of points  7500    Duration 149.98 sec
Instrument corrected data at 0.020 sec intervals
Band-pass filter transition bands are .10-.25 Hz and 24.50-25.50 Hz
Component N00E  Transverse Accelerometer Axis
Acceleration:  peak      1.9 mm/s/s at  43.38 sec     rms      0.3 mm/s/s
Velocity:      peak     0.38 mm/s   at  41.24 sec     rms     0.08 mm/s
Displacement:  peak   -0.201 mm     at  94.28 sec     rms    0.041 mm
    2016       2      14       0      13     430       0       0    2016       2
      43      29      50     172      45      18       8       0      14       0
      40      49      32     172      31      45       0       0     176     297
   28000     250     250    7500    7500    7500       0       0      13   58000
   200.0    0.70    0.00   0.000  0.0000   0.000   0.000   1.000     0.0    0.00
  40.826 172.529   43.50  172.76    5.70    0.00    0.00    0.00      0.      0.
  140.00    5.00    5.00  149.98  0.0050  0.0200      0.      0.      0.  9806.6
     2.0   43.38     0.4   0.000      0.     1.9   43.38     0.3     3.6   0.333
    0.38   41.24    0.08    1.24   0.278   -0.20   94.28    0.04    0.60   0.278
   0.100   0.150   0.250      0.      0.  24.500   1.000  25.500      0.      0.
   0.000   0.000   0.000   0.000   0.000   0.000   0.000   0.000   0.000   0.000
   0.000   0.000   0.000   0.000   0.000   0.000   0.000   0.000   0.000   0.000
  -0.000   0.000  -0.000   0.000  -0.000   0.000  -0.000  -0.000  -0.000  -0.000
  -0.000  -0.000  -0.000  -0.000  -0.000  -0.000  -0.000  -0.000  -0.000  -0.000
  -0.000  -0.000  -0.000  -0.000  -0.000  -0.000  -0.000  -0.000  -0.001  -0.000
  -0.001  -0.000  -0.001  -0.001  -0.001  -0.001  -0.001  -0.001  -0.001  -0.001
  -0.001  -0.001  -0.001  -0.001  -0.001  -0.001  -0.001  -0.001  -0.001  -0.001
  -0.001  -0.001  -0.001  -0.001  -0.001  -0.001  -0.001  -0.001  -0.001  -0.001
  -0.001  -0.001  -0.001  -0.001  -0.001  -0.001  -0.001  -0.001  -0.001  -0.001
  -0.001  -0.001  -0.001  -0.001  -0.001  -0.001  -0.001  -0.001  -0.001  -0.001
  -0.001  -0.001  -0.001  -0.001  -0.001  -0.001  -0.001  -0.001  -0.001  -0.001
  -0.001  -0.001  -0.001  -0.001  -0.001  -0.001  -0.001  -0.001  -0.001  -0.001
  -0.001  -0.001  -0.001  -0.001  -0.001  -0.001  -0.001  -0.001  -0.001  -0.001
  -0.001  -0.001  -0.001  -0.001  -0.001  -0.001  -0.001  -0.001  -0.001  -0.001
  -0.001  -0.001  -0.001  -0.001  -0.001  -0.001  -0.001  -0.001  -0.001  -0.001
  -0.001  -0.001  -0.001  -0.000  -0.001  -0.000  -0.000  -0.000  -0.000  -0.000
  -0.000  -0.000  -0.000   0.000   0.000   0.000   0.000   0.000   0.000   0.000
   0.000   0.001   0.001   0.001   0.001   0.001   0.001   0.001   0.001   0.001
   0.001   0.001   0.001   0.002   0.002   0.002   0.002   0.002   0.002   0.002
   0.002   0.002   0.002   0.002   0.002   0.003   0.003   0.003   0.003   0.003
   0.003   0.003   0.003   0.004   0.003   0.004   0.004   0.004   0.004   0.004
   0.004   0.004   0.004   0.005   0.005   0.005   0.005   0.005   0.005   0.005
   0.005   0.006   0.005   0.006   0.006   0.006   0.006   0.007   0.006   0.007
   0.006   0.007   0.006   0.008   0.007   0.008   0.007   0.008   0.007   0.009
   0.007   0.009   0.007   0.010   0.006   0.011   0.005   0.014   0.002   0.021
  -0.037   0.004   0.005  -0.047   0.022  -0.043   0.030  -0.025  -0.021  -0.027
   0.011  -0.013   0.027   0.006  -0.010   0.036  -0.029   0.005  -0.032   0.028
  -0.025   0.023  -0.030   0.031  -0.038   0.014   0.019  -0.042   0.010  -0.013
   0.015  -0.016   0.041  -0.001   0.017  -0.002  -0.000  -0.009  -0.056  -0.010
   0.023   0.003  -0.012   0.053  -0.031   0.009  -0.021  -0.026   0.013   0.021
  -0.021   0.007  -0.057  -0.026   0.029  -0.028   0.006   0.012  -0.002   0.008
   0.010  -0.012  -0.006  -0.026   0.015  -0.033  -0.001  -0.004  -0.031   0.024
  -0.016  -0.008   0.015  -0.016  -0.037   0.010  -0.035   0.007  -0.041   0.013
   0.005  -0.048   0.026  -0.020   0.001  -0.003  -0.047   0.002   0.044  -0.027
   0.054  -0.033   0.015   0.004   0.001   0.017  -0.041   0.005   0.021  -0.030
  -0.004  -0.020  -0.027   0.048  -0.061   0.010  -0.001  -0.019   0.001   0.021
   0.009   0.038  -0.033   0.063  -0.003  -0.007   0.035  -0.048   0.049  -0.007
  -0.011   0.030  -0.018  -0.005   0.035  -0.026   0.015  -0.009  -0.007   0.032
  -0.036   0.002  -0.014   0.020   0.017   0.010  -0.019   0.030  -0.014  -0.005
   0.033  -0.046   0.014   0.038  -0.006   0.018  -0.009  -0.018   0.010   0.001
  -0.001   0.030  -0.017   0.002  -0.020  -0.007   0.038  -0.004   0.054   0.010
  -0.017   0.013   0.024  -0.035   0.041  -0.052   0.052  -0.004  -0.012   0.034
   0.002   0.026   0.024  -0.020   0.032  -0.010   0.003   0.054  -0.014  -0.013
   0.013  -0.054   0.050  -0.042  -0.012   0.040  -0.018   0.014   0.012  -0.057
   0.039  -0.050   0.007   0.032  -0.046   0.010  -0.002  -0.014   0.034  -0.032
   0.025  -0.014  -0.026   0.022  -0.011  -0.006   0.020  -0.013   0.028  -0.021
   0.009   0.016  -0.019   0.060  -0.042  -0.013   0.045  -0.049   0.002  -0.004
  -0.034   0.053  -0.025  -0.008   0.025  -0.017   0.003   0.003  -0.058   0.016
  -0.035   0.016  -0.009  -0.003   0.023  -0.025  -0.028   0.016  -0.033   0.028
  -0.004   0.026   0.015  -0.033  -0.004   0.015  -0.017   0.031  -0.015  -0.016
   0.011  -0.009   0.006  -0.015   0.000   0.008  -0.051   0.021   0.019  -0.008
   0.042   0.010  -0.013   0.006  -0.013  -0.012  -0.014   0.012   0.023  -0.001
   0.005   0.028  -0.005   0.013   0.020   0.014  -0.003  -0.017   0.026  -0.041
  -0.019   0.024   0.028   0.005  -0.019   0.012   0.024  -0.009   0.017  -0.005
  -0.015  -0.011   0.009   0.013  -0.012  -0.002  -0.019   0.008  -0.028   0.003
  -0.026  -0.026   0.011  -0.005  -0.017  -0.023   0.032  -0.039  -0.015  -0.008
   0.009   0.009  -0.015  -0.047   0.001   0.005   0.027   0.005  -0.004   0.000
  -0.007   0.028   0.005  -0.002   0.023   0.010  -0.010  -0.006  -0.009  -0.001
   0.024   0.013   0.023  -0.020  -0.000  -0.029   0.004   0.000  -0.003   0.012
   0.012  -0.010  -0.030  -0.017  -0.011   0.026   0.012   0.003   0.010  -0.017
  -0.015   0.025  -0.008   0.000  -0.016   0.018   0.001  -0.009   0.035   0.033
   0.008  -0.017   0.001  -0.010   0.015  -0.002   0.009   0.010   0.009  -0.009
  -0.010  -0.013   0.005  -0.020   0.003   0.017  -0.008  -0.005  -0.017  -0.010
  -0.005  -0.003   0.010   0.004  -0.017   0.006  -0.018   0.000   0.013  -0.010
   0.016  -0.038   0.024   0.022  -0.023   0.003   0.019  -0.012   0.017   0.006
   0.033  -0.014  -0.001   0.013  -0.012  -0.007  -0.008  -0.035   0.019   0.007
  -0.032  -0.003  -0.014  -0.000   0.027  -0.000  -0.003  -0.009   0.014   0.018
   0.001   0.016   0.030   0.016   0.001   0.007   0.001   0.019   0.015   0.018
   0.010  -0.041   0.004  -0.018  -0.001   0.012   0.006   0.022  -0.003  -0.003
   0.008   0.006  -0.002  -0.008  -0.002  -0.013  -0.012  -0.035  -0.000   0.012
  -0.012   0.011   0.006  -0.022  -0.000   0.011  -0.010   0.034   0.007  -0.025
   0.006  -0.010  -0.008   0.018   0.005   0.018  -0.016  -0.000  -0.027  -0.015
   0.008   0.026  -0.028   0.007  -0.028  -0.004  -0.005  -0.014   0.045  -0.017
   0.002   0.015  -0.028   0.002  -0.010  -0.034   0.003  -0.016  -0.005  -0.022
  -0.007   0.027  -0.012   0.010   0.011  -0.010  -0.002   0.009  -0.037   0.036
   0.009  -0.001   0.022   0.002   0.010  -0.008   0.007   0.002   0.001  -0.022
  -0.004   0.008   0.002  -0.015   0.004   0.031  -0.009  -0.030   0.012  -0.020
  -0.005   0.044   0.009  -0.021  -0.001  -0.003  -0.026  -0.027   0.002   0.008
  -0.021   0.016   0.015  -0.011   0.014  -0.003   0.001  -0.002   0.021  -0.001
   0.023   0.012   0.005  -0.002  -0.021   0.001  -0.005   0.004  -0.001   0.016
   0.007  -0.024   0.009   0.024  -0.051   0.046  -0.021   0.010   0.014   0.033
  -0.012  -0.001  -0.030   0.037   0.007  -0.007  -0.011  -0.012  -0.001   0.008
  -0.005   0.010  -0.005   0.008   0.008   0.002  -0.011   0.011  -0.011   0.024
  -0.023  -0.003  -0.007  -0.017  -0.007  -0.024   0.002   0.026  -0.027   0.004
   0.007   0.012   0.019  -0.010  -0.006   0.018  -0.002   0.016  -0.003  -0.010
  -0.003   0.012   0.018   0.012  -0.009   0.016   0.013   0.023  -0.019   0.018
   0.018  -0.013   0.022  -0.007   0.030   0.012   0.008  -0.007   0.014  -0.013
  -0.002   0.008  -0.020   0.004  -0.017   0.015   0.006  -0.026   0.018  -0.045
   0.036  -0.012  -0.005   0.000   0.018  -0.025   0.020  -0.009  -0.011  -0.002
  -0.021  -0.005  -0.008  -0.010  -0.016  -0.004   0.001   0.015  -0.016  -0.012
  -0.021   0.003  -0.022  -0.021   0.004   0.008  -0.003   0.001  -0.027   0.011
  -0.012   0.009   0.032   0.002   0.011   0.005  -0.013   0.001  -0.008   0.022
  -0.003   0.003  -0.012   0.000  -0.015   0.002  -0.036  -0.007  -0.034  -0.010
   0.018  -0.014   0.018   0.006  -0.012   0.009   0.003   0.011   0.016   0.018
  -0.015   0.012  -0.008  -0.019  -0.007   0.019  -0.021  -0.008  -0.004   0.004
  -0.034   0.024  -0.000  -0.021   0.024  -0.004  -0.003   0.031  -0.041   0.037
  -0.023   0.010   0.023   0.004  -0.011   0.016   0.003  -0.021   0.021  -0.031
   0.042  -0.022   0.035   0.007  -0.034  -0.014  -0.008   0.014  -0.017   0.003
   0.004  -0.006   0.023   0.007   0.010   0.001   0.009   0.012  -0.001  -0.026
   0.038  -0.028   0.021   0.012  -0.009  -0.051  -0.005  -0.005   0.035  -0.011
  -0.013   0.002  -0.003   0.034  -0.005   0.019   0.001   0.038  -0.031   0.060
  -0.032   0.020  -0.038   0.012   0.016  -0.026   0.010  -0.002  -0.011   0.019
   0.020  -0.005   0.050  -0.007   0.015  -0.008   0.004   0.008  -0.005  -0.007
  -0.017   0.009  -0.020   0.040  -0.012  -0.008  -0.000   0.017  -0.029  -0.009
   0.009  -0.020   0.017  -0.045  -0.011   0.023   0.011  -0.005   0.013  -0.031
   0.025  -0.004  -0.025   0.004  -0.009   0.012  -0.028  -0.016   0.018   0.005
   0.019   0.009  -0.058   0.013  -0.003  -0.000  -0.003  -0.009  -0.007   0.023
  -0.005  -0.008   0.013   0.017   0.003  -0.014   0.013  -0.017   0.003  -0.044
   0.024  -0.026   0.025  -0.006   0.023   0.011  -0.010  -0.008   0.016   0.004
  -0.007  -0.015  -0.041   0.008  -0.010   0.034  -0.028   0.012   0.014   0.013
   0.001   0.003  -0.012  -0.000   0.008  -0.040   0.012  -0.001   0.028   0.008
   0.025   0.018  -0.013   0.015  -0.015  -0.020   0.023   0.011   0.006  -0.006
  -0.028   0.042  -0.060   0.039  -0.005   0.004   0.024  -0.024  -0.012   0.019
   0.008  -0.009  -0.027  -0.017   0.009  -0.019   0.011   0.018  -0.009  -0.005
   0.016  -0.011   0.010  -0.014   0.014  -0.015   0.012  -0.013   0.006   0.005
  -0.006   0.014  -0.019   0.001   0.010  -0.023  -0.002  -0.012  -0.010  -0.007
   0.038  -0.021   0.001  -0.022   0.005   0.016   0.028  -0.002   0.018   0.025
   0.018  -0.010  -0.030   0.022  -0.000  -0.009   0.014   0.012   0.006   0.005
  -0.003   0.004  -0.008  -0.010   0.009  -0.009   0.033  -0.010  -0.008   0.006
  -0.027   0.004  -0.016   0.008   0.002  -0.014  -0.001   0.005  -0.010  -0.003
   0.013   0.019  -0.014  -0.012  -0.005  -0.018  -0.002   0.007  -0.014   0.006
  -0.001  -0.032  -0.001   0.012  -0.013   0.028  -0.008   0.002  -0.024   0.009
   0.008  -0.008   0.023   0.004  -0.005   0.001  -0.009  -0.002  -0.007   0.023
   0.009   0.019  -0.038   0.003   0.002   0.015  -0.029   0.013   0.002  -0.013
  -0.002   0.012  -0.016   0.026   0.031  -0.001   0.004  -0.040   0.014  -0.016
   0.019  -0.004  -0.001  -0.022   0.007   0.003  -0.007   0.012  -0.016   0.000
  -0.010   0.026  -0.007   0.000  -0.022   0.001  -0.015   0.005  -0.041   0.015
   0.010  -0.019  -0.013   0.002   0.001   0.015  -0.004   0.002   0.024   0.002
   0.001  -0.061  -0.011   0.003   0.005   0.022   0.009  -0.020  -0.005  -0.005
   0.027  -0.007  -0.009  -0.007  -0.008  -0.010   0.025  -0.006   0.033  -0.009
   0.035   0.035   0.019  -0.011   0.010   0.016   0.003  -0.020   0.008   0.014
   0.000  -0.019  -0.017   0.020   0.013   0.009  -0.027  -0.007  -0.031   0.055
  -0.004   0.020  -0.027  -0.015   0.019   0.014   0.003   0.011  -0.013   0.003
   0.009  -0.041  -0.011  -0.025  -0.026   0.005   0.016   0.014   0.003  -0.019
   0.033   0.002  -0.018   0.009   0.009  -0.029   0.040  -0.026   0.000   0.012
   0.021   0.022  -0.013  -0.002   0.027  -0.012   0.016   0.013   0.007   0.032
  -0.023  -0.009   0.010  -0.019   0.006  -0.031  -0.007   0.015  -0.029   0.020
   0.011  -0.020   0.007  -0.033   0.013   0.013  -0.019   0.011   0.001  -0.031
  -0.013  -0.021   0.005  -0.008  -0.010   0.028  -0.006  -0.000   0.027  -0.003
   0.015   0.032  -0.014   0.000  -0.003   0.005  -0.005   0.012   0.007   0.010
  -0.012   0.005  -0.037   0.010   0.021  -0.021   0.016  -0.029   0.021  -0.001
   0.009   0.002  -0.006  -0.023   0.023  -0.028   0.020   0.002  -0.007   0.016
  -0.010  -0.003   0.006   0.008   0.009   0.020  -0.003   0.028  -0.009   0.016
   0.002  -0.043   0.004   0.020  -0.034   0.015  -0.016  -0.018   0.007  -0.016
   0.028  -0.008   0.008   0.013   0.022   0.007   0.031  -0.034   0.014   0.007
  -0.045   0.004  -0.005   0.026   0.014  -0.030  -0.010   0.029   0.005   0.027
  -0.025  -0.026   0.018  -0.034  -0.003  -0.031   0.001  -0.002  -0.032   0.017
   0.001   0.025  -0.008  -0.024  -0.013   0.028  -0.054   0.047  -0.011   0.006
   0.008   0.011  -0.015  -0.001   0.003   0.026  -0.026   0.028   0.031  -0.035
   0.001  -0.019   0.003  -0.009  -0.004   0.007   0.000   0.013  -0.002  -0.017
   0.017  -0.018   0.019   0.004  -0.038  -0.010  -0.021   0.012  -0.014  -0.003
   0.041  -0.038   0.015   0.010  -0.024   0.029  -0.034  -0.009   0.036   0.001
  -0.003   0.029  -0.025   0.033   0.000  -0.029   0.023  -0.017   0.012   0.020
  -0.023   0.045  -0.027   0.024  -0.035  -0.001  -0.008   0.005   0.013   0.010
   0.012  -0.000  -0.013   0.036  -0.015  -0.008   0.006  -0.003  -0.030   0.038
  -0.018   0.040  -0.020  -0.025   0.017  -0.002  -0.020   0.009   0.019  -0.007
   0.021   0.002   0.011  -0.027   0.052  -0.052   0.030  -0.029   0.035  -0.007
   0.000   0.006   0.003  -0.010  -0.029   0.026  -0.030   0.031  -0.034   0.025
  -0.002   0.016  -0.014   0.001  -0.025  -0.018   0.006  -0.000  -0.007   0.014
   0.018  -0.030   0.033  -0.017   0.007  -0.001   0.020  -0.045  -0.004  -0.003
  -0.011  -0.043   0.012  -0.005   0.006  -0.013  -0.026  -0.005   0.005  -0.001
   0.004  -0.005  -0.027   0.009   0.017   0.000  -0.048   0.007  -0.015  -0.031
   0.003   0.005  -0.026  -0.024  -0.022  -0.036  -0.024  -0.021  -0.012  -0.042
   0.017   0.004   0.002   0.002  -0.014   0.004  -0.012  -0.016  -0.024  -0.012
   0.009   0.029  -0.000   0.019   0.025   0.002  -0.000   0.030   0.033   0.004
  -0.006   0.004  -0.000   0.000  -0.046   0.032  -0.004   0.024   0.006   0.002
   0.028  -0.010   0.023  -0.015   0.020  -0.038  -0.008   0.001  -0.017  -0.004
   0.003  -0.010  -0.002   0.021   0.018   0.024  -0.015   0.022   0.014  -0.020
  -0.012  -0.017   0.017  -0.001  -0.012   0.046  -0.004   0.025   0.052   0.038
   0.044   0.024   0.014   0.044   0.026  -0.008   0.046  -0.013  -0.007  -0.015
  -0.056  -0.053  -0.005   0.030  -0.022   0.059   0.020   0.071  -0.009   0.001
   0.043   0.037   0.028   0.131   0.006   0.050   0.054  -0.060   0.054  -0.050
  -0.045   0.047  -0.000  -0.020   0.024  -0.049   0.014   0.045   0.042   0.102
  -0.003   0.077   0.002  -0.042  -0.002   0.105   0.066   0.023  -0.018   0.060
  -0.054  -0.051   0.009  -0.036  -0.022  -0.109  -0.133  -0.095  -0.074   0.009
   0.052   0.022   0.063   0.113  -0.042  -0.076   0.035   0.063   0.079   0.126
   0.014  -0.090  -0.126  -0.142  -0.195  -0.105  -0.057   0.018   0.083   0.030
   0.048   0.152   0.234   0.156   0.104   0.030   0.050  -0.014  -0.048  -0.166
  -0.178  -0.003   0.052   0.104   0.009   0.010   0.132  -0.006  -0.062  -0.011
  -0.113  -0.123  -0.197  -0.292  -0.236  -0.158   0.058   0.116   0.061   0.074
   0.072  -0.000  -0.062  -0.002   0.037  -0.032  -0.028  -0.066  -0.208  -0.145
  -0.128  -0.135   0.024   0.162  -0.017   0.014   0.108   0.108   0.184   0.077
   0.009   0.074  -0.039  -0.108  -0.108  -0.142  -0.064   0.051  -0.091  -0.221
   0.058   0.149  -0.192  -0.222  -0.208  -0.357  -0.217  -0.096   0.035   0.140
   0.288   0.381   0.101  -0.057  -0.033   0.091   0.006   0.074   0.071  -0.014
  -0.042  -0.088  -0.053  -0.087   0.239   0.291   0.205   0.143  -0.087  -0.109
   0.088  -0.112   0.031   0.088   0.043  -0.159  -0.370  -0.175  -0.272   0.105
   0.426   0.166   0.218  -0.063  -0.302  -0.229  -0.248  -0.142   0.118   0.209
   0.277   0.118   0.092   0.131   0.093   0.155   0.260   0.238   0.333   0.234
  -0.033  -0.062  -0.069  -0.078  -0.012   0.066   0.035  -0.233  -0.040   0.080
  -0.111   0.053  -0.105  -0.430  -0.392  -0.497  -0.383  -0.159  -0.264  -0.061
   0.471   0.318   0.228   0.456   0.651   0.181  -0.126  -0.064   0.015   0.081
   0.222   0.068  -0.095   0.018  -0.061  -0.146  -0.047   0.108   0.015  -0.039
   0.188   0.196   0.108   0.121  -0.104  -0.141  -0.050   0.137   0.130  -0.035
  -0.107  -0.024  -0.157  -0.200  -0.160  -0.193   0.052   0.189   0.031   0.138
   0.053   0.201   0.022  -0.299  -0.024   0.218   0.116   0.177   0.244   0.112
   0.130  -0.171  -0.331  -0.258  -0.149  -0.202  -0.428  -0.304   0.052   0.173
   0.063   0.216   0.279   0.113   0.068  -0.071  -0.272   0.222   0.220  -0.036
   0.054   0.162   0.113  -0.204  -0.364  -0.101  -0.103  -0.096   0.052   0.126
   0.136  -0.009   0.140   0.156   0.054   0.078   0.041   0.014  -0.009  -0.360
  -0.381  -0.304  -0.297  -0.100   0.153   0.022  -0.369  -0.363  -0.321  -0.550
  -0.447  -0.108   0.287   0.418   0.359   0.335   0.238   0.176   0.120   0.109
  -0.050  -0.123  -0.344  -0.414  -0.077   0.255   0.210   0.265   0.187   0.053
  -0.275  -0.457  -0.208  -0.085   0.153   0.239  -0.065   0.002   0.121   0.119
   0.420   0.235   0.137  -0.005  -0.180  -0.444  -0.672  -0.175  -0.083  -0.221
  -0.160  -0.090   0.063   0.052   0.018  -0.266  -0.280  -0.071  -0.054   0.237
   0.266   0.471   0.627   0.367   0.059  -0.142  -0.266  -0.290  -0.188  -0.085
  -0.261  -0.411  -0.154   0.199   0.059  -0.163   0.009   0.130   0.134   0.131
   0.065  -0.003   0.088   0.214   0.318   0.064  -0.069   0.152   0.036   0.230
   0.365   0.326   0.374  -0.135   0.045   0.142  -0.174  -0.053   0.152   0.036
   0.282   0.128  -0.013   0.078   0.149   0.293   0.588   0.615   0.615   0.321
  -0.012  -0.076  -0.101  -0.425  -0.627  -0.706  -0.535  -0.378  -0.222  -0.026
   0.134   0.380   0.298   0.226   0.090  -0.158  -0.198  -0.052   0.109   0.285
   0.383   0.421   0.407   0.342   0.462   0.361   0.299   0.565   0.192   0.143
   0.011  -0.099   0.070   0.137   0.083   0.102  -0.025  -0.006   0.005   0.315
   0.364   0.224   0.209   0.063  -0.028  -0.068  -0.182  -0.257  -0.404  -0.432
  -0.530  -0.732  -0.576  -0.395  -0.391  -0.184  -0.351  -0.349  -0.534  -0.778
  -0.807  -0.490  -0.247   0.182   0.506   0.635   0.764   0.776   1.121   0.885
   0.629   0.894   0.847   0.418  -0.016  -0.296  -0.545  -0.812  -1.161  -1.381
  -1.357  -1.176  -1.073  -1.079  -1.413  -1.029  -0.879  -0.861  -0.570  -0.764
  -0.877  -0.957  -0.691  -0.422  -0.301  -0.192  -0.294  -0.227  -0.205  -0.151
   0.215   0.335   0.514   0.751   0.948   1.084   1.192   1.254   1.099   1.212
   1.054   0.749   0.733   0.470   0.127   0.026  -0.218  -0.278  -0.485  -0.768
  -1.169  -1.331  -1.235  -1.021  -0.899  -0.694  -0.422  -0.216   0.166   0.355
   0.511   0.828   0.467   0.309   0.369   0.290   0.422   0.155  -0.125   0.007
  -0.092  -0.118   0.322   0.748   1.071   1.266   1.264   1.378   1.580   1.493
