Corrected accelerogram 20160214_001343_CMHS_20 GNS Science
Site CMHS      43 33 56S  172 37 27E     Cusp file:  20160214_001347_CMHS
Christchurch Cashmere High School
Instrument Cusp_42279
Resolution: 18-bit   Instr Period: 0.0050 s   Damping: 0.700
Accelerogram 20160214_001343_CMHS_20                 Processed 2016 February 22
11 km east of CHRISTCHURCH
2016 February 14         00:13:43 UT
Epicentre  43 29 50S 172 45 18E  Bearing N54E  Dist   13km  Depth    8km M  5.70
Number of points  8192    Duration 163.82 sec
Instrument corrected data at 0.020 sec intervals
Band-pass filter transition bands are .10-.25 Hz and 24.50-25.50 Hz
Component N00E  Horizontal Axis 1
Acceleration:  peak    971.5 mm/s/s at  43.92 sec     rms     64.4 mm/s/s
Velocity:      peak    78.13 mm/s   at  44.02 sec     rms     6.69 mm/s
Displacement:  peak  -18.360 mm     at  43.88 sec     rms    1.707 mm
    2016       2      14       0      13     430       0       0    2016       2
      43      29      50     172      45      18       8       0      14       0
      43      33      56     172      37      27       0       0      54      13
   38588     250     250    8192    8192    8192       0       0      13    7247
   200.0    0.70    0.00   0.000  0.0000   0.000   0.000   1.000     0.0    0.00
  43.566 172.624   43.50  172.76    5.70    0.00    0.00    0.00      0.      0.
  192.94    5.00    5.00  163.82  0.0050  0.0200      0.      0.      0.  9806.6
   972.3   43.92    66.5   0.000      0.   971.5   43.92    64.4  1265.1   1.459
   78.13   44.02    6.69   97.79   0.934  -18.36   43.88    1.71   20.20   0.198
   0.100   0.150   0.250      0.      0.  24.500   1.000  25.500      0.      0.
     0.0    -0.0     0.0    -0.0     0.0    -0.0     0.0    -0.0     0.0    -0.0
     0.0    -0.0     0.0    -0.0     0.0    -0.0     0.0    -0.0     0.0    -0.0
     0.0    -0.0     0.0    -0.0     0.0    -0.0     0.0    -0.0     0.0    -0.0
     0.0    -0.0     0.0    -0.0     0.0    -0.0     0.0    -0.0     0.0    -0.0
     0.0    -0.0     0.0    -0.0     0.0    -0.0     0.0    -0.0     0.0    -0.0
     0.0    -0.0     0.0    -0.0     0.0    -0.0     0.0    -0.0     0.0    -0.0
     0.0    -0.0     0.0    -0.0     0.0    -0.0     0.0    -0.0     0.0    -0.0
     0.0    -0.0     0.0    -0.0     0.0    -0.0     0.0    -0.0     0.0    -0.0
     0.0    -0.0     0.0    -0.0     0.0    -0.0     0.0    -0.0     0.0    -0.0
     0.0    -0.0     0.0    -0.0     0.0    -0.0     0.0    -0.0     0.0    -0.0
     0.0    -0.0     0.0    -0.0     0.0    -0.0     0.0    -0.0     0.0    -0.0
     0.0    -0.0     0.0    -0.0     0.0    -0.0     0.0    -0.0     0.0    -0.0
     0.0    -0.0     0.0    -0.0     0.0    -0.0     0.0    -0.0     0.0    -0.0
     0.0    -0.0     0.0    -0.0     0.0    -0.0     0.0    -0.0     0.0    -0.0
     0.0    -0.0     0.0    -0.0     0.0    -0.0     0.0    -0.0     0.0    -0.0
     0.0    -0.0     0.0    -0.0     0.0    -0.0     0.0    -0.0     0.0    -0.0
     0.0    -0.0     0.0    -0.0     0.0    -0.0     0.0    -0.0     0.0    -0.0
     0.0    -0.0     0.0    -0.0     0.0    -0.0     0.0    -0.0     0.0    -0.0
     0.0    -0.0     0.0    -0.0     0.0    -0.0     0.0    -0.0     0.0    -0.0
     0.0    -0.0     0.0    -0.0     0.0    -0.0     0.0    -0.0     0.0    -0.0
     0.0    -0.0     0.0    -0.0     0.0    -0.0     0.0     0.0     0.0     0.0
     0.0     0.0     0.0     0.0     0.0     0.0     0.0     0.0     0.0     0.0
     0.0     0.0     0.0     0.0     0.0     0.0     0.0     0.0     0.0     0.0
     0.0     0.0     0.0     0.0     0.0     0.0     0.0     0.0     0.0     0.0
     0.0     0.0     0.0     0.0     0.0     0.0     0.0     0.0     0.0     0.0
     0.0    -0.1    -0.2    -0.0     0.2     0.0     0.0    -0.1     0.0     0.1
     0.0    -0.1    -0.0     0.0    -0.1    -0.1     0.1    -0.2     0.0    -0.1
     0.0     0.0    -0.1    -0.1     0.1    -0.1    -0.2    -0.1     0.1    -0.1
    -0.1    -0.1    -0.1    -0.0     0.1    -0.1     0.0     0.1    -0.0    -0.2
     0.1    -0.0    -0.2     0.0     0.2    -0.0    -0.0     0.1     0.1    -0.1
     0.1    -0.1    -0.0    -0.0    -0.0     0.0     0.1     0.1    -0.0    -0.1
     0.0     0.1    -0.0    -0.0    -0.1    -0.1    -0.1    -0.1    -0.1    -0.0
    -0.1    -0.0     0.1    -0.1     0.1    -0.0     0.2    -0.0     0.1     0.1
     0.1    -0.0    -0.1     0.0    -0.1     0.0    -0.1    -0.0     0.1     0.0
     0.1     0.1     0.0     0.0     0.0     0.0    -0.1     0.1     0.0     0.0
    -0.0    -0.0    -0.1     0.0     0.1     0.0    -0.1    -0.0     0.1    -0.1
    -0.1    -0.0     0.0    -0.1     0.0     0.1    -0.0    -0.1    -0.1    -0.0
     0.0     0.1     0.0    -0.1     0.1    -0.1    -0.1    -0.0    -0.0     0.0
     0.2    -0.0     0.0    -0.2    -0.1     0.0     0.1    -0.0     0.0    -0.1
     0.0     0.0     0.1    -0.0     0.0     0.0     0.1     0.0     0.0    -0.1
    -0.0     0.1    -0.0    -0.1    -0.0     0.0    -0.0    -0.1    -0.1     0.1
     0.1    -0.1    -0.0    -0.1     0.1     0.2     0.0    -0.1     0.0     0.1
     0.1    -0.1    -0.0     0.1     0.1     0.0     0.0     0.1    -0.1    -0.1
     0.1    -0.0     0.0     0.0     0.1    -0.0     0.0    -0.0     0.1    -0.1
     0.1    -0.1    -0.2     0.1     0.1     0.0     0.0    -0.1    -0.0     0.0
    -0.0    -0.2     0.2     0.0    -0.1    -0.1    -0.0    -0.0     0.0    -0.1
    -0.0     0.1     0.0    -0.0    -0.0     0.0     0.0    -0.0     0.1    -0.0
     0.0     0.0     0.1    -0.0     0.1     0.0     0.0     0.0     0.0    -0.0
    -0.0     0.1    -0.0    -0.1     0.1     0.0     0.1    -0.0     0.0     0.0
     0.0    -0.0    -0.0    -0.1     0.2    -0.0     0.0    -0.0     0.1     0.1
     0.0    -0.0    -0.0     0.1     0.0     0.0    -0.0    -0.1    -0.1    -0.0
    -0.0    -0.2    -0.1     0.1     0.0    -0.1    -0.0     0.1     0.0    -0.0
     0.0    -0.0    -0.0    -0.1     0.1     0.2    -0.0    -0.1    -0.1     0.1
     0.0    -0.1     0.0     0.1     0.1    -0.0    -0.0    -0.0    -0.1    -0.1
     0.1     0.0    -0.0    -0.1    -0.0    -0.0     0.0     0.1     0.0     0.0
    -0.1    -0.0     0.2     0.0     0.0    -0.1     0.1     0.1     0.0    -0.1
    -0.0    -0.1     0.0    -0.1    -0.2    -0.0     0.1    -0.2     0.0    -0.0
     0.1    -0.0    -0.0    -0.0     0.0    -0.1    -0.1     0.1     0.1    -0.0
    -0.1    -0.1    -0.0    -0.0     0.1     0.2    -0.0    -0.0     0.2    -0.0
    -0.1    -0.0     0.1     0.1     0.0    -0.1    -0.0     0.1     0.1    -0.1
    -0.1    -0.1     0.1    -0.1    -0.1    -0.2     0.1     0.1     0.1    -0.1
    -0.1     0.2     0.0    -0.1    -0.0    -0.1     0.0    -0.1     0.0    -0.1
     0.0     0.1     0.1    -0.0     0.0     0.1     0.1    -0.1    -0.0     0.1
    -0.0     0.1    -0.1    -0.1     0.1     0.0    -0.1    -0.0     0.1    -0.1
    -0.0     0.1     0.0    -0.3     0.1     0.1    -0.1     0.1    -0.1    -0.1
     0.1     0.1     0.1     0.1     0.2     0.1     0.1    -0.0    -0.1    -0.1
     0.2     0.1     0.1    -0.1     0.1     0.1     0.2    -0.2     0.0     0.2
     0.1    -0.0    -0.0     0.0     0.0     0.1     0.0     0.0     0.1     0.0
    -0.1     0.0     0.0    -0.0     0.0    -0.0     0.1     0.0     0.0    -0.0
     0.1    -0.1     0.0    -0.1    -0.1    -0.1    -0.0    -0.1    -0.1    -0.0
     0.1     0.1    -0.1    -0.1    -0.0    -0.0    -0.1     0.1     0.1    -0.0
    -0.0    -0.1     0.0    -0.0     0.1    -0.0    -0.1    -0.2    -0.0    -0.0
     0.0    -0.1    -0.1     0.1     0.0    -0.1    -0.2    -0.1    -0.1    -0.2
     0.1    -0.1    -0.0     0.0    -0.0    -0.2    -0.0    -0.1    -0.0    -0.0
     0.1    -0.1    -0.1    -0.0     0.1     0.1    -0.0    -0.1     0.1     0.0
    -0.1    -0.1    -0.0    -0.1    -0.0     0.0     0.0     0.0    -0.1     0.1
     0.0    -0.0     0.1     0.0    -0.1    -0.1     0.1     0.0     0.0    -0.1
     0.0     0.1     0.0    -0.1     0.1     0.0     0.1     0.2    -0.1    -0.1
     0.1     0.1    -0.0     0.0     0.2    -0.1    -0.1     0.0    -0.0     0.1
    -0.0    -0.1     0.2     0.3    -0.0    -0.1     0.0     0.1     0.0    -0.0
    -0.0     0.1     0.1    -0.1    -0.0    -0.1     0.0     0.1    -0.0    -0.1
     0.1     0.1     0.0     0.1     0.1    -0.1     0.1     0.1    -0.0    -0.0
    -0.0     0.0     0.1    -0.0     0.1    -0.0     0.0    -0.0     0.0     0.0
     0.0    -0.0     0.2     0.0    -0.2    -0.0     0.0    -0.0     0.0    -0.0
     0.0     0.1     0.0    -0.1     0.0    -0.0    -0.0    -0.1     0.0    -0.0
     0.1     0.0     0.0     0.0    -0.1    -0.0     0.1     0.0     0.1     0.1
     0.1     0.0     0.0     0.1     0.2    -0.0    -0.1    -0.1    -0.1     0.0
     0.1     0.0    -0.1    -0.1     0.1    -0.0     0.1     0.1     0.1    -0.0
    -0.0    -0.1     0.1    -0.0    -0.0    -0.1     0.1     0.1     0.2    -0.1
    -0.2    -0.1     0.1    -0.1    -0.1    -0.1     0.1     0.1    -0.0    -0.1
    -0.0    -0.0    -0.0    -0.0    -0.0    -0.1    -0.1     0.0     0.0    -0.2
    -0.1     0.0    -0.1    -0.0    -0.1    -0.1     0.2     0.2    -0.0    -0.3
     0.1     0.2     0.1    -0.2    -0.2    -0.1    -0.0     0.0    -0.1     0.0
    -0.0     0.0    -0.1    -0.0    -0.0    -0.0    -0.1    -0.2     0.2     0.2
    -0.1    -0.2     0.0     0.0     0.0    -0.0    -0.2     0.1     0.1    -0.1
    -0.0     0.0     0.2    -0.1     0.1    -0.1     0.1     0.1     0.0     0.1
    -0.1     0.1     0.1    -0.2     0.0     0.1     0.0    -0.1     0.1    -0.0
    -0.0    -0.1    -0.1    -0.1     0.1     0.1     0.1    -0.0    -0.0     0.0
     0.0    -0.2    -0.1     0.0     0.1     0.1    -0.2     0.0     0.1    -0.0
     0.0     0.0     0.1     0.2    -0.0    -0.0     0.1    -0.1     0.0    -0.1
     0.1     0.0     0.0     0.0    -0.0    -0.1     0.0    -0.1     0.0     0.0
     0.0    -0.0     0.0     0.0     0.1     0.1    -0.0    -0.1     0.1     0.1
    -0.0    -0.1    -0.0     0.1     0.0    -0.1    -0.0     0.0     0.1     0.2
     0.0    -0.1     0.1     0.0     0.2    -0.0     0.0     0.2     0.1     0.1
     0.1    -0.1    -0.0     0.2     0.1    -0.1    -0.0    -0.0     0.1    -0.1
     0.0     0.1     0.0    -0.1     0.0     0.0    -0.0     0.0    -0.0    -0.1
    -0.0    -0.2    -0.1    -0.1     0.0    -0.1    -0.0     0.0     0.1     0.1
    -0.0    -0.2     0.2     0.1    -0.1     0.0    -0.0    -0.1     0.1     0.0
    -0.2    -0.1     0.0     0.0    -0.0    -0.0    -0.0    -0.1     0.1    -0.1
    -0.0     0.1     0.1    -0.0    -0.0    -0.2    -0.1     0.1     0.1    -0.1
     0.1     0.1    -0.0    -0.0     0.1    -0.2     0.1    -0.0    -0.0    -0.0
     0.0    -0.1     0.1     0.1     0.1     0.0     0.1    -0.2     0.0    -0.0
    -0.1     0.1    -0.1    -0.1    -0.0    -0.1    -0.0     0.1     0.1    -0.0
     0.0     0.1     0.0    -0.2     0.0    -0.1     0.0     0.0    -0.0    -0.0
     0.1     0.0    -0.0    -0.0    -0.1    -0.1     0.0    -0.0     0.0    -0.0
     0.1     0.0     0.1     0.0     0.0     0.1     0.1     0.0     0.1    -0.1
     0.0     0.1    -0.1    -0.0    -0.0     0.1     0.1     0.1     0.1    -0.1
    -0.1    -0.0    -0.2    -0.2    -0.0     0.0    -0.1    -0.1     0.0    -0.0
     0.0    -0.0    -0.1    -0.1     0.1    -0.0    -0.1     0.0     0.1    -0.1
     0.0     0.1    -0.1    -0.2     0.2    -0.0     0.0     0.0    -0.0     0.0
     0.0    -0.1    -0.0     0.1    -0.0    -0.1     0.1    -0.1     0.0    -0.0
    -0.0     0.0     0.1    -0.2    -0.1    -0.1    -0.1    -0.2     0.1    -0.0
     0.1     0.0     0.0     0.1    -0.0     0.1     0.1    -0.1    -0.0     0.2
     0.1     0.0     0.1    -0.1     0.1     0.1    -0.0     0.1     0.1    -0.1
     0.1     0.1    -0.1    -0.1    -0.1    -0.0     0.0     0.0    -0.0    -0.1
     0.1     0.0    -0.0     0.2    -0.1    -0.1     0.1    -0.0    -0.1    -0.1
    -0.0     0.1    -0.0    -0.1     0.1     0.0    -0.0    -0.1    -0.0     0.1
     0.1     0.1     0.0     0.1     0.0     0.1    -0.1    -0.1    -0.1    -0.0
     0.0     0.1     0.1    -0.0     0.0     0.1    -0.0    -0.1    -0.0    -0.0
     0.2     0.0    -0.0    -0.1     0.0     0.1    -0.0    -0.1     0.0     0.1
     0.0    -0.1    -0.1     0.0    -0.0    -0.0     0.0    -0.0    -0.0     0.2
     0.1    -0.1     0.0     0.1    -0.0    -0.1     0.0     0.0     0.1    -0.0
     0.1    -0.1     0.0    -0.0     0.1     0.0     0.0    -0.1     0.0     0.1
     0.0    -0.0    -0.0    -0.1    -0.0    -0.1     0.1     0.2     0.1     0.1
     0.1     0.1     0.0    -0.1    -0.1    -0.1     0.0     0.0    -0.0    -0.0
     0.1     0.0    -0.0    -0.0     0.0    -0.0     0.1     0.0    -0.0     0.0
     0.1     0.1    -0.0    -0.1     0.0     0.0     0.1    -0.1    -0.0    -0.0
     0.0     0.1     0.1    -0.1     0.0     0.1     0.1    -0.0    -0.1    -0.1
     0.1     0.2     0.1    -0.1     0.0    -0.0    -0.1    -0.1     0.0     0.0
    -0.1    -0.0    -0.0    -0.1     0.1    -0.1     0.0     0.2     0.2    -0.1
     0.0    -0.0     0.1    -0.1     0.1    -0.1    -0.1    -0.1    -0.0    -0.0
    -0.0    -0.2     0.0     0.1     0.0    -0.1    -0.0     0.1     0.1    -0.1
     0.0     0.1     0.1    -0.0    -0.0     0.0     0.0    -0.1     0.0    -0.0
    -0.1    -0.0     0.2    -0.0     0.0     0.1     0.2    -0.1     0.0     0.0
    -0.0    -0.1    -0.1     0.0     0.2     0.1    -0.1    -0.1     0.0     0.0
     0.1     0.0     0.0    -0.0     0.1     0.0    -0.1     0.0    -0.1     0.1
    -0.0    -0.0     0.1     0.0     0.1    -0.1     0.1     0.1     0.1     0.0
     0.1     0.0    -0.1    -0.2     0.0    -0.1     0.0    -0.0    -0.0    -0.0
    -0.0    -0.1     0.2    -0.0     0.0    -0.0    -0.0    -0.1    -0.1    -0.0
    -0.1    -0.1     0.0    -0.2    -0.0    -0.0    -0.1    -0.1     0.0     0.0
    -0.0     0.1     0.0    -0.1     0.1     0.1    -0.1    -0.1     0.0     0.1
     0.1    -0.0    -0.1    -0.1    -0.0    -0.1    -0.1     0.0     0.0    -0.1
    -0.1    -0.0    -0.0    -0.1     0.1    -0.1     0.1    -0.0    -0.0    -0.1
    -0.1    -0.1    -0.1    -0.1     0.1    -0.1    -0.0    -0.0     0.1    -0.1
    -0.2    -0.1     0.0     0.0    -0.0    -0.2     0.1    -0.0    -0.1    -0.0
     0.0    -0.1     0.1     0.1     0.0     0.1     0.1    -0.0    -0.1     0.0
    -0.1    -0.0    -0.0     0.0    -0.0    -0.0     0.1     0.1    -0.0    -0.1
     0.1     0.0     0.0    -0.1    -0.0     0.1     0.1    -0.1     0.1     0.0
     0.2     0.0     0.1    -0.1     0.1     0.0     0.1     0.1    -0.1     0.1
     0.0    -0.1     0.1     0.0    -0.2     0.1    -0.0    -0.1     0.1     0.0
    -0.1     0.1     0.0    -0.3     0.0     0.1    -0.1    -0.1     0.1     0.0
    -0.0     0.0     0.0     0.0     0.0     0.0    -0.1     0.1     0.0    -0.0
     0.1    -0.1     0.1     0.1     0.0    -0.0     0.1     0.1     0.0     0.0
    -0.0     0.0     0.2     0.1     0.0    -0.0     0.0     0.1     0.1     0.0
     0.2     0.1    -0.0    -0.0    -0.0     0.0     0.1    -0.0     0.1     0.0
    -0.0     0.0     0.0     0.0     0.0    -0.1     0.1     0.0     0.1     0.0
     0.0     0.0     0.0     0.0     0.1    -0.1    -0.0     0.0     0.1    -0.0
     0.1     0.0     0.0     0.0     0.0    -0.1    -0.1    -0.2    -0.0    -0.1
     0.0    -0.1    -0.0     0.0     0.1     0.0    -0.1    -0.1    -0.1    -0.1
    -0.0     0.0     0.0    -0.0    -0.1    -0.0     0.0     0.0    -0.0     0.1
     0.0    -0.1    -0.1    -0.2    -0.0    -0.2    -0.1    -0.1    -0.0    -0.1
    -0.1    -0.1    -0.1    -0.1    -0.0     0.1     0.0    -0.1    -0.1    -0.1
    -0.1    -0.1     0.1    -0.1    -0.1     0.0    -0.0    -0.2    -0.2    -0.2
    -0.0    -0.1    -0.1    -0.1    -0.1     0.3    -0.0    -0.1     0.0     0.0
    -0.1    -0.1     0.0    -0.1    -0.0    -0.1     0.0    -0.1    -0.1    -0.1
    -0.0    -0.1     0.0    -0.0    -0.1    -0.0    -0.0     0.0    -0.1    -0.2
     0.0    -0.1     0.1    -0.1    -0.0    -0.1    -0.0     0.0     0.1    -0.0
     0.0     0.0    -0.1    -0.0     0.0    -0.0     0.1     0.0     0.1     0.1
     0.0     0.0    -0.0    -0.0     0.0     0.0     0.1     0.0     0.0    -0.0
     0.1     0.1     0.1     0.1     0.0     0.0    -0.0     0.0     0.1    -0.1
     0.1     0.0     0.2     0.1    -0.1     0.1     0.1    -0.0    -0.1     0.2
     0.1    -0.0     0.2     0.1     0.1     0.2     0.1     0.1     0.2     0.2
     0.1     0.1     0.1     0.1     0.2     0.1     0.2     0.0     0.0     0.1
     0.2     0.1     0.1     0.0     0.2     0.2     0.2     0.0     0.1     0.1
     0.1     0.1     0.0     0.1     0.2     0.0     0.2     0.1     0.2     0.0
     0.1     0.1     0.3     0.1     0.1     0.1     0.1     0.1     0.2    -0.0
    -0.0     0.0     0.2    -0.1     0.1     0.0    -0.0     0.0    -0.0     0.0
     0.0    -0.1     0.1    -0.0    -0.0    -0.0     0.1     0.0    -0.1    -0.1
     0.1    -0.0    -0.1    -0.1    -0.1    -0.1    -0.1    -0.1    -0.0    -0.1
     0.1    -0.0    -0.1    -0.2    -0.0    -0.1    -0.2    -0.2    -0.0    -0.1
     0.0    -0.1    -0.1    -0.2    -0.2    -0.2    -0.0    -0.1    -0.1    -0.0
    -0.0    -0.1    -0.0    -0.1    -0.2    -0.1    -0.1    -0.2    -0.1    -0.1
    -0.1    -0.2    -0.1    -0.2     0.1    -0.0    -0.1    -0.1    -0.1    -0.0
     0.0    -0.1    -0.0    -0.0    -0.1    -0.2    -0.1    -0.1    -0.0     0.0
    -0.1    -0.2    -0.0    -0.0    -0.1    -0.2    -0.2    -0.1    -0.0     0.0
     0.1    -0.0     0.1    -0.0     0.0    -0.0     0.1     0.1     0.1     0.1
     0.0     0.0     0.1     0.0     0.0     0.0     0.0    -0.0     0.0     0.1
     0.2     0.1     0.1     0.1     0.3     0.2     0.1    -0.0     0.2     0.2
     0.2     0.1     0.3     0.3     0.2     0.2     0.3     0.3     0.3     0.2
     0.3     0.3     0.3     0.2     0.1     0.1     0.2     0.3     0.3     0.1
     0.3     0.4     0.3     0.2     0.4     0.4     0.5     0.3     0.3     0.4
     0.4     0.4     0.3     0.4     0.3     0.2     0.4     0.3     0.4     0.4
     0.4     0.3     0.3     0.3     0.4     0.4     0.5     0.3     0.4     0.4
     0.3     0.3     0.3     0.2     0.3     0.3     0.3     0.3     0.2     0.1
     0.2     0.0     0.3     0.1     0.2     0.2     0.1     0.1     0.2     0.1
     0.2     0.0     0.1     0.1     0.2    -0.0     0.1     0.0    -0.0    -0.1
     0.0    -0.1    -0.1    -0.1    -0.1    -0.0    -0.1    -0.2    -0.1    -0.3
    -0.2    -0.2    -0.1    -0.3    -0.5    -0.3    -0.2    -0.4    -0.4    -0.4
    -0.4    -0.4    -0.4    -0.5    -0.5    -0.5    -0.4    -0.5    -0.6    -0.6
    -0.7    -0.9    -0.6    -0.8    -0.7    -0.7    -0.8    -0.8    -0.8    -0.9
    -0.8    -1.0    -0.9    -1.0    -1.0    -1.0    -0.9    -1.0    -0.9    -1.0
    -0.9    -1.0    -1.0    -1.1    -1.0    -1.2    -1.1    -1.2    -1.1    -1.3
    -1.2    -1.2    -1.2    -1.2    -1.2    -1.4    -1.2    -1.3    -1.1    -1.4
    -1.3    -1.3    -1.1    -1.3    -1.3    -1.4    -1.2    -1.4    -1.2    -1.4
    -1.2    -1.4    -1.3    -1.5    -1.1    -1.4    -1.2    -1.2    -1.3    -1.4
    -1.2    -1.5    -1.2    -1.3    -1.3    -1.2    -1.1    -1.2    -1.1    -1.2
    -1.2    -1.1    -0.9    -1.1    -0.9    -1.0    -0.9    -1.0    -0.8    -0.9
    -0.9    -0.9    -0.8    -0.8    -0.8    -0.8    -0.5    -0.5    -0.5    -0.7
    -0.4    -0.5    -0.4    -0.4    -0.4    -0.4    -0.3    -0.3    -0.1    -0.1
     0.1    -0.0     0.0     0.2     0.3    -0.0     0.2     0.2     0.4     0.3
     0.5     0.3     0.7     0.5     0.7     0.6     1.0     0.8     1.1     0.8
     1.2     1.0     1.4     1.0     1.5     1.1     1.7     1.3     1.7     1.4
     2.1     1.6     2.1     1.5     2.4     1.7     2.5     1.8     2.7     1.9
     3.0     2.1     3.1     2.1     3.3     2.1     3.5     2.4     3.6     2.2
     3.8     1.6     5.3     3.5     1.2     6.7     3.0     7.5    -2.6    10.1
