Corrected accelerogram 20160214_001343_SPRS_20 GNS Science
Site SPRS      43 20 12S  171 55 48E     Basalt file:  20160214_001356_SPRS
Springfield Volunteer Fire Station
Instrument Basalt_2029
Resolution: 24-bit   Instr Period: 0.0050 s   Damping: 0.700
Accelerogram 20160214_001343_SPRS_20                 Processed 2016 February 22
11 km east of CHRISTCHURCH
2016 February 14         00:13:43 UT
Epicentre  43 29 50S 172 45 18E  Bearing S75E  Dist   69km  Depth    8km M  5.70
Number of points  6850    Duration 136.98 sec
Instrument corrected data at 0.020 sec intervals
Band-pass filter transition bands are .10-.25 Hz and 24.50-25.50 Hz
Component N00E  Horizontal Axis 1
Acceleration:  peak    123.6 mm/s/s at  52.46 sec     rms     12.3 mm/s/s
Velocity:      peak    12.60 mm/s   at  56.24 sec     rms     1.53 mm/s
Displacement:  peak   -3.322 mm     at  58.52 sec     rms    0.593 mm
    2016       2      14       0      13     430       0       0    2016       2
      43      29      50     172      45      18       8       0      14       0
      43      20      12     171      55      48       0       0     105      69
   25400     250     250    6850    6850    6850       0       0      13   16000
   200.0    0.70    0.00   0.000  0.0000   0.000   0.000   1.000     0.0    0.00
  43.337 171.930   43.50  172.76    5.70    0.00    0.00    0.00      0.      0.
  127.00    5.00    5.00  136.98  0.0050  0.0200      0.      0.      0.  9806.6
   125.4   52.45    12.8   0.000      0.   123.6   52.46    12.3   138.4   1.675
   12.60   56.24    1.53   13.99   0.262   -3.32   58.52    0.59    3.37   0.262
   0.100   0.150   0.250      0.      0.  24.500   1.000  25.500      0.      0.
     0.0    -0.0     0.0    -0.0     0.0    -0.0     0.0    -0.0     0.0    -0.0
     0.0    -0.0     0.0    -0.0     0.0    -0.0     0.0    -0.0     0.0    -0.0
     0.0    -0.0     0.0    -0.0     0.0    -0.0     0.0    -0.0     0.0    -0.0
     0.0    -0.0     0.0    -0.0    -0.0    -0.0    -0.0    -0.0    -0.0    -0.0
    -0.0    -0.0    -0.0    -0.0    -0.0    -0.0    -0.0    -0.0    -0.0    -0.0
    -0.0    -0.0    -0.0    -0.0    -0.0    -0.0    -0.0    -0.0    -0.0    -0.0
    -0.0    -0.0    -0.0    -0.0    -0.0    -0.0    -0.0    -0.0    -0.0    -0.0
    -0.0    -0.0    -0.0    -0.0    -0.0    -0.0    -0.0    -0.0    -0.0    -0.0
    -0.0    -0.0    -0.0    -0.0    -0.0    -0.0    -0.0    -0.0    -0.0    -0.0
    -0.0    -0.0    -0.0    -0.0    -0.0    -0.0    -0.0    -0.0    -0.0    -0.0
    -0.0    -0.0    -0.0    -0.0    -0.0    -0.0    -0.0    -0.0    -0.0    -0.0
    -0.0    -0.0    -0.0    -0.0    -0.0    -0.0    -0.0    -0.0    -0.0    -0.0
    -0.0    -0.0    -0.0    -0.0    -0.0    -0.0    -0.0    -0.0    -0.0    -0.0
    -0.0    -0.0    -0.0    -0.0    -0.0    -0.0    -0.0    -0.0     0.0    -0.0
     0.0    -0.0     0.0    -0.0     0.0    -0.0     0.0    -0.0     0.0    -0.0
     0.0    -0.0     0.0    -0.0     0.0    -0.0     0.0    -0.0     0.0    -0.0
     0.0    -0.0     0.0     0.0     0.0     0.0     0.0     0.0     0.0     0.0
     0.0     0.0     0.0     0.0     0.0     0.0     0.0     0.0     0.0     0.0
     0.0     0.0     0.0     0.0     0.0     0.0     0.0     0.0     0.0     0.0
     0.0     0.0     0.0     0.0     0.0     0.0     0.0     0.0     0.0     0.0
     0.0     0.0     0.0     0.0     0.0     0.0     0.0     0.0     0.0     0.0
     0.0     0.0     0.0     0.0     0.0     0.0     0.0     0.0     0.0     0.0
     0.0     0.0     0.0     0.0     0.0     0.0     0.0     0.0     0.0     0.0
     0.0     0.0     0.0     0.0     0.0     0.0     0.0     0.0     0.0     0.0
     0.0     0.0     0.0     0.0     0.0     0.0     0.0     0.0     0.0     0.0
    -0.0    -0.0    -0.1    -0.0    -0.0     0.0     0.0    -0.1    -0.0     0.0
    -0.0    -0.1     0.0    -0.1     0.0     0.0     0.0    -0.0    -0.0     0.0
     0.0    -0.0    -0.0     0.0    -0.1     0.0     0.0    -0.0    -0.1     0.0
     0.0    -0.1    -0.0     0.0    -0.0     0.0     0.0    -0.0     0.0     0.0
    -0.0     0.0    -0.0    -0.1     0.0     0.0    -0.0    -0.0    -0.0     0.0
     0.0    -0.0     0.0     0.0     0.0     0.0    -0.0    -0.0     0.0     0.0
     0.0    -0.0    -0.1     0.0     0.1     0.0    -0.0    -0.0     0.0    -0.0
     0.1    -0.0    -0.0    -0.0     0.1    -0.0    -0.0    -0.0     0.1     0.1
    -0.0    -0.0    -0.0     0.0     0.0     0.0    -0.0     0.0    -0.0    -0.0
     0.0     0.0     0.0     0.1    -0.0    -0.0     0.0    -0.0     0.0     0.0
    -0.0     0.0    -0.0     0.0    -0.0    -0.0     0.0     0.0    -0.0    -0.0
     0.0     0.0     0.0    -0.0     0.0    -0.0    -0.0     0.0    -0.0     0.0
    -0.0    -0.0    -0.1     0.0    -0.0     0.0     0.0     0.0    -0.1     0.1
    -0.0     0.0     0.0    -0.1     0.0     0.0    -0.1    -0.0     0.0    -0.0
     0.0    -0.0     0.0    -0.0    -0.0     0.0    -0.0    -0.0     0.1    -0.0
    -0.0    -0.0    -0.0    -0.0     0.0     0.0    -0.0    -0.0     0.0     0.0
    -0.0    -0.0     0.0    -0.0    -0.0     0.0     0.0     0.0    -0.0    -0.0
     0.1    -0.0    -0.0     0.1    -0.0    -0.0     0.0    -0.0    -0.0     0.0
     0.0    -0.0     0.0    -0.0     0.0     0.1    -0.0     0.0     0.0    -0.0
     0.0    -0.0     0.0     0.0    -0.0    -0.0    -0.0     0.0    -0.0    -0.0
     0.0     0.0    -0.0     0.0     0.0    -0.0    -0.0     0.0     0.0    -0.0
     0.0     0.0     0.0    -0.0     0.0    -0.0     0.0     0.0    -0.0     0.0
    -0.0     0.0     0.0    -0.0     0.0     0.0     0.0     0.0    -0.1     0.0
     0.0     0.0    -0.0     0.0    -0.0    -0.0    -0.0     0.0    -0.0    -0.0
     0.0    -0.0     0.0    -0.1    -0.0     0.0     0.0    -0.0     0.0     0.0
    -0.0    -0.1     0.0     0.0     0.0    -0.0    -0.0     0.0    -0.1     0.0
     0.1     0.0    -0.1     0.0    -0.0    -0.0     0.0     0.0    -0.0    -0.0
    -0.0     0.0    -0.0     0.0     0.0     0.0    -0.0     0.0    -0.0     0.0
    -0.0     0.0    -0.0     0.0    -0.0     0.0     0.0    -0.0     0.0    -0.1
     0.1    -0.0     0.0    -0.1     0.1    -0.1     0.0     0.0    -0.0     0.0
    -0.0     0.0     0.0     0.0     0.0    -0.1     0.0     0.0     0.0    -0.1
     0.0     0.0    -0.1    -0.0     0.0     0.0    -0.0    -0.0     0.0     0.1
    -0.1    -0.0     0.0     0.0    -0.0     0.1    -0.0     0.1    -0.0    -0.0
     0.0    -0.0     0.0    -0.0     0.0    -0.0     0.0    -0.0     0.1     0.0
     0.0    -0.0    -0.0    -0.0     0.0    -0.0    -0.0     0.1    -0.0     0.0
    -0.0     0.0     0.1     0.0    -0.1    -0.0     0.0     0.0     0.0    -0.0
     0.0    -0.0    -0.0     0.0     0.0    -0.0     0.0    -0.1    -0.0     0.1
    -0.0    -0.1     0.0     0.0    -0.0     0.0    -0.0    -0.0     0.1    -0.1
    -0.0     0.0     0.0    -0.0    -0.0     0.0     0.0    -0.0     0.0     0.0
     0.0     0.0    -0.0     0.0    -0.0    -0.0     0.1    -0.0    -0.1     0.0
     0.0    -0.0     0.0    -0.0    -0.0     0.0    -0.0     0.0    -0.0    -0.0
     0.0     0.0    -0.0     0.0     0.0    -0.1     0.0    -0.0    -0.0     0.0
    -0.0     0.0     0.0    -0.0    -0.1     0.1    -0.1    -0.0     0.0    -0.1
     0.0    -0.0    -0.0    -0.0    -0.0    -0.1     0.1     0.0    -0.1     0.1
     0.0    -0.1     0.0     0.0    -0.0     0.1     0.1    -0.1     0.1     0.0
    -0.0     0.0    -0.0    -0.0     0.0     0.0    -0.0     0.0     0.0    -0.0
     0.0     0.0    -0.0    -0.0     0.0    -0.0     0.0    -0.0    -0.0     0.1
    -0.0    -0.0     0.1    -0.0     0.0     0.0    -0.0    -0.0     0.0     0.1
    -0.0    -0.0     0.1    -0.0     0.0     0.0    -0.0     0.0    -0.0    -0.0
     0.0    -0.0     0.0     0.0    -0.0    -0.0     0.0    -0.0     0.0     0.1
    -0.1    -0.0     0.1    -0.0     0.0     0.0    -0.0     0.1    -0.0     0.0
    -0.1     0.1     0.0    -0.0     0.1    -0.0    -0.0     0.1    -0.0    -0.0
     0.0    -0.0     0.0    -0.1     0.1    -0.0    -0.0     0.1    -0.1     0.0
     0.0    -0.0    -0.1     0.0    -0.0    -0.0     0.0    -0.0    -0.0     0.0
     0.0    -0.0     0.0    -0.0     0.0    -0.0     0.0    -0.0    -0.1     0.0
     0.0     0.0     0.0     0.0    -0.1     0.0    -0.0    -0.1     0.0    -0.0
     0.0    -0.0    -0.0     0.0    -0.0     0.0    -0.0    -0.0     0.0    -0.0
     0.0    -0.0     0.0    -0.0     0.1     0.0     0.0     0.0    -0.0     0.0
    -0.0    -0.0     0.0    -0.1     0.1    -0.1     0.1    -0.0     0.0     0.0
    -0.0     0.1    -0.1     0.1    -0.0    -0.0     0.0     0.0    -0.0    -0.0
     0.0    -0.0    -0.0    -0.0     0.0     0.0     0.0    -0.0    -0.0     0.1
    -0.0     0.0     0.0    -0.1    -0.0    -0.0    -0.0    -0.0    -0.0    -0.0
     0.0    -0.0     0.0    -0.0     0.0    -0.0     0.0     0.1    -0.1     0.1
    -0.1     0.1    -0.1     0.1    -0.0    -0.0     0.1    -0.1     0.0    -0.0
     0.0     0.0     0.0    -0.0     0.1    -0.0    -0.1     0.0    -0.0     0.0
    -0.1     0.0     0.1    -0.1     0.0    -0.0    -0.0    -0.0     0.1    -0.1
     0.0     0.0     0.0     0.0    -0.0    -0.0    -0.0    -0.0     0.1    -0.0
    -0.1     0.1    -0.0     0.0    -0.1     0.1    -0.0     0.0     0.0    -0.0
     0.0     0.1    -0.0    -0.1     0.1    -0.1    -0.0     0.0    -0.0    -0.1
     0.1    -0.0    -0.0     0.1    -0.0     0.1    -0.0    -0.1     0.0     0.0
     0.0     0.0    -0.1     0.1     0.0    -0.1     0.1     0.1    -0.2     0.1
     0.1    -0.1     0.0     0.1    -0.1     0.1     0.1    -0.1     0.0     0.1
    -0.0    -0.0    -0.0    -0.0     0.1    -0.1     0.0     0.0    -0.0     0.0
     0.0     0.0    -0.0     0.1    -0.0    -0.0    -0.0     0.0    -0.0    -0.0
     0.0     0.0    -0.0     0.0     0.0    -0.0    -0.0    -0.0    -0.0     0.0
     0.0    -0.0    -0.1     0.1    -0.0    -0.0    -0.0     0.0    -0.0     0.0
     0.1    -0.1     0.1    -0.0    -0.0     0.0    -0.0     0.1    -0.0     0.0
     0.1    -0.1     0.1    -0.0    -0.0    -0.0     0.1    -0.1    -0.0     0.0
    -0.1     0.1     0.0    -0.0    -0.0     0.0     0.0    -0.1     0.0    -0.0
    -0.0     0.0    -0.0     0.0    -0.0     0.0    -0.0     0.0     0.0     0.0
    -0.1    -0.0     0.1    -0.0     0.0     0.0    -0.0     0.0    -0.0     0.1
    -0.0    -0.0     0.1    -0.1     0.0     0.1    -0.1     0.0    -0.0     0.1
     0.0    -0.0    -0.0     0.0    -0.0     0.0    -0.0    -0.0     0.1    -0.1
    -0.0    -0.0     0.0     0.0    -0.1     0.1     0.0    -0.1     0.0    -0.1
     0.0    -0.0     0.0     0.0    -0.0     0.0    -0.0    -0.0     0.0     0.0
    -0.1     0.0     0.0     0.0    -0.0    -0.0     0.0     0.0     0.0     0.0
    -0.0    -0.0     0.1    -0.0    -0.0     0.1     0.0    -0.0    -0.0     0.0
    -0.0     0.1    -0.0    -0.1     0.0    -0.0     0.0     0.0     0.0     0.0
    -0.0    -0.0    -0.0     0.0    -0.0     0.0     0.0    -0.0    -0.0     0.0
    -0.1     0.0     0.0    -0.0     0.0     0.0    -0.0    -0.0    -0.0    -0.0
     0.0    -0.0     0.0    -0.0     0.0     0.0     0.0     0.0    -0.0     0.0
    -0.0     0.0    -0.0     0.0    -0.0     0.0     0.0     0.0    -0.1     0.0
    -0.1     0.0     0.0    -0.0     0.0    -0.0    -0.0     0.0     0.1    -0.0
     0.0    -0.0     0.0     0.0    -0.0     0.0     0.0    -0.0     0.1    -0.0
    -0.0    -0.0     0.0    -0.0    -0.0    -0.0    -0.0    -0.0    -0.1     0.0
    -0.0     0.0    -0.0    -0.0    -0.0     0.0    -0.0     0.0    -0.1     0.0
     0.0    -0.0     0.0    -0.0     0.0    -0.0     0.0    -0.0    -0.0     0.0
     0.0    -0.0    -0.0    -0.0     0.1    -0.1    -0.0     0.0     0.0    -0.0
    -0.0     0.0     0.0    -0.0    -0.1     0.1     0.0    -0.0     0.1    -0.1
     0.0     0.0     0.0    -0.0     0.0    -0.0     0.0     0.0    -0.0    -0.0
     0.0     0.0     0.0    -0.0     0.0    -0.0     0.0    -0.0     0.0    -0.0
     0.0    -0.1     0.0    -0.0     0.0    -0.0    -0.0    -0.0     0.0    -0.0
     0.0     0.0    -0.0    -0.0     0.0    -0.0    -0.0    -0.0    -0.0    -0.0
     0.0    -0.1    -0.0     0.0    -0.0     0.1    -0.0    -0.0     0.0    -0.0
    -0.0     0.0    -0.0    -0.1     0.0     0.0    -0.0     0.0     0.0    -0.1
     0.1     0.0    -0.1     0.0    -0.1     0.1    -0.1    -0.0    -0.0     0.0
    -0.0     0.0     0.1     0.0    -0.0    -0.0     0.0    -0.0     0.0     0.0
    -0.1    -0.0     0.0    -0.0     0.0     0.1     0.0    -0.0     0.1    -0.0
     0.0     0.0    -0.1     0.0    -0.0     0.0    -0.0     0.0    -0.0    -0.0
     0.1    -0.1    -0.0    -0.0    -0.0     0.0    -0.0    -0.1     0.1    -0.0
    -0.0     0.0     0.1    -0.0     0.0    -0.0     0.0     0.0    -0.0     0.0
     0.0    -0.0     0.1    -0.0     0.0    -0.0     0.0     0.0    -0.0     0.0
    -0.0     0.1    -0.1    -0.0     0.0    -0.0    -0.0    -0.0     0.0     0.1
    -0.0    -0.0    -0.1     0.1     0.0    -0.0     0.0     0.0     0.0     0.0
    -0.0     0.0     0.0    -0.1     0.0    -0.0    -0.0     0.0    -0.0     0.0
    -0.0    -0.0     0.0    -0.0    -0.0     0.1    -0.0     0.1    -0.0     0.0
     0.0    -0.0     0.0     0.0     0.0    -0.0     0.0    -0.0    -0.1     0.0
    -0.0    -0.0    -0.0     0.0     0.1    -0.1     0.0    -0.0    -0.0    -0.0
     0.0     0.0    -0.0    -0.0     0.0     0.0    -0.0     0.0     0.0    -0.0
    -0.0     0.0     0.0     0.0    -0.0     0.0     0.0    -0.0     0.0    -0.0
    -0.0    -0.0     0.0    -0.0    -0.0    -0.0     0.1    -0.0    -0.0    -0.0
     0.1    -0.1     0.0     0.0     0.0    -0.0    -0.0     0.1    -0.0     0.0
     0.0     0.0    -0.1     0.0    -0.1     0.1    -0.0     0.0    -0.1     0.0
     0.0     0.0    -0.1     0.1    -0.0    -0.0     0.1     0.0    -0.0     0.0
     0.0    -0.0     0.0    -0.0     0.0    -0.1     0.0    -0.0    -0.0    -0.0
     0.0    -0.0    -0.0    -0.0     0.0    -0.0    -0.0    -0.0     0.0     0.0
    -0.0    -0.0     0.1    -0.1     0.0     0.0     0.0    -0.0    -0.0    -0.0
     0.1    -0.0    -0.0     0.0     0.0    -0.0    -0.0     0.0     0.0     0.0
    -0.0     0.0    -0.0     0.1    -0.0    -0.0    -0.0     0.0     0.0    -0.0
     0.0     0.0    -0.0    -0.0    -0.0     0.0    -0.0    -0.0     0.0    -0.0
     0.0    -0.0    -0.0    -0.0    -0.0     0.0     0.0    -0.0     0.0    -0.0
     0.0     0.0    -0.0     0.0     0.0    -0.1    -0.0     0.0     0.0    -0.0
     0.0     0.0    -0.0    -0.0     0.1     0.0     0.1    -0.0    -0.0    -0.0
     0.0     0.0     0.0    -0.0     0.0     0.0     0.0    -0.0    -0.0    -0.0
     0.0    -0.0     0.0     0.0    -0.0     0.0     0.0    -0.0    -0.0     0.0
    -0.0    -0.0     0.0    -0.0    -0.0    -0.1     0.0     0.0    -0.0     0.0
     0.0    -0.0    -0.0    -0.0     0.0    -0.0    -0.0    -0.0     0.0     0.0
    -0.0     0.0     0.0    -0.0     0.0    -0.0    -0.0     0.1    -0.0    -0.0
    -0.0    -0.0     0.0    -0.0    -0.0     0.1    -0.0     0.0     0.0     0.0
    -0.0     0.0    -0.0     0.0     0.0    -0.1     0.0     0.0    -0.0    -0.0
     0.0    -0.0     0.0    -0.0    -0.0     0.1     0.0    -0.1    -0.0     0.1
    -0.1     0.0    -0.0    -0.0     0.1    -0.0    -0.0     0.0    -0.0     0.0
    -0.0    -0.0     0.0     0.0    -0.0    -0.0     0.0    -0.0    -0.0    -0.0
     0.0    -0.0     0.0    -0.0    -0.0     0.0     0.0    -0.0    -0.0     0.0
    -0.0     0.0     0.0    -0.0    -0.0     0.0    -0.1     0.0    -0.0    -0.0
     0.1    -0.0    -0.0     0.0     0.0    -0.0    -0.1     0.0    -0.1     0.0
    -0.0    -0.0     0.0     0.0     0.0     0.1    -0.0    -0.0     0.0    -0.0
     0.1    -0.0     0.0     0.0    -0.0     0.0     0.0    -0.0     0.0     0.0
     0.0    -0.0    -0.0     0.1     0.0    -0.1     0.0     0.0    -0.0    -0.0
    -0.1     0.1     0.0    -0.0     0.0     0.0     0.0     0.0    -0.0     0.0
    -0.0    -0.0    -0.0    -0.0     0.0     0.0     0.0     0.0    -0.0     0.0
     0.0     0.0     0.0    -0.0     0.0    -0.1    -0.0     0.0    -0.0     0.0
    -0.0    -0.0     0.0    -0.0     0.0    -0.0     0.0     0.0    -0.0     0.0
    -0.0     0.0    -0.0    -0.0     0.0    -0.0    -0.0     0.0    -0.0     0.0
     0.0    -0.0     0.0     0.0     0.0    -0.1     0.1     0.1    -0.1     0.0
     0.0     0.0     0.0     0.0     0.0    -0.0     0.1    -0.0    -0.0    -0.0
     0.0     0.0    -0.0     0.0    -0.0     0.0     0.1    -0.1     0.1    -0.0
     0.0    -0.0     0.0     0.0    -0.0     0.1    -0.1     0.0    -0.0     0.0
    -0.0    -0.0     0.0     0.0    -0.0    -0.0     0.0     0.0    -0.0     0.0
    -0.0    -0.0     0.0    -0.0    -0.0     0.0     0.0    -0.0    -0.0     0.0
    -0.0     0.0     0.0    -0.1     0.1    -0.1     0.0     0.0    -0.0     0.0
    -0.0     0.0    -0.1     0.1     0.0     0.0    -0.0    -0.0     0.0    -0.0
     0.0    -0.0    -0.0    -0.0     0.0    -0.0     0.0    -0.0     0.0    -0.0
     0.0    -0.0    -0.0     0.0     0.0    -0.0     0.0     0.0     0.0    -0.1
    -0.0     0.0     0.0    -0.0    -0.0     0.1     0.0    -0.0     0.0     0.0
    -0.0     0.0     0.0     0.0    -0.1     0.0     0.0     0.1    -0.1     0.1
     0.0    -0.0     0.0     0.0    -0.0     0.0     0.0    -0.0     0.0     0.0
     0.0    -0.0    -0.0     0.0     0.0     0.0    -0.0    -0.0     0.1    -0.1
     0.1    -0.0     0.0    -0.0     0.0    -0.0     0.1    -0.0    -0.0    -0.0
     0.1    -0.0     0.0     0.0     0.0    -0.0     0.1    -0.0    -0.0     0.1
     0.0     0.0    -0.0    -0.1     0.1     0.1    -0.1     0.0     0.0    -0.0
    -0.0     0.1    -0.0     0.0     0.0     0.1    -0.0    -0.0     0.1     0.0
    -0.1     0.0     0.0     0.1    -0.1    -0.1     0.1     0.0    -0.1    -0.0
     0.1    -0.1    -0.0     0.1    -0.0    -0.1     0.0     0.2    -0.0    -0.1
     0.0     0.0     0.0    -0.0    -0.0     0.0     0.0    -0.2     0.1     0.0
    -0.1    -0.1     0.0     0.0    -0.1     0.1     0.0    -0.0    -0.1    -0.0
     0.1    -0.0    -0.1     0.1     0.1    -0.1    -0.1     0.1    -0.1    -0.0
     0.0    -0.1     0.0     0.0    -0.1    -0.0    -0.0    -0.0     0.1    -0.0
    -0.1     0.0     0.0    -0.0     0.0    -0.1    -0.0    -0.0    -0.1     0.1
    -0.1    -0.1     0.1    -0.1     0.1    -0.0    -0.1     0.0     0.1    -0.1
    -0.1     0.1    -0.1    -0.0    -0.1    -0.1     0.1    -0.0     0.0    -0.1
    -0.0    -0.0     0.0    -0.0    -0.0    -0.0    -0.1     0.0    -0.1    -0.0
     0.0    -0.0    -0.1    -0.0     0.1     0.0    -0.0    -0.0     0.1    -0.0
    -0.1     0.0     0.0    -0.1     0.0    -0.0    -0.0     0.1    -0.0    -0.0
    -0.0     0.1     0.0    -0.1    -0.1     0.0     0.0    -0.1     0.0    -0.0
    -0.0     0.0    -0.0    -0.0     0.0    -0.0    -0.0    -0.0     0.1     0.0
    -0.0    -0.0     0.0     0.1    -0.1     0.0     0.1    -0.1     0.1    -0.1
     0.0    -0.0    -0.0    -0.1     0.1    -0.0     0.1    -0.0     0.0     0.0
    -0.0     0.0     0.0    -0.0    -0.0     0.0     0.1    -0.0     0.0     0.1
    -0.0     0.0    -0.0    -0.0     0.1    -0.1     0.1    -0.0    -0.0     0.1
     0.0     0.0     0.0     0.1     0.0    -0.0     0.2     0.0    -0.0     0.1
    -0.1     0.1     0.1    -0.1     0.0     0.1     0.1     0.0    -0.0     0.1
    -0.0     0.1    -0.0     0.1     0.1    -0.0    -0.0     0.2     0.0     0.0
     0.1     0.0     0.0     0.0     0.0     0.1     0.1     0.1    -0.1     0.1
     0.1    -0.0     0.1     0.0     0.0     0.1     0.0     0.0     0.1     0.0
     0.1     0.1     0.0     0.1    -0.0     0.1     0.0     0.1     0.0     0.1
     0.0     0.1     0.0     0.1    -0.0     0.1     0.1    -0.0     0.2     0.0
     0.0     0.1     0.0     0.1     0.0     0.1     0.0     0.1     0.1     0.1
     0.1     0.0     0.1    -0.0     0.1     0.1     0.1    -0.0     0.0     0.1
     0.1     0.1     0.0     0.1     0.1     0.0     0.0     0.0     0.1    -0.1
