Corrected accelerogram 20160214_001343_SEDS_20 GNS Science
Site SEDS      41 40 20S  174 04 35E     Basalt file:  20160214_001423_SEDS
Seddon Fire Station
Instrument Basalt_1762
Resolution: 24-bit   Instr Period: 0.0050 s   Damping: 0.700
Accelerogram 20160214_001343_SEDS_20                 Processed 2016 February 22
11 km east of CHRISTCHURCH
2016 February 14         00:13:43 UT
Epicentre  43 29 50S 172 45 18E  Bearing S28W  Dist  230km  Depth    8km M  5.70
Number of points  8192    Duration 163.82 sec
Instrument corrected data at 0.020 sec intervals
Band-pass filter transition bands are .10-.25 Hz and 24.50-25.50 Hz
Component N00E  Horizontal Axis 1
Acceleration:  peak      7.4 mm/s/s at  65.88 sec     rms      1.3 mm/s/s
Velocity:      peak     1.87 mm/s   at  89.62 sec     rms     0.38 mm/s
Displacement:  peak    0.804 mm     at  90.20 sec     rms    0.182 mm
    2016       2      14       0      13     430       0       0    2016       2
      43      29      50     172      45      18       8       0      14       0
      41      40      20     174       4      35       0       0     208     230
   36400     250     250    8192    8192    8192       0       0      13   43000
   200.0    0.70    0.00   0.000  0.0000   0.000   0.000   1.000     0.0    0.00
  41.672 174.076   43.50  172.76    5.70    0.00    0.00    0.00      0.      0.
  182.00    5.00    5.00  163.82  0.0050  0.0200      0.      0.      0.  9806.6
     7.4   65.88     1.4   0.000      0.     7.4   65.88     1.3     8.7   0.388
    1.87   89.62    0.38    1.92   0.388    0.80   90.20    0.18    0.84   0.204
   0.100   0.150   0.250      0.      0.  24.500   1.000  25.500      0.      0.
   0.000   0.000   0.000   0.000   0.000   0.000   0.000   0.000  -0.000   0.000
  -0.000   0.000  -0.000   0.000  -0.000   0.000  -0.000   0.000  -0.000   0.000
  -0.000   0.000  -0.000   0.000  -0.000  -0.000  -0.000  -0.000  -0.000  -0.000
  -0.000  -0.000  -0.000  -0.000  -0.000  -0.000  -0.001  -0.000  -0.001  -0.000
  -0.001  -0.000  -0.001  -0.000  -0.001  -0.000  -0.001  -0.000  -0.001  -0.000
  -0.001  -0.001  -0.001  -0.001  -0.001  -0.001  -0.001  -0.001  -0.001  -0.001
  -0.001  -0.001  -0.001  -0.001  -0.001  -0.001  -0.001  -0.001  -0.001  -0.001
  -0.001  -0.001  -0.001  -0.001  -0.001  -0.001  -0.001  -0.001  -0.001  -0.001
  -0.001  -0.001  -0.001  -0.001  -0.001  -0.001  -0.001  -0.001  -0.001  -0.001
  -0.001  -0.001  -0.001  -0.001  -0.001  -0.001  -0.001  -0.001  -0.001  -0.001
  -0.001  -0.001  -0.001  -0.001  -0.001  -0.001  -0.001  -0.001  -0.001  -0.001
  -0.001  -0.001  -0.001  -0.001  -0.001  -0.001  -0.001  -0.001  -0.001  -0.001
  -0.001  -0.001  -0.001  -0.001  -0.001  -0.001  -0.001  -0.000  -0.001  -0.000
  -0.001  -0.000  -0.001  -0.000  -0.001  -0.000  -0.001  -0.000  -0.000  -0.000
  -0.000   0.000  -0.000   0.000  -0.000   0.000  -0.000   0.000  -0.000   0.000
   0.000   0.001   0.000   0.001   0.000   0.001   0.000   0.001   0.000   0.001
   0.001   0.001   0.001   0.001   0.001   0.001   0.001   0.001   0.001   0.002
   0.001   0.002   0.001   0.002   0.001   0.002   0.002   0.002   0.002   0.002
   0.002   0.002   0.002   0.002   0.002   0.003   0.002   0.003   0.002   0.003
   0.002   0.003   0.003   0.003   0.003   0.003   0.003   0.003   0.003   0.003
   0.003   0.004   0.003   0.004   0.003   0.004   0.003   0.004   0.003   0.004
   0.004   0.004   0.004   0.004   0.004   0.004   0.004   0.004   0.004   0.005
   0.004   0.005   0.004   0.005   0.004   0.005   0.004   0.005   0.004   0.005
   0.005   0.005   0.005   0.005   0.005   0.005   0.005   0.005   0.005   0.005
   0.005   0.005   0.005   0.005   0.005   0.006   0.005   0.006   0.004   0.008
   0.015  -0.004   0.020   0.000   0.022  -0.010   0.034   0.047   0.022   0.002
   0.003   0.006  -0.031   0.030  -0.021  -0.021  -0.027   0.006  -0.005  -0.021
  -0.033  -0.018  -0.031   0.007  -0.032  -0.006  -0.001  -0.006  -0.039   0.007
   0.002  -0.025  -0.034  -0.025  -0.034  -0.044  -0.007  -0.032  -0.018  -0.050
  -0.029  -0.030  -0.024  -0.016  -0.014  -0.024  -0.007  -0.042  -0.005  -0.059
  -0.009   0.037  -0.018  -0.018  -0.000  -0.012  -0.036   0.005   0.020  -0.007
  -0.014  -0.010   0.051   0.091   0.048   0.009   0.040   0.087   0.065   0.035
   0.075  -0.003   0.010   0.028  -0.017  -0.015  -0.041  -0.021   0.006  -0.026
  -0.004  -0.034  -0.019  -0.003  -0.030  -0.021  -0.013   0.003  -0.041  -0.003
   0.002   0.016   0.002  -0.026  -0.029  -0.003  -0.039  -0.039   0.026   0.001
  -0.013  -0.022  -0.033  -0.051   0.039   0.043   0.050   0.075   0.058   0.021
   0.023  -0.013  -0.035  -0.012  -0.020  -0.003  -0.036  -0.051  -0.002   0.015
   0.013  -0.038   0.007   0.046  -0.031  -0.023  -0.033  -0.035  -0.008  -0.044
  -0.028  -0.034  -0.061  -0.006  -0.032   0.042  -0.028  -0.029   0.002  -0.037
  -0.014  -0.031  -0.024  -0.013   0.016  -0.010  -0.013   0.027  -0.027  -0.034
   0.010   0.006  -0.019   0.009  -0.009   0.010   0.064   0.007   0.054   0.061
   0.056   0.048   0.055   0.034   0.066   0.050   0.030   0.065   0.070   0.050
   0.064   0.036   0.086   0.048   0.099   0.037   0.062   0.020   0.041   0.074
   0.068   0.037   0.055   0.037   0.001   0.022  -0.010  -0.029  -0.001   0.006
  -0.024  -0.016   0.003   0.013  -0.016  -0.005   0.046   0.015   0.011  -0.022
   0.020  -0.028   0.003  -0.013   0.004   0.017  -0.033  -0.011  -0.015   0.009
  -0.011   0.002  -0.004  -0.017  -0.031  -0.004  -0.035  -0.022  -0.019  -0.026
  -0.011  -0.016  -0.038  -0.017  -0.018  -0.035  -0.007  -0.026  -0.054  -0.012
   0.005  -0.002  -0.019  -0.016  -0.004   0.046   0.022  -0.008  -0.011   0.025
   0.001   0.018   0.015  -0.011  -0.011   0.013   0.014  -0.019   0.001  -0.013
  -0.036  -0.000  -0.037  -0.032   0.025  -0.004   0.006   0.020  -0.005   0.033
  -0.012  -0.008  -0.017  -0.032   0.012  -0.018  -0.002  -0.030  -0.001  -0.030
  -0.014  -0.045  -0.013  -0.009  -0.033  -0.019  -0.033   0.003   0.002  -0.040
  -0.021  -0.022  -0.011   0.029  -0.015  -0.007   0.000  -0.039  -0.035  -0.015
  -0.071   0.050  -0.073   0.014  -0.005  -0.003   0.002  -0.019  -0.023  -0.033
  -0.017  -0.019  -0.024  -0.022  -0.035  -0.013   0.010  -0.032  -0.014  -0.021
  -0.005  -0.049  -0.029  -0.021  -0.024  -0.027  -0.007  -0.024   0.006  -0.025
  -0.022  -0.016  -0.049  -0.021  -0.039  -0.020  -0.007  -0.005  -0.040  -0.036
  -0.007  -0.021  -0.044  -0.035  -0.057  -0.038  -0.036   0.030   0.021  -0.002
   0.034   0.018   0.052   0.012   0.050   0.007   0.060   0.029   0.056   0.011
   0.048   0.083   0.056   0.061   0.030   0.063   0.018   0.044   0.055   0.054
   0.065   0.033   0.039   0.017   0.038   0.029   0.036   0.035   0.046   0.045
   0.069   0.005  -0.013  -0.006  -0.065  -0.064  -0.022  -0.046  -0.035  -0.040
   0.004  -0.053  -0.037   0.035   0.031   0.056  -0.005   0.104   0.009  -0.027
  -0.047  -0.022  -0.003  -0.034  -0.041  -0.016  -0.026  -0.027  -0.045   0.003
   0.012   0.035   0.031   0.030   0.027   0.060   0.036   0.067   0.039   0.048
   0.043   0.052   0.015   0.015   0.048   0.066   0.034   0.039   0.045   0.019
   0.018   0.009   0.038   0.017   0.033   0.016   0.017   0.009   0.025   0.016
  -0.001  -0.045  -0.046  -0.057  -0.061  -0.071  -0.064  -0.072  -0.050  -0.064
  -0.014   0.005   0.039   0.041   0.061   0.009   0.078   0.007   0.033   0.042
   0.041   0.036   0.027   0.035   0.028   0.023   0.023   0.025   0.036   0.011
  -0.003   0.039   0.009   0.034   0.047   0.024   0.024  -0.063  -0.022  -0.040
  -0.065  -0.017  -0.011  -0.041  -0.036  -0.039  -0.030  -0.045  -0.011  -0.042
  -0.056  -0.008  -0.047  -0.052  -0.070  -0.037  -0.039   0.004  -0.017  -0.053
  -0.062  -0.007   0.032   0.058   0.018   0.049   0.024   0.078   0.019  -0.055
  -0.012   0.010  -0.024  -0.006   0.007  -0.054  -0.050  -0.005  -0.031  -0.045
  -0.042  -0.044  -0.049  -0.047  -0.071  -0.059  -0.037  -0.019  -0.039  -0.020
  -0.016  -0.022  -0.065  -0.023  -0.036  -0.047  -0.005  -0.007  -0.047  -0.030
  -0.023  -0.079  -0.040  -0.062  -0.056   0.026   0.010   0.053   0.006   0.077
   0.029   0.004   0.038   0.081   0.022   0.057   0.050   0.089   0.024   0.035
   0.051   0.029   0.046   0.037   0.026  -0.017  -0.014  -0.006  -0.033   0.009
  -0.023  -0.069  -0.025  -0.052   0.010   0.008   0.035   0.031   0.019   0.047
   0.028   0.043   0.033   0.046   0.059   0.066   0.059   0.050   0.027   0.035
   0.051   0.015   0.038   0.056   0.053   0.037   0.043   0.030   0.018   0.066
  -0.007   0.101  -0.044  -0.017  -0.021   0.001   0.019  -0.058   0.008  -0.060
  -0.025  -0.080  -0.037  -0.044  -0.061  -0.020  -0.030  -0.036  -0.092  -0.055
  -0.048  -0.068  -0.025  -0.014   0.025  -0.015   0.022   0.002   0.048   0.002
   0.062   0.037   0.060   0.005   0.022   0.035   0.043   0.037  -0.012   0.044
   0.039   0.035   0.038   0.068   0.048   0.007   0.016   0.032   0.036   0.028
  -0.021  -0.004  -0.023  -0.025  -0.046  -0.030  -0.039  -0.015  -0.062  -0.016
  -0.025  -0.029  -0.021  -0.016  -0.013  -0.044  -0.038  -0.061  -0.040  -0.038
  -0.042  -0.042  -0.077  -0.038  -0.061  -0.096  -0.026  -0.007  -0.064  -0.048
  -0.010  -0.058  -0.043  -0.012  -0.025  -0.044  -0.004  -0.021  -0.045  -0.029
  -0.040  -0.021  -0.050  -0.022  -0.083  -0.067  -0.031   0.004   0.043  -0.034
  -0.018   0.006   0.026   0.044  -0.009   0.010   0.030   0.027   0.015   0.004
   0.022   0.039   0.037  -0.003  -0.011  -0.005   0.025   0.018   0.030   0.025
   0.020   0.057   0.007   0.008   0.028   0.003   0.011   0.017   0.026   0.040
   0.028   0.053   0.008   0.058   0.023   0.013   0.069   0.009   0.050   0.043
   0.008   0.018  -0.010   0.015   0.013   0.047  -0.002   0.027  -0.017   0.005
  -0.014   0.033  -0.003   0.019   0.018  -0.001   0.035   0.039   0.044   0.019
   0.024   0.015   0.007   0.024   0.031  -0.010   0.051  -0.033  -0.027  -0.051
  -0.033  -0.074  -0.031  -0.067   0.009   0.002   0.009   0.058  -0.024   0.025
   0.013   0.034  -0.021   0.014   0.049  -0.020   0.024   0.010   0.038  -0.025
   0.040   0.004   0.030   0.024   0.025   0.028   0.053   0.007   0.042   0.042
   0.056   0.027   0.048  -0.001   0.037   0.029   0.064   0.028   0.087   0.005
   0.048   0.009   0.032   0.002   0.065   0.036   0.037   0.018   0.071   0.063
   0.023   0.004   0.035   0.056   0.026   0.033  -0.070  -0.049  -0.012  -0.073
  -0.026  -0.031  -0.047   0.025   0.008  -0.053  -0.071   0.016  -0.013  -0.031
  -0.063  -0.049  -0.030  -0.001  -0.023  -0.027  -0.019  -0.019  -0.048  -0.011
  -0.057  -0.020  -0.027   0.025  -0.047  -0.028  -0.026  -0.051  -0.047  -0.030
  -0.066  -0.015  -0.050  -0.060  -0.029  -0.065  -0.008  -0.040  -0.034  -0.018
  -0.034   0.014  -0.035   0.016  -0.055  -0.055  -0.027  -0.042   0.014   0.030
   0.031  -0.050  -0.030  -0.036   0.002  -0.052  -0.004   0.011  -0.001  -0.100
  -0.026   0.042  -0.078  -0.022  -0.031  -0.015  -0.023  -0.019  -0.021  -0.001
  -0.011   0.005  -0.056  -0.035   0.011  -0.008  -0.015  -0.077   0.004   0.003
  -0.035  -0.058   0.009  -0.047  -0.035  -0.020   0.008  -0.040  -0.028  -0.005
   0.061   0.053   0.016   0.061   0.022   0.039   0.066   0.011   0.007   0.052
  -0.007   0.024   0.004  -0.016   0.050   0.056   0.016   0.025  -0.047   0.002
  -0.062  -0.001  -0.040  -0.044  -0.048  -0.052  -0.063  -0.021  -0.054  -0.016
  -0.067  -0.009   0.021   0.041   0.044   0.014   0.064   0.018   0.030   0.019
   0.036   0.029   0.035   0.035   0.019  -0.015   0.040   0.013   0.037   0.067
   0.036   0.035   0.024   0.032   0.052   0.035   0.062   0.014   0.025   0.019
  -0.002   0.037   0.061   0.021   0.026   0.017   0.064   0.048   0.053   0.062
   0.046   0.039   0.008   0.033   0.025   0.014   0.045   0.070   0.042   0.058
   0.038   0.053   0.068   0.066   0.087   0.035   0.016   0.045   0.061   0.047
   0.038   0.063   0.055   0.047   0.097   0.064   0.004   0.010  -0.067  -0.030
  -0.052  -0.040  -0.051  -0.013  -0.039  -0.043  -0.035  -0.039  -0.019  -0.015
  -0.027  -0.010  -0.054  -0.050  -0.020  -0.002  -0.032  -0.014  -0.070  -0.054
  -0.041  -0.054  -0.051  -0.028  -0.067  -0.046  -0.012  -0.059  -0.026  -0.055
  -0.034  -0.033  -0.062  -0.067  -0.016  -0.042  -0.014  -0.060  -0.027  -0.034
  -0.072  -0.017   0.017  -0.039  -0.046  -0.052  -0.056  -0.014  -0.029  -0.052
  -0.021  -0.057  -0.025   0.013  -0.044  -0.022  -0.070  -0.016  -0.017  -0.010
  -0.047   0.004  -0.052   0.046   0.043   0.003   0.042   0.027   0.062   0.057
   0.052   0.037   0.076   0.061   0.036   0.040   0.027   0.024   0.050   0.051
   0.018   0.004   0.033   0.023   0.027   0.030   0.016  -0.044  -0.013  -0.032
  -0.051  -0.077  -0.024  -0.043  -0.059  -0.033  -0.040  -0.002  -0.068  -0.005
  -0.051  -0.026  -0.055  -0.052  -0.042  -0.063  -0.004  -0.046  -0.043  -0.068
  -0.013   0.083   0.032   0.058   0.014   0.080   0.043   0.027   0.050   0.078
   0.075   0.026   0.060   0.055   0.030   0.061   0.053   0.009  -0.014   0.016
  -0.053   0.004  -0.039   0.067   0.016   0.123   0.064   0.043   0.077   0.070
   0.041   0.052   0.092   0.061   0.063   0.084   0.027  -0.015  -0.007  -0.007
  -0.041  -0.026  -0.022  -0.045  -0.049   0.004   0.014  -0.025  -0.007   0.005
  -0.006  -0.030  -0.012  -0.032   0.006  -0.014  -0.019  -0.032  -0.033  -0.027
  -0.011  -0.046  -0.022   0.037  -0.062   0.004  -0.016  -0.004  -0.037   0.017
  -0.011  -0.002   0.001  -0.009  -0.046   0.005  -0.020  -0.021   0.039  -0.080
  -0.000  -0.016  -0.044   0.017   0.004  -0.034   0.051  -0.005  -0.047   0.001
  -0.006   0.031   0.013   0.013  -0.022   0.033   0.028  -0.070   0.041   0.022
  -0.045   0.027  -0.040   0.025   0.015  -0.061  -0.017  -0.011   0.010   0.008
  -0.023  -0.051   0.005  -0.004  -0.012  -0.009   0.006   0.004  -0.017  -0.026
  -0.001  -0.033  -0.027   0.028  -0.013  -0.039   0.040   0.010  -0.018   0.019
  -0.000  -0.017   0.056  -0.064   0.002   0.019   0.057  -0.037   0.093   0.023
   0.000   0.002  -0.005   0.019   0.012   0.021  -0.005   0.020   0.005  -0.006
   0.030   0.039  -0.041   0.058  -0.076   0.028  -0.009  -0.024  -0.019   0.025
  -0.041  -0.041  -0.009   0.038  -0.007  -0.005  -0.039   0.007   0.035  -0.036
   0.017  -0.056   0.059   0.085   0.065   0.052   0.112   0.070   0.023  -0.010
  -0.003  -0.005  -0.055   0.016  -0.006  -0.023   0.028  -0.021  -0.008   0.015
  -0.061   0.027  -0.022  -0.053   0.024  -0.014  -0.010  -0.023  -0.042  -0.016
  -0.073   0.056  -0.080  -0.031  -0.000  -0.015  -0.024   0.009  -0.079   0.058
   0.030  -0.037   0.021  -0.050   0.033  -0.059   0.074  -0.070  -0.062   0.157
  -0.265   0.139  -0.055  -0.077   0.111  -0.171   0.058  -0.008   0.008  -0.074
   0.021  -0.100   0.034   0.067  -0.150   0.139  -0.120   0.033   0.044  -0.107
   0.070  -0.073   0.049  -0.060   0.041  -0.015  -0.010  -0.017   0.093   0.013
   0.026   0.132  -0.038   0.088   0.232  -0.110   0.143   0.105   0.043   0.063
   0.067   0.120   0.111  -0.025   0.128  -0.045  -0.038   0.184  -0.171   0.016
   0.033  -0.039   0.012  -0.044   0.091  -0.042  -0.029   0.013  -0.034  -0.001
   0.026  -0.083   0.037  -0.032  -0.014   0.020  -0.050   0.002  -0.043  -0.012
  -0.034  -0.009   0.020   0.015  -0.039   0.051  -0.026  -0.050   0.059  -0.058
  -0.058  -0.049  -0.027  -0.008  -0.076  -0.003   0.033  -0.023   0.001  -0.002
  -0.003  -0.005  -0.023  -0.015  -0.046  -0.015   0.011  -0.035  -0.038   0.013
  -0.030  -0.011  -0.001  -0.027  -0.016  -0.008  -0.006  -0.030  -0.003   0.004
  -0.041   0.016  -0.026   0.033  -0.001   0.004   0.011  -0.011   0.038   0.006
  -0.040   0.001  -0.039   0.013  -0.028   0.040  -0.029  -0.011   0.013   0.012
  -0.052   0.035  -0.054   0.079  -0.002  -0.026   0.008   0.001  -0.017   0.008
   0.005  -0.003  -0.030   0.042  -0.041   0.020   0.009  -0.002   0.029  -0.037
   0.003  -0.002  -0.023   0.019   0.041  -0.046   0.035  -0.040   0.020  -0.006
   0.038   0.007  -0.036   0.078  -0.047   0.031   0.025  -0.050   0.005   0.031
  -0.033  -0.041   0.076  -0.099  -0.038   0.074  -0.042  -0.034   0.074   0.010
  -0.005   0.061  -0.014  -0.034   0.047  -0.007  -0.063   0.019  -0.036   0.022
  -0.052   0.014  -0.019  -0.010  -0.024  -0.051   0.022  -0.006   0.008   0.003
   0.010  -0.046   0.003  -0.005   0.083   0.048   0.076   0.023   0.064   0.065
   0.013   0.017  -0.017   0.065  -0.077   0.130   0.055   0.076   0.072   0.010
  -0.027   0.031  -0.042   0.080   0.003   0.126   0.049   0.020   0.097   0.068
  -0.031   0.052  -0.045   0.020   0.006  -0.005  -0.011  -0.013  -0.017   0.040
  -0.078   0.040  -0.083  -0.048   0.062  -0.076   0.068  -0.095   0.094  -0.073
  -0.001  -0.042  -0.020  -0.011  -0.085   0.038  -0.130  -0.001  -0.047  -0.058
   0.016  -0.105   0.039  -0.149   0.057  -0.002  -0.042   0.006  -0.005  -0.049
  -0.027  -0.127  -0.005  -0.051   0.111   0.044   0.100   0.013   0.080   0.087
   0.090   0.010   0.019   0.018  -0.028  -0.018   0.026  -0.032  -0.015  -0.003
  -0.022   0.029  -0.003  -0.013  -0.025   0.006   0.027  -0.004  -0.014  -0.006
  -0.025   0.007  -0.036  -0.002  -0.027   0.041  -0.004  -0.003  -0.006   0.030
   0.004   0.012  -0.028   0.034   0.009  -0.053   0.008  -0.003   0.007  -0.051
  -0.050  -0.024   0.001   0.018  -0.010  -0.030   0.000   0.026  -0.027   0.008
  -0.049   0.008  -0.037  -0.016  -0.003  -0.004  -0.012  -0.012  -0.019   0.006
  -0.070   0.010  -0.061  -0.010   0.033  -0.041   0.010  -0.020   0.032   0.015
  -0.032   0.014   0.030  -0.001   0.031  -0.033  -0.018   0.014  -0.021   0.004
   0.013  -0.026  -0.028  -0.023   0.020  -0.017  -0.064  -0.009  -0.005  -0.051
  -0.004  -0.012  -0.016  -0.052  -0.032   0.032  -0.013  -0.022  -0.008  -0.014
  -0.057   0.011  -0.025   0.023   0.009  -0.049   0.020  -0.050  -0.009   0.005
  -0.011   0.002   0.003  -0.046   0.023  -0.037  -0.004  -0.020  -0.009  -0.034
  -0.002  -0.000  -0.004  -0.028   0.007   0.016  -0.025  -0.061   0.050   0.014
   0.028   0.012  -0.007   0.058   0.013   0.022  -0.021   0.054   0.029  -0.018
   0.052  -0.001  -0.023  -0.027   0.025  -0.019   0.018   0.025  -0.013   0.003
  -0.003  -0.022   0.043   0.073   0.024   0.024   0.020  -0.007  -0.066  -0.042
   0.024   0.058   0.040   0.100   0.124   0.122   0.116   0.115   0.135   0.129
   0.135   0.075   0.031  -0.005   0.051   0.063   0.122   0.145   0.083   0.080
   0.101   0.056   0.059   0.053   0.066   0.061   0.077   0.141   0.183   0.116
   0.058   0.082   0.014   0.024   0.048   0.064  -0.130  -0.070  -0.060  -0.001
  -0.083  -0.006   0.027  -0.039   0.001  -0.056   0.177   0.113   0.080   0.046
   0.041  -0.078  -0.193  -0.254  -0.207  -0.101   0.023   0.026  -0.003   0.012
   0.013  -0.103  -0.088  -0.170  -0.179  -0.269  -0.387  -0.460  -0.433  -0.155
  -0.055  -0.065  -0.095  -0.198  -0.283  -0.079   0.097   0.166   0.066  -0.090
  -0.187  -0.152  -0.029   0.088   0.293   0.183   0.165   0.032  -0.090  -0.063
   0.032   0.205  -0.024  -0.096   0.085   0.330   0.319   0.138  -0.084  -0.459
  -0.413   0.046   0.159   0.091   0.103  -0.073  -0.029  -0.209  -0.502  -0.165
   0.080   0.113   0.120   0.030  -0.017  -0.063   0.035   0.058  -0.022   0.023
   0.139  -0.014  -0.146  -0.359  -0.273  -0.118   0.285   0.011  -0.151   0.088
   0.218   0.368   0.179   0.188   0.003  -0.036  -0.032  -0.098   0.132   0.289
   0.446   0.370   0.163  -0.337  -0.073  -0.249  -0.283  -0.195   0.014  -0.232
  -0.376  -0.285  -0.387  -0.334   0.068   0.380   0.212   0.094   0.211   0.020
   0.148   0.680   0.013  -0.446  -0.233  -0.058  -0.063   0.095   0.210   0.309
   0.249   0.880   0.621   0.037  -0.443  -0.677  -0.524  -0.181   0.268   0.415
   0.300  -0.011  -0.311  -0.362   0.117   0.236   0.598   0.608   0.181  -0.089
  -0.180  -0.549  -0.295   0.521   0.295  -0.058  -0.314  -0.338  -0.008  -0.282
  -0.463  -0.253   0.080   0.324   0.042  -0.036  -0.018   0.271   0.687   0.759
   0.552   0.092  -0.019  -0.009  -0.006   0.111  -0.007   0.305   0.604   0.343
  -0.298  -0.541  -0.539  -0.310  -0.498  -0.321   0.104  -0.594  -0.640  -0.068
