Uncorrected accelerogram 20160214_001343_TEPS_20 GNS Science
Site TEPS      41 17 26S  174 46 52E     Basalt file:  20160214_001447_TEPS
Wellington Te Papa Museum
Instrument Basalt_2411
Resolution: 24-bit   Instr Period: 0.0050 s   Damping: 0.700
Accelerogram 20160214_001343_TEPS_20                 Processed 2016 February 22
11 km east of CHRISTCHURCH
2016 February 14         00:13:43 UT
Epicentre  43 29 50S 172 45 18E  Bearing S34W  Dist  297km  Depth    8km M  5.70
Number of points  28800    Duration 144.00 s
Raw readings in units of 1.00 mm/s/s  at intervals of 0.005 s
Data is unfiltered
Component S41E
Acceleration:  Peak      2.7 mm/s/s at  86.08 s     RMS     0.68 mm/s/s
Velocity record unevaluated
Displacement record unevaluated
    2016       2      14       0      13     430       0       0    2016       2
      43      29      50     172      45      18       8       0      14       0
      41      17      26     174      46      52     139     139     214     297
   28800       0       0   28800       0       0       0       0      14    7000
   200.0    0.70    0.00   0.000  0.0000   0.000   0.000   1.000     0.0    0.00
  41.291 174.781  43.497 172.755    5.70    0.00    0.00    0.00      0.      0.
  144.00    0.00    0.00  144.00  0.0050  0.0050      0.      0.      0.  9806.6
     2.7   86.08     0.7      0.      0.     0.0    0.00     0.0     0.0   0.000
    0.00    0.00    0.00    0.00   0.000    0.00    0.00    0.00    0.00   0.000
   0.000   0.000   0.000      0.      0.   0.000   0.000   0.000      0.      0.
    -0.1    -0.1    -0.1    -0.0    -0.1    -0.0    -0.0    -0.1     0.0     0.0
    -0.1     0.0     0.1     0.1     0.0     0.0     0.0    -0.0     0.0     0.1
     0.0     0.0     0.0     0.0     0.0    -0.0    -0.0     0.0     0.1     0.1
     0.1     0.0     0.1     0.1    -0.1    -0.1    -0.1    -0.1    -0.0    -0.1
    -0.1    -0.0    -0.1     0.0    -0.0    -0.1     0.0    -0.0     0.1     0.1
     0.0     0.0     0.1     0.0    -0.0    -0.1    -0.1     0.0    -0.1    -0.1
     0.0     0.1     0.0    -0.1    -0.1    -0.0     0.0     0.0    -0.0    -0.0
    -0.0    -0.0     0.1     0.1     0.0    -0.0    -0.0     0.0    -0.1    -0.0
     0.0     0.0     0.0    -0.1     0.0     0.0    -0.0     0.0     0.0     0.0
     0.0     0.0     0.0    -0.1    -0.1    -0.0     0.0     0.1     0.1     0.1
     0.1     0.0     0.1     0.1     0.1    -0.0    -0.1     0.0    -0.0    -0.0
    -0.0    -0.0     0.0    -0.1    -0.1    -0.0     0.0     0.0     0.1     0.1
     0.0     0.1     0.1     0.0     0.0     0.0     0.0    -0.0    -0.0    -0.1
    -0.1    -0.1    -0.0    -0.1    -0.1    -0.1    -0.1     0.1     0.0     0.0
    -0.0    -0.0     0.0    -0.1     0.1     0.1    -0.0     0.0    -0.1     0.0
     0.0    -0.1    -0.0    -0.1    -0.1    -0.0    -0.0     0.0    -0.0    -0.0
     0.0     0.1     0.0     0.0    -0.0    -0.0    -0.0     0.0     0.1     0.0
    -0.0    -0.0     0.0    -0.0    -0.0     0.0     0.0     0.0    -0.1    -0.1
    -0.1    -0.0     0.0     0.0     0.1    -0.1    -0.0    -0.0    -0.0     0.1
    -0.0    -0.0     0.0     0.0     0.0    -0.1     0.0    -0.1     0.0     0.0
     0.1     0.0    -0.1    -0.1    -0.0    -0.0    -0.1    -0.1     0.0     0.0
    -0.0    -0.0     0.0     0.0    -0.0    -0.0     0.1     0.1    -0.1     0.0
     0.1     0.0    -0.1    -0.0     0.1    -0.0    -0.1    -0.1    -0.1     0.0
    -0.0     0.0     0.1     0.1     0.1    -0.1    -0.0    -0.1    -0.1    -0.1
    -0.1     0.1     0.0    -0.1     0.1     0.1    -0.0    -0.0     0.0     0.1
    -0.0    -0.0    -0.0    -0.0    -0.1    -0.1    -0.0    -0.0    -0.0     0.0
     0.0     0.0     0.1    -0.0     0.1     0.1     0.0     0.2     0.1     0.0
    -0.1    -0.1     0.0     0.0     0.0    -0.1    -0.0    -0.1    -0.0    -0.0
    -0.0     0.1     0.0     0.1     0.1     0.1     0.1     0.1     0.1     0.0
    -0.1    -0.2    -0.0    -0.0    -0.1     0.0    -0.0     0.0    -0.0    -0.1
     0.0     0.0    -0.1    -0.1     0.0    -0.0    -0.0     0.0     0.1     0.0
    -0.1    -0.2    -0.1    -0.0     0.0     0.0     0.0     0.0     0.1     0.0
     0.0     0.0     0.1     0.0     0.1     0.1    -0.1    -0.1    -0.1    -0.1
    -0.0    -0.1    -0.1     0.0    -0.1    -0.0    -0.0    -0.0     0.1     0.0
     0.2     0.1    -0.0     0.0    -0.0     0.0     0.0     0.0     0.0    -0.0
    -0.1    -0.1    -0.1    -0.1    -0.1    -0.0    -0.1    -0.1    -0.1     0.0
     0.1     0.1     0.0     0.0     0.0     0.1     0.0     0.0    -0.1    -0.1
    -0.1    -0.1    -0.0    -0.0    -0.1    -0.1     0.0     0.0    -0.0     0.1
     0.2     0.1     0.0    -0.0     0.0     0.0    -0.0    -0.0     0.0     0.0
     0.0    -0.0     0.0     0.1     0.0     0.0     0.1     0.1     0.0     0.0
    -0.0    -0.1    -0.2    -0.2    -0.0     0.0     0.0     0.0     0.0     0.0
     0.0     0.1     0.1     0.1    -0.0    -0.1     0.1    -0.0    -0.1    -0.1
    -0.0     0.1     0.0    -0.0     0.0     0.0     0.0    -0.0    -0.0    -0.0
     0.0     0.0    -0.0     0.0     0.1     0.0     0.0     0.0    -0.0    -0.0
     0.1     0.1     0.0    -0.0    -0.0     0.0    -0.0    -0.1    -0.0    -0.1
    -0.0     0.1     0.2     0.1     0.0    -0.0    -0.1    -0.0    -0.1    -0.0
     0.0     0.1     0.1     0.1     0.0     0.0    -0.0    -0.0     0.0     0.0
    -0.0     0.0     0.0     0.0    -0.0    -0.0    -0.1    -0.0    -0.1    -0.1
    -0.0    -0.0    -0.0    -0.1     0.1     0.0    -0.2     0.0     0.0    -0.0
    -0.0    -0.1    -0.1     0.0    -0.0    -0.0     0.0    -0.0    -0.1    -0.1
    -0.1    -0.1    -0.0     0.1     0.1     0.0    -0.0    -0.0     0.0    -0.0
    -0.0    -0.1    -0.0     0.0     0.0     0.0     0.1     0.1    -0.0     0.0
    -0.0    -0.1     0.1    -0.1    -0.1    -0.0    -0.0     0.0     0.1     0.1
     0.1     0.1     0.0     0.0     0.1     0.0     0.0     0.0    -0.1    -0.1
    -0.1    -0.1    -0.1    -0.0     0.0    -0.0     0.0     0.1     0.0     0.0
    -0.1    -0.0     0.1    -0.1    -0.1    -0.0     0.0    -0.0    -0.1    -0.1
     0.0     0.1     0.1     0.0    -0.0     0.1     0.1     0.0     0.1     0.1
     0.0    -0.0    -0.1    -0.0    -0.1    -0.0     0.1     0.1    -0.0    -0.0
    -0.0     0.0     0.0     0.1     0.1     0.1     0.0    -0.1    -0.0    -0.0
    -0.0    -0.0    -0.0     0.0    -0.0    -0.0    -0.0    -0.1    -0.1    -0.1
     0.0     0.0    -0.0     0.1     0.1     0.1     0.1    -0.0    -0.0    -0.1
    -0.1    -0.1    -0.1     0.0    -0.2    -0.1    -0.0     0.1     0.1    -0.0
     0.0     0.1     0.0     0.0     0.1     0.0    -0.1    -0.0     0.0     0.0
     0.0     0.0     0.0    -0.1    -0.1    -0.0    -0.0     0.0    -0.1    -0.1
     0.0     0.1     0.0    -0.0     0.0     0.0    -0.0    -0.0    -0.0     0.0
    -0.1     0.0     0.0    -0.0     0.0    -0.1     0.0     0.1    -0.1     0.0
     0.0     0.0    -0.0    -0.1     0.0     0.0     0.0    -0.0     0.0     0.1
    -0.0    -0.1     0.0     0.0    -0.1    -0.1    -0.0    -0.1    -0.1    -0.1
    -0.0     0.1     0.0     0.0     0.1     0.1     0.1     0.1     0.0     0.0
    -0.1    -0.1    -0.0     0.0     0.0    -0.1    -0.0     0.1     0.0    -0.1
    -0.0     0.1     0.1     0.0     0.0     0.1     0.0    -0.1     0.0     0.1
    -0.0    -0.1    -0.0     0.0    -0.0    -0.0    -0.1    -0.1     0.0    -0.0
     0.0     0.0     0.0     0.0    -0.1     0.0     0.0     0.1     0.1     0.1
    -0.0    -0.1    -0.1    -0.1    -0.1    -0.1    -0.1     0.0     0.1     0.1
     0.1     0.0    -0.0     0.0     0.1     0.1     0.1    -0.0     0.0     0.1
    -0.1    -0.1    -0.0    -0.0    -0.1    -0.2    -0.1     0.0    -0.0     0.1
     0.1     0.1     0.0    -0.1     0.0     0.0     0.0    -0.0     0.0     0.1
     0.0    -0.1    -0.1     0.0     0.0     0.0     0.0     0.0     0.0     0.0
     0.1     0.0     0.0     0.0     0.1     0.2    -0.0    -0.1    -0.1    -0.0
    -0.0    -0.1    -0.1    -0.0    -0.0     0.0     0.0    -0.1    -0.0    -0.1
    -0.0     0.1     0.1     0.0    -0.0    -0.0    -0.0    -0.0    -0.0    -0.0
    -0.0    -0.0    -0.1    -0.0    -0.0     0.0     0.1     0.1     0.0    -0.1
    -0.0    -0.0    -0.0     0.0     0.0     0.0     0.0     0.0     0.0     0.0
     0.0     0.0     0.0     0.0     0.0    -0.1    -0.0     0.0    -0.0    -0.0
    -0.1    -0.0    -0.0    -0.0     0.1     0.0    -0.0     0.0    -0.0     0.0
     0.0     0.0    -0.0     0.1    -0.0    -0.1    -0.0    -0.1     0.0    -0.0
    -0.0     0.0    -0.0    -0.0    -0.0     0.0    -0.0    -0.0     0.0     0.0
     0.0     0.0     0.1     0.1    -0.1    -0.0    -0.0     0.0     0.0    -0.1
     0.0     0.0    -0.0     0.1    -0.0     0.0     0.0    -0.1     0.0     0.1
    -0.0    -0.0    -0.0     0.1     0.0    -0.1    -0.0    -0.0    -0.0    -0.0
     0.0     0.0     0.1    -0.0    -0.0    -0.0    -0.0     0.1    -0.0    -0.1
    -0.1    -0.0     0.0    -0.1    -0.1    -0.0     0.1    -0.0    -0.1    -0.0
     0.1     0.2     0.0    -0.0     0.1     0.1     0.0    -0.0     0.0     0.0
    -0.1    -0.0    -0.0    -0.0    -0.1    -0.1     0.0     0.0     0.0     0.0
     0.1     0.0    -0.0    -0.1    -0.0     0.1     0.0    -0.1    -0.0     0.0
     0.0    -0.0     0.0     0.0     0.1    -0.0     0.0     0.1     0.0     0.1
     0.1    -0.0     0.0    -0.0     0.0    -0.0    -0.0    -0.1    -0.1    -0.0
    -0.0     0.0     0.0     0.0     0.0    -0.0     0.0    -0.0     0.0     0.0
     0.0     0.1    -0.0    -0.1    -0.0    -0.0    -0.0     0.0     0.0     0.0
    -0.0    -0.1     0.0     0.0    -0.0    -0.0     0.1     0.1    -0.1    -0.0
    -0.0     0.0     0.0     0.0     0.1     0.0    -0.0    -0.0    -0.0     0.0
     0.0    -0.0     0.0    -0.0     0.0     0.1     0.1     0.1    -0.0    -0.0
    -0.0     0.0    -0.1    -0.1     0.1     0.0     0.0    -0.1     0.0     0.2
    -0.4    -0.1     0.2    -0.1     0.0     0.1     0.1     0.0    -0.1    -0.1
     0.0    -0.1    -0.2    -0.0     0.0    -0.0     0.1     0.0     0.0     0.0
    -0.0     0.1     0.1     0.1     0.0     0.0    -0.0    -0.1    -0.1    -0.0
     0.0    -0.1    -0.1    -0.0     0.0     0.0    -0.0     0.1     0.1     0.0
     0.0    -0.0     0.0     0.0    -0.0    -0.0     0.1     0.1    -0.0    -0.0
    -0.1    -0.0    -0.1    -0.1     0.0     0.1    -0.0    -0.2     0.1     0.1
    -0.1     0.1     0.1     0.2     0.1     0.1     0.2     0.0    -0.0    -0.0
    -0.0    -0.1    -0.1     0.0    -0.0    -0.1    -0.1    -0.1     0.0     0.1
     0.0     0.0     0.1     0.0     0.0    -0.0     0.0     0.0    -0.1    -0.1
    -0.1    -0.1    -0.1    -0.0     0.1     0.1     0.1     0.0     0.0     0.0
    -0.1    -0.1    -0.0     0.0    -0.0    -0.1    -0.1    -0.1    -0.1    -0.1
     0.1     0.2     0.0     0.1     0.1     0.2    -0.1    -0.3     0.3     0.2
    -0.1     0.0    -0.1    -0.0    -0.1    -0.2     0.0     0.0     0.1     0.1
     0.0     0.1     0.0    -0.1     0.0    -0.0    -0.1    -0.1    -0.0     0.1
    -0.0    -0.1    -0.1     0.1     0.1     0.1     0.0    -0.0    -0.0    -0.0
     0.0     0.0    -0.0    -0.1    -0.0     0.0    -0.1    -0.0     0.0     0.1
     0.1     0.0     0.2     0.2     0.1     0.0    -0.1     0.0     0.1    -0.0
     0.2     0.0    -0.3    -0.1    -0.0    -0.0    -0.1    -0.2    -0.1    -0.0
     0.0     0.0     0.0     0.0    -0.0     0.0     0.1     0.2     0.0    -0.0
    -0.0    -0.0    -0.1    -0.1    -0.1    -0.1    -0.1    -0.1     0.0     0.0
    -0.0    -0.0    -0.0     0.1    -0.0    -0.1    -0.1    -0.1     0.0     0.0
    -0.0     0.0    -0.0    -0.1    -0.1     0.0     0.1     0.1     0.1     0.0
    -0.0    -0.1    -0.0    -0.0     0.0     0.0     0.0     0.1    -0.0    -0.0
     0.1     0.0    -0.1     0.0     0.1     0.0     0.1     0.1    -0.0     0.1
    -0.0    -0.1     0.0    -0.1    -0.1    -0.1    -0.1     0.0    -0.1    -0.0
    -0.0    -0.0    -0.0    -0.0     0.0     0.0     0.0     0.1     0.0     0.0
     0.0    -0.0     0.0     0.0    -0.0     0.0     0.1     0.1     0.0    -0.0
     0.0    -0.0     0.0    -0.0    -0.0     0.1    -0.0     0.0     0.1     0.0
    -0.1    -0.1     0.1     0.1    -0.0    -0.0    -0.0     0.0    -0.0    -0.1
     0.0     0.1    -0.1    -0.1     0.1     0.1     0.0    -0.1    -0.1    -0.0
     0.0    -0.1     0.0     0.1    -0.1    -0.0    -0.0    -0.0    -0.0    -0.1
     0.0    -0.0    -0.1    -0.0     0.2     0.2     0.1    -0.0    -0.1     0.0
    -0.0    -0.0    -0.0    -0.0    -0.0    -0.0    -0.0    -0.1    -0.1     0.0
     0.0     0.1     0.0     0.0     0.1    -0.1    -0.1    -0.0    -0.0    -0.1
    -0.1    -0.2     0.0     0.0    -0.1     0.1    -0.0    -0.1     0.0     0.1
     0.0    -0.0    -0.0    -0.0     0.1    -0.0    -0.1    -0.1    -0.1     0.0
    -0.1    -0.0     0.1    -0.0     0.0     0.0     0.1     0.0    -0.1     0.1
     0.1     0.0    -0.0    -0.1     0.0     0.0    -0.1    -0.1    -0.0     0.0
     0.1     0.0     0.1     0.0    -0.1     0.0     0.1     0.0    -0.1    -0.1
    -0.0    -0.0    -0.1    -0.1    -0.0     0.0     0.0    -0.0    -0.1    -0.0
     0.0     0.0     0.0     0.0    -0.0     0.0     0.0    -0.0    -0.0    -0.0
    -0.0     0.0    -0.2    -0.2     0.1     0.1     0.0    -0.0    -0.0     0.0
    -0.0     0.0     0.1     0.0    -0.1     0.0     0.0     0.1     0.1    -0.0
     0.1     0.1     0.0     0.0     0.0    -0.0    -0.1    -0.0     0.1     0.1
    -0.1    -0.1    -0.0    -0.0     0.0    -0.0     0.0    -0.0    -0.0     0.0
    -0.0     0.0    -0.0     0.0     0.1     0.0    -0.1    -0.0     0.0     0.0
    -0.0    -0.1    -0.0    -0.0    -0.1    -0.1     0.0    -0.1    -0.1     0.1
     0.2     0.0    -0.1    -0.0     0.2     0.1    -0.1    -0.0     0.1     0.1
    -0.0     0.0     0.0     0.0    -0.1    -0.0     0.0     0.0    -0.1    -0.1
    -0.0    -0.0     0.0     0.0     0.1     0.1    -0.1    -0.1    -0.1    -0.1
    -0.0    -0.1    -0.0    -0.0     0.0     0.0     0.0     0.0     0.1     0.1
    -0.0    -0.0    -0.0    -0.0     0.0    -0.0    -0.0    -0.0    -0.0    -0.1
    -0.0     0.0     0.0    -0.0    -0.1    -0.0     0.1     0.0    -0.1    -0.1
     0.0    -0.0    -0.1    -0.1     0.0    -0.0    -0.0     0.0     0.0    -0.0
    -0.1    -0.0    -0.0     0.0     0.0    -0.0     0.1     0.1     0.0     0.0
     0.0    -0.0    -0.1    -0.0     0.0     0.1    -0.0     0.0     0.0     0.1
     0.0    -0.0     0.0    -0.1    -0.1    -0.0    -0.0     0.0    -0.1    -0.1
    -0.0     0.0    -0.0    -0.0     0.0     0.0    -0.0    -0.0     0.0     0.1
    -0.0    -0.0     0.0    -0.0    -0.0    -0.0     0.1    -0.0     0.0    -0.0
     0.0     0.1     0.1     0.1     0.0     0.0     0.1     0.0     0.1     0.1
     0.0     0.0     0.1     0.1     0.0     0.0    -0.0    -0.0    -0.1    -0.1
     0.0     0.0    -0.0     0.0     0.1    -0.0    -0.0    -0.0     0.0     0.1
    -0.0     0.0     0.0    -0.1    -0.1    -0.0     0.0    -0.0     0.0     0.1
     0.0     0.0    -0.1    -0.0     0.0    -0.0     0.0    -0.0    -0.0    -0.1
    -0.1    -0.0    -0.1    -0.0     0.0     0.0     0.0    -0.0    -0.0    -0.0
    -0.0     0.0     0.0     0.1     0.1    -0.0    -0.0     0.1     0.1     0.0
    -0.1    -0.1     0.0    -0.0    -0.2    -0.1    -0.0    -0.1    -0.0    -0.0
    -0.1     0.0    -0.1    -0.1     0.0    -0.0     0.0     0.0     0.1     0.1
    -0.0    -0.1    -0.1    -0.1    -0.0    -0.0     0.0    -0.0     0.0     0.1
     0.0     0.0    -0.0     0.0     0.1     0.1     0.1    -0.0    -0.0    -0.0
    -0.0    -0.0     0.1    -0.0    -0.1    -0.0    -0.1     0.1     0.0     0.1
     0.2    -0.0     0.0    -0.0    -0.1    -0.0    -0.1    -0.1    -0.0    -0.1
    -0.1    -0.1    -0.1    -0.1     0.0     0.1     0.1     0.1     0.1     0.1
    -0.0    -0.0    -0.1    -0.1    -0.0    -0.0    -0.0    -0.1    -0.0    -0.0
    -0.1     0.0     0.1     0.1     0.0    -0.0    -0.0    -0.0     0.0     0.0
     0.1     0.0     0.0     0.1     0.0    -0.0    -0.0     0.1     0.0    -0.1
    -0.1    -0.0     0.0    -0.1    -0.1    -0.1     0.1     0.1    -0.0     0.0
     0.0     0.1     0.0     0.0     0.1    -0.1    -0.1    -0.0    -0.1    -0.0
    -0.0     0.1     0.2     0.1     0.1     0.1     0.0     0.0     0.0    -0.0
     0.0     0.0     0.0     0.0     0.0     0.0     0.0     0.1    -0.0    -0.0
     0.0     0.0     0.0    -0.0    -0.1    -0.0    -0.1    -0.0    -0.0    -0.0
     0.1     0.0    -0.0    -0.0     0.0     0.0     0.0     0.1     0.0    -0.0
    -0.1    -0.0     0.1     0.0     0.0     0.0     0.1     0.0    -0.1    -0.0
     0.0     0.0    -0.1    -0.0     0.0    -0.1    -0.1    -0.0    -0.1    -0.1
    -0.0     0.0     0.1    -0.0    -0.0    -0.0    -0.0    -0.0    -0.1     0.0
    -0.0    -0.1    -0.0     0.0    -0.0    -0.0    -0.0    -0.0     0.0    -0.1
    -0.1    -0.1    -0.1    -0.0    -0.0     0.0     0.0    -0.0    -0.1    -0.0
    -0.1     0.0     0.0    -0.0     0.1     0.1     0.0     0.0     0.0    -0.0
     0.0     0.0    -0.0    -0.0    -0.0    -0.1    -0.0    -0.0     0.1     0.1
     0.1     0.1     0.0    -0.0    -0.0     0.0     0.0     0.1     0.1     0.0
    -0.0    -0.1    -0.0    -0.0    -0.1    -0.0    -0.1    -0.0     0.0     0.1
     0.1    -0.0    -0.0     0.0     0.1     0.1     0.0     0.0    -0.0    -0.1
    -0.1    -0.0    -0.0    -0.0     0.1    -0.1    -0.1     0.1    -0.1    -0.1
     0.2     0.1     0.0     0.0    -0.0     0.0     0.0    -0.0    -0.0    -0.1
    -0.1     0.0    -0.0    -0.0    -0.0     0.0     0.1     0.1     0.1     0.0
     0.1     0.1     0.0     0.0     0.1     0.0    -0.1    -0.0    -0.0    -0.1
    -0.2    -0.1    -0.0    -0.0     0.0     0.1     0.1     0.1     0.1     0.1
     0.1     0.1    -0.0    -0.1    -0.0    -0.0    -0.0    -0.1    -0.0    -0.0
     0.0     0.0    -0.1    -0.1     0.0     0.1     0.1    -0.0    -0.0     0.0
    -0.1    -0.1    -0.0     0.0     0.0     0.0    -0.1    -0.0    -0.0    -0.1
    -0.0    -0.0    -0.0     0.0     0.1     0.0     0.0    -0.0    -0.0     0.1
     0.0    -0.0    -0.0    -0.0     0.1    -0.0    -0.0     0.0     0.0     0.0
     0.0     0.1     0.0    -0.1    -0.0    -0.0    -0.0    -0.0    -0.0    -0.0
    -0.1    -0.1    -0.1     0.0     0.1    -0.2     0.1     0.1    -0.1     0.0
     0.0    -0.0     0.0    -0.0    -0.1    -0.0    -0.0    -0.1    -0.1    -0.1
    -0.0    -0.0     0.0     0.0    -0.0    -0.0    -0.0     0.1     0.0     0.0
     0.1     0.1     0.1     0.0    -0.0     0.0     0.1    -0.0    -0.0     0.0
     0.0    -0.0    -0.0     0.1     0.0    -0.0    -0.0    -0.0     0.0    -0.1
    -0.0     0.0    -0.1    -0.1    -0.0     0.0     0.1    -0.1    -0.0     0.0
     0.1     0.0    -0.0     0.1     0.1    -0.0    -0.1     0.0     0.1    -0.0
    -0.0    -0.0    -0.0     0.0    -0.0    -0.0    -0.0    -0.1     0.0     0.0
     0.0    -0.0     0.0     0.0    -0.0    -0.0    -0.0    -0.0     0.0     0.0
    -0.1    -0.0    -0.0    -0.0     0.0     0.1     0.1    -0.1    -0.0    -0.1
    -0.0     0.0     0.0     0.1     0.0    -0.1    -0.1    -0.0    -0.0    -0.1
     0.0    -0.0     0.0     0.0    -0.1     0.0     0.0    -0.0     0.0     0.0
     0.0    -0.0    -0.0    -0.0    -0.1    -0.1    -0.1    -0.1     0.0     0.0
    -0.0     0.0     0.0     0.1     0.0    -0.0     0.1     0.0    -0.0     0.0
    -0.0    -0.0    -0.1    -0.1    -0.0    -0.0    -0.0     0.0     0.1    -0.0
     0.0     0.1     0.1     0.0    -0.0     0.0     0.0    -0.0     0.1    -0.0
     0.0    -0.0    -0.2    -0.0    -0.0    -0.1    -0.0    -0.0     0.1     0.0
     0.0     0.1     0.1    -0.0    -0.1     0.0     0.0    -0.0    -0.1    -0.1
    -0.0    -0.0     0.0     0.0     0.0     0.0     0.1     0.1     0.0    -0.0
     0.0     0.1     0.1     0.0     0.0     0.1     0.0    -0.1    -0.0    -0.1
    -0.1    -0.1    -0.0     0.0    -0.1    -0.1    -0.0    -0.0     0.1     0.1
