Uncorrected accelerogram 20160214_001343_QRZ_20 GNS Science
Site QRZ       40 49 32S  172 31 45E     Basalt file:  20160214_001438_QRZ
Quartz Range
Instrument Basalt_2140
Resolution: 24-bit   Instr Period: 0.0050 s   Damping: 0.700
Accelerogram 20160214_001343_QRZ_20                  Processed 2016 February 22
11 km east of CHRISTCHURCH
2016 February 14         00:13:43 UT
Epicentre  43 29 50S 172 45 18E  Bearing S04E  Dist  297km  Depth    8km M  5.70
Number of points  28000    Duration 140.00 s
Raw readings in units of 1.00 mm/s/s  at intervals of 0.005 s
Data is unfiltered
Component S90E
Acceleration:  Peak      3.9 mm/s/s at  81.60 s     RMS     0.46 mm/s/s
Velocity record unevaluated
Displacement record unevaluated
    2016       2      14       0      13     430       0       0    2016       2
      43      29      50     172      45      18       8       0      14       0
      40      49      32     172      31      45      90      90     176     297
   28000       0       0   28000       0       0       0       0      13   58000
   200.0    0.70    0.00   0.000  0.0000   0.000   0.000   1.000     0.0    0.00
  40.826 172.529  43.497 172.755    5.70    0.00    0.00    0.00      0.      0.
  140.00    0.00    0.00  140.00  0.0050  0.0050      0.      0.      0.  9806.6
     3.9   81.60     0.5      0.      0.     0.0    0.00     0.0     0.0   0.000
    0.00    0.00    0.00    0.00   0.000    0.00    0.00    0.00    0.00   0.000
   0.000   0.000   0.000      0.      0.   0.000   0.000   0.000      0.      0.
    -0.0    -0.0    -0.1    -0.0     0.0    -0.0    -0.0    -0.0    -0.1    -0.1
    -0.1    -0.1    -0.1    -0.0    -0.0    -0.0    -0.0    -0.0    -0.1    -0.0
    -0.1    -0.1    -0.1     0.0    -0.0    -0.0    -0.0    -0.0     0.0    -0.1
    -0.1    -0.1    -0.1    -0.1    -0.0    -0.1    -0.0    -0.0    -0.1    -0.0
    -0.1    -0.1     0.0    -0.1    -0.1    -0.0     0.0    -0.0    -0.1    -0.1
    -0.0     0.0    -0.1    -0.0     0.0    -0.1    -0.1     0.0     0.0    -0.1
    -0.1    -0.0    -0.0    -0.1    -0.0    -0.0    -0.1    -0.0     0.0     0.1
    -0.1    -0.2    -0.0    -0.0    -0.1    -0.1    -0.1    -0.0    -0.0    -0.0
     0.0     0.0    -0.0    -0.1    -0.1    -0.0    -0.1    -0.1    -0.0    -0.0
    -0.0     0.0    -0.1    -0.1    -0.0    -0.1    -0.1    -0.1    -0.1    -0.1
    -0.1     0.1    -0.1    -0.0     0.0    -0.0     0.0    -0.1    -0.1    -0.0
    -0.1    -0.1    -0.1    -0.1     0.0    -0.0     0.0    -0.0    -0.0     0.0
    -0.0    -0.1    -0.1    -0.1    -0.1     0.0    -0.0    -0.0    -0.0     0.0
     0.0    -0.0    -0.1    -0.1    -0.1    -0.1    -0.1    -0.0     0.0     0.0
    -0.0    -0.0     0.0    -0.0    -0.1    -0.1    -0.0     0.0    -0.1    -0.0
    -0.1    -0.1    -0.0    -0.0    -0.0    -0.1    -0.1     0.1    -0.0    -0.1
    -0.0    -0.0    -0.0    -0.1    -0.0     0.0    -0.1    -0.0    -0.0    -0.0
    -0.0    -0.1    -0.0    -0.1    -0.1    -0.1    -0.1    -0.1    -0.1    -0.1
     0.0     0.0     0.0    -0.0    -0.0    -0.0    -0.1    -0.1    -0.1    -0.1
     0.0    -0.0    -0.0     0.0     0.0     0.0    -0.1    -0.1    -0.1    -0.1
    -0.1    -0.1    -0.0    -0.0     0.1     0.1    -0.0    -0.1    -0.1    -0.0
    -0.1    -0.2    -0.0    -0.1     0.0    -0.0     0.0     0.0    -0.1    -0.0
    -0.1    -0.0    -0.1    -0.1     0.0    -0.0     0.0    -0.0    -0.1    -0.0
    -0.1    -0.1    -0.1    -0.1    -0.0    -0.0    -0.1    -0.0    -0.0    -0.1
    -0.0     0.0    -0.1    -0.1    -0.0    -0.0     0.0    -0.1    -0.1     0.0
    -0.1    -0.1     0.0    -0.0     0.0    -0.1    -0.0     0.0    -0.1    -0.1
    -0.1    -0.1    -0.0    -0.1    -0.0    -0.0     0.0     0.0    -0.1    -0.0
    -0.1    -0.1    -0.1    -0.1    -0.1    -0.0     0.0     0.0     0.0    -0.0
    -0.1     0.0    -0.0    -0.1    -0.1    -0.1    -0.1    -0.1    -0.1    -0.1
    -0.0     0.0    -0.0    -0.1    -0.0    -0.0    -0.1    -0.0    -0.0    -0.1
    -0.1     0.0    -0.1    -0.1    -0.0    -0.0     0.0    -0.0    -0.0    -0.1
    -0.1    -0.1    -0.1    -0.1    -0.1    -0.1    -0.0     0.0     0.1    -0.0
    -0.0    -0.1    -0.1    -0.1    -0.1    -0.0    -0.1    -0.0     0.0     0.0
     0.0    -0.0    -0.1    -0.0    -0.1    -0.1    -0.0    -0.0    -0.1    -0.0
    -0.0     0.0    -0.0    -0.1    -0.0    -0.1    -0.1    -0.0    -0.0    -0.0
    -0.1    -0.1    -0.0    -0.1    -0.0    -0.1    -0.1     0.0    -0.0    -0.0
    -0.0    -0.0    -0.0    -0.1    -0.0    -0.1    -0.1    -0.1    -0.1    -0.0
    -0.0     0.0     0.0    -0.1    -0.1    -0.1    -0.1    -0.1    -0.1    -0.0
    -0.0    -0.0     0.0    -0.1    -0.1    -0.1    -0.0    -0.1    -0.0    -0.0
    -0.1    -0.0    -0.1    -0.0    -0.0    -0.1    -0.1    -0.0     0.0    -0.1
    -0.0     0.0    -0.1    -0.0    -0.1    -0.1    -0.1    -0.1    -0.1     0.0
     0.0    -0.0     0.0     0.0     0.0    -0.1    -0.1    -0.0    -0.1    -0.1
    -0.1    -0.0     0.0     0.0     0.0    -0.0    -0.1    -0.1    -0.0    -0.1
    -0.1    -0.0    -0.0    -0.0    -0.0    -0.0    -0.0    -0.0     0.0    -0.0
    -0.1    -0.0    -0.0    -0.0    -0.1    -0.1    -0.0    -0.1    -0.1    -0.1
    -0.0    -0.0    -0.0     0.1     0.0    -0.1    -0.1    -0.1    -0.1    -0.0
    -0.1    -0.0     0.0     0.0    -0.0    -0.0    -0.1    -0.1    -0.1    -0.0
    -0.1    -0.1     0.0     0.0    -0.0     0.0    -0.0    -0.0    -0.1    -0.2
    -0.1    -0.0    -0.0     0.0     0.0    -0.0    -0.1    -0.0    -0.1    -0.1
    -0.1    -0.1    -0.0    -0.0     0.0     0.0    -0.0    -0.0    -0.0    -0.0
    -0.2    -0.1    -0.1    -0.1    -0.0    -0.0    -0.0     0.0    -0.0     0.0
    -0.1    -0.1    -0.1    -0.0    -0.0    -0.0    -0.0    -0.0    -0.0    -0.1
    -0.0     0.0    -0.1    -0.0    -0.0    -0.0    -0.0    -0.1    -0.0     0.0
    -0.1    -0.0    -0.1    -0.1     0.0    -0.0    -0.1     0.0     0.0    -0.1
    -0.1    -0.1    -0.1    -0.1    -0.1     0.0    -0.0    -0.0    -0.0    -0.1
     0.0    -0.0    -0.1    -0.0    -0.0    -0.1    -0.1    -0.0    -0.0    -0.0
     0.1    -0.1    -0.1    -0.1    -0.1    -0.0    -0.1    -0.0    -0.0    -0.0
     0.1     0.0    -0.0    -0.0    -0.0    -0.1    -0.1    -0.0    -0.1    -0.0
    -0.0    -0.0    -0.0    -0.1    -0.0    -0.0    -0.1    -0.0    -0.1    -0.0
    -0.0    -0.1     0.0     0.0    -0.0     0.0    -0.1    -0.1    -0.0    -0.0
    -0.1     0.0    -0.1    -0.1    -0.0    -0.0    -0.0    -0.1    -0.0    -0.1
    -0.0     0.0    -0.0    -0.0    -0.1    -0.0    -0.1    -0.0    -0.0    -0.1
    -0.0    -0.0    -0.0     0.0    -0.0    -0.0    -0.0    -0.1    -0.1    -0.1
    -0.0    -0.0    -0.1     0.1     0.0    -0.1    -0.0    -0.1    -0.1    -0.1
    -0.1    -0.0    -0.0    -0.1    -0.0    -0.0     0.0    -0.0    -0.1    -0.0
    -0.0    -0.1    -0.0    -0.1    -0.1     0.0     0.0     0.0    -0.0    -0.1
    -0.1    -0.0    -0.0    -0.0    -0.0    -0.0    -0.1     0.0    -0.0    -0.1
    -0.0    -0.1    -0.0    -0.0    -0.0    -0.1    -0.0     0.0    -0.0    -0.0
    -0.1    -0.1    -0.0    -0.0    -0.1     0.1     0.0     0.0    -0.0    -0.1
    -0.0    -0.1    -0.1    -0.0    -0.1    -0.0    -0.0     0.0    -0.1    -0.1
    -0.1    -0.1    -0.0    -0.1    -0.1    -0.1    -0.0     0.0     0.0    -0.0
    -0.0    -0.1    -0.1    -0.0    -0.1     0.0    -0.0     0.0     0.0    -0.1
    -0.0    -0.1    -0.0    -0.1    -0.1    -0.0    -0.0     0.0    -0.1     0.0
     0.0    -0.0    -0.1    -0.2    -0.1    -0.1    -0.1    -0.0     0.0     0.1
    -0.0     0.0    -0.0    -0.0    -0.1    -0.2    -0.0    -0.0    -0.1    -0.1
    -0.0     0.0     0.0    -0.1    -0.1    -0.1    -0.1     0.0    -0.0    -0.1
    -0.0    -0.0     0.0    -0.0    -0.1    -0.1    -0.0    -0.0    -0.1     0.0
    -0.0    -0.0     0.0    -0.1    -0.1    -0.1    -0.1    -0.1    -0.0    -0.0
    -0.1     0.0     0.0    -0.1    -0.1    -0.1    -0.1    -0.1    -0.0     0.0
    -0.0    -0.0     0.1    -0.0    -0.1    -0.1    -0.1    -0.1    -0.0    -0.1
    -0.0    -0.0     0.0     0.0    -0.1    -0.1    -0.1    -0.1    -0.0    -0.1
    -0.0     0.0    -0.0     0.0     0.0    -0.1    -0.1    -0.1    -0.1    -0.0
    -0.1    -0.1    -0.0     0.0     0.0     0.0    -0.0    -0.1    -0.1    -0.1
    -0.1    -0.0    -0.1    -0.0     0.0    -0.1    -0.0    -0.0    -0.0    -0.0
    -0.0     0.0    -0.0    -0.0    -0.1    -0.0    -0.0    -0.1    -0.1    -0.0
     0.1    -0.1    -0.0     0.0    -0.0    -0.0    -0.1    -0.1    -0.1    -0.1
    -0.1    -0.0     0.0     0.0     0.0    -0.0    -0.1    -0.1    -0.1    -0.1
    -0.1    -0.1    -0.0     0.0     0.1    -0.0    -0.0     0.0    -0.1    -0.0
    -0.1    -0.1     0.0     0.0    -0.0     0.0    -0.0    -0.1    -0.1    -0.1
    -0.1    -0.1    -0.1    -0.1    -0.0     0.0    -0.0    -0.0    -0.0    -0.1
    -0.1    -0.1    -0.1    -0.1     0.0    -0.0     0.0     0.0    -0.1    -0.0
    -0.0    -0.1    -0.1    -0.1    -0.0    -0.0    -0.0    -0.0    -0.0    -0.0
    -0.1    -0.1    -0.0    -0.0    -0.1     0.0    -0.0    -0.1    -0.0    -0.0
    -0.0    -0.1    -0.1    -0.0     0.0     0.0    -0.1    -0.1     0.0    -0.1
    -0.1    -0.1    -0.1    -0.0    -0.0    -0.1     0.1    -0.0    -0.1     0.0
    -0.0    -0.1    -0.1    -0.1    -0.1    -0.0     0.0    -0.0     0.0     0.0
    -0.1    -0.0    -0.1    -0.1     0.0    -0.0    -0.0    -0.0    -0.1    -0.0
     0.0    -0.0    -0.1    -0.0    -0.0    -0.0    -0.1    -0.1     0.0     0.0
    -0.0    -0.0    -0.0    -0.1    -0.1     0.0    -0.1    -0.0     0.0    -0.0
    -0.0    -0.1    -0.1    -0.0    -0.1    -0.0    -0.1    -0.1     0.0    -0.1
     0.0    -0.0    -0.1     0.0    -0.1    -0.1    -0.0    -0.0    -0.0    -0.1
     0.0     0.0    -0.1    -0.0    -0.0    -0.0     0.0    -0.1    -0.0     0.0
    -0.1    -0.0    -0.1    -0.1    -0.1    -0.1    -0.0    -0.1    -0.0    -0.0
    -0.0     0.0    -0.1    -0.1    -0.1    -0.1    -0.1    -0.0     0.0    -0.0
    -0.0    -0.0     0.1    -0.1    -0.1     0.0    -0.1     0.0    -0.1    -0.1
     0.0    -0.0    -0.0    -0.0    -0.1    -0.0    -0.1    -0.1    -0.1    -0.1
    -0.0    -0.0    -0.0    -0.1    -0.0    -0.1    -0.1     0.0    -0.1    -0.1
     0.0    -0.0    -0.1    -0.0     0.0    -0.0    -0.1    -0.1    -0.1    -0.0
    -0.1    -0.0     0.0    -0.1    -0.0    -0.0    -0.1    -0.1    -0.0    -0.0
    -0.1    -0.0    -0.1     0.0    -0.1    -0.0     0.0    -0.1     0.0    -0.0
    -0.0    -0.0    -0.1     0.0    -0.1    -0.1    -0.0    -0.0    -0.1    -0.1
    -0.0    -0.0    -0.0    -0.1    -0.0    -0.1    -0.1    -0.0    -0.1    -0.0
    -0.1    -0.1     0.0    -0.0    -0.1     0.0    -0.0    -0.0    -0.0    -0.1
    -0.0    -0.0    -0.1     0.0    -0.0    -0.0    -0.0    -0.0    -0.1    -0.1
    -0.0    -0.1    -0.0     0.0    -0.1    -0.1    -0.0    -0.0    -0.0    -0.1
    -0.0     0.0    -0.0    -0.1     0.0    -0.1    -0.1     0.0    -0.1    -0.0
    -0.0    -0.1     0.1    -0.1    -0.1     0.0    -0.1    -0.0    -0.1    -0.1
    -0.0    -0.0    -0.1    -0.1     0.0     0.0    -0.1    -0.1    -0.0    -0.1
    -0.1    -0.0    -0.0    -0.0    -0.0    -0.0    -0.1    -0.0    -0.0     0.0
    -0.0    -0.1    -0.0    -0.0    -0.1    -0.0    -0.1    -0.0    -0.1    -0.1
    -0.1    -0.1     0.0    -0.0    -0.1    -0.0    -0.0    -0.0    -0.0    -0.0
    -0.1    -0.1    -0.0    -0.1    -0.0    -0.1    -0.0     0.0    -0.0    -0.0
    -0.0    -0.0    -0.0    -0.0    -0.0    -0.0    -0.0    -0.1    -0.0    -0.0
    -0.1    -0.0    -0.0    -0.1    -0.0     0.0    -0.1    -0.1    -0.0    -0.0
    -0.1    -0.1    -0.0    -0.0    -0.0    -0.0    -0.0    -0.1    -0.1    -0.0
    -0.0    -0.1    -0.1    -0.0    -0.0    -0.1    -0.0    -0.1     0.0    -0.0
    -0.1    -0.0    -0.1    -0.0    -0.0    -0.1    -0.0    -0.0    -0.0    -0.0
    -0.1    -0.0    -0.0    -0.0     0.0    -0.1    -0.1     0.0    -0.1    -0.1
    -0.1    -0.1    -0.0    -0.0    -0.0    -0.0    -0.0    -0.0    -0.1    -0.0
     0.0    -0.1    -0.1    -0.1    -0.0     0.0    -0.1    -0.0    -0.0    -0.0
    -0.0    -0.1    -0.0    -0.1    -0.1    -0.0    -0.1    -0.0    -0.0    -0.1
    -0.0    -0.0    -0.1    -0.0     0.0    -0.1    -0.1    -0.0    -0.0    -0.0
    -0.0    -0.0    -0.0     0.0    -0.0    -0.1    -0.0     0.0    -0.0    -0.1
    -0.0     0.0    -0.1    -0.1    -0.1    -0.0    -0.0    -0.1    -0.0    -0.1
    -0.0    -0.0    -0.1    -0.0    -0.1     0.0    -0.0    -0.1    -0.1    -0.0
     0.0    -0.0    -0.0    -0.0    -0.0    -0.0    -0.1    -0.1    -0.1    -0.0
     0.0    -0.1    -0.1    -0.0    -0.0     0.0    -0.1    -0.1    -0.0    -0.1
    -0.0    -0.0    -0.1    -0.0    -0.0    -0.0    -0.1    -0.1     0.0    -0.0
    -0.1    -0.0    -0.0    -0.0    -0.1    -0.0    -0.1    -0.0    -0.0    -0.1
     0.0    -0.0    -0.0    -0.1    -0.1     0.0    -0.1    -0.1     0.0    -0.1
    -0.1     0.0    -0.0    -0.1     0.0    -0.0    -0.1    -0.0    -0.1    -0.1
    -0.0    -0.0     0.0    -0.1    -0.0    -0.0    -0.1    -0.0    -0.1    -0.0
    -0.0    -0.1    -0.0    -0.1    -0.0    -0.1     0.0    -0.0    -0.1    -0.0
    -0.0    -0.0    -0.0    -0.1     0.0    -0.0    -0.1    -0.0    -0.1    -0.0
     0.0    -0.0    -0.0    -0.1    -0.0    -0.0    -0.1    -0.0    -0.0    -0.0
    -0.1    -0.1    -0.0    -0.1     0.0    -0.0    -0.0    -0.0    -0.1    -0.0
    -0.0    -0.1     0.0    -0.0    -0.1    -0.0    -0.0    -0.1    -0.1    -0.0
    -0.0    -0.0    -0.0    -0.1    -0.0    -0.1    -0.0    -0.0    -0.0    -0.0
    -0.1    -0.1     0.0    -0.0    -0.1     0.0    -0.0    -0.0    -0.0    -0.0
    -0.0    -0.1    -0.0    -0.1    -0.0     0.0    -0.1    -0.0    -0.0    -0.0
    -0.1    -0.0    -0.0    -0.1    -0.0    -0.1    -0.1     0.0    -0.0    -0.0
    -0.1     0.0    -0.0    -0.1    -0.0    -0.0    -0.1    -0.0    -0.0    -0.0
    -0.1    -0.0     0.0    -0.1    -0.0    -0.0    -0.1    -0.0    -0.0    -0.0
    -0.1    -0.1    -0.0    -0.1    -0.0    -0.0    -0.1    -0.0    -0.0    -0.1
    -0.0    -0.1    -0.1     0.0    -0.1    -0.0     0.0    -0.1     0.0    -0.0
    -0.0     0.0    -0.0    -0.1    -0.0    -0.1    -0.1    -0.1    -0.0     0.0
    -0.1    -0.0    -0.0    -0.1    -0.1    -0.1     0.0    -0.0    -0.0    -0.0
    -0.1     0.0    -0.1    -0.0    -0.0    -0.1    -0.0    -0.1    -0.0    -0.0
    -0.1     0.0    -0.1    -0.0    -0.1    -0.1    -0.0    -0.1    -0.0    -0.1
    -0.0    -0.0    -0.1     0.0    -0.0    -0.0    -0.0    -0.0    -0.0    -0.0
    -0.1    -0.1    -0.0     0.1    -0.1    -0.1     0.0    -0.1    -0.1    -0.0
    -0.0    -0.0    -0.0    -0.0    -0.1    -0.1    -0.0    -0.1    -0.0     0.0
    -0.1    -0.0    -0.0    -0.1     0.0    -0.0    -0.0    -0.0    -0.1    -0.0
    -0.0    -0.0    -0.1     0.0     0.0    -0.0    -0.0    -0.1    -0.1    -0.0
    -0.0    -0.1    -0.1    -0.1    -0.1     0.1    -0.1    -0.1     0.0    -0.1
    -0.0    -0.0    -0.1     0.0     0.0    -0.0    -0.0    -0.0    -0.0    -0.0
    -0.0    -0.1    -0.1     0.0    -0.0    -0.0    -0.0    -0.0    -0.1    -0.0
    -0.0    -0.1    -0.0    -0.0    -0.0    -0.0    -0.1    -0.1    -0.0    -0.1
    -0.0    -0.1    -0.1     0.0    -0.0    -0.0    -0.0    -0.0    -0.0    -0.0
    -0.0    -0.0    -0.1    -0.0     0.0    -0.0    -0.0    -0.1     0.0    -0.0
    -0.1    -0.1    -0.0    -0.0    -0.1    -0.1    -0.0    -0.0    -0.0    -0.0
    -0.0     0.0    -0.1    -0.1    -0.0    -0.1    -0.0    -0.0    -0.0    -0.0
    -0.1    -0.0    -0.0    -0.0    -0.1    -0.0    -0.0    -0.1    -0.0    -0.1
    -0.1    -0.0    -0.1    -0.1    -0.0    -0.0     0.0    -0.1    -0.0     0.0
    -0.1    -0.0     0.0    -0.1    -0.0    -0.0    -0.1    -0.0    -0.1     0.0
    -0.0    -0.1    -0.0    -0.1    -0.0    -0.1    -0.1    -0.0    -0.1    -0.0
    -0.0    -0.1    -0.0    -0.1    -0.1    -0.0    -0.0    -0.0    -0.1    -0.0
    -0.0    -0.0    -0.0    -0.1    -0.0     0.0    -0.0    -0.1     0.0     0.0
    -0.1    -0.0    -0.1    -0.0     0.0    -0.1    -0.1    -0.0    -0.1    -0.0
    -0.0    -0.1    -0.0     0.0    -0.0    -0.1     0.0    -0.0    -0.1    -0.0
    -0.1    -0.0    -0.0    -0.0    -0.1    -0.1     0.0     0.0    -0.1    -0.1
    -0.0    -0.0    -0.1    -0.0    -0.1    -0.1     0.0    -0.1    -0.0    -0.0
    -0.0    -0.0    -0.1    -0.1    -0.1    -0.0    -0.0    -0.0    -0.0    -0.0
     0.0    -0.0    -0.0    -0.1    -0.0     0.0    -0.1    -0.0    -0.0    -0.1
     0.0    -0.1    -0.0    -0.0    -0.1    -0.0    -0.1    -0.0    -0.0    -0.1
     0.0    -0.0    -0.1    -0.0    -0.0    -0.0    -0.0    -0.1    -0.0    -0.0
    -0.0    -0.0    -0.0    -0.0    -0.0    -0.1    -0.1     0.0    -0.1    -0.1
    -0.0    -0.1    -0.0    -0.1     0.0    -0.1    -0.1    -0.0    -0.1    -0.0
    -0.0    -0.1    -0.0    -0.0    -0.0    -0.1    -0.0    -0.0    -0.0    -0.0
    -0.0    -0.0     0.0    -0.0    -0.0    -0.0    -0.1    -0.1    -0.0    -0.1
    -0.1    -0.0    -0.0     0.0    -0.1    -0.1    -0.1    -0.0    -0.0    -0.0
    -0.0    -0.0    -0.0    -0.0    -0.0    -0.0    -0.0    -0.1    -0.0    -0.1
    -0.1    -0.0    -0.0    -0.0    -0.0    -0.1    -0.0    -0.1    -0.1    -0.1
    -0.0     0.0    -0.0    -0.0    -0.0    -0.1    -0.0    -0.1    -0.0    -0.0
    -0.0    -0.0    -0.0     0.0    -0.1    -0.0    -0.0    -0.1     0.0    -0.1
    -0.0     0.0    -0.1     0.0    -0.1    -0.0    -0.0    -0.1    -0.1    -0.1
    -0.0    -0.1    -0.1     0.0    -0.1    -0.0     0.0    -0.0    -0.0    -0.1
    -0.1    -0.0     0.0    -0.0    -0.0    -0.0    -0.1    -0.0    -0.1    -0.1
    -0.1    -0.1     0.0    -0.0    -0.1    -0.0    -0.0    -0.1    -0.0    -0.1
    -0.1    -0.0    -0.1    -0.0    -0.1     0.0     0.0    -0.1     0.0    -0.1
    -0.1    -0.0    -0.1    -0.0    -0.1    -0.1     0.0    -0.0    -0.0    -0.0
    -0.0    -0.1    -0.1     0.0    -0.1    -0.1    -0.0    -0.1    -0.0     0.0
    -0.0    -0.1    -0.0    -0.0    -0.1    -0.0    -0.1     0.0    -0.0    -0.1
     0.0    -0.1    -0.0    -0.0    -0.0    -0.0    -0.1    -0.0    -0.1    -0.0
    -0.1    -0.1     0.0    -0.0    -0.1    -0.1    -0.0    -0.0    -0.1    -0.0
     0.0    -0.0    -0.0    -0.0    -0.0    -0.0    -0.0    -0.1    -0.0    -0.0
    -0.0     0.0    -0.1    -0.1    -0.0    -0.0    -0.0    -0.0    -0.1    -0.1
    -0.0    -0.0    -0.0    -0.0    -0.1    -0.0    -0.1    -0.1    -0.0    -0.0
    -0.0    -0.1    -0.0    -0.0    -0.1    -0.0    -0.1    -0.1    -0.1    -0.0
     0.0    -0.0    -0.1    -0.0    -0.0    -0.0    -0.0    -0.1    -0.1    -0.0
    -0.0    -0.0    -0.0     0.0    -0.0    -0.0    -0.0     0.0    -0.0    -0.1
    -0.0    -0.0    -0.0     0.0    -0.0    -0.1    -0.0    -0.0    -0.0    -0.1
    -0.1    -0.1    -0.1    -0.0    -0.0    -0.1    -0.0    -0.0    -0.0    -0.1
    -0.0    -0.0    -0.1    -0.0    -0.0     0.0     0.0    -0.0    -0.0    -0.1
    -0.1    -0.1    -0.0    -0.1    -0.1    -0.1     0.0     0.1    -0.1    -0.1
    -0.1    -0.0    -0.0    -0.1    -0.1    -0.0    -0.1    -0.0    -0.0    -0.0
    -0.0    -0.0    -0.0    -0.0     0.0    -0.0    -0.1    -0.1    -0.0    -0.1
     0.0     0.0    -0.0    -0.1    -0.1     0.0    -0.1    -0.1    -0.0    -0.1
    -0.0    -0.1    -0.0     0.0    -0.1    -0.0     0.0    -0.0    -0.0    -0.1
    -0.0    -0.0    -0.1    -0.1     0.0    -0.1    -0.1    -0.0     0.0     0.0
    -0.0    -0.0    -0.1    -0.1     0.0    -0.1    -0.1    -0.1    -0.1     0.0
    -0.0    -0.0    -0.0    -0.0    -0.0    -0.1    -0.1    -0.1    -0.0    -0.1
    -0.1     0.0     0.0     0.0    -0.1    -0.1    -0.0    -0.0    -0.0    -0.1
    -0.1    -0.0     0.0    -0.1    -0.1     0.0    -0.1    -0.0    -0.0    -0.1
    -0.0    -0.0     0.0    -0.0    -0.0     0.0    -0.1     0.0    -0.1    -0.1
    -0.0    -0.0     0.0    -0.1    -0.1    -0.0    -0.0    -0.0    -0.1    -0.1
    -0.0    -0.0    -0.0    -0.0    -0.1     0.0    -0.0    -0.0     0.0    -0.1
