Uncorrected accelerogram 20160214_001343_LPCC_20 GNS Science
Site LPCC      43 36 28S  172 43 29E     Cusp file:  20160214_001346_LPCC
Lyttelton Port Company
Instrument Cusp_318
Resolution: 18-bit   Instr Period: 0.0050 s   Damping: 0.700
Accelerogram 20160214_001343_LPCC_20                 Processed 2016 February 22
11 km east of CHRISTCHURCH
2016 February 14         00:13:43 UT
Epicentre  43 29 50S 172 45 18E  Bearing N11E  Dist   13km  Depth    8km M  5.70
Number of points  26614    Duration 133.06 s
Raw readings in units of 1.00 mm/s/s  at intervals of 0.005 s
Data is unfiltered
Component N10W
Acceleration:  Peak   1461.1 mm/s/s at  22.85 s     RMS    60.00 mm/s/s
Velocity record unevaluated
Displacement record unevaluated
    2016       2      14       0      13     430       0       0    2016       2
      43      29      50     172      45      18       8       0      14       0
      43      36      28     172      43      29     350     350      11      13
   26614       0       0   26614       0       0       0       0      13   27852
   200.0    0.70    0.00   0.000  0.0000   0.000   0.000   1.000     0.0    0.00
  43.608 172.725  43.497 172.755    5.70    0.00    0.00    0.00      0.      0.
  133.06    0.00    0.00  133.06  0.0050  0.0050      0.      0.      0.  9806.6
  1461.1   22.85    60.0      0.      0.     0.0    0.00     0.0     0.0   0.000
    0.00    0.00    0.00    0.00   0.000    0.00    0.00    0.00    0.00   0.000
   0.000   0.000   0.000      0.      0.   0.000   0.000   0.000      0.      0.
    -1.1     2.7    -4.0    -1.0     7.6     5.1     8.7    14.1     7.5    -0.7
     0.5    14.2    19.8     5.1    -4.9     7.4     7.5    -8.3    -8.7    -4.6
     1.2     1.2     0.1     5.4     1.0    -2.6    -0.7    -0.1    -3.4     8.8
    18.7     6.8     7.8     3.6    -0.5     3.7   -17.2   -10.8    18.0     1.5
    -7.4     1.3    -7.3     3.3     1.1   -13.3    10.6    11.5   -12.7    -2.8
     6.8     9.3    17.8    11.7     4.7     0.6     5.2     8.3    -0.6     5.3
     3.3    -4.5     5.4     5.6    -4.0    -8.6    -9.8   -10.5    -9.3     0.9
     8.5     1.9    -2.7     0.6    -2.2    -3.7     2.7     6.7    10.3    -0.7
    -6.5     6.5     1.9     3.0    11.0     3.1     2.2     0.5    -2.8     2.2
    -2.6    -4.9     3.5     3.5    -5.0    -3.0     8.3     1.8     0.9     8.0
     1.4     8.0    11.1    -9.0   -13.8     4.6     4.1    -4.7     1.0     4.6
     5.2    -2.9    -8.9    -6.7    -6.4    -1.1     5.9    -4.7   -14.9    -1.4
    -2.3    -2.6     0.7    -4.0    14.3     1.0   -10.4     1.5    -5.8    -0.6
   -10.6     2.0    14.7   -10.6    -3.7     0.4    -0.1     5.5     9.2    11.6
    -3.7    -2.6     3.6    -5.4    -0.4     8.8     0.7    -1.8    -7.5   -15.4
    -0.4    -0.4    -6.3     3.2     4.6     7.5     5.2    -4.2     0.3     0.7
   -10.4    -9.4    -2.3    -7.7    -7.1     1.1     7.3    12.6    -6.0    -8.2
    14.0     4.5    -4.6     2.6    -1.8    -3.5     1.7    -1.3    -1.8     0.9
    -1.9    -6.7    -1.7     3.7    -1.0     9.6    10.9     2.8     2.5    -2.4
     5.8     5.5    -8.8    -7.9    -3.5   -17.5   -10.8    -3.5   -25.8     3.4
    19.9    -5.8     2.2     3.7     1.6     5.9     7.7     4.6    -0.5     7.7
    -1.1     2.2    12.9     0.4    -1.1    -5.6    -1.3    -1.1    -8.6     1.7
    -3.5    -0.6    -4.3    -5.2    10.0    -8.9    -2.4    12.7    -2.2    -2.3
    -1.1    -1.4    -3.2    -0.2     9.2    -1.1    -3.4     7.0     0.5     0.1
    -1.4   -11.6    -1.3     1.4    -4.2     1.1     8.3     3.8   -15.2   -14.0
    -6.0    10.4    13.6    -2.8    12.2    -1.1   -10.4     9.3     1.4    -3.5
    -0.3     8.1    -1.4    -3.2    18.7     3.3    -8.5    10.3     6.0    -0.9
     7.6    -0.5     3.1     1.3    -9.2    -1.5     2.5    13.4     6.7     2.0
     0.8   -12.2     1.7     5.6     5.3     1.4    -4.7     5.2    -8.2    -6.6
     2.5    -8.2     0.4     7.2     5.6    -7.7   -12.5     7.4     0.9     5.9
    15.7    -1.9    -5.1    -8.8    -1.1     3.3    -7.1    -0.3    -0.1    -6.6
    -9.2   -10.1   -12.3    -8.7    -7.4    -7.6    -2.0   -10.2    -1.2     8.1
    -0.4     3.6    -4.1     0.8    15.0    -1.9    -4.3     4.7    -4.1    -4.0
     4.0     3.4     1.4     3.6     2.3     0.9     7.1     8.1     2.5     1.6
    -6.1    -3.3    11.1     5.9    -0.7    -4.0    -3.0    -5.9   -10.0     9.6
     4.4   -15.6   -12.2   -11.4    -4.1     2.6    -2.2    -7.8   -10.6     1.6
     1.3    -5.3     6.3    -4.6   -10.9     4.4     7.6     4.5    -7.1    -3.2
    -1.4   -13.9    -0.3     0.9    -4.1     4.6    -1.9    -4.2    -6.0    -0.5
     8.9     5.1    10.9     9.9    14.8    16.7    -0.3     5.2    10.7    11.7
     8.0     4.7    10.9    -0.5     6.3     8.7    -0.9     7.0     1.4     3.0
     8.2     1.6     2.8     6.6     8.9     8.7     0.6     1.8     5.2    -4.0
    -3.3    -5.9    -4.2     3.7    12.8    15.9    -8.6     0.0    10.1    -0.3
     7.6    -4.9   -11.3     1.8     9.4     2.0    -8.6     1.2    11.0     5.4
    -7.3    -5.9     0.2    -8.6    -2.7     6.6   -11.4     0.2    10.9    -8.1
     4.9    -0.3    -5.7     2.2    -4.6     3.4    -6.2    -5.2     1.6    -5.7
    -3.0    -4.8    -2.2    -3.4     1.0     2.2    -0.2    10.8    11.9     4.5
   -10.9   -12.5    -0.1     2.8     9.5     7.2   -11.1    -0.4    13.2    -5.6
    -6.5    -5.3    -3.0     1.3    -4.6     3.4    -3.6    -0.2     7.6     2.4
    10.4    12.9     4.9    -6.1     6.4     7.6    -4.0     9.9     3.6     4.4
     7.2   -14.2    -9.0    -4.3    -7.8     0.4     0.3    -0.9     3.3     1.0
    -9.5    -0.4     0.7   -21.7   -15.6     5.4     1.2   -12.0     3.9     4.8
    -7.9     1.0   -12.0    -8.4     1.4    -6.4    11.4    12.2    -5.8    -6.7
     4.4     6.2   -13.1   -11.7     1.6    -5.2     1.3     1.4    -7.6    -0.7
    -5.9    -8.2    -2.0     3.6     1.1    -6.1    -0.3     3.1    10.4     6.3
    -3.6     1.7     4.1     4.1     5.7     4.1    -7.7     1.9     8.3    -6.8
     1.3     1.1     1.9    -0.4   -20.9   -12.2    -2.3    -4.3    -1.9     6.8
     9.1    -3.6     1.5     3.9    11.6    14.3    -8.8    -3.3     9.6     6.2
    -6.9    -2.6     6.7   -12.0    -3.2     6.2    -9.4   -10.3    -4.7    -1.0
     5.6     6.1     0.4    -4.7   -12.6    -5.3    -1.2    -4.0     4.1     0.3
    -4.1     2.3    10.2     6.0     5.8    11.1     0.3    -1.3    -2.5    -4.8
    -0.8    -2.2     1.5    -5.5    -3.3    -2.7   -20.8     1.2     6.9   -11.4
     9.8     7.6     0.5     3.7   -13.6     0.8     4.4    -2.8     9.4    -8.1
   -12.0    -0.7    -2.9     3.0     4.3    -0.8     5.2    13.0     2.3    -7.2
    -2.1     8.0     8.1    -2.2    -7.2    -1.0     3.5    -9.5    -6.6    -0.5
     8.1    23.9    -2.6    -5.0     5.0   -19.4    -9.0    -1.1   -10.5    -0.3
     7.3     3.8     6.0    13.1    -0.7    -1.3     9.1     6.7     8.1    -7.4
    -5.7     5.7    -2.4     7.4     9.9    -0.8     0.8     3.0     6.6    13.3
    11.7     7.7     6.3     5.5    14.8    17.5     2.9    -5.6    -3.5     3.9
     2.2   -10.2     1.1    10.7     4.2     9.1     0.1    -7.8     0.8     0.5
    -8.7    -0.6     6.5   -10.2    -3.3    -5.6    -9.5    15.5    14.0     7.4
    -4.3   -12.5     2.2    13.3     7.8    -5.7     9.5     1.2    -7.6    10.3
    -9.0   -12.0    -0.6     7.1    -8.0   -27.2    10.4     3.9   -14.1     5.4
    -3.0    -2.8     3.5     1.9    -8.5    -6.5    14.1    -1.2    -6.7     7.1
     1.1    -5.8    -5.1     4.1    -4.2    -4.1     7.8    -5.0     0.4     3.6
     2.6     6.6   -10.5    -4.7    -5.1    -5.4    14.2    -4.7    -5.7     6.5
   -11.5   -11.6   -15.0    -7.9    11.1     5.1     3.0    -1.1    -2.1     2.8
     1.3     0.3    -3.3    -4.3    -4.7     6.9    16.4     3.1    -2.1    10.7
    11.4     2.0     7.6     5.3    -2.9    13.8    15.2    -1.2     7.2     2.8
    -6.3     2.2    -9.8    -4.5     5.8    -6.0     0.5    -3.8   -11.2    -2.8
    -4.8    -7.2    -6.5    -1.9     4.8     6.4     0.6     2.9    17.6    12.6
     8.1     8.5    -2.8     2.2     2.2    -0.8     6.9    -0.3     2.2    13.1
     7.6     1.1    -0.7    -9.7    -9.5    -0.7   -10.0   -10.9    -1.9     3.6
     7.3    -0.9    -1.8    -3.7    -1.7     0.6    -6.5     8.7     8.4    -9.6
    -4.0     5.1     2.5    -8.3   -12.0    -8.1    -6.2    -0.1     2.2     6.7
     8.1    -1.9    14.2    16.0     1.0     9.8     1.3    -0.2     0.1    -4.4
     7.9     1.6    -4.3     2.0    -2.2   -15.4   -15.3     9.0    17.9     0.4
     6.3     2.0    -7.6    16.4     0.7    -0.5    14.2   -14.0    -4.1     8.1
    -7.9     0.3    15.4     3.2   -10.9     0.7     2.9    -7.3   -10.9     0.6
    10.0    -6.6    -2.5    16.8     8.2     0.7     1.7     0.5    10.1     6.1
    -9.2    -3.9    -2.0    -5.0    -0.5     5.1     1.5   -16.0    -7.8     6.2
    -6.3    -0.5     3.7   -14.3    -2.9    13.8    10.1    13.4     1.9   -15.8
     2.7     7.9   -16.1    -1.7    15.4     8.9     4.5    -0.5     0.9    -6.4
    -0.2    -0.5   -15.7    -3.4     3.9     5.4     1.7     2.3     6.5    -9.9
   -15.5    -7.3    -4.8    -7.6     4.0     5.4   -11.9    -5.4     3.8    -4.4
   -14.0    -1.6     4.4    -2.0    -0.0    -4.3    10.2     5.3    -6.8     8.8
    -3.5   -12.7    -7.9    -0.7     1.0   -10.1    -0.8    -2.4    -4.5     5.6
    -4.9     1.1     2.2   -18.3    -4.2     9.1    -1.5     0.1     6.4     6.6
    -5.1    -8.6    -6.1   -13.3     1.6    13.3    -4.1   -12.4    -2.4    -3.5
    -5.0     3.3    -5.0    -5.7     1.4    -2.3    -6.6    -8.7     2.9     2.3
     1.3    14.4     2.3   -10.8    -5.1     4.0     7.4    -0.7    -3.9     2.9
     7.2     5.8     0.8     2.6     1.8   -18.4   -16.3     1.8    -5.7    -2.4
     8.7     0.9    -1.0    -2.6    -0.5     5.8   -14.1   -10.3     5.9    -5.2
     0.9     1.7     1.5     3.4   -13.3    -1.1    17.1    16.7    11.7    -4.0
     4.7     7.3   -20.6   -14.9     0.5     9.3    13.9    -4.8    -6.5    -0.2
    -5.1    -7.7    -4.7     2.4    -1.0    -3.7    -1.7    -5.1    -4.1     0.1
     5.0    -1.6    -6.7    17.2    14.1   -11.9    -4.3    -1.0    -1.4     8.0
     1.7    -2.2    -1.0    -6.5    -6.8    -2.4     2.3     3.0     4.6     5.3
     2.3     0.9   -11.3    -8.4    -2.3    -4.1    14.4     6.0    -5.8     7.4
    10.7     9.4     0.8    -7.7   -10.8    -1.4    12.8     2.5    -7.1     2.3
     7.9     6.1     5.3     7.0     4.4     3.7     7.1     5.0     4.8    -8.5
   -10.3     0.5    -3.7     8.5     4.4    -6.0     0.4    11.8    21.5     1.6
     4.7     8.7    -5.9    -4.8    -6.2     6.4     0.5    -4.5     8.3     1.4
     7.5    -1.6    -8.2    12.5     3.4     1.4     9.4    -6.8    -6.2     5.7
     0.3    -0.1     7.9     3.8     0.6     8.7     3.9    -8.5     0.3    10.2
     5.9     2.0    -2.6    -1.0    12.0     6.4   -13.7    -8.6    -0.5     0.0
    -2.7    -7.8     9.2     9.7    -8.0    -3.7     4.3    -3.7    -6.7    -0.4
    -6.9    -3.4     6.1     3.0    -6.9     0.6     7.9   -12.4     3.5    15.9
     2.0     2.0    -6.7     3.6    12.7     0.2   -11.0    -8.7    -1.7    -4.6
     5.8     3.8    -1.9     4.4     3.9    10.8     7.7     1.1     4.4    -5.1
   -15.0    -4.1    12.6    15.4     5.0     0.8     1.8    -5.0     3.5    10.7
    -5.9    -3.6     7.1     6.3     3.8    -8.4     2.2    15.6     5.5     6.7
     4.3     1.7     7.2     5.8    -3.0    -9.0    -7.9    -8.1    -3.4    -1.0
     2.7    -0.0    -0.5     1.4    -9.4     4.8     5.1    -0.9    10.6     0.8
     5.4     8.3    -4.6    -6.9    -5.5    -3.5    -1.9     1.0    -0.9    -4.4
    -6.4    -6.3    -4.5    -5.3    -1.5     3.7     2.8    -0.5     2.4     6.2
    -0.4    -8.7     1.9    13.9    11.0     9.0    -1.1     0.2     5.7    -3.7
     6.7     3.9   -15.8    -9.2     1.4    -0.8    -8.4    -0.9    13.1     6.1
     4.5     8.4     1.2    -3.4   -13.6   -11.1    -1.8    -5.4    -3.5    -7.5
    -3.9     2.1   -10.2    -0.3    10.7    -1.4    -0.5    -6.0    -8.6     6.4
     3.6     4.6     3.3    -7.7     1.3    10.6     9.4     8.0     2.2    -6.5
    -5.0    -3.9    -2.6     3.4    -0.9    -5.1    -8.2    -2.1     8.2    -1.4
    -7.7     0.5    10.0    10.3     1.0    -3.3    -0.8    -1.8    -2.8     5.5
     4.4    -5.5    -3.8     6.5     6.9    -4.2     3.6     7.9    -7.3    -8.1
    -5.0    -0.3     3.6    -4.3    -0.8    -1.2   -13.6    -6.8     7.4    12.6
     2.7    -9.7    -1.8     3.3     5.4     9.1    -0.2    -7.2   -10.4   -11.3
    -4.5     0.1     4.5     7.3     3.6     6.7     8.0     5.9     9.3     1.9
    -2.6     7.7     5.0    -8.7     6.0    20.0    -2.9    -4.4     1.9    -5.1
     4.8    -4.0    -3.1     9.2    -4.8    -2.6     3.1     2.3     2.1    -0.0
     4.7     2.5     6.6     9.5     6.9    -0.6   -12.7     6.5    19.2     4.1
     4.2     5.1     4.3     3.9   -15.2   -11.6     5.8    -4.6    -4.9     1.4
    -0.6    -0.4    -1.5     2.2    -3.0    -0.1     7.7     1.2     6.4    -6.3
   -12.1     9.8    -1.9    -1.9     3.1   -10.4     1.8    -4.2    -5.1     1.3
   -12.7     3.3     2.5    -9.0     0.0    -3.4    -2.0    -1.1     4.7     7.5
    -5.7    -6.0    -3.0     2.7     4.5    -2.7     3.2    -0.1    -8.5    -2.3
    -0.3     8.5    11.9    -3.6     1.9     6.5    -3.1    11.7     1.0   -17.0
     1.6     0.9     2.0     2.5    -1.3     8.1    -0.9     2.1     7.6     0.3
    -6.3    -8.4     1.8     2.7     8.7     5.3    -3.1     0.6    -4.5     2.8
    -3.3    -4.2    10.9     4.6     3.5    -9.7    -8.1    10.3    -3.3   -13.8
    -8.6     5.5    -2.7   -14.5     7.7     5.0    -3.8     6.0    -6.7    -0.2
    22.5     2.8    -5.2     7.8     6.2     6.1    -6.9     2.9    11.1   -16.4
    -5.8     9.6    -0.9    -4.3     1.1     7.5    -1.0    -4.2     5.5     4.3
    -4.5    -0.8     3.2    -2.7    -0.6     2.5     0.3    -2.1     3.8    11.9
     6.3    -3.0     3.1    12.3     5.7     0.4    -5.9   -11.8    -9.5    -3.3
     0.0    -4.3    -1.2     0.2    -2.2    -5.4    -4.9    -1.3   -10.4    -8.6
     1.9     1.0    -2.5    -0.9     0.6     5.7    11.4    -2.2    -9.8    -6.0
    -2.7    10.0    11.5     4.7    -5.2   -10.1     5.0     5.4    -2.8     1.6
     5.3     2.8    -2.6     0.9    -1.8    -8.9    -3.9     3.4    11.2    -2.1
   -14.3     6.1     1.1   -13.9     3.6     1.7    -8.1     6.0     7.9     0.5
     0.3    -2.9     0.5    12.0     7.3    -1.2     8.7     8.3    -3.5    -4.6
    -2.4    -2.0    -3.7     1.4     9.8     8.1     3.8     2.4     1.8     1.3
    -5.2   -15.7   -10.9     6.3    10.7     1.8    -6.1    -7.6    -2.5     2.0
     4.4    -3.8    -5.6     3.3    -8.0    -3.1     1.2   -12.8    -1.6     3.3
     0.7     6.9     5.2    -1.9    -0.7     5.8    -4.3   -11.1    -3.7    -0.5
    -6.2    -4.8     4.9    -6.8   -11.7     7.0     7.7     1.2     7.3     8.1
     5.4     6.1    -2.1    -1.7    10.2    -4.1   -13.2    -2.7    -4.4    -3.0
    -0.2     0.1    -2.0    -3.4     5.7     7.5    -1.5    -8.2    -3.9     0.8
     1.0     2.6    -2.2    -9.3    -9.4    -3.0    -1.8    -1.6     6.2    11.1
     6.1    -4.4     1.0     7.9    -1.7    -0.3     3.4    -1.5     9.2     5.4
   -12.3    -0.5    -2.2    -7.4    12.0     7.7     0.3     1.6     2.5     6.8
    -3.0     7.7    12.0    -4.1     6.6     1.7    -3.8     2.7    -4.1     2.5
     5.1     6.8     0.0    -9.3    -1.1   -10.4    -3.5     7.2    -2.5    13.2
    15.0     0.8     6.0    -1.2    -6.8    -3.0    -9.1    -6.9    -0.8     3.7
     4.2     0.9     0.0    -6.7     0.6     4.2    -5.4     3.5     4.1    -1.0
     0.4   -10.4    -5.5    10.5     5.4     6.6     3.0   -17.9   -14.3    -2.5
     8.0    13.8     5.1     9.2     2.8   -10.0    -5.3    -6.0    -0.6     3.0
    -4.3    -0.5    -2.4    -7.2    -0.4     7.6     5.7     3.7     8.3    -3.7
    -4.8    -2.4   -15.1   -10.8    -3.5     7.0     3.2    -3.8     1.9    -8.9
    -5.2     1.2    -5.8    -8.9    -9.4    -2.3    -1.4     1.8     6.7     5.8
     4.1     7.4     9.1   -12.2    -6.2    14.2     3.3    -2.6   -10.1    -8.7
     1.8     5.8     5.5    -9.6    -4.0     6.6    -3.8    -7.0    -1.6     8.4
     3.5    -4.2     6.0     7.0    -1.3    -0.8    12.9    17.7    10.5     6.4
     5.4     5.2    -0.1    10.1     7.0     5.5    23.3     1.3   -10.4    -8.4
   -11.5     5.0     6.1    -0.4    -1.0    -2.2     0.3     6.1     2.5    -5.8
    -0.2    10.8     9.9    -1.3    -4.3     0.6     6.8    -7.7   -16.4    -4.2
    -9.5    -3.0    -2.5    -4.7    10.3    -0.4   -10.7    -1.9     9.4    -1.8
   -13.0    -3.9    -8.0    -3.4    -1.0    -1.4     3.5    -0.9     9.1     1.4
    -7.7    11.1     5.2     0.2     8.4    -6.1    -9.1    -3.6     3.4    11.5
     4.0    11.2    10.2     5.2    12.3     5.3     0.7    -2.3     1.6     2.3
    -0.7     8.2     2.5    -4.2     1.8     8.4     4.7    -7.5    -4.4     0.9
    -2.4    -4.9     0.3     0.4    -8.9     8.2    12.6    -4.7    -7.6   -12.8
    -6.5     3.0    12.1     6.9   -14.7    -3.3    11.3     1.7    -8.8    -4.1
    -3.7   -11.0     1.1     3.2    -6.5    -4.4    -1.4   -12.8    -9.9    12.4
     4.0     1.9    -2.0   -17.3    -5.4    -4.7    12.0    16.0    -3.1    10.5
     0.9    -4.5     1.2    -2.7     1.7   -15.1   -13.5    -3.9    -0.8     1.3
    -8.0     5.0     0.3     2.7    10.7    -7.2     4.0     5.4     7.7    10.6
    -9.5    -7.4    -7.9    -3.2     1.6    -2.5     0.5     1.1     3.3    -3.6
    12.6    17.7     2.3    14.3     0.8     1.4    16.9     5.2     5.7    -1.9
    -3.5    10.1     5.3    -3.4     2.7    -5.0    -8.6     7.5    -0.8     3.0
     4.8    -5.0     0.9    -3.2     3.4     4.9     5.4     4.5     0.8    14.0
     0.9     2.6    16.6     3.4    12.9    10.1    -7.4    10.7     6.1    -7.2
    11.4     6.8    -2.9     6.7     9.0    -2.9   -15.1   -11.1     3.2     5.1
    -4.0    -0.8   -14.1   -21.3    -1.9    -7.2   -13.5    -1.5    -0.0    -7.2
     4.2     6.9    -8.0    -0.9    -1.0    -1.7     7.6     6.3     8.1    -6.3
   -12.8    -1.3    -2.8     2.5    -5.3    -6.5     4.5    -5.9     4.9    12.8
    -0.3    -1.4     3.1    -5.8   -15.1    -3.7    -5.6    -3.6     3.6    -2.3
     6.5     3.3    -3.9     0.7     1.7     5.7    -0.5   -13.0    -2.3     6.6
    -5.9     2.6     6.0    -4.2     1.5     2.4     3.7     0.2    -6.4   -10.0
   -13.1    -3.8     2.3    -6.6    -0.9     5.0    -7.7    -1.3     2.4     8.1
     5.2    -5.9    12.2     6.4     6.8    11.2    -2.1     2.7    -5.0   -10.1
    -6.7    -5.7    -1.2     0.7     2.2     4.4     6.5     2.0    10.6    15.6
    -1.0     1.1     9.0     5.9     1.3    -4.9    -2.2    -9.5   -15.5    -2.0
    -0.2     0.5     7.2     1.9    -0.7     8.6     5.1   -10.7     0.2     8.7
    -9.3    -4.8     6.7    -1.5    -5.5    -5.3    -1.6     2.0    -0.8    -3.4
    -5.0    -6.6    -5.6     5.8     5.0    -9.7    -1.4    12.2    10.7     9.7
    12.4     8.1     1.7     1.5     0.9     2.3    -0.2     0.6     4.6     6.6
     7.1    -4.2    -0.5    -1.6    -9.9     3.5    -0.6    -4.4     5.9     3.6
     3.1    -1.3    -5.5    -4.9    -7.5     7.2     8.9    -5.5    -1.3    -4.2
    -4.3     2.2    -1.0    -1.4    -3.6     2.8     6.1    -5.1     1.2     4.8
    -3.3    -1.8     0.0     3.2     0.9     0.9     4.6     1.0    -2.5    -9.7
    -1.6     7.4    -5.0    -0.9     6.5     1.0     8.6     7.4     1.2     7.3
    -5.1   -12.9    -0.5     0.4    -1.4    -1.0    -6.7    -2.5     8.8     6.2
     5.7     8.7     7.8    12.9     5.4     3.1    10.2     4.1     3.1     3.6
     5.9     7.5    -3.8     1.3     6.4     0.8     5.8    -6.7    -9.2     8.7
    -1.8    -6.4     6.1    -5.0    -2.4     7.6    -8.2     3.7    13.3     4.3
    10.2    -3.6    -4.0    13.3     7.5     1.2     7.7    12.3     3.4    -2.5
     3.9     8.8     0.3    -8.2    -8.6    -7.5    -3.4    -9.5    -2.4     5.7
    -2.8    13.8    10.4   -15.0    -5.7     0.5    -3.7     3.2     2.4    -7.0
