Uncorrected accelerogram 20160214_001343_REHS_20 GNS Science
Site REHS      43 31 19S  172 38 07E     Cusp file:  20160214_001346_REHS
Christchurch Resthaven
Instrument Cusp_42259
Resolution: 18-bit   Instr Period: 0.0050 s   Damping: 0.700
Accelerogram 20160214_001343_REHS_20                 Processed 2016 February 22
11 km east of CHRISTCHURCH
2016 February 14         00:13:43 UT
Epicentre  43 29 50S 172 45 18E  Bearing N74E  Dist   10km  Depth    8km M  5.70
Number of points  39063    Duration 195.31 s
Raw readings in units of 1.00 mm/s/s  at intervals of 0.005 s
Data is unfiltered
Component N90W
Acceleration:  Peak   1494.7 mm/s/s at  44.40 s     RMS   122.94 mm/s/s
Velocity record unevaluated
Displacement record unevaluated
    2016       2      14       0      13     430       0       0    2016       2
      43      29      50     172      45      18       8       0      14       0
      43      31      19     172      38       7     270     270      74      10
   39063       0       0   39063       0       0       0       0      13    6903
   200.0    0.70    0.00   0.000  0.0000   0.000   0.000   1.000     0.0    0.00
  43.522 172.635  43.497 172.755    5.70    0.00    0.00    0.00      0.      0.
  195.31    0.00    0.00  195.31  0.0050  0.0050      0.      0.      0.  9806.6
  1494.7   44.40   122.9      0.      0.     0.0    0.00     0.0     0.0   0.000
    0.00    0.00    0.00    0.00   0.000    0.00    0.00    0.00    0.00   0.000
   0.000   0.000   0.000      0.      0.   0.000   0.000   0.000      0.      0.
     0.2     0.1     0.0     0.0    -0.0    -0.1    -0.2    -0.1    -0.2    -0.2
    -0.2    -0.3    -0.0     0.1     0.1     0.2     0.1     0.1     0.2     0.2
     0.3     0.4     0.5     0.3     0.3     0.3     0.3     0.3     0.2     0.1
     0.1     0.1     0.2    -0.1     0.0     0.0     0.0     0.3     0.1     0.1
     0.3     0.2     0.0     0.1     0.1    -0.1    -0.1     0.1     0.2     0.2
     0.2     0.0    -0.0    -0.1     0.1     0.1     0.0     0.1     0.1     0.1
     0.0     0.3     0.4     0.1     0.1     0.1     0.3     0.3     0.1     0.1
    -0.1    -0.1    -0.2    -0.2     0.1     0.2     0.2     0.3     0.3     0.0
    -0.1    -0.1    -0.1     0.0     0.1    -0.0     0.0     0.3     0.2     0.1
     0.2     0.1     0.3     0.2     0.1     0.3     0.2     0.2     0.2     0.2
     0.6     0.3     0.2     0.2     0.3     0.3     0.1     0.3     0.1    -0.1
     0.0    -0.0    -0.0    -0.1    -0.0     0.1    -0.1    -0.0     0.1    -0.1
    -0.2     0.1     0.2     0.2     0.3     0.4     0.5     0.3     0.0     0.0
     0.1     0.1     0.1     0.2     0.1    -0.0     0.3     0.3     0.3     0.3
     0.0     0.2     0.2    -0.1    -0.2    -0.1    -0.1    -0.1     0.0     0.2
     0.1     0.3     0.3     0.2     0.2     0.1    -0.2    -0.2    -0.1    -0.1
    -0.1    -0.0     0.3     0.4     0.2    -0.1    -0.0    -0.0    -0.0     0.2
     0.1     0.3     0.4     0.3     0.5     0.4     0.2     0.3     0.3     0.2
    -0.1     0.1     0.2    -0.1    -0.0    -0.1    -0.0    -0.1    -0.3     0.2
     0.1    -0.2    -0.0     0.1     0.3     0.2     0.2     0.5     0.4     0.5
     0.5    -0.1    -0.0    -0.2    -0.0     0.0    -0.2     0.4     0.3     0.1
     0.4     0.3     0.4     0.4     0.2     0.4     0.1     0.0    -0.2    -0.2
     0.3     0.1    -0.0    -0.0    -0.0     0.3     0.2     0.0     0.2    -0.0
    -0.1     0.2     0.3     0.1    -0.1    -0.0    -0.1    -0.2     0.1     0.1
     0.2     0.3     0.0    -0.1    -0.0     0.0    -0.1     0.1     0.3     0.1
     0.2     0.2     0.1     0.3     0.1    -0.1     0.1    -0.1    -0.2    -0.0
     0.1     0.2     0.3     0.4     0.5     0.4     0.5     0.2     0.1     0.0
    -0.1     0.0    -0.3    -0.2    -0.1    -0.0     0.4     0.2     0.5     0.5
     0.5     0.5    -0.1     0.3     0.2     0.1     0.4     0.2     0.4     0.2
    -0.1     0.1     0.1     0.3     0.3    -0.0     0.3     0.4     0.3     0.2
     0.3     0.4     0.4     0.3     0.4     0.3    -0.0    -0.1     0.2     0.2
     0.1     0.1     0.1     0.2     0.2    -0.0     0.2     0.3     0.1     0.0
    -0.1     0.1    -0.2    -0.3     0.0    -0.1    -0.1    -0.1    -0.2    -0.1
    -0.2    -0.2    -0.0     0.0     0.1    -0.0     0.2     0.0    -0.1     0.1
     0.0     0.1     0.3     0.2     0.1     0.3     0.5     0.5     0.5     0.4
     0.6     0.8     0.4     0.4     0.3     0.1     0.2     0.1     0.1     0.1
     0.2     0.1     0.1     0.2    -0.0     0.2     0.0     0.1     0.3     0.0
     0.2     0.2     0.1     0.4     0.1     0.1    -0.1    -0.1     0.0    -0.3
     0.2     0.3     0.1     0.4     0.3     0.3     0.2    -0.2     0.1    -0.0
    -0.2    -0.1    -0.1     0.0    -0.0    -0.0     0.1     0.1     0.3     0.4
     0.5     0.7     0.5     0.4     0.2     0.1     0.2    -0.1     0.1     0.0
    -0.3     0.0    -0.1    -0.2    -0.1    -0.3    -0.1    -0.1     0.1     0.4
     0.1     0.3     0.2     0.3     0.7     0.2     0.2     0.4     0.2     0.3
    -0.0    -0.0     0.2    -0.0     0.0    -0.2     0.2    -0.0    -0.4     0.3
    -0.0     0.0     0.0    -0.2     0.1    -0.0     0.4     0.3     0.2     0.3
    -0.1     0.3     0.2    -0.1     0.3     0.0     0.1     0.2     0.2     0.1
    -0.1     0.1     0.0     0.0     0.0    -0.2     0.0     0.1    -0.0     0.2
     0.2     0.2     0.3     0.3     0.4     0.3     0.1     0.4     0.2    -0.0
    -0.0    -0.2    -0.1    -0.2    -0.2     0.1    -0.3    -0.1     0.1     0.0
     0.2     0.2     0.4     0.6     0.6     0.3     0.1     0.2    -0.0    -0.1
     0.0    -0.1    -0.1    -0.2    -0.0    -0.0    -0.1     0.0    -0.0     0.2
     0.4     0.3     0.0    -0.2    -0.1     0.0    -0.0     0.1     0.3     0.3
     0.3     0.3     0.4     0.2    -0.1     0.1     0.1     0.1    -0.0    -0.1
     0.0    -0.0    -0.0    -0.0    -0.4    -0.4    -0.4    -0.3    -0.0    -0.0
     0.1     0.1     0.2     0.3     0.1     0.2    -0.1    -0.2     0.2    -0.1
    -0.0     0.1     0.1     0.2     0.1     0.3     0.3     0.3     0.5     0.3
     0.3     0.3    -0.0     0.2     0.3     0.1     0.1     0.0     0.2     0.2
     0.1     0.0    -0.1    -0.1    -0.2    -0.1     0.1     0.0     0.0     0.1
     0.2     0.2     0.1    -0.0    -0.1     0.1     0.1    -0.2    -0.2    -0.0
    -0.1     0.2     0.2    -0.3    -0.0    -0.1    -0.3    -0.1    -0.3    -0.3
    -0.0     0.0     0.1     0.1     0.2     0.3     0.3     0.3     0.1     0.1
     0.0    -0.1     0.1    -0.1     0.0     0.2    -0.0     0.5     0.4    -0.0
     0.1    -0.0     0.1     0.1    -0.1    -0.1    -0.1     0.0     0.1     0.1
     0.1    -0.1     0.2     0.4     0.5     0.7     0.2     0.2     0.2    -0.0
     0.1    -0.2    -0.2    -0.1    -0.4    -0.0     0.3     0.1     0.2     0.2
     0.4     0.3     0.1     0.3     0.2     0.1    -0.2    -0.3    -0.3    -0.3
    -0.1    -0.1    -0.2     0.1     0.2     0.3     0.3    -0.0     0.0     0.0
    -0.1    -0.1    -0.0     0.0    -0.1    -0.1     0.1     0.2     0.2     0.1
     0.2     0.2     0.1    -0.0    -0.2    -0.3    -0.2    -0.0    -0.1    -0.0
    -0.1     0.0     0.3     0.3     0.5     0.4     0.3     0.4     0.3     0.4
     0.3     0.1     0.2     0.3     0.2    -0.1    -0.2    -0.0     0.1     0.2
     0.3     0.2     0.1     0.3     0.2     0.2     0.2     0.0     0.1     0.1
     0.1     0.3     0.1    -0.1     0.1     0.4     0.4     0.4     0.3    -0.1
    -0.0    -0.1    -0.5    -0.6    -0.5    -0.2     0.0    -0.3     0.0     0.3
     0.5     0.4     0.3     0.5     0.4     0.1     0.3     0.3     0.2     0.1
     0.2     0.1    -0.3     0.1     0.1    -0.0     0.2    -0.2    -0.0     0.2
    -0.0     0.1     0.0     0.3     0.3    -0.0     0.1     0.1    -0.1     0.0
     0.2     0.1     0.0     0.2     0.3     0.3     0.2     0.3     0.1     0.1
     0.1     0.0     0.0    -0.1    -0.1    -0.3     0.0     0.3     0.2     0.1
     0.0     0.2     0.2     0.1     0.1    -0.3    -0.1     0.0    -0.1    -0.0
    -0.2     0.2     0.0    -0.1     0.2    -0.1     0.0     0.2     0.1     0.2
     0.0    -0.2    -0.0     0.2     0.2     0.1    -0.0     0.2     0.3     0.1
     0.1     0.1     0.2     0.2     0.1     0.1     0.4     0.2     0.2     0.3
     0.3     0.3    -0.1    -0.1     0.1    -0.0    -0.1     0.0     0.2     0.3
     0.2     0.3     0.2     0.1     0.1     0.1     0.2     0.2     0.2     0.2
     0.1     0.2     0.2     0.3     0.3     0.3     0.1     0.0     0.2     0.1
     0.2    -0.1    -0.1     0.2     0.1     0.2     0.3     0.3     0.3     0.3
     0.4     0.3     0.3     0.3     0.2     0.2     0.1    -0.0    -0.2    -0.1
    -0.3    -0.4    -0.3    -0.4    -0.3    -0.3    -0.3    -0.3    -0.1    -0.0
     0.1     0.1     0.2     0.1    -0.2     0.1     0.1    -0.1     0.1     0.2
     0.2     0.1    -0.1     0.2     0.2    -0.0     0.0     0.0     0.1    -0.0
    -0.0     0.4     0.5     0.4     0.4     0.3     0.3     0.3     0.2     0.3
     0.4     0.5     0.2     0.1     0.1    -0.0     0.2     0.2     0.2     0.2
     0.1     0.2     0.3     0.0     0.1    -0.1    -0.4    -0.1    -0.3    -0.5
    -0.2    -0.1     0.0    -0.0    -0.2     0.3     0.3     0.3     0.4     0.4
     0.6     0.3    -0.1     0.1     0.1     0.2     0.0    -0.0    -0.0    -0.1
    -0.0    -0.2    -0.1     0.0    -0.1     0.2     0.2     0.1     0.3     0.4
     0.2     0.2     0.3     0.1    -0.0     0.1     0.1     0.0     0.2     0.3
     0.1     0.1     0.4     0.5     0.3     0.3     0.2     0.3     0.2     0.1
     0.4     0.2    -0.0     0.2     0.2     0.1     0.3     0.3     0.1     0.2
     0.3     0.2     0.1     0.2     0.1    -0.0     0.1    -0.1    -0.1    -0.1
    -0.2    -0.2    -0.1     0.2     0.0     0.1     0.5     0.3     0.2     0.3
     0.2     0.3    -0.0    -0.1     0.2     0.2     0.1     0.0     0.1     0.2
     0.0     0.1     0.3     0.3     0.1     0.3     0.5     0.2     0.2     0.2
     0.1     0.1     0.1     0.2     0.4     0.3     0.3     0.4     0.1     0.1
     0.1    -0.2    -0.2     0.1     0.0     0.0     0.2     0.3     0.2     0.1
    -0.0    -0.1    -0.1     0.0     0.1    -0.1     0.1     0.1    -0.1     0.2
     0.3     0.2     0.2     0.2     0.2     0.3     0.1     0.2     0.3     0.0
     0.3     0.3     0.1     0.1     0.1     0.2     0.2     0.2     0.1    -0.0
     0.2     0.1     0.1     0.3     0.2     0.2     0.6     0.5     0.4     0.4
     0.3     0.3     0.3     0.4     0.3     0.2     0.2    -0.0     0.1    -0.0
    -0.3    -0.3    -0.2     0.0     0.1     0.1     0.2     0.3     0.5     0.4
     0.3     0.3     0.1    -0.0     0.2     0.3     0.3     0.2     0.2     0.3
     0.1     0.1     0.0    -0.0     0.0    -0.1    -0.1    -0.1    -0.2    -0.1
     0.0     0.1    -0.0     0.1     0.2     0.3     0.6     0.7     0.6     0.4
     0.2     0.2     0.1    -0.1    -0.3    -0.1     0.0     0.2     0.3     0.3
     0.3     0.2     0.4     0.2    -0.0    -0.1    -0.0     0.1     0.1     0.1
     0.0     0.1     0.1    -0.0     0.2     0.3     0.3     0.4     0.2     0.0
     0.1    -0.1    -0.0     0.0     0.1     0.2     0.0     0.1     0.1     0.0
     0.2     0.3     0.4     0.2     0.1     0.3     0.3    -0.0    -0.3    -0.2
    -0.1    -0.0    -0.0     0.1     0.1     0.2     0.3     0.1     0.3     0.2
     0.2     0.0    -0.2     0.1    -0.2    -0.1    -0.2    -0.3    -0.0    -0.0
     0.2     0.3     0.3     0.4     0.1     0.4     0.5     0.3     0.3     0.1
    -0.2    -0.2    -0.1    -0.3    -0.3    -0.3    -0.2     0.1    -0.1     0.0
     0.3     0.2     0.2     0.2     0.2     0.0     0.1     0.1     0.3     0.1
     0.0     0.2    -0.1     0.1     0.3     0.1     0.3     0.3     0.3     0.5
     0.3     0.4     0.5    -0.1    -0.4    -0.3    -0.1    -0.1    -0.3    -0.2
    -0.1     0.0     0.2     0.4     0.3    -0.0     0.0     0.3     0.3     0.2
     0.0     0.1     0.2     0.1     0.2    -0.1    -0.1     0.1    -0.2    -0.2
    -0.2    -0.2    -0.2    -0.3     0.1     0.3     0.3     0.4     0.3     0.6
     0.5     0.4     0.4     0.2     0.2    -0.0     0.1     0.5     0.1    -0.0
     0.0    -0.2     0.0     0.1    -0.1    -0.0     0.1     0.2     0.3     0.2
     0.1     0.2     0.3     0.2     0.2     0.2     0.2     0.2     0.3     0.4
     0.4     0.1    -0.0    -0.0     0.1     0.3     0.1    -0.2    -0.1     0.2
     0.4     0.1     0.1     0.0    -0.1     0.1    -0.1    -0.2    -0.1    -0.1
    -0.1    -0.1    -0.0     0.1    -0.0    -0.1    -0.2    -0.2     0.1     0.1
    -0.2    -0.3     0.0     0.1     0.2     0.1     0.1     0.2     0.1     0.2
     0.3     0.1     0.1    -0.1    -0.1     0.0     0.1     0.3     0.4     0.3
     0.2     0.2     0.1     0.0    -0.1     0.0     0.1    -0.1     0.2     0.2
     0.1     0.3     0.2     0.1     0.1     0.1    -0.1    -0.3    -0.3    -0.6
    -0.5    -0.2    -0.3    -0.2     0.1     0.3     0.4     0.4     0.5     0.7
     0.4     0.2     0.2     0.0    -0.1    -0.4    -0.3    -0.2    -0.2    -0.1
    -0.1     0.2     0.2     0.1     0.1     0.1     0.2    -0.0     0.1     0.2
    -0.1    -0.0     0.1     0.1     0.2     0.0     0.3     0.5     0.3     0.4
     0.3     0.1    -0.2    -0.3    -0.3    -0.4    -0.4    -0.2    -0.0    -0.0
     0.1     0.2     0.2     0.3     0.6     0.5     0.6     0.4     0.2     0.4
     0.4     0.1    -0.0     0.0     0.1    -0.1    -0.2    -0.1     0.2     0.4
     0.1     0.2     0.3     0.0     0.3     0.3     0.1     0.3     0.2     0.3
     0.3    -0.0     0.1     0.2     0.0    -0.1     0.0     0.2     0.2     0.2
     0.2     0.2    -0.0     0.1     0.0    -0.2     0.2     0.2     0.2     0.2
    -0.0     0.3     0.2     0.0     0.0    -0.0     0.1     0.2     0.2     0.2
     0.3     0.3     0.2     0.2     0.0    -0.0    -0.0    -0.1     0.1     0.2
     0.0     0.2     0.2     0.0     0.2     0.2     0.4     0.4     0.3     0.6
     0.2     0.0     0.2     0.1    -0.1    -0.3    -0.1     0.1     0.1     0.0
    -0.2     0.1     0.2     0.0     0.2     0.2     0.2     0.2     0.2     0.2
     0.2     0.0     0.3     0.5     0.3     0.3     0.3     0.2    -0.0    -0.1
     0.3     0.1    -0.1     0.2     0.3     0.0    -0.2    -0.3    -0.2    -0.2
    -0.3    -0.1     0.0    -0.2    -0.1     0.1     0.2     0.2     0.3     0.4
     0.2    -0.0    -0.1     0.1     0.1    -0.0     0.2     0.3     0.2     0.3
     0.4     0.4     0.1    -0.1    -0.1     0.2     0.2     0.0     0.2     0.1
    -0.0     0.3     0.2     0.1     0.3     0.4     0.3     0.2     0.2     0.1
     0.0    -0.1    -0.1    -0.1    -0.3    -0.3    -0.3    -0.1     0.1    -0.1
     0.1     0.1     0.1     0.1    -0.1     0.3     0.4     0.1     0.3     0.2
     0.1     0.1    -0.0     0.1     0.1     0.3     0.5     0.3     0.1     0.1
     0.2     0.3     0.2     0.2     0.3     0.3     0.3     0.4     0.3     0.2
     0.2     0.4     0.1    -0.2     0.1     0.1     0.2     0.3     0.4     0.7
     0.4     0.2     0.3     0.2     0.1    -0.2    -0.3    -0.0    -0.1    -0.1
    -0.1    -0.1    -0.0    -0.1     0.2     0.4     0.4     0.6     0.5     0.5
     0.4     0.1     0.0    -0.1    -0.0    -0.1    -0.2    -0.0    -0.4    -0.6
    -0.2    -0.1    -0.3    -0.0     0.2     0.2     0.3     0.3     0.4     0.4
     0.2     0.3     0.3    -0.0    -0.3    -0.3    -0.2    -0.4    -0.4    -0.1
     0.1     0.2     0.3     0.6     0.6     0.3     0.5     0.6     0.4     0.4
    -0.0    -0.0     0.2    -0.3    -0.4    -0.1     0.2     0.2     0.1     0.2
     0.3     0.3     0.1     0.1     0.0    -0.1     0.1     0.1     0.0     0.1
     0.0    -0.1    -0.2    -0.2    -0.0    -0.0    -0.2    -0.0     0.2     0.2
     0.1     0.4     0.8     0.7     0.3     0.5     0.6     0.2     0.0    -0.1
    -0.2    -0.3    -0.5    -0.4    -0.3    -0.3    -0.0     0.4     0.4     0.2
     0.1     0.3     0.6     0.5     0.7     0.6     0.3     0.3     0.2     0.0
    -0.1    -0.1    -0.1     0.1     0.3     0.2     0.2     0.2     0.1     0.1
    -0.0    -0.1    -0.4    -0.6    -0.5    -0.3     0.0    -0.1     0.2     0.7
     0.6     0.7     0.8     0.7     0.4     0.2     0.4     0.1    -0.2    -0.2
    -0.2    -0.3    -0.2    -0.0    -0.0    -0.0     0.1     0.4     0.6     0.5
     0.4     0.2     0.1     0.2     0.1     0.3     0.2     0.2     0.2     0.2
     0.3     0.4     0.6     0.5     0.2     0.0     0.0    -0.1    -0.3    -0.2
    -0.2    -0.1     0.1     0.1     0.2     0.3     0.1     0.1     0.3     0.4
     0.3     0.2     0.4     0.2     0.1    -0.0    -0.2    -0.1    -0.1     0.2
     0.5     0.3     0.2     0.3     0.3     0.2     0.3     0.2    -0.1    -0.2
     0.1     0.1     0.2     0.2     0.2     0.3     0.2     0.1     0.2     0.2
     0.1     0.1     0.0    -0.0     0.1     0.2     0.4     0.6     0.5     0.7
     0.6     0.5     0.4     0.2     0.3     0.1    -0.2    -0.2    -0.1    -0.2
    -0.3    -0.1    -0.2    -0.1     0.2     0.2     0.3     0.2     0.2     0.2
     0.1     0.4     0.4     0.3     0.3     0.0    -0.1    -0.2    -0.0     0.1
     0.1     0.1     0.0     0.0     0.2     0.1    -0.1    -0.1     0.0    -0.0
     0.0    -0.1    -0.3    -0.1     0.1     0.3     0.3     0.2     0.3     0.4
     0.4     0.3     0.3     0.1    -0.1    -0.1     0.0    -0.1    -0.1     0.2
     0.2     0.4     0.6     0.3     0.0     0.2     0.2     0.1     0.2     0.1
     0.1    -0.0    -0.0     0.1    -0.0     0.1     0.2     0.3     0.3     0.0
    -0.1    -0.1    -0.2    -0.1     0.2     0.0     0.1     0.3     0.2     0.3
     0.3     0.4     0.5     0.2     0.2     0.3     0.3     0.1    -0.1     0.1
     0.0     0.0    -0.1     0.2     0.3     0.2     0.4     0.3     0.2     0.2
     0.0     0.0     0.0    -0.1    -0.1    -0.1    -0.2     0.2     0.3     0.3
     0.3     0.2     0.3     0.1     0.2     0.2     0.2     0.4     0.0     0.0
     0.4     0.3     0.1     0.2     0.2     0.1     0.2     0.2     0.1     0.1
     0.2     0.3     0.2     0.2     0.3     0.1     0.3     0.4     0.3     0.3
     0.0    -0.2    -0.2    -0.1    -0.1     0.0     0.1    -0.0     0.0     0.3
     0.4     0.4     0.3     0.3     0.2    -0.0     0.1    -0.1    -0.2    -0.1
     0.0     0.2    -0.0     0.1     0.1    -0.0     0.2     0.1     0.1     0.1
     0.3     0.5     0.1     0.2     0.2     0.1     0.3     0.1     0.4     0.4
     0.1     0.1     0.1     0.2     0.2     0.3     0.2     0.1     0.0    -0.0
     0.1     0.2     0.3     0.3     0.3     0.2    -0.0     0.2     0.1    -0.1
     0.3     0.0    -0.0     0.3    -0.0    -0.0    -0.2    -0.1     0.3     0.0
     0.2     0.2     0.0    -0.1     0.0     0.2    -0.0    -0.1    -0.2     0.0
     0.2     0.2     0.3     0.1     0.1     0.2     0.0     0.3     0.1     0.1
     0.3     0.1     0.2     0.4     0.4     0.3     0.3     0.4     0.2     0.1
    -0.0    -0.1     0.0     0.1     0.1     0.2     0.3     0.3     0.4     0.2
     0.2     0.1    -0.0     0.3     0.4     0.3     0.0     0.1     0.3     0.1
     0.0     0.0    -0.0    -0.2    -0.1     0.2     0.1    -0.1    -0.1     0.0
    -0.3    -0.2     0.2    -0.1    -0.1     0.1     0.2     0.4     0.4     0.4
     0.3     0.4     0.3     0.3     0.4     0.1    -0.0     0.2     0.1    -0.1
     0.1     0.2     0.1     0.1     0.1     0.1    -0.1    -0.2     0.1     0.1
     0.3     0.4     0.3     0.6     0.3     0.3     0.1    -0.1     0.3     0.0
    -0.2    -0.1    -0.1     0.0     0.2     0.3    -0.0    -0.0    -0.2    -0.2
    -0.2    -0.2     0.2    -0.1     0.2     0.5     0.2     0.3     0.3     0.3
    -0.0    -0.0     0.4     0.1    -0.1     0.1    -0.1    -0.1     0.1     0.0
    -0.0     0.1     0.3     0.3     0.1     0.3     0.4    -0.0     0.1     0.3
    -0.1     0.0     0.3     0.1     0.1     0.3     0.2     0.0    -0.1    -0.1
    -0.3    -0.2    -0.0     0.0     0.2     0.0     0.0    -0.0    -0.1     0.0
