Uncorrected accelerogram 20160214_001343_GOVS_20 GNS Science
Site GOVS      43 39 09S  172 38 09E     Basalt file:  20160214_001348_GOVS
Living Springs Camp Governors Bay
Instrument Basalt_558
Resolution: 24-bit   Instr Period: 0.0050 s   Damping: 0.700
Accelerogram 20160214_001343_GOVS_20                 Processed 2016 February 22
11 km east of CHRISTCHURCH
2016 February 14         00:13:43 UT
Epicentre  43 29 50S 172 45 18E  Bearing N29E  Dist   20km  Depth    8km M  5.70
Number of points  35200    Duration 176.00 s
Raw readings in units of 1.00 mm/s/s  at intervals of 0.005 s
Data is unfiltered
Component N62W
Acceleration:  Peak  -1419.0 mm/s/s at  44.27 s     RMS    77.28 mm/s/s
Velocity record unevaluated
Displacement record unevaluated
    2016       2      14       0      13     430       0       0    2016       2
      43      29      50     172      45      18       8       0      14       0
      43      39       9     172      38       9     298     298      29      20
   35200       0       0   35200       0       0       0       0      13    8000
   200.0    0.70    0.00   0.000  0.0000   0.000   0.000   1.000     0.0    0.00
  43.652 172.636  43.497 172.755    5.70    0.00    0.00    0.00      0.      0.
  176.00    0.00    0.00  176.00  0.0050  0.0050      0.      0.      0.  9806.6
 -1419.0   44.27    77.3      0.      0.     0.0    0.00     0.0     0.0   0.000
    0.00    0.00    0.00    0.00   0.000    0.00    0.00    0.00    0.00   0.000
   0.000   0.000   0.000      0.      0.   0.000   0.000   0.000      0.      0.
    -0.0     0.0     0.0     0.0     0.1    -0.0     0.1     0.1    -0.0     0.0
     0.0    -0.0     0.0    -0.0    -0.1     0.0     0.0    -0.0     0.0     0.0
     0.0     0.0     0.1    -0.0     0.0     0.0    -0.1     0.0    -0.0    -0.0
     0.0     0.0     0.0     0.1     0.1     0.1     0.0    -0.0    -0.1    -0.2
    -0.1     0.1     0.1     0.3     0.2    -0.0    -0.2    -0.3    -0.2     0.0
     0.2     0.3     0.2     0.0    -0.2    -0.3    -0.2     0.0     0.2     0.1
     0.1     0.1     0.0     0.0     0.0    -0.1    -0.1    -0.1    -0.0     0.1
     0.1     0.0     0.0     0.0     0.0     0.0     0.0     0.0     0.0     0.1
     0.0    -0.1    -0.1    -0.2    -0.1     0.1     0.2     0.2     0.1     0.0
    -0.1    -0.1    -0.0     0.0     0.0     0.1     0.1    -0.1    -0.1    -0.1
     0.0     0.2     0.2     0.2    -0.0    -0.0    -0.1    -0.1    -0.0    -0.0
     0.0     0.0     0.0     0.1     0.0     0.1     0.1    -0.0    -0.0    -0.1
    -0.0    -0.0     0.0     0.1     0.1     0.0    -0.0    -0.1    -0.1     0.0
     0.1     0.1     0.1    -0.0    -0.1    -0.1    -0.1    -0.0     0.0     0.1
     0.0     0.0     0.0     0.0     0.0    -0.0    -0.0    -0.0    -0.0    -0.1
    -0.0     0.1     0.0     0.1     0.1     0.0    -0.0    -0.1    -0.0    -0.0
     0.0     0.0     0.0     0.0    -0.0     0.0    -0.1     0.0     0.0     0.0
     0.1    -0.0     0.0    -0.0    -0.0     0.0    -0.0     0.1     0.0     0.0
     0.0     0.0     0.1     0.0     0.1     0.0    -0.0    -0.0    -0.1    -0.0
    -0.0     0.0     0.0    -0.0     0.1     0.0     0.0     0.0     0.0     0.1
     0.0     0.0     0.0    -0.0    -0.1    -0.0    -0.0     0.0     0.1     0.0
     0.1     0.1    -0.0     0.0    -0.0    -0.0     0.0    -0.1     0.0     0.0
     0.0     0.1     0.0     0.1    -0.0     0.0     0.0    -0.1    -0.0    -0.0
    -0.0     0.0    -0.0     0.0     0.0     0.1     0.1     0.0     0.0     0.0
    -0.0    -0.0    -0.0    -0.0     0.0     0.0     0.0     0.0     0.0     0.0
    -0.0     0.0    -0.0    -0.0     0.1    -0.1    -0.0    -0.0    -0.1     0.0
     0.0     0.0     0.0     0.0     0.0    -0.0     0.0    -0.0    -0.0    -0.0
    -0.0     0.0     0.0    -0.0     0.0     0.0     0.0     0.0     0.0     0.1
     0.0    -0.0    -0.0    -0.0    -0.0    -0.0    -0.0    -0.0     0.1     0.0
     0.0     0.1     0.0     0.0    -0.0    -0.0     0.0    -0.0    -0.0     0.0
    -0.0    -0.0     0.0     0.0     0.0     0.1     0.0     0.0     0.0    -0.0
    -0.0    -0.0     0.0    -0.0     0.0     0.1     0.0     0.0     0.1     0.0
     0.0     0.0     0.0    -0.0    -0.0    -0.0    -0.0    -0.0     0.0     0.0
     0.0     0.0     0.1     0.0     0.0     0.0     0.0    -0.0    -0.0    -0.0
     0.0     0.0     0.0     0.0     0.0     0.0     0.0     0.0    -0.0     0.0
    -0.0    -0.1     0.0    -0.1     0.0     0.0     0.0     0.1     0.0     0.0
     0.0     0.0    -0.0    -0.0    -0.0    -0.0    -0.0    -0.0     0.0     0.0
     0.0     0.0     0.1     0.0     0.0    -0.0    -0.0    -0.0    -0.0     0.0
    -0.0     0.0     0.0     0.0     0.1     0.0     0.0     0.0     0.0     0.0
     0.0    -0.0    -0.0     0.0    -0.1     0.0     0.0     0.0     0.1     0.0
     0.1     0.0    -0.0     0.0     0.0    -0.0    -0.1     0.0    -0.0    -0.0
     0.1     0.0     0.0     0.1     0.0     0.0     0.0    -0.0    -0.0    -0.0
    -0.0     0.0     0.0     0.0     0.1     0.1     0.0    -0.0     0.0     0.0
    -0.0     0.0    -0.0    -0.0     0.0    -0.0     0.0    -0.0     0.1     0.1
    -0.0     0.0     0.0    -0.1     0.0     0.0    -0.0     0.0    -0.0     0.0
     0.0     0.0     0.1     0.0     0.1     0.0     0.0    -0.0    -0.0     0.0
    -0.1     0.0     0.0    -0.0     0.1    -0.0     0.0     0.1    -0.0     0.0
    -0.0     0.0    -0.0    -0.0     0.0    -0.0     0.0     0.0     0.1     0.0
     0.0     0.0    -0.0     0.0     0.0     0.0     0.0    -0.0     0.0    -0.0
    -0.0    -0.0     0.0     0.0     0.0     0.1     0.0     0.0     0.0    -0.0
     0.0    -0.1    -0.0     0.0    -0.0     0.1     0.0     0.0    -0.0    -0.0
     0.0     0.1     0.0    -0.0     0.0    -0.0    -0.2     0.0     0.0    -0.0
     0.1     0.1     0.0     0.1     0.1    -0.1    -0.1    -0.0    -0.1    -0.0
     0.0     0.0     0.1    -0.0     0.1     0.0    -0.1     0.1     0.0    -0.0
    -0.0    -0.0     0.0     0.0    -0.0    -0.0     0.0     0.0     0.0     0.1
     0.0     0.0    -0.0    -0.0    -0.0    -0.0     0.0     0.0     0.0     0.1
     0.0     0.0     0.1     0.0     0.0     0.0    -0.0    -0.0    -0.0    -0.0
    -0.0     0.0     0.1     0.0     0.1     0.0     0.1    -0.0    -0.0     0.0
    -0.0     0.0    -0.0     0.0     0.0     0.0     0.0     0.0     0.0     0.0
     0.0     0.0     0.0    -0.0    -0.1    -0.0    -0.0    -0.0     0.0     0.0
     0.1     0.1     0.0     0.1     0.0    -0.0    -0.0    -0.0    -0.0    -0.0
    -0.0     0.0     0.0     0.0     0.0     0.0     0.0    -0.0     0.0     0.0
    -0.0    -0.0    -0.1     0.0    -0.0    -0.0     0.0     0.0     0.1     0.1
     0.0     0.0    -0.0     0.0    -0.0    -0.0     0.0    -0.0     0.0     0.0
     0.0     0.1    -0.0     0.0     0.0    -0.0     0.0     0.0    -0.0     0.0
    -0.0    -0.1     0.0     0.0     0.0     0.1     0.0     0.0     0.0    -0.0
    -0.0     0.0    -0.0    -0.0     0.0     0.0     0.0    -0.0     0.0     0.0
     0.0     0.0     0.0     0.0    -0.0    -0.1    -0.0    -0.0    -0.0     0.0
     0.1     0.0     0.0     0.0     0.0     0.0     0.0    -0.0    -0.0    -0.0
    -0.0    -0.0     0.0     0.0     0.0     0.0     0.0     0.1     0.0     0.0
     0.0     0.0    -0.0    -0.0     0.0    -0.0    -0.0     0.1    -0.0     0.0
     0.0     0.0     0.0    -0.0     0.0     0.0    -0.0    -0.0    -0.0     0.0
    -0.0     0.0     0.0     0.1     0.0     0.0     0.0    -0.0     0.0    -0.0
    -0.0    -0.0    -0.1    -0.0     0.0     0.0     0.1     0.0     0.0     0.0
    -0.0    -0.0    -0.0     0.0    -0.0    -0.0     0.0    -0.0     0.0     0.0
     0.0     0.1    -0.0     0.0     0.0    -0.0    -0.0    -0.1    -0.0    -0.0
     0.0     0.0    -0.0     0.1     0.0     0.1     0.0    -0.1     0.0     0.0
    -0.0    -0.0    -0.0    -0.0    -0.0     0.0     0.0     0.0     0.1     0.0
    -0.0     0.0    -0.0    -0.1    -0.0     0.0    -0.0     0.0    -0.0     0.0
     0.1    -0.0     0.0     0.1    -0.0     0.0     0.0    -0.0    -0.0    -0.0
     0.0     0.0     0.0     0.0     0.0     0.1     0.0     0.0    -0.0    -0.0
    -0.0    -0.1    -0.0    -0.0     0.0     0.0     0.0     0.1     0.0     0.1
    -0.0    -0.0     0.0    -0.0    -0.0    -0.0     0.0     0.0    -0.0     0.1
     0.0    -0.0     0.0     0.0     0.0    -0.0    -0.0    -0.0    -0.0    -0.0
    -0.0     0.0     0.0     0.0     0.0     0.0     0.1     0.0     0.0     0.0
    -0.0    -0.1     0.0    -0.0     0.0     0.0     0.0     0.1     0.0     0.1
     0.0    -0.0     0.0    -0.0    -0.0     0.0    -0.0    -0.0    -0.0     0.0
     0.0     0.0     0.0     0.0     0.0     0.0    -0.0    -0.0    -0.0    -0.0
    -0.0    -0.0    -0.0     0.0     0.0     0.0     0.0     0.0     0.0     0.0
    -0.0    -0.0    -0.0    -0.1    -0.0     0.0     0.0     0.1     0.0     0.0
     0.0     0.0    -0.0    -0.0     0.0    -0.0     0.0    -0.0    -0.1     0.0
     0.1     0.0     0.0     0.1    -0.0    -0.1     0.0     0.0    -0.1     0.0
     0.0    -0.0     0.0     0.0     0.0    -0.0     0.0     0.0    -0.0    -0.0
    -0.0     0.0    -0.0     0.0    -0.0    -0.0     0.0    -0.0     0.0     0.0
     0.0     0.0     0.0     0.0    -0.0    -0.0    -0.1    -0.0    -0.0    -0.0
     0.0     0.0     0.0     0.0     0.0    -0.0     0.0    -0.0     0.0    -0.0
    -0.1     0.0    -0.0     0.0     0.0     0.0     0.1     0.0     0.0     0.0
    -0.0     0.0    -0.0    -0.0    -0.0    -0.1    -0.0     0.0     0.0     0.1
     0.0     0.0     0.0    -0.0     0.0    -0.1    -0.0    -0.0    -0.1     0.0
    -0.0     0.0     0.0     0.0     0.1    -0.0     0.0     0.0    -0.1    -0.0
    -0.0    -0.0    -0.0     0.0     0.0    -0.0     0.1     0.0     0.0     0.1
     0.0     0.0    -0.1    -0.0    -0.0    -0.0     0.0     0.0     0.0     0.0
     0.0     0.0    -0.0     0.1     0.0    -0.0     0.0    -0.0    -0.0    -0.0
     0.0    -0.0     0.0     0.0     0.0     0.0     0.0     0.0    -0.0     0.0
     0.0    -0.1     0.0    -0.0    -0.0     0.0     0.0     0.0     0.0     0.1
     0.0     0.0     0.1    -0.0    -0.0     0.0    -0.0     0.0    -0.0     0.0
     0.1     0.0     0.1     0.0     0.0    -0.0    -0.0     0.0    -0.0     0.0
     0.0     0.0     0.0    -0.0     0.1     0.0     0.0     0.0    -0.0    -0.0
    -0.0    -0.0    -0.0    -0.0    -0.0     0.0     0.0     0.0     0.0     0.1
     0.0     0.0     0.0     0.0    -0.0    -0.0    -0.0     0.0    -0.0     0.0
     0.0     0.0     0.0    -0.0     0.1     0.0     0.0     0.0    -0.0     0.0
    -0.0    -0.0     0.0     0.0     0.0     0.0     0.0     0.0     0.0     0.0
    -0.0    -0.0    -0.0    -0.0    -0.0    -0.0    -0.0     0.1     0.0     0.0
     0.1     0.0     0.0    -0.0    -0.0    -0.0    -0.1    -0.0    -0.0    -0.0
     0.0     0.1     0.0     0.0     0.0    -0.0     0.0     0.0     0.0    -0.0
    -0.0    -0.0    -0.0     0.0     0.0     0.0     0.0     0.0     0.0     0.0
     0.0    -0.0    -0.0    -0.0    -0.1     0.0     0.0     0.0     0.1     0.0
     0.0     0.0     0.0     0.0    -0.0    -0.0     0.0     0.0    -0.0    -0.0
     0.0    -0.0     0.0     0.0     0.0     0.0     0.0     0.0    -0.0     0.0
    -0.0    -0.1     0.0    -0.0    -0.0     0.1     0.0     0.0     0.1     0.0
    -0.0     0.0    -0.0    -0.0    -0.0     0.0    -0.0    -0.0     0.0     0.1
     0.1     0.0     0.0     0.0    -0.0     0.0    -0.0    -0.0     0.0    -0.0
    -0.0     0.0     0.1     0.1    -0.0     0.0     0.1    -0.0    -0.0     0.0
    -0.0     0.0    -0.0    -0.0     0.0    -0.0     0.0     0.1    -0.0     0.0
     0.1     0.0     0.0    -0.1    -0.1    -0.0     0.0     0.0     0.0     0.1
     0.0     0.0     0.0     0.0     0.0    -0.0    -0.0    -0.0    -0.0    -0.0
    -0.0     0.0     0.1    -0.0     0.1     0.0     0.0     0.1    -0.0     0.0
    -0.0    -0.1     0.0    -0.0     0.0     0.1    -0.0     0.1     0.1    -0.0
     0.0     0.0    -0.0     0.0    -0.0    -0.1     0.0    -0.0     0.0     0.0
     0.0     0.1     0.0     0.0     0.0     0.0     0.0    -0.0     0.0    -0.0
    -0.0     0.0     0.0     0.0     0.1     0.0     0.0     0.0    -0.0     0.0
    -0.0    -0.0    -0.0    -0.0     0.0    -0.0     0.1     0.0     0.0     0.0
     0.0     0.0    -0.0     0.0    -0.0    -0.0     0.0     0.0     0.0    -0.0
     0.0    -0.0     0.1     0.0    -0.0     0.1    -0.0    -0.0    -0.0    -0.0
     0.0    -0.1     0.0     0.0     0.0     0.1     0.0     0.0     0.0     0.0
     0.0    -0.1    -0.0    -0.0    -0.0    -0.0     0.0     0.1    -0.0    -0.1
     0.1     0.1     0.0     0.0     0.0    -0.1    -0.1    -0.1     0.0     0.0
    -0.0     0.0     0.0     0.1     0.1    -0.0    -0.0    -0.0    -0.0     0.0
    -0.0     0.0     0.0     0.0     0.0    -0.0     0.1     0.1    -0.0     0.0
    -0.0     0.0     0.0    -0.0     0.0    -0.0     0.0     0.0     0.0     0.1
     0.0     0.0     0.0    -0.0    -0.0    -0.0    -0.0     0.0    -0.0    -0.0
     0.0     0.0     0.0     0.0     0.0     0.0     0.0     0.0    -0.0     0.0
    -0.0    -0.0    -0.0    -0.0     0.0     0.0     0.1     0.1     0.0     0.0
    -0.0     0.0    -0.0    -0.0    -0.0    -0.0    -0.0     0.1     0.1    -0.0
     0.1     0.0     0.0     0.0    -0.0    -0.0     0.0     0.0    -0.0     0.0
     0.0     0.0     0.0     0.0     0.1     0.0     0.1     0.0    -0.0     0.0
    -0.1    -0.0     0.0     0.0     0.0     0.0     0.1    -0.0     0.1     0.0
    -0.0     0.0    -0.1     0.0    -0.0    -0.0     0.0    -0.0     0.0     0.0
     0.0     0.0    -0.0     0.1    -0.0     0.0     0.0    -0.1    -0.0    -0.0
    -0.0     0.0     0.0     0.0     0.1     0.0    -0.0     0.1     0.0     0.0
     0.0    -0.0    -0.0    -0.0     0.0     0.0    -0.0     0.1     0.0     0.1
     0.1     0.0    -0.0     0.0    -0.0    -0.1    -0.0     0.0     0.0    -0.0
     0.1     0.1     0.0     0.0     0.0    -0.0    -0.0    -0.0     0.0    -0.0
    -0.0     0.0    -0.0     0.0     0.1     0.0     0.1     0.0     0.0     0.0
    -0.0    -0.0    -0.0     0.0     0.0     0.0     0.0    -0.0     0.0     0.0
     0.0     0.1    -0.0     0.0    -0.0     0.0     0.0    -0.0     0.0    -0.0
     0.0     0.0     0.1     0.0     0.0     0.0    -0.0    -0.0    -0.0     0.0
    -0.0     0.0     0.0    -0.0     0.0     0.0     0.0     0.0     0.0     0.1
     0.0     0.0    -0.0    -0.0    -0.0    -0.0     0.0    -0.0     0.0     0.0
    -0.0     0.1     0.0     0.0    -0.0    -0.0     0.0    -0.1    -0.0     0.0
     0.0     0.0     0.1     0.0     0.0     0.1    -0.0     0.0     0.0    -0.0
    -0.0    -0.1     0.0     0.0    -0.0     0.1     0.1     0.0     0.1     0.0
    -0.0     0.0    -0.0    -0.0     0.0    -0.0     0.0     0.0     0.0     0.0
     0.0     0.0     0.0     0.0     0.0    -0.0    -0.0    -0.0    -0.0     0.0
    -0.0     0.0     0.0     0.0     0.1     0.0     0.0    -0.0    -0.0    -0.0
    -0.0     0.0    -0.0    -0.0     0.0     0.0     0.0    -0.0    -0.0     0.0
     0.0    -0.0     0.0     0.0    -0.0    -0.0    -0.0     0.0     0.0     0.0
     0.0     0.0     0.1    -0.0     0.0     0.0    -0.1     0.0    -0.0     0.0
     0.0     0.0     0.0    -0.0     0.0     0.0     0.0     0.0    -0.0     0.0
    -0.0    -0.0     0.0     0.0    -0.0    -0.0     0.0     0.0     0.1     0.1
     0.0     0.0     0.0    -0.0    -0.0    -0.0    -0.0     0.0     0.0     0.0
     0.1     0.0    -0.0     0.1     0.1     0.0    -0.0     0.0    -0.1    -0.1
     0.0     0.0    -0.0     0.0     0.0     0.1     0.0     0.1     0.0    -0.0
     0.0    -0.0    -0.0    -0.0    -0.0     0.0     0.0     0.0     0.0     0.1
     0.0     0.0     0.0     0.0     0.0    -0.0    -0.0    -0.0    -0.0    -0.0
     0.0     0.0     0.1     0.1    -0.0     0.0    -0.0    -0.1     0.0    -0.0
    -0.1     0.0     0.0    -0.0     0.0     0.0     0.0     0.0     0.0     0.0
    -0.0     0.0    -0.1    -0.0     0.0    -0.0     0.0    -0.0     0.0     0.0
     0.0     0.1     0.0     0.0    -0.0    -0.0    -0.0    -0.1     0.0    -0.0
    -0.0     0.1     0.0     0.0     0.0     0.0     0.0     0.0     0.0    -0.0
    -0.0    -0.0    -0.0     0.0     0.0     0.0     0.1     0.1     0.0     0.0
     0.0    -0.0    -0.0    -0.0    -0.0     0.0     0.0     0.0     0.1     0.0
     0.0     0.0     0.0     0.0     0.0     0.0    -0.0    -0.0    -0.0     0.0
     0.0    -0.0     0.0     0.0     0.0     0.1     0.0     0.0     0.0    -0.0
    -0.0    -0.0    -0.0    -0.0     0.0     0.0     0.0     0.1     0.0    -0.0
     0.1    -0.0    -0.0     0.0    -0.0     0.0    -0.0     0.0     0.0     0.0
     0.1     0.0     0.0    -0.0     0.0    -0.0    -0.0     0.0    -0.0    -0.0
    -0.0     0.0     0.1     0.0     0.0     0.0     0.0     0.0     0.0    -0.0
     0.0    -0.0    -0.0    -0.0     0.0     0.0     0.0     0.1     0.0     0.1
     0.0    -0.1     0.0    -0.0     0.0     0.0    -0.0    -0.0     0.0     0.0
     0.0     0.0     0.0     0.0     0.0     0.0    -0.0     0.0    -0.0    -0.0
     0.0    -0.0     0.1     0.0     0.0     0.1     0.0     0.0     0.0    -0.0
    -0.0    -0.0    -0.0     0.0     0.0    -0.0     0.1     0.0     0.0     0.1
     0.0    -0.0     0.0     0.0    -0.0     0.0    -0.0    -0.0     0.0     0.0
     0.0     0.0     0.0     0.0     0.0     0.0     0.0     0.0    -0.0     0.0
    -0.0    -0.0     0.0     0.0     0.0     0.0     0.0     0.0     0.0     0.0
    -0.0    -0.0     0.0    -0.0    -0.0     0.0     0.0     0.0     0.0     0.0
     0.0     0.0     0.1     0.0     0.0    -0.0    -0.0    -0.0     0.0     0.0
    -0.0     0.0     0.0     0.0     0.0     0.0     0.1     0.0    -0.0    -0.0
    -0.0     0.0    -0.0     0.0     0.0     0.1     0.0     0.0     0.0     0.0
    -0.0     0.0    -0.0    -0.0    -0.0    -0.0    -0.0     0.0     0.0     0.0
     0.0     0.1     0.0    -0.0     0.0    -0.0    -0.0    -0.0    -0.0     0.0
     0.0     0.1    -0.0     0.0     0.1    -0.0     0.0     0.0     0.0    -0.0
    -0.0    -0.0    -0.0     0.0    -0.0     0.0     0.1     0.0     0.0     0.0
     0.0     0.0    -0.0    -0.0     0.0    -0.0    -0.0     0.0     0.0     0.0
     0.0     0.0     0.1     0.0    -0.1     0.0    -0.0    -0.0     0.0    -0.0
     0.0     0.0     0.0     0.0     0.0     0.0     0.0     0.0     0.0     0.0
    -0.0    -0.0     0.0    -0.0     0.0    -0.0     0.0     0.1     0.0     0.0
     0.0     0.0     0.0     0.0    -0.0     0.0     0.0    -0.0     0.0     0.0
     0.0     0.0     0.0     0.1     0.0     0.0    -0.0    -0.0    -0.0    -0.0
     0.0    -0.0     0.0     0.1     0.0     0.0     0.0     0.0     0.0     0.0
    -0.0    -0.0    -0.0    -0.0    -0.0    -0.0    -0.0     0.0     0.0     0.0
     0.1     0.0    -0.0     0.0    -0.0    -0.0    -0.0     0.0    -0.0    -0.0
     0.0     0.0     0.0     0.0     0.0    -0.0    -0.0     0.0    -0.0    -0.0
     0.0    -0.0     0.0     0.0     0.0     0.0     0.0     0.0     0.0    -0.0
     0.0    -0.0    -0.0    -0.0    -0.0    -0.0     0.0     0.0    -0.0     0.1
     0.0    -0.0     0.1     0.0    -0.0    -0.0    -0.1    -0.0    -0.0    -0.0
     0.0     0.1     0.0     0.0     0.0     0.0     0.0    -0.0     0.0    -0.0
    -0.0    -0.0    -0.1     0.0     0.0     0.1     0.0     0.0     0.1     0.0
    -0.0    -0.0    -0.0    -0.0    -0.0     0.0     0.0    -0.0     0.0     0.0
     0.0     0.1    -0.0     0.0     0.0    -0.0    -0.0    -0.0     0.0    -0.0
    -0.0     0.0     0.0     0.1     0.1     0.0    -0.0     0.0     0.0    -0.0
    -0.0     0.0    -0.0     0.0     0.0     0.0     0.1    -0.0     0.0     0.1
     0.0    -0.0    -0.1     0.0    -0.0    -0.0     0.0     0.0     0.0     0.0
     0.0     0.0     0.0     0.0     0.0     0.0    -0.0     0.0    -0.0    -0.0
     0.0    -0.0     0.0     0.1     0.0     0.0     0.0     0.0    -0.0    -0.0
    -0.0    -0.0     0.0     0.0     0.0     0.0     0.0     0.0     0.0     0.0
