Uncorrected accelerogram 20160214_001343_WAKC_20 GNS Science
Site WAKC      42 57 47S  172 42 19E     Basalt file:  20160214_001355_WAKC
Waikari
Instrument Basalt_614
Resolution: 24-bit   Instr Period: 0.0050 s   Damping: 0.700
Accelerogram 20160214_001343_WAKC_20                 Processed 2016 February 22
11 km east of CHRISTCHURCH
2016 February 14         00:13:43 UT
Epicentre  43 29 50S 172 45 18E  Bearing S04E  Dist   60km  Depth    8km M  5.70
Number of points  33000    Duration 165.00 s
Raw readings in units of 1.00 mm/s/s  at intervals of 0.005 s
Data is unfiltered
Component S14E
Acceleration:  Peak    314.9 mm/s/s at  53.62 s     RMS    25.96 mm/s/s
Velocity record unevaluated
Displacement record unevaluated
    2016       2      14       0      13     430       0       0    2016       2
      43      29      50     172      45      18       8       0      14       0
      42      57      47     172      42      19     166     166     176      60
   33000       0       0   33000       0       0       0       0      13   15000
   200.0    0.70    0.00   0.000  0.0000   0.000   0.000   1.000     0.0    0.00
  42.963 172.705  43.497 172.755    5.70    0.00    0.00    0.00      0.      0.
  165.00    0.00    0.00  165.00  0.0050  0.0050      0.      0.      0.  9806.6
   314.9   53.62    26.0      0.      0.     0.0    0.00     0.0     0.0   0.000
    0.00    0.00    0.00    0.00   0.000    0.00    0.00    0.00    0.00   0.000
   0.000   0.000   0.000      0.      0.   0.000   0.000   0.000      0.      0.
    -0.1    -0.1    -0.0     0.1    -0.1    -0.0     0.1     0.0    -0.0    -0.0
     0.0     0.1    -0.1    -0.0     0.0     0.1    -0.1    -0.1     0.1    -0.1
    -0.1    -0.0    -0.0     0.1    -0.1    -0.0     0.1     0.1     0.0    -0.1
     0.0     0.0    -0.0    -0.1    -0.0     0.1    -0.2    -0.1     0.1     0.0
    -0.1    -0.1     0.1    -0.0    -0.1    -0.0     0.0     0.0    -0.1    -0.1
     0.0     0.1    -0.1    -0.1     0.1    -0.1    -0.1    -0.1     0.0     0.0
    -0.1    -0.0     0.0     0.1     0.0    -0.1     0.1     0.0    -0.0    -0.1
     0.1     0.0    -0.1    -0.0     0.0     0.0    -0.1    -0.1     0.1    -0.0
    -0.1    -0.0     0.1     0.0     0.0    -0.0     0.0     0.1    -0.1    -0.0
    -0.0    -0.1    -0.1    -0.1     0.2     0.0    -0.0     0.0     0.1     0.1
    -0.1     0.0     0.0     0.1    -0.0    -0.1     0.2     0.0    -0.2    -0.0
     0.0    -0.1    -0.0    -0.0    -0.0     0.0    -0.1    -0.0     0.1    -0.0
    -0.0    -0.1    -0.0     0.0    -0.0    -0.1     0.0     0.1    -0.1     0.1
     0.1     0.0     0.0    -0.1     0.0     0.0    -0.1    -0.0     0.0    -0.0
    -0.1    -0.1    -0.0     0.0    -0.0    -0.0     0.1     0.0     0.1    -0.0
     0.0     0.0    -0.1    -0.0    -0.0    -0.0    -0.1    -0.1    -0.1     0.0
     0.0    -0.1     0.1     0.0    -0.0     0.0     0.0     0.1    -0.0    -0.0
     0.0     0.0     0.0    -0.0     0.0    -0.1    -0.1    -0.0    -0.1     0.0
    -0.0    -0.1     0.0    -0.0     0.0     0.0    -0.0    -0.0    -0.0     0.0
    -0.0     0.0    -0.0    -0.0    -0.0    -0.0     0.1    -0.0    -0.0     0.0
    -0.0    -0.0     0.1     0.0    -0.1    -0.0    -0.1    -0.0    -0.0    -0.1
    -0.0    -0.0    -0.0    -0.0     0.0     0.0     0.0    -0.0     0.0     0.1
     0.1     0.1     0.0     0.0    -0.0    -0.1     0.1    -0.0    -0.1    -0.1
    -0.1    -0.1    -0.1    -0.0    -0.0    -0.0    -0.0     0.0     0.1     0.0
    -0.0     0.0    -0.1    -0.0    -0.0    -0.0     0.0    -0.0    -0.0     0.0
     0.0    -0.0    -0.0     0.0    -0.0    -0.0    -0.0    -0.0    -0.0    -0.1
    -0.0    -0.0     0.0    -0.1    -0.0     0.1    -0.1     0.0    -0.1    -0.0
     0.1    -0.1     0.0     0.0     0.0     0.1     0.0    -0.0    -0.1     0.0
    -0.0    -0.0     0.0    -0.1    -0.0    -0.0    -0.0     0.0    -0.1     0.0
     0.0    -0.1     0.0    -0.0    -0.0     0.0     0.0    -0.0     0.0     0.1
    -0.0    -0.0    -0.0    -0.0     0.0     0.0     0.1    -0.0    -0.0     0.0
    -0.1    -0.0    -0.0    -0.1    -0.1     0.0    -0.0    -0.0     0.0    -0.0
    -0.0    -0.0    -0.0     0.0     0.0     0.0    -0.1    -0.0     0.1     0.0
    -0.0     0.0     0.0    -0.1    -0.0     0.0     0.1    -0.1    -0.0     0.1
    -0.0    -0.1    -0.1     0.0    -0.0    -0.1    -0.1    -0.0     0.0    -0.0
    -0.1     0.1     0.0     0.0     0.1     0.1     0.0    -0.1     0.0    -0.0
    -0.0    -0.0    -0.1    -0.1    -0.0    -0.0    -0.0     0.1     0.0    -0.1
    -0.0     0.1     0.0     0.0     0.0     0.0     0.0    -0.0    -0.0    -0.0
    -0.1    -0.1    -0.1    -0.0     0.0    -0.1    -0.0     0.0     0.0    -0.0
     0.0     0.0    -0.0    -0.0    -0.0    -0.0     0.0    -0.0    -0.0    -0.0
     0.0     0.0    -0.0     0.1     0.1    -0.1    -0.0     0.0     0.0    -0.1
    -0.1    -0.0    -0.0    -0.0    -0.1     0.0     0.1    -0.1    -0.1     0.0
     0.0    -0.1     0.0     0.1     0.0     0.0    -0.0    -0.0    -0.0     0.0
     0.0    -0.1     0.0     0.0    -0.1    -0.0     0.1    -0.0    -0.0     0.1
    -0.0     0.0     0.1    -0.0    -0.0    -0.0    -0.0    -0.0    -0.0     0.0
    -0.1    -0.1     0.1    -0.1    -0.0     0.0    -0.1    -0.0    -0.0    -0.0
     0.1    -0.0    -0.1     0.0     0.0     0.0    -0.0    -0.1     0.0     0.0
    -0.1    -0.0     0.0     0.0    -0.0     0.0     0.0    -0.0    -0.0    -0.0
    -0.1    -0.0    -0.1    -0.1     0.0    -0.0    -0.0    -0.0     0.0     0.1
    -0.1    -0.1     0.1     0.0    -0.0    -0.0     0.1     0.0    -0.1    -0.0
    -0.0     0.0    -0.0    -0.1     0.0     0.0    -0.1    -0.1     0.0     0.0
    -0.1    -0.0    -0.0     0.0    -0.0    -0.1     0.0     0.1    -0.0    -0.0
     0.0     0.1    -0.0    -0.1    -0.0     0.0    -0.0    -0.2    -0.0     0.1
    -0.1    -0.1     0.0     0.1    -0.0    -0.0     0.0    -0.0     0.0    -0.0
    -0.1     0.1    -0.0    -0.1     0.1     0.0    -0.1    -0.0     0.0    -0.0
     0.0    -0.0    -0.1     0.0     0.0    -0.1    -0.0     0.0    -0.0    -0.1
    -0.0    -0.0     0.0    -0.1    -0.1     0.1    -0.0    -0.0     0.0     0.0
     0.1    -0.1     0.0     0.1    -0.1    -0.0    -0.0    -0.0    -0.0    -0.0
    -0.1    -0.0    -0.0    -0.1    -0.0     0.0    -0.0    -0.1    -0.0     0.0
     0.0    -0.0    -0.1     0.0     0.0    -0.1    -0.0     0.1     0.0    -0.0
    -0.0     0.1     0.0    -0.1     0.0     0.1    -0.0    -0.1    -0.0     0.0
    -0.1    -0.0    -0.1    -0.1     0.0    -0.0    -0.0    -0.0     0.0     0.0
    -0.1    -0.0     0.0    -0.0    -0.1    -0.0     0.1    -0.1    -0.1     0.0
    -0.0    -0.0    -0.1     0.0     0.1    -0.1    -0.0    -0.0    -0.0     0.0
    -0.0    -0.0     0.1    -0.0    -0.0     0.0     0.0     0.0    -0.1    -0.0
     0.0    -0.0    -0.1     0.0    -0.0    -0.1     0.0    -0.0    -0.0    -0.0
    -0.1    -0.1     0.1    -0.0    -0.1     0.0    -0.0    -0.0    -0.1    -0.0
     0.1    -0.1    -0.0    -0.1     0.0     0.0    -0.1     0.1     0.0    -0.1
    -0.0    -0.1     0.0    -0.1    -0.1    -0.0    -0.0    -0.0    -0.0     0.0
     0.1    -0.0    -0.0     0.1     0.0     0.0     0.0    -0.0     0.1     0.0
    -0.1     0.0    -0.0    -0.0    -0.1    -0.1     0.0    -0.0    -0.1    -0.1
     0.1     0.1    -0.1     0.0     0.0    -0.0    -0.1    -0.0    -0.0    -0.1
    -0.0    -0.1    -0.0     0.0    -0.1     0.0     0.0    -0.0     0.0    -0.0
     0.0     0.0    -0.0    -0.0     0.0    -0.0    -0.1    -0.1     0.0    -0.1
    -0.1    -0.0    -0.0    -0.0    -0.0    -0.0     0.1     0.0    -0.0     0.0
     0.0     0.0    -0.1     0.1     0.1    -0.1     0.0    -0.0    -0.1     0.0
    -0.0    -0.1     0.1    -0.0    -0.1    -0.0     0.0    -0.0    -0.1     0.0
     0.0     0.0     0.0    -0.0     0.0     0.0    -0.0     0.1    -0.0     0.0
    -0.0    -0.1    -0.0    -0.0     0.0    -0.0    -0.0     0.0    -0.1    -0.0
    -0.0    -0.0    -0.0    -0.1    -0.0     0.0     0.0     0.0     0.0     0.0
    -0.0     0.0     0.1    -0.0    -0.1     0.0    -0.0    -0.1    -0.0    -0.1
    -0.1    -0.0    -0.0    -0.1     0.0     0.1    -0.1     0.0    -0.0    -0.0
     0.1    -0.1    -0.0    -0.0    -0.1     0.0    -0.0    -0.1     0.1    -0.1
    -0.1     0.1    -0.1    -0.1    -0.0     0.0    -0.1     0.0     0.1    -0.0
     0.0    -0.0    -0.1     0.0     0.0    -0.1     0.0     0.0    -0.0    -0.0
     0.1     0.0    -0.0    -0.0    -0.1    -0.1    -0.0    -0.1    -0.1     0.0
     0.0    -0.1     0.0     0.1    -0.0     0.0    -0.0     0.1     0.1    -0.0
     0.1     0.0    -0.1    -0.0     0.0    -0.0    -0.0    -0.0    -0.1    -0.0
     0.0    -0.0    -0.0    -0.0     0.0    -0.1    -0.0    -0.0    -0.0    -0.0
    -0.1    -0.0     0.1     0.0    -0.0     0.0     0.1    -0.1    -0.0     0.0
    -0.0    -0.1    -0.1    -0.0    -0.1    -0.1    -0.0    -0.0     0.0    -0.0
    -0.0    -0.0    -0.0     0.0    -0.0     0.0     0.1     0.0    -0.0     0.0
     0.1    -0.0     0.0     0.0     0.0    -0.0    -0.1    -0.0    -0.1    -0.0
    -0.1    -0.1     0.0    -0.0    -0.0     0.0     0.1     0.1    -0.1     0.1
     0.1    -0.1    -0.0    -0.0    -0.1    -0.1    -0.0    -0.0    -0.1    -0.0
    -0.1    -0.1     0.0     0.0    -0.0     0.1     0.0     0.0     0.0     0.0
     0.0    -0.0    -0.0    -0.1    -0.0     0.0    -0.1    -0.0     0.0     0.0
    -0.0    -0.0    -0.0    -0.1    -0.0     0.0    -0.0    -0.0    -0.0    -0.0
    -0.0     0.1    -0.0    -0.1     0.0    -0.1    -0.0    -0.1    -0.1     0.0
    -0.1    -0.0     0.0     0.0    -0.0    -0.0     0.1     0.0     0.0    -0.0
    -0.0     0.0    -0.1     0.0    -0.0     0.0     0.1    -0.1    -0.0     0.0
    -0.0    -0.1     0.0     0.0    -0.1    -0.1    -0.1    -0.0    -0.0    -0.1
     0.0    -0.0    -0.0    -0.0    -0.0     0.0     0.0     0.0     0.0     0.0
    -0.0     0.0     0.0    -0.0     0.0    -0.1    -0.0     0.0    -0.1    -0.0
    -0.0     0.0     0.0    -0.1     0.0     0.0    -0.0    -0.0     0.0     0.0
    -0.0    -0.0     0.0     0.0    -0.0     0.1    -0.1    -0.0    -0.0    -0.1
    -0.0     0.0    -0.1    -0.1    -0.0    -0.0    -0.0     0.0     0.0     0.1
    -0.0    -0.0     0.0     0.0     0.1    -0.0    -0.0     0.1    -0.0    -0.0
    -0.0    -0.0    -0.1    -0.1    -0.1     0.0    -0.1    -0.1     0.0    -0.0
     0.0     0.0     0.0     0.1    -0.0     0.0     0.0     0.0     0.0    -0.0
    -0.0     0.0     0.0     0.0    -0.1    -0.0    -0.0    -0.1    -0.1    -0.0
    -0.0    -0.0    -0.0     0.0     0.0     0.0     0.0    -0.0     0.0     0.0
    -0.0    -0.0     0.0    -0.0    -0.1     0.0    -0.0    -0.0    -0.0    -0.0
     0.0    -0.0    -0.0     0.1     0.0     0.0     0.0    -0.0     0.0     0.0
    -0.0    -0.0     0.0    -0.1    -0.0    -0.0    -0.0    -0.0    -0.0     0.0
     0.0    -0.0    -0.0    -0.0     0.0    -0.0    -0.0     0.0     0.1    -0.0
    -0.1    -0.0    -0.0    -0.0    -0.0    -0.0    -0.0     0.0     0.0    -0.1
     0.0     0.0    -0.0     0.0    -0.0     0.0     0.0    -0.0     0.0    -0.0
     0.0    -0.0    -0.0    -0.0    -0.1    -0.0    -0.1    -0.0    -0.0    -0.1
     0.0     0.0    -0.0    -0.1     0.1     0.0    -0.0     0.1    -0.0    -0.0
     0.0    -0.0    -0.1    -0.0    -0.0    -0.1    -0.0     0.0     0.0    -0.0
     0.0     0.0    -0.0    -0.0    -0.0     0.0     0.0    -0.0     0.0     0.0
    -0.0     0.0    -0.0    -0.0     0.0     0.0    -0.0     0.0    -0.0    -0.1
    -0.0     0.0    -0.0    -0.0    -0.0     0.0    -0.0     0.0    -0.0    -0.0
     0.0     0.0    -0.0    -0.0     0.0    -0.0    -0.0     0.1     0.0    -0.0
    -0.0    -0.0    -0.0    -0.0     0.0     0.0    -0.0     0.0    -0.0     0.0
     0.0    -0.1    -0.0    -0.0    -0.0    -0.1    -0.0     0.0    -0.1    -0.0
    -0.0     0.0     0.0    -0.0     0.0    -0.0     0.0    -0.1    -0.1    -0.0
    -0.0    -0.0    -0.0     0.0    -0.0     0.0    -0.0     0.0     0.1    -0.1
    -0.0     0.0     0.0    -0.0    -0.0     0.0     0.0    -0.0    -0.0    -0.0
     0.0    -0.0    -0.1     0.0     0.0    -0.0     0.0    -0.1     0.0     0.0
    -0.1     0.0     0.0    -0.0    -0.0    -0.1    -0.0    -0.0    -0.1     0.0
    -0.0     0.0     0.0    -0.0     0.0    -0.0    -0.1    -0.0     0.0    -0.0
    -0.0     0.0     0.0     0.0    -0.0    -0.0     0.0    -0.0    -0.0    -0.1
     0.0     0.0    -0.1    -0.0    -0.0     0.0    -0.0     0.0     0.1     0.0
     0.0    -0.0     0.1     0.1    -0.0    -0.0    -0.1     0.0    -0.0    -0.1
     0.0     0.0    -0.0    -0.0    -0.0     0.0     0.0    -0.0    -0.0     0.0
    -0.0    -0.0    -0.1     0.0    -0.1    -0.1     0.0    -0.0    -0.0    -0.1
     0.0     0.0    -0.1    -0.0    -0.0     0.1     0.1    -0.1     0.1     0.1
    -0.0    -0.0    -0.1    -0.0    -0.0    -0.1    -0.0     0.0     0.0    -0.0
    -0.0     0.0     0.1     0.0    -0.0     0.1     0.0    -0.1    -0.0     0.0
    -0.1    -0.1    -0.0     0.0    -0.0    -0.1    -0.0     0.0    -0.1     0.0
     0.0    -0.0     0.1     0.0    -0.0     0.1     0.0    -0.1    -0.0     0.0
     0.0    -0.0     0.0     0.1     0.0     0.1    -0.0     0.0     0.1    -0.0
    -0.0    -0.1     0.1    -0.1    -0.1     0.1    -0.0    -0.0    -0.1    -0.0
     0.0    -0.1    -0.1     0.0    -0.0    -0.0    -0.0     0.1     0.0    -0.0
     0.0     0.1     0.1     0.0    -0.0     0.0    -0.1    -0.0    -0.0    -0.1
    -0.0    -0.0    -0.1    -0.1     0.0     0.0    -0.0    -0.1     0.1     0.0
    -0.1    -0.0     0.0    -0.1    -0.1    -0.0     0.0    -0.0    -0.0     0.0
     0.1    -0.0    -0.0     0.1    -0.0     0.0     0.0     0.0     0.1     0.1
    -0.0    -0.0     0.1    -0.0    -0.0    -0.1    -0.0    -0.0    -0.2    -0.1
     0.0    -0.0    -0.0    -0.0    -0.0    -0.1    -0.0    -0.0     0.1     0.1
    -0.1     0.0     0.1     0.1    -0.0     0.1     0.1    -0.0     0.0     0.0
     0.0     0.0    -0.1    -0.0     0.0    -0.0    -0.1    -0.1    -0.0    -0.1
    -0.1    -0.0    -0.0     0.0    -0.1    -0.1     0.1     0.0    -0.1     0.1
    -0.0    -0.0     0.0    -0.1     0.1     0.0    -0.1     0.0     0.0     0.1
    -0.1    -0.0     0.1    -0.0    -0.0     0.0    -0.0    -0.0    -0.0    -0.0
    -0.0     0.1    -0.0     0.0     0.0    -0.0    -0.0    -0.1    -0.0    -0.0
    -0.0    -0.0    -0.0     0.0     0.0     0.0    -0.0     0.0     0.1    -0.1
     0.0     0.1     0.0    -0.1     0.1     0.1    -0.1    -0.0     0.0    -0.0
    -0.1    -0.1     0.0    -0.0    -0.1     0.0    -0.0     0.0     0.0    -0.1
    -0.0     0.0    -0.0    -0.0    -0.0    -0.0    -0.1    -0.1    -0.0     0.0
     0.0    -0.0     0.0     0.1     0.0    -0.0     0.1     0.1     0.1    -0.0
    -0.0     0.0    -0.0    -0.1     0.0    -0.0    -0.0    -0.0     0.0     0.1
    -0.0    -0.0     0.0     0.0     0.0    -0.1    -0.0    -0.0    -0.1    -0.0
    -0.0    -0.0    -0.0    -0.0    -0.0     0.0    -0.0    -0.1     0.0     0.0
    -0.1    -0.0     0.0    -0.0    -0.0    -0.0    -0.0     0.1     0.0    -0.1
     0.0     0.1    -0.0     0.0     0.1     0.0    -0.0    -0.0     0.0     0.0
    -0.0    -0.0    -0.0     0.0    -0.0    -0.1     0.0     0.1    -0.1    -0.0
     0.1    -0.1    -0.0     0.0    -0.1    -0.0    -0.1    -0.1    -0.0     0.0
    -0.0    -0.1     0.0     0.0     0.0    -0.0     0.1     0.1    -0.1     0.0
     0.0    -0.0    -0.0    -0.0    -0.0     0.0     0.0    -0.1     0.0     0.0
    -0.1    -0.0     0.1     0.0    -0.1    -0.0     0.1    -0.0    -0.1    -0.0
    -0.0    -0.0    -0.0    -0.0    -0.1     0.0    -0.1    -0.1    -0.0     0.0
     0.0    -0.1     0.1     0.0    -0.1    -0.0     0.1     0.0    -0.0     0.0
     0.0     0.0     0.1    -0.0     0.0     0.1    -0.1     0.0     0.1     0.0
     0.0    -0.1    -0.0     0.0    -0.1    -0.1     0.0    -0.0    -0.1    -0.0
    -0.0    -0.0    -0.0    -0.1    -0.0     0.1    -0.0    -0.1     0.1     0.1
    -0.1     0.0     0.1     0.0    -0.1    -0.0     0.1    -0.0    -0.0     0.0
    -0.0     0.0     0.0    -0.0     0.0     0.0    -0.1    -0.1     0.1    -0.0
    -0.1     0.0    -0.0    -0.0    -0.0    -0.0     0.0    -0.0    -0.0    -0.0
    -0.0     0.1    -0.0    -0.1     0.1    -0.0    -0.1     0.0     0.0     0.0
    -0.1    -0.0    -0.0    -0.0     0.0    -0.1     0.0    -0.0    -0.1     0.0
    -0.0     0.0    -0.1    -0.0     0.0    -0.0    -0.0    -0.0     0.1    -0.0
    -0.1     0.1     0.0     0.0    -0.0    -0.1     0.1    -0.0    -0.1     0.0
    -0.0    -0.1    -0.1     0.0     0.0    -0.0    -0.0    -0.0     0.1    -0.0
    -0.0     0.0     0.0    -0.0    -0.0     0.1     0.0     0.0    -0.1    -0.0
     0.0    -0.0    -0.1    -0.0    -0.0    -0.1    -0.1    -0.0    -0.0    -0.0
     0.0    -0.0     0.0     0.0    -0.1    -0.0     0.1    -0.0    -0.0     0.0
     0.1     0.0    -0.1    -0.0     0.0    -0.0    -0.0     0.0    -0.0    -0.1
    -0.0     0.0     0.0     0.0    -0.0     0.1    -0.0    -0.1    -0.0    -0.1
    -0.0    -0.0    -0.1    -0.0    -0.1     0.0    -0.0    -0.0     0.1    -0.0
    -0.1     0.0     0.0    -0.0    -0.0     0.1    -0.0    -0.1     0.0     0.0
     0.0    -0.0     0.0     0.0    -0.0    -0.0     0.0     0.1     0.0    -0.0
     0.0     0.1     0.0    -0.0    -0.0    -0.0    -0.1    -0.1    -0.1    -0.0
    -0.0    -0.0    -0.1    -0.0    -0.0    -0.2    -0.1     0.0    -0.1    -0.1
     0.0     0.0    -0.0    -0.1     0.1     0.1    -0.0     0.0     0.1     0.1
     0.0    -0.0     0.1     0.0    -0.0     0.0    -0.0    -0.0    -0.1    -0.0
    -0.0    -0.1    -0.1    -0.0    -0.0    -0.1     0.0    -0.0    -0.0     0.0
     0.0    -0.1    -0.0     0.1    -0.1    -0.1     0.1     0.1    -0.1     0.0
     0.1     0.1    -0.0     0.0     0.1    -0.0    -0.0     0.0     0.0     0.0
    -0.0    -0.1    -0.0    -0.0    -0.2    -0.0    -0.0    -0.1    -0.0    -0.1
    -0.0     0.0     0.0    -0.0    -0.0     0.0     0.0    -0.0     0.0     0.0
    -0.1    -0.0     0.1    -0.0    -0.1     0.1     0.1    -0.0     0.0     0.0
    -0.0    -0.1    -0.0    -0.0    -0.0    -0.0    -0.1    -0.0     0.0    -0.1
    -0.1     0.0    -0.0    -0.1     0.0    -0.0    -0.0     0.1     0.0     0.1
     0.1     0.0     0.0     0.0     0.1    -0.0    -0.0     0.0     0.0    -0.0
    -0.0     0.1    -0.0    -0.0    -0.0    -0.1    -0.0    -0.1    -0.1     0.0
    -0.0     0.0     0.0    -0.0    -0.0    -0.0    -0.1    -0.0    -0.0     0.0
     0.0     0.1     0.1     0.1     0.0    -0.0     0.1    -0.0    -0.1     0.1
     0.0    -0.1     0.0     0.0    -0.1    -0.1     0.0    -0.1    -0.0    -0.1
     0.0    -0.0    -0.1     0.1    -0.0    -0.0    -0.0    -0.0    -0.0    -0.1
    -0.0     0.0    -0.0     0.0     0.1     0.0     0.0     0.0     0.0    -0.1
    -0.0     0.0     0.0     0.0     0.0     0.1    -0.1    -0.1     0.0    -0.1
    -0.1    -0.0     0.0    -0.0    -0.0     0.0     0.0     0.0    -0.0     0.0
     0.0     0.0     0.0    -0.0    -0.0     0.0    -0.0     0.0    -0.0    -0.0
    -0.1    -0.1    -0.0    -0.1    -0.1    -0.0     0.0     0.0    -0.0     0.0
     0.0    -0.0    -0.0     0.1     0.1     0.1    -0.0     0.1     0.0    -0.0
    -0.0    -0.0    -0.1    -0.1    -0.0    -0.1    -0.0    -0.1    -0.1    -0.1
    -0.0    -0.1    -0.1     0.0     0.0     0.0     0.0     0.0     0.1     0.0
     0.0     0.0     0.1     0.1     0.0     0.1     0.1     0.0    -0.1     0.0
    -0.0    -0.1    -0.1    -0.1    -0.1    -0.1    -0.1    -0.1    -0.1    -0.2
    -0.1    -0.0    -0.0     0.0     0.1     0.1     0.1     0.1     0.1     0.1
     0.1     0.1     0.0     0.0     0.0    -0.0    -0.1    -0.1    -0.1    -0.2
    -0.1    -0.0    -0.1    -0.2    -0.1     0.0    -0.1    -0.1     0.0     0.0
     0.0    -0.0     0.1     0.1     0.0     0.2     0.1     0.0     0.1    -0.0
    -0.0     0.0    -0.0    -0.0    -0.0    -0.0    -0.1    -0.1    -0.1    -0.1
