Uncorrected accelerogram 20160214_001343_OPWS_20 GNS Science
Site OPWS      43 33 22S  172 39 51E     Cusp file:  20160214_001346_OPWS
Opawa School
Instrument Cusp_42150
Resolution: 18-bit   Instr Period: 0.0050 s   Damping: 0.700
Accelerogram 20160214_001343_OPWS_20                 Processed 2016 February 22
11 km east of CHRISTCHURCH
2016 February 14         00:13:43 UT
Epicentre  43 29 50S 172 45 18E  Bearing N48E  Dist   10km  Depth    8km M  5.70
Number of points  38869    Duration 194.34 s
Raw readings in units of 1.00 mm/s/s  at intervals of 0.005 s
Data is unfiltered
Component S87E
Acceleration:  Peak  -1441.8 mm/s/s at  43.35 s     RMS   103.81 mm/s/s
Velocity record unevaluated
Displacement record unevaluated
    2016       2      14       0      13     430       0       0    2016       2
      43      29      50     172      45      18       8       0      14       0
      43      33      22     172      39      51      93      93      48      10
   38869       0       0   38869       0       0       0       0      13    6781
   200.0    0.70    0.00   0.000  0.0000   0.000   0.000   1.000     0.0    0.00
  43.556 172.664  43.497 172.755    5.70    0.00    0.00    0.00      0.      0.
  194.34    0.00    0.00  194.34  0.0050  0.0050      0.      0.      0.  9806.6
 -1441.8   43.35   103.8      0.      0.     0.0    0.00     0.0     0.0   0.000
    0.00    0.00    0.00    0.00   0.000    0.00    0.00    0.00    0.00   0.000
   0.000   0.000   0.000      0.      0.   0.000   0.000   0.000      0.      0.
     0.0     0.1    -0.1    -0.1    -0.1    -0.0     0.3     0.2     0.0     0.1
    -0.1     0.0     0.1    -0.0     0.1     0.0    -0.1    -0.1    -0.1     0.0
    -0.0    -0.0    -0.0    -0.1    -0.1     0.2     0.2     0.0     0.2     0.1
    -0.2     0.1     0.1     0.1     0.1     0.1     0.1     0.1     0.3     0.3
     0.2     0.3     0.1     0.1     0.2    -0.1    -0.1    -0.0    -0.1     0.0
    -0.0     0.2     0.2     0.0     0.1     0.1     0.2     0.2     0.0    -0.1
    -0.1     0.1     0.2     0.1    -0.1    -0.1     0.1     0.1     0.1     0.1
    -0.1     0.0     0.1     0.1     0.1     0.2     0.2     0.2     0.3    -0.0
     0.0     0.3     0.1     0.1     0.2    -0.0    -0.1     0.0    -0.0    -0.0
     0.1     0.1     0.1     0.3     0.2     0.1     0.0    -0.0     0.2     0.1
     0.0     0.1     0.1    -0.0     0.0     0.2     0.4     0.2    -0.1     0.1
     0.0    -0.1     0.0    -0.1    -0.1     0.0    -0.0     0.1     0.1     0.1
     0.1    -0.0     0.1     0.1     0.2     0.2     0.0     0.2     0.3     0.3
     0.3     0.0     0.2     0.1    -0.0     0.3     0.2     0.1     0.1     0.1
     0.2     0.1     0.1     0.1     0.0     0.1    -0.1    -0.2     0.0     0.0
    -0.1    -0.0     0.1     0.2     0.2     0.2     0.1     0.2     0.2     0.3
     0.3    -0.0    -0.0     0.2     0.0     0.0     0.0    -0.1     0.1     0.1
    -0.0    -0.0     0.0     0.0     0.0     0.0     0.0     0.1     0.2     0.1
     0.0    -0.0     0.0     0.0     0.1     0.2     0.2     0.2     0.3     0.4
     0.4     0.2     0.1     0.2     0.1     0.1     0.2     0.3     0.2     0.1
     0.0     0.2     0.3     0.2     0.1     0.0     0.0     0.2    -0.1    -0.0
     0.1     0.0     0.1     0.1    -0.0     0.0     0.0    -0.1    -0.0     0.1
     0.0     0.0     0.1     0.2     0.2     0.0     0.0     0.2     0.2     0.1
     0.2     0.2     0.2     0.1     0.2     0.2     0.2     0.2     0.1     0.1
    -0.1    -0.1     0.1     0.3     0.0    -0.2    -0.1    -0.0     0.1     0.1
     0.1     0.1     0.0     0.1     0.2     0.0     0.1     0.1     0.0    -0.0
    -0.1    -0.1     0.1     0.1     0.0     0.0     0.1     0.1    -0.0     0.1
     0.2     0.1     0.1     0.1     0.1     0.2     0.1     0.2     0.2     0.0
     0.1     0.0    -0.0    -0.0     0.1     0.1    -0.0     0.1     0.1    -0.0
    -0.2    -0.0     0.0    -0.0     0.0    -0.0    -0.1     0.0    -0.0    -0.2
    -0.1    -0.1    -0.1    -0.2    -0.3    -0.1     0.3     0.1    -0.0     0.1
     0.2     0.2     0.0    -0.0     0.0     0.0     0.1     0.1     0.1     0.1
    -0.0    -0.2     0.1     0.1     0.0     0.1     0.1     0.2     0.1    -0.1
     0.1     0.2     0.1     0.0     0.1     0.1     0.1     0.1    -0.0    -0.0
     0.2     0.2     0.1     0.1     0.1     0.0     0.1     0.2    -0.1    -0.1
    -0.0    -0.0     0.1     0.0     0.1     0.2     0.1     0.1     0.1    -0.1
     0.2     0.3    -0.1     0.1     0.2    -0.1    -0.2    -0.1     0.0     0.1
     0.1    -0.1    -0.1    -0.0    -0.1    -0.1     0.1     0.1    -0.1    -0.1
    -0.1     0.0     0.0    -0.0     0.1     0.1     0.1     0.0    -0.0     0.1
     0.1     0.0     0.1     0.0    -0.2    -0.2    -0.0    -0.0    -0.1     0.0
    -0.1    -0.0     0.1    -0.1    -0.3    -0.0     0.0    -0.1    -0.1     0.1
    -0.0    -0.0     0.1     0.0    -0.0    -0.0    -0.0    -0.1    -0.0     0.2
     0.2     0.1     0.1     0.1     0.2    -0.2     0.0     0.2    -0.1    -0.0
     0.0    -0.1     0.0     0.1    -0.0    -0.0     0.0    -0.1    -0.1    -0.0
    -0.0     0.0    -0.1     0.0     0.1    -0.1     0.1     0.2     0.0     0.1
     0.1     0.1    -0.0     0.0     0.1    -0.0     0.0     0.2     0.3     0.2
     0.1     0.2     0.1     0.1     0.2     0.1     0.3     0.2     0.1     0.1
     0.0     0.0     0.1     0.1    -0.0    -0.1     0.1     0.1    -0.1    -0.2
    -0.2    -0.2    -0.1    -0.1     0.0    -0.0     0.1     0.1    -0.1     0.0
     0.0    -0.2     0.0     0.0     0.0    -0.0    -0.0     0.1    -0.0    -0.1
    -0.1     0.0     0.0    -0.1     0.2     0.2     0.1    -0.0    -0.1     0.1
     0.0    -0.1    -0.1    -0.0     0.2     0.0    -0.0    -0.0     0.1     0.1
     0.0     0.0     0.0     0.1     0.1     0.0     0.1     0.2     0.0    -0.1
     0.1     0.2    -0.1    -0.2     0.0    -0.0    -0.0     0.1     0.1     0.2
     0.1    -0.0     0.1     0.1    -0.0    -0.1     0.0    -0.0    -0.1    -0.1
    -0.3    -0.1     0.1    -0.1    -0.0    -0.0     0.0     0.2    -0.1    -0.0
     0.1    -0.1    -0.1    -0.1     0.1     0.0    -0.2     0.1     0.1    -0.2
    -0.0     0.0    -0.1    -0.1    -0.1    -0.1     0.0    -0.0    -0.1     0.1
    -0.0     0.0     0.2     0.2     0.2     0.0    -0.1     0.0     0.1    -0.0
    -0.0    -0.1    -0.3    -0.1    -0.2    -0.1     0.0    -0.1    -0.1    -0.1
     0.0     0.1     0.0     0.0    -0.1    -0.1    -0.1    -0.1     0.0    -0.2
    -0.1     0.0    -0.1     0.1     0.1     0.0    -0.2     0.0     0.2    -0.0
     0.2     0.2     0.1     0.1     0.0     0.1     0.1    -0.1     0.2     0.1
    -0.1     0.0     0.1    -0.2    -0.1    -0.0    -0.1    -0.2    -0.1     0.1
     0.0     0.2     0.0    -0.0     0.1    -0.1     0.1     0.1     0.1     0.1
    -0.1     0.1     0.1    -0.0     0.2     0.0    -0.0     0.0     0.0     0.1
    -0.1    -0.2    -0.1    -0.2    -0.1    -0.1    -0.0     0.1    -0.0     0.1
     0.1    -0.0    -0.1    -0.2    -0.1    -0.0    -0.2    -0.1    -0.2    -0.1
     0.2     0.0    -0.1    -0.0    -0.2    -0.0    -0.0    -0.1    -0.1     0.1
     0.1     0.1     0.1     0.1     0.0    -0.1    -0.1    -0.0    -0.1     0.0
     0.1     0.1     0.0     0.2     0.2     0.0     0.1     0.0    -0.1     0.1
    -0.1    -0.1     0.1     0.0    -0.0    -0.1    -0.0     0.2     0.1    -0.0
     0.0     0.1     0.1     0.0     0.1     0.1    -0.0     0.0     0.1     0.0
     0.0     0.1    -0.1    -0.0     0.1     0.1     0.1     0.2     0.1     0.0
     0.1     0.0     0.0    -0.0    -0.2     0.1     0.1     0.0     0.1    -0.1
    -0.1    -0.1    -0.2    -0.1     0.0    -0.0    -0.0    -0.1    -0.2     0.1
     0.0     0.0     0.1     0.1     0.1    -0.1    -0.1    -0.0    -0.0    -0.1
    -0.2    -0.0    -0.1    -0.2     0.1    -0.1    -0.1     0.2    -0.0     0.0
     0.0     0.0     0.0    -0.1     0.1     0.0    -0.1     0.3     0.1     0.0
     0.2    -0.1     0.0     0.1     0.2     0.1    -0.0     0.0    -0.0    -0.1
    -0.0    -0.1    -0.1    -0.1    -0.1     0.0     0.1     0.0     0.1    -0.1
     0.0     0.1    -0.1     0.1     0.1    -0.1     0.0     0.1     0.1    -0.1
    -0.1     0.1     0.2     0.0     0.0     0.3     0.2    -0.1     0.0     0.1
     0.1     0.1     0.1     0.1     0.1     0.2     0.1    -0.2     0.1     0.2
     0.0    -0.0    -0.2    -0.1    -0.1    -0.0     0.1    -0.1     0.1    -0.0
    -0.1     0.2    -0.1    -0.3    -0.2    -0.3    -0.1    -0.1    -0.1     0.2
     0.0     0.0     0.1     0.1     0.1    -0.0     0.1     0.2     0.1     0.1
    -0.0     0.1     0.2    -0.0    -0.1    -0.0     0.1     0.1    -0.0     0.1
     0.1    -0.0     0.1     0.2     0.1    -0.0    -0.1    -0.0     0.1     0.0
    -0.0    -0.0    -0.0    -0.0    -0.0     0.0     0.0     0.1     0.1    -0.1
     0.1     0.1    -0.0     0.1     0.0     0.0     0.2     0.1    -0.1     0.0
     0.1    -0.0    -0.0    -0.1    -0.2    -0.1     0.1     0.2    -0.0    -0.1
     0.1     0.1     0.2     0.2     0.1     0.1     0.1     0.1     0.1     0.1
     0.1    -0.0     0.0    -0.1    -0.2     0.1     0.1    -0.1    -0.0     0.0
     0.0    -0.0     0.0    -0.0     0.1     0.2    -0.0     0.0    -0.0    -0.1
     0.1     0.1     0.1     0.1    -0.0     0.1    -0.0    -0.1     0.1    -0.0
    -0.1    -0.0    -0.0     0.0     0.1    -0.0     0.0     0.1    -0.1    -0.1
    -0.1    -0.0     0.1     0.0     0.0     0.0    -0.2    -0.2    -0.1    -0.1
    -0.0    -0.1    -0.0    -0.1    -0.1     0.1     0.1    -0.1     0.0     0.1
     0.1     0.1     0.2     0.1    -0.0    -0.0    -0.0    -0.2    -0.1     0.0
     0.1    -0.0    -0.1    -0.1    -0.0    -0.1    -0.1    -0.1    -0.1    -0.1
    -0.2    -0.1     0.1     0.2     0.1    -0.1     0.1     0.1    -0.2    -0.1
    -0.0    -0.1    -0.0    -0.1    -0.1     0.1    -0.0    -0.2    -0.1     0.0
    -0.0     0.0     0.1     0.1     0.1     0.2     0.1     0.1     0.2     0.1
     0.0    -0.0     0.1     0.0     0.0     0.1     0.0     0.1     0.1     0.0
    -0.1    -0.0     0.1    -0.2    -0.1     0.1    -0.1    -0.1     0.0    -0.1
    -0.1    -0.1    -0.1    -0.0    -0.1    -0.1     0.1     0.0    -0.1    -0.1
     0.0     0.1    -0.0     0.0    -0.0     0.0     0.3     0.1     0.1     0.1
    -0.0    -0.0     0.1     0.1     0.0    -0.2    -0.1     0.1     0.1     0.1
     0.0    -0.2    -0.1    -0.1    -0.2    -0.2     0.1     0.0    -0.1    -0.0
    -0.1    -0.1     0.1     0.0     0.1     0.1    -0.2    -0.0    -0.1    -0.2
     0.0    -0.1    -0.1     0.0    -0.1     0.0     0.0    -0.1     0.1     0.2
     0.3     0.2     0.0    -0.0    -0.1     0.2     0.0    -0.3    -0.1    -0.1
    -0.1    -0.1    -0.1     0.1     0.1     0.1     0.1    -0.0    -0.0     0.1
     0.1     0.1     0.1     0.1    -0.1    -0.1     0.1     0.1     0.1     0.0
     0.1     0.2     0.2     0.1     0.2     0.2    -0.0    -0.0    -0.0    -0.1
    -0.0    -0.0    -0.2     0.0    -0.0    -0.1     0.1     0.0    -0.1    -0.0
     0.0     0.1     0.0     0.1     0.2     0.3     0.3     0.1     0.2     0.2
    -0.0     0.0     0.0     0.1     0.1     0.2     0.1     0.0     0.2    -0.0
    -0.0     0.2     0.1     0.1    -0.0    -0.1     0.2     0.1    -0.1    -0.0
     0.0     0.1    -0.0     0.0     0.1    -0.1    -0.1    -0.2    -0.1    -0.0
    -0.3    -0.2    -0.2    -0.3    -0.2    -0.3    -0.2     0.0     0.1     0.2
     0.1     0.1     0.1     0.1     0.1     0.1     0.1     0.1     0.1     0.2
     0.1     0.0     0.1    -0.0     0.0    -0.0    -0.1     0.2     0.2     0.0
    -0.1     0.1     0.2     0.0    -0.0    -0.1    -0.1     0.0    -0.0     0.0
     0.1     0.1    -0.0    -0.1     0.1     0.2    -0.0    -0.1     0.1     0.0
    -0.1    -0.1    -0.1     0.1    -0.1    -0.1     0.1    -0.0    -0.1    -0.1
    -0.2    -0.1    -0.1     0.1     0.1     0.1     0.1     0.0    -0.0     0.1
     0.0     0.1     0.1     0.0     0.1     0.2     0.1     0.0     0.1     0.1
     0.0    -0.2    -0.1    -0.1    -0.1     0.1     0.1    -0.0     0.0     0.1
     0.1     0.0     0.1     0.0    -0.1     0.1     0.2     0.1     0.1     0.3
     0.2     0.1     0.1     0.2     0.1    -0.0     0.2     0.1    -0.2    -0.1
    -0.1     0.1    -0.0    -0.1     0.1     0.1     0.2     0.1     0.1     0.2
     0.0    -0.0     0.1    -0.0    -0.1     0.0    -0.0    -0.0    -0.0    -0.1
     0.1     0.1     0.1     0.2     0.1     0.1     0.1     0.0     0.0    -0.1
    -0.2     0.0    -0.1     0.1     0.2    -0.0    -0.0     0.2     0.2     0.0
    -0.1    -0.2    -0.1     0.1    -0.1    -0.1    -0.0    -0.1     0.1     0.1
     0.1     0.1     0.0     0.1     0.1     0.1     0.1     0.1     0.2     0.2
     0.1     0.2     0.0    -0.0     0.0     0.1    -0.0    -0.1     0.1    -0.1
    -0.3    -0.0     0.0    -0.1    -0.1    -0.1    -0.0     0.0     0.1     0.1
     0.0    -0.0     0.0    -0.1    -0.0    -0.0     0.0     0.0     0.0    -0.0
    -0.1    -0.0     0.0    -0.0    -0.0    -0.0     0.0     0.0     0.1     0.1
     0.1     0.1    -0.1    -0.2    -0.2    -0.0     0.1    -0.1    -0.0     0.0
     0.1     0.2     0.0    -0.0    -0.0    -0.0     0.1     0.2     0.1     0.1
     0.3     0.2     0.1     0.2    -0.0     0.1     0.1     0.0     0.2    -0.0
    -0.1     0.1     0.2     0.0     0.1    -0.0    -0.1     0.3     0.2     0.0
     0.1     0.1     0.1     0.0     0.1     0.1    -0.1     0.0    -0.0     0.0
    -0.0    -0.1    -0.0    -0.1    -0.1    -0.0    -0.1    -0.1    -0.1    -0.1
    -0.1    -0.0     0.0     0.0    -0.1    -0.2    -0.1    -0.1    -0.0     0.1
    -0.1    -0.1     0.0    -0.1    -0.2     0.0    -0.0    -0.1     0.0    -0.1
    -0.2    -0.1     0.0     0.0    -0.0     0.2     0.2     0.1     0.1     0.0
     0.3     0.2    -0.1     0.0    -0.0    -0.1    -0.1    -0.1     0.0    -0.1
    -0.0     0.1    -0.1    -0.0     0.1     0.1     0.0     0.1     0.0    -0.1
    -0.0    -0.0     0.1     0.2    -0.1    -0.2    -0.1    -0.1    -0.2    -0.1
    -0.1    -0.0     0.0    -0.1    -0.0     0.1    -0.1    -0.0    -0.1     0.0
     0.2    -0.2     0.0     0.2    -0.1     0.1    -0.0     0.0     0.1     0.0
     0.2     0.1     0.1     0.1    -0.0    -0.0    -0.0    -0.0     0.0     0.0
     0.1     0.1    -0.0    -0.0     0.1     0.1     0.0    -0.2    -0.0     0.1
    -0.0     0.1    -0.1    -0.0     0.3    -0.1    -0.0     0.3     0.0    -0.0
     0.0     0.1     0.0    -0.1     0.0     0.1     0.2     0.1     0.1     0.3
     0.1     0.0    -0.0     0.1     0.1    -0.0     0.1     0.1     0.1     0.1
     0.1     0.1     0.2     0.1     0.1     0.1    -0.0     0.1    -0.0    -0.1
     0.1    -0.1    -0.1     0.1     0.0    -0.0     0.2     0.2    -0.0     0.1
     0.1    -0.0     0.0     0.1     0.0    -0.1     0.1     0.1    -0.0     0.2
     0.2     0.1     0.1     0.1     0.2     0.0    -0.1     0.3     0.1    -0.1
     0.1    -0.2    -0.1     0.2     0.0    -0.0     0.0    -0.0     0.0    -0.0
    -0.1     0.0    -0.1    -0.2    -0.0     0.2     0.1     0.1     0.0    -0.0
     0.2     0.1     0.3     0.3     0.2     0.2     0.2     0.2     0.1     0.3
     0.2     0.1     0.4     0.2     0.1     0.2     0.2     0.2     0.2     0.1
     0.0     0.1    -0.0    -0.1     0.1     0.0    -0.1    -0.1    -0.0     0.1
     0.1    -0.1     0.1     0.1     0.0     0.1    -0.1     0.1     0.1    -0.1
     0.0     0.2     0.0    -0.0     0.1     0.0     0.1     0.2    -0.1    -0.1
     0.1    -0.1     0.0    -0.0    -0.2    -0.0    -0.0    -0.0     0.1     0.1
     0.2     0.2     0.1     0.2     0.2     0.2     0.3     0.1     0.1     0.1
    -0.0    -0.1    -0.2    -0.1     0.1     0.1    -0.1     0.1     0.2    -0.1
    -0.1     0.1    -0.0     0.0     0.2     0.2     0.2     0.1    -0.0     0.1
     0.2     0.2     0.1     0.1     0.0    -0.0    -0.0    -0.0    -0.1    -0.0
     0.1     0.0    -0.2     0.0     0.0    -0.1    -0.0    -0.0     0.1     0.1
     0.0     0.2     0.1    -0.0     0.1     0.0    -0.1     0.0     0.0    -0.1
    -0.1     0.1     0.1    -0.0     0.0     0.1     0.3     0.2     0.0     0.2
    -0.1    -0.1     0.0    -0.0     0.1     0.0     0.1     0.3     0.1     0.0
     0.0     0.1     0.2     0.0    -0.0     0.0     0.0     0.1     0.1    -0.0
     0.1     0.2     0.0    -0.1     0.0     0.1     0.1    -0.0    -0.1     0.0
    -0.0    -0.1     0.2     0.1     0.1     0.1    -0.1     0.1     0.1    -0.1
    -0.2    -0.1    -0.0    -0.1    -0.0     0.1     0.1    -0.0    -0.0     0.0
     0.0     0.1    -0.0    -0.1    -0.0     0.1     0.0     0.0     0.2    -0.0
    -0.1     0.1     0.2     0.3     0.1     0.1     0.2     0.1     0.0     0.2
     0.0     0.0     0.2     0.0     0.0     0.2     0.2     0.2     0.3     0.2
     0.1     0.0     0.1     0.0     0.1     0.2     0.2     0.1     0.1     0.1
     0.0    -0.1    -0.0    -0.1    -0.0    -0.1    -0.1     0.1    -0.0    -0.0
     0.2     0.1     0.1     0.2     0.1     0.1     0.1     0.1     0.2     0.1
    -0.1     0.1     0.1     0.0    -0.0    -0.1     0.1    -0.0    -0.2    -0.0
     0.1    -0.0     0.1     0.1     0.0     0.1    -0.0     0.1     0.1     0.1
     0.2     0.2     0.3     0.3    -0.0     0.1     0.2     0.2     0.2     0.2
     0.3     0.2     0.0     0.0    -0.1    -0.1     0.1     0.0    -0.1    -0.0
    -0.0    -0.1    -0.1     0.0     0.0    -0.0    -0.0     0.1     0.2    -0.1
     0.0     0.1    -0.1    -0.0     0.0    -0.0     0.2     0.4     0.2     0.1
     0.3     0.2     0.2     0.2     0.1     0.2     0.1     0.1     0.1    -0.0
     0.1    -0.0     0.0     0.3    -0.1    -0.1     0.1    -0.0     0.0     0.1
     0.1     0.1     0.3     0.1     0.0     0.2     0.1     0.3     0.2    -0.1
     0.1    -0.0    -0.1    -0.0    -0.1     0.1     0.1     0.0     0.1     0.1
    -0.0     0.0     0.1     0.0     0.1     0.0     0.0     0.0     0.0     0.0
    -0.2    -0.2    -0.1     0.0     0.1     0.0     0.0     0.1     0.0     0.1
     0.2     0.2     0.1     0.2     0.1    -0.1     0.2     0.1    -0.0     0.2
     0.1     0.3     0.3     0.0     0.2     0.2     0.1     0.2     0.3     0.3
     0.3     0.0    -0.2     0.0     0.2     0.1     0.1     0.3     0.3     0.1
     0.0     0.2     0.1     0.1     0.1     0.0     0.1     0.0     0.1     0.2
     0.1    -0.0     0.0     0.2     0.2     0.1     0.2     0.2     0.1    -0.0
     0.1     0.1     0.1     0.1     0.1     0.3     0.3     0.2     0.1    -0.1
    -0.1    -0.1    -0.2    -0.1    -0.0     0.1     0.1     0.0     0.1     0.1
     0.1     0.1     0.1     0.2     0.2     0.1     0.0     0.0     0.0    -0.1
    -0.1     0.1    -0.0    -0.1    -0.1    -0.0     0.1    -0.0    -0.0     0.2
     0.1    -0.0    -0.0    -0.1     0.2     0.1    -0.1    -0.0    -0.1    -0.0
    -0.0    -0.2     0.0     0.1     0.0     0.2     0.3     0.2     0.1     0.2
     0.2     0.1     0.1     0.0     0.1     0.1     0.0     0.0     0.1    -0.0
     0.1     0.0    -0.1    -0.0    -0.1    -0.1     0.0     0.0     0.0    -0.1
    -0.1    -0.1    -0.2    -0.0    -0.1    -0.0     0.1    -0.1     0.0     0.1
     0.0     0.1     0.1     0.1     0.1    -0.0    -0.0     0.1     0.1     0.0
     0.0     0.0     0.2     0.2     0.0     0.0    -0.2    -0.2     0.0    -0.1
    -0.1    -0.0    -0.1    -0.1     0.1     0.1    -0.0     0.2     0.2     0.2
     0.2     0.1     0.2     0.0    -0.1     0.0    -0.0     0.0    -0.1    -0.2
    -0.1    -0.2    -0.1    -0.0     0.0     0.1    -0.0     0.1     0.1    -0.0
     0.1     0.1    -0.1     0.0     0.2     0.1     0.0    -0.0     0.0     0.1
     0.0     0.1     0.1     0.0    -0.1    -0.1     0.1     0.1     0.0     0.1
     0.2     0.1    -0.0     0.1     0.2     0.2     0.1    -0.0     0.2     0.1
    -0.1    -0.0    -0.0    -0.1    -0.1    -0.1    -0.1    -0.2    -0.1    -0.0
     0.0     0.0    -0.0     0.1     0.1     0.1     0.2     0.4     0.2     0.3
