Uncorrected accelerogram 20160214_001343_WEL_20 GNS Science
Site WEL       41 17 03S  174 46 05E     Quanterra file:  20160214_001428_WEL
Wellington
Instrument Quanterra_299
Resolution: 24-bit   Instr Period: 0.0050 s   Damping: 0.700
Accelerogram 20160214_001343_WEL_20                  Processed 2016 February 22
11 km east of CHRISTCHURCH
2016 February 14         00:13:43 UT
Epicentre  43 29 50S 172 45 18E  Bearing S33W  Dist  297km  Depth    8km M  5.70
Number of points  37000    Duration 185.00 s
Raw readings in units of 1.00 mm/s/s  at intervals of 0.005 s
Data is unfiltered
Component S90E
Acceleration:  Peak      4.0 mm/s/s at  72.50 s     RMS     0.51 mm/s/s
Velocity record unevaluated
Displacement record unevaluated
    2016       2      14       0      13     430       0       0    2016       2
      43      29      50     172      45      18       8       0      14       0
      41      17       3     174      46       5      90      90     213     297
   37000       0       0   37000       0       0       0       0      13   48000
   200.0    0.70    0.00   0.000  0.0000   0.000   0.000   1.000     0.0    0.00
  41.284 174.768  43.497 172.755    5.70    0.00    0.00    0.00      0.      0.
  185.00    0.00    0.00  185.00  0.0050  0.0050      0.      0.      0.  9806.6
     4.0   72.50     0.5      0.      0.     0.0    0.00     0.0     0.0   0.000
    0.00    0.00    0.00    0.00   0.000    0.00    0.00    0.00    0.00   0.000
   0.000   0.000   0.000      0.      0.   0.000   0.000   0.000      0.      0.
    -0.0     0.0     0.0     0.0     0.1     0.1     0.0     0.0     0.0    -0.0
    -0.1    -0.0     0.0     0.1     0.1     0.0    -0.0     0.1     0.0    -0.0
     0.0    -0.0    -0.0     0.0     0.0     0.1     0.1     0.0     0.0    -0.1
    -0.0    -0.0    -0.0     0.1     0.1    -0.0    -0.0    -0.0    -0.0     0.1
     0.1     0.1     0.1     0.1     0.1     0.0    -0.0     0.0    -0.0    -0.0
    -0.0    -0.1    -0.1     0.1     0.1    -0.1     0.0     0.1     0.0     0.0
     0.0     0.1     0.1     0.1     0.1     0.0    -0.1    -0.0    -0.0    -0.0
     0.0    -0.1    -0.1     0.1     0.1     0.0    -0.0    -0.1    -0.0     0.0
     0.1     0.1     0.1     0.1     0.1     0.1     0.1     0.0    -0.0    -0.1
    -0.0    -0.0    -0.1     0.0    -0.0     0.0     0.0     0.1     0.1     0.0
     0.1     0.1     0.0     0.0    -0.0    -0.1    -0.0    -0.0    -0.1    -0.0
     0.0    -0.0     0.0     0.1    -0.0     0.0     0.1     0.1     0.1     0.1
     0.0    -0.0    -0.0    -0.1     0.0     0.0    -0.1    -0.0    -0.0    -0.0
     0.0     0.0     0.0     0.0     0.0     0.1     0.1     0.1     0.1    -0.0
    -0.1    -0.0    -0.1    -0.0    -0.0     0.0     0.1     0.1    -0.0     0.0
     0.0    -0.0     0.0     0.0    -0.1     0.0     0.1     0.0     0.0     0.1
     0.0    -0.0     0.0     0.0    -0.0    -0.0     0.0    -0.0    -0.0     0.0
     0.0     0.0     0.1     0.0    -0.0     0.0     0.0    -0.0    -0.0    -0.1
     0.1     0.1    -0.1     0.0     0.1    -0.0    -0.0     0.0     0.0     0.0
     0.1     0.1    -0.0    -0.1    -0.1     0.0    -0.0    -0.1     0.1     0.1
     0.1     0.1     0.0    -0.0     0.0     0.0     0.0     0.0     0.0    -0.0
    -0.1    -0.0    -0.0    -0.1     0.0     0.1     0.1     0.1     0.0    -0.0
     0.1     0.0    -0.1     0.0    -0.1    -0.0     0.0    -0.1     0.0     0.1
     0.1     0.1     0.1     0.0    -0.0    -0.1    -0.1    -0.0    -0.0     0.0
     0.0     0.1     0.1     0.0     0.0     0.1     0.1    -0.0    -0.0     0.1
     0.0    -0.0     0.0     0.0     0.0    -0.0    -0.0    -0.0    -0.0     0.0
     0.1     0.1     0.0     0.1     0.0    -0.0     0.0    -0.0    -0.0    -0.0
     0.0    -0.0    -0.1    -0.1    -0.0    -0.0     0.0     0.0     0.1     0.1
     0.1     0.1     0.1     0.0     0.0     0.0    -0.1    -0.1    -0.1    -0.0
    -0.0     0.0     0.0     0.1     0.1    -0.0     0.0    -0.0    -0.0     0.0
     0.0     0.1     0.1     0.1     0.0    -0.0    -0.0     0.0     0.0     0.0
    -0.1    -0.1     0.0     0.0    -0.0     0.1     0.1     0.1     0.0    -0.0
    -0.1    -0.1    -0.1    -0.1     0.0     0.1     0.1     0.0     0.1     0.1
     0.0     0.0    -0.0    -0.0     0.0     0.0    -0.0    -0.0    -0.0    -0.0
    -0.0     0.0     0.0     0.1     0.0     0.0     0.1    -0.0     0.0     0.1
     0.0     0.0     0.0     0.1     0.1    -0.1    -0.1    -0.1    -0.1     0.0
     0.1     0.1     0.1     0.0     0.1     0.1    -0.1     0.0    -0.0    -0.1
     0.0     0.1     0.0     0.1    -0.0    -0.1    -0.1    -0.0     0.0     0.1
     0.1     0.1     0.1     0.1     0.0    -0.0     0.0    -0.0    -0.1     0.0
    -0.0    -0.0     0.1     0.1     0.0     0.0    -0.0    -0.0    -0.0     0.1
     0.1     0.1     0.0    -0.1     0.0     0.0    -0.1    -0.0     0.0     0.0
     0.1     0.1     0.1     0.1    -0.0     0.0    -0.0    -0.0    -0.0    -0.0
    -0.0    -0.0    -0.0     0.0    -0.0     0.0     0.1     0.0     0.0     0.1
     0.0     0.0     0.1    -0.1     0.0     0.0     0.0     0.0    -0.0    -0.0
    -0.0     0.0     0.0     0.0     0.1     0.1     0.1    -0.0    -0.1    -0.0
    -0.0    -0.1    -0.0    -0.0    -0.0    -0.0    -0.0     0.1     0.1     0.0
     0.1     0.0    -0.0     0.1     0.1     0.0    -0.0     0.0     0.1     0.0
     0.0     0.0     0.0    -0.0    -0.0    -0.1    -0.1    -0.0    -0.0    -0.0
    -0.0     0.0     0.0    -0.1     0.0     0.1    -0.0     0.0     0.1     0.1
     0.1     0.1     0.1     0.1     0.0    -0.1    -0.1     0.0    -0.0    -0.0
     0.1     0.1     0.0    -0.0    -0.0    -0.1    -0.1    -0.0    -0.0     0.0
     0.0     0.1     0.1     0.1     0.1     0.0    -0.1    -0.1     0.0     0.0
    -0.0     0.0     0.0    -0.0     0.0     0.0    -0.0    -0.0     0.1     0.0
     0.0     0.1     0.1     0.0    -0.0    -0.0    -0.0     0.0     0.0    -0.0
     0.0     0.0     0.0     0.0    -0.0     0.0     0.0     0.0     0.0     0.0
     0.0    -0.0    -0.0     0.0    -0.0    -0.0     0.0     0.1     0.0    -0.1
    -0.1     0.1     0.0    -0.0     0.1     0.1     0.1     0.0     0.0     0.0
    -0.0    -0.1     0.0     0.0     0.0    -0.0     0.0     0.1     0.0    -0.0
     0.0    -0.1    -0.1     0.0    -0.0    -0.0     0.1     0.0     0.1     0.1
     0.0     0.0     0.1     0.0    -0.0     0.0    -0.0    -0.1     0.0     0.1
    -0.0    -0.1     0.0     0.0    -0.0     0.1    -0.0    -0.0     0.1     0.1
    -0.0     0.0     0.0     0.1     0.1    -0.0    -0.0     0.0    -0.0    -0.0
    -0.0    -0.0     0.0     0.0     0.0     0.0    -0.0     0.1     0.1     0.1
     0.1     0.0     0.0     0.1    -0.0    -0.1    -0.0    -0.0    -0.0     0.0
     0.0    -0.0    -0.0    -0.0     0.0     0.0     0.1     0.1     0.1     0.0
     0.0     0.0     0.0     0.1     0.1    -0.0    -0.1     0.0    -0.0    -0.1
     0.0    -0.0    -0.1    -0.0    -0.0     0.1     0.1     0.1     0.1    -0.0
     0.0     0.0    -0.0     0.1     0.1    -0.0     0.0     0.1     0.0     0.1
     0.1     0.1    -0.1    -0.1    -0.1    -0.0    -0.1    -0.1     0.0     0.1
     0.0     0.0     0.1     0.1     0.1     0.1    -0.1    -0.1     0.1     0.1
    -0.1    -0.0    -0.0    -0.1     0.1     0.1     0.1    -0.0    -0.0     0.1
     0.0     0.0     0.1     0.1     0.0     0.0    -0.0     0.0     0.0    -0.0
     0.0     0.1     0.0    -0.0    -0.0     0.0    -0.0    -0.1    -0.0    -0.1
    -0.0     0.1     0.0    -0.0     0.0    -0.0     0.0     0.1     0.1     0.1
     0.1     0.0     0.0     0.1     0.1     0.1     0.0    -0.1    -0.0     0.0
     0.0    -0.0    -0.0    -0.0    -0.0    -0.1    -0.0     0.0     0.0     0.0
     0.1     0.2    -0.0    -0.0     0.0    -0.1    -0.1    -0.0    -0.1    -0.0
     0.1     0.1    -0.0     0.1     0.0     0.0     0.1     0.1    -0.0    -0.1
     0.0     0.1    -0.1    -0.0     0.1    -0.0    -0.1     0.0     0.0    -0.0
     0.0     0.1     0.0     0.0     0.1    -0.0    -0.0     0.1     0.0    -0.0
    -0.1    -0.0     0.0    -0.0    -0.0    -0.0    -0.0    -0.0     0.1     0.1
    -0.0    -0.0     0.1     0.1     0.1     0.1     0.0    -0.0    -0.0     0.0
     0.0     0.1     0.0     0.0     0.0     0.0     0.0     0.0    -0.0    -0.0
     0.0    -0.0    -0.1    -0.1     0.0     0.1     0.1     0.1     0.0    -0.0
     0.0    -0.0    -0.0     0.1     0.1    -0.0    -0.0    -0.0     0.0     0.1
     0.1     0.1    -0.0     0.0     0.1    -0.0    -0.1    -0.1    -0.0     0.1
     0.0    -0.0     0.0    -0.0     0.0     0.1     0.1     0.0     0.0     0.1
     0.1    -0.0     0.0    -0.0     0.0     0.0     0.0     0.0     0.0    -0.0
     0.0     0.1    -0.0    -0.0     0.0    -0.0    -0.1     0.0     0.1     0.0
     0.0     0.1     0.0     0.1     0.1    -0.0     0.0    -0.0     0.0     0.1
    -0.1    -0.0     0.0    -0.1    -0.1     0.1     0.1    -0.0    -0.0    -0.0
    -0.0     0.0     0.1     0.1     0.1     0.0    -0.0     0.0     0.0    -0.0
     0.0     0.1     0.0    -0.0     0.0     0.0     0.1     0.1    -0.0    -0.1
    -0.0     0.1     0.0    -0.1    -0.1    -0.0     0.0    -0.0    -0.0     0.1
     0.1     0.0     0.0     0.1    -0.0     0.0     0.1     0.0     0.1     0.0
     0.0     0.0    -0.0     0.0     0.0    -0.0    -0.0    -0.0    -0.0    -0.0
    -0.0     0.1     0.1    -0.0     0.0    -0.0    -0.1     0.0    -0.0    -0.1
     0.1     0.1     0.0     0.1     0.0    -0.0    -0.0     0.0     0.0    -0.0
     0.0     0.1     0.1     0.1     0.0    -0.0    -0.0     0.0    -0.0     0.0
    -0.0    -0.0     0.0    -0.0    -0.1    -0.0     0.1     0.1     0.1     0.0
     0.0     0.1     0.0    -0.0     0.0    -0.0    -0.0     0.0    -0.0     0.0
     0.1     0.0    -0.1     0.0    -0.0    -0.1     0.1     0.1    -0.0    -0.0
     0.0    -0.0     0.0     0.1     0.0     0.0    -0.0    -0.1    -0.0     0.0
    -0.0    -0.0     0.0     0.0    -0.0    -0.0    -0.0    -0.0     0.0     0.1
     0.0     0.1     0.1     0.1     0.1     0.1    -0.0     0.0     0.0    -0.0
    -0.0    -0.0    -0.1     0.0     0.0    -0.0     0.1     0.0     0.0    -0.0
     0.0     0.1    -0.1    -0.1     0.0    -0.0    -0.0    -0.1    -0.1     0.1
     0.1     0.1     0.1    -0.0    -0.0     0.0     0.0     0.0     0.0    -0.0
     0.0     0.0     0.0    -0.0    -0.0     0.1    -0.0    -0.1     0.1     0.1
    -0.0     0.1     0.0    -0.0     0.0    -0.0    -0.1    -0.0     0.1     0.0
     0.0     0.1     0.0    -0.0     0.0     0.0     0.0     0.0    -0.0    -0.0
     0.0    -0.1    -0.1     0.1    -0.0    -0.1     0.1     0.1    -0.0    -0.0
     0.1     0.1     0.0    -0.0    -0.1    -0.0     0.1     0.0    -0.0     0.0
     0.0     0.0     0.1     0.0     0.0     0.0    -0.0     0.0     0.0    -0.0
    -0.0     0.0    -0.0     0.0     0.1     0.0    -0.0     0.0     0.1     0.0
    -0.1    -0.0    -0.1    -0.1     0.1     0.1     0.0     0.1     0.1     0.0
     0.1    -0.1    -0.0     0.1    -0.0     0.1     0.1    -0.1     0.0     0.1
     0.0    -0.0     0.0     0.1    -0.0    -0.1     0.1     0.0    -0.1     0.0
     0.1     0.1     0.1     0.1    -0.0    -0.1    -0.1     0.0     0.0     0.0
     0.1     0.0    -0.1     0.1     0.1    -0.1    -0.1     0.0    -0.0    -0.1
     0.0     0.1    -0.1    -0.0     0.2     0.1     0.0     0.0    -0.1    -0.0
     0.1     0.0    -0.0    -0.1     0.0     0.1     0.0     0.0     0.1     0.1
     0.0     0.0     0.1    -0.0    -0.2    -0.1     0.1    -0.0    -0.0     0.1
     0.1     0.0    -0.0    -0.1    -0.1    -0.0     0.0     0.1    -0.0    -0.0
     0.1    -0.1    -0.1     0.1     0.1    -0.1    -0.1    -0.1     0.1     0.1
     0.1     0.1     0.1     0.1     0.1    -0.1    -0.0     0.0    -0.1    -0.0
    -0.1    -0.0     0.1     0.0     0.0     0.2     0.2     0.0    -0.0    -0.1
    -0.0    -0.0    -0.0    -0.0     0.0     0.1    -0.0    -0.1     0.0     0.0
    -0.1    -0.0    -0.0     0.0     0.1    -0.1    -0.1     0.1     0.0    -0.0
     0.1     0.1     0.1     0.1     0.1     0.0     0.0     0.1    -0.0    -0.2
    -0.1    -0.0    -0.0     0.0    -0.0     0.0     0.1     0.0     0.0     0.1
     0.0     0.0    -0.0    -0.1    -0.1    -0.0     0.0     0.1    -0.0    -0.1
    -0.0     0.1     0.1     0.0    -0.0     0.0    -0.0    -0.1     0.0     0.0
     0.1     0.1     0.0     0.1     0.1    -0.0     0.0     0.1    -0.0     0.0
    -0.0    -0.0     0.0     0.0    -0.0    -0.1    -0.1     0.1     0.1     0.2
     0.2     0.0     0.1     0.0    -0.0    -0.0    -0.0    -0.1    -0.0     0.0
    -0.0     0.0     0.1     0.0     0.0     0.1    -0.0     0.0     0.1     0.0
     0.0     0.0     0.0    -0.1    -0.0     0.0    -0.0     0.1     0.0    -0.1
     0.0     0.0    -0.1     0.0     0.1     0.0     0.1     0.1     0.1     0.1
     0.0     0.0    -0.0    -0.0     0.0    -0.1    -0.0     0.1    -0.1    -0.1
    -0.0     0.0     0.2     0.2     0.0     0.0     0.0    -0.1    -0.0     0.1
     0.0    -0.1    -0.1    -0.0     0.1     0.0     0.0     0.1     0.1     0.0
    -0.1    -0.0     0.1     0.0    -0.0     0.0     0.1     0.1     0.0     0.0
     0.1    -0.1    -0.1     0.1     0.0    -0.1     0.0    -0.0     0.0     0.1
     0.0     0.0     0.1     0.1     0.1     0.0     0.1     0.1    -0.0    -0.0
    -0.0     0.0     0.1     0.0     0.0     0.0    -0.0    -0.0     0.0     0.0
    -0.0     0.0     0.1     0.0     0.0     0.0    -0.0    -0.0     0.1     0.1
    -0.0    -0.0     0.0    -0.0    -0.0    -0.1    -0.1    -0.0    -0.0     0.0
     0.1     0.1     0.1     0.2     0.0     0.0     0.0    -0.1    -0.0    -0.0
    -0.1    -0.0    -0.0     0.0     0.0    -0.0     0.0     0.0     0.0     0.1
    -0.0    -0.0     0.1     0.0     0.0     0.1    -0.0     0.0     0.0    -0.1
    -0.1    -0.0    -0.0     0.1     0.1     0.0     0.1     0.0     0.1     0.1
     0.0    -0.0    -0.1    -0.1    -0.0    -0.0    -0.0     0.0     0.0     0.1
     0.1     0.1     0.1     0.1    -0.0    -0.0     0.0    -0.0     0.0     0.0
    -0.1    -0.1    -0.1     0.1     0.1     0.1     0.0    -0.0     0.0     0.1
    -0.1    -0.0    -0.0    -0.1    -0.0     0.0     0.0     0.1     0.1     0.0
     0.1     0.1     0.1    -0.0    -0.1    -0.1    -0.0     0.0    -0.0     0.0
     0.1     0.1     0.1     0.1    -0.0    -0.1     0.0     0.0    -0.1    -0.0
     0.0     0.0     0.0    -0.0    -0.0     0.1     0.0    -0.0    -0.0    -0.1
     0.0     0.0    -0.0     0.1     0.1     0.1     0.1     0.0    -0.0     0.0
    -0.0     0.0    -0.0    -0.0     0.1     0.0    -0.1    -0.0    -0.0     0.1
     0.1    -0.1    -0.1     0.0    -0.0     0.1     0.1     0.1     0.1     0.0
    -0.1    -0.1    -0.1    -0.0    -0.0     0.0     0.1     0.1     0.1     0.0
    -0.0    -0.0     0.1     0.0     0.0     0.0    -0.0     0.0     0.1     0.0
    -0.0    -0.0    -0.0    -0.0    -0.1     0.0     0.1     0.1     0.1     0.1
     0.1     0.1    -0.1    -0.1    -0.1    -0.1     0.0     0.0    -0.0     0.0
     0.0    -0.1     0.0     0.1     0.0     0.0     0.1     0.0     0.0     0.0
     0.1     0.0    -0.1    -0.0    -0.0    -0.1    -0.0    -0.0    -0.0     0.1
     0.1     0.1     0.1     0.0     0.0    -0.0    -0.1    -0.0    -0.0    -0.0
     0.1     0.1     0.0     0.0    -0.0    -0.0    -0.0    -0.0    -0.0    -0.0
     0.1     0.2     0.1     0.1    -0.0    -0.1     0.0    -0.0    -0.1     0.0
     0.0     0.0     0.0    -0.0     0.1     0.1     0.0     0.1    -0.1    -0.1
    -0.0    -0.0    -0.0     0.0    -0.0     0.1     0.1    -0.0    -0.0     0.0
    -0.0    -0.1     0.0     0.0     0.1     0.1     0.1     0.1     0.0     0.0
    -0.0    -0.1     0.0     0.0    -0.1    -0.0     0.1     0.1     0.1     0.1
     0.0    -0.0    -0.1    -0.0    -0.0    -0.1    -0.0     0.0     0.1     0.1
     0.1     0.1     0.0    -0.0     0.0    -0.0    -0.1    -0.1    -0.1    -0.1
    -0.0     0.0     0.0     0.0    -0.0    -0.0    -0.0    -0.0     0.1     0.1
     0.1     0.1     0.1    -0.0     0.0    -0.0    -0.0     0.0    -0.0     0.0
     0.0     0.0     0.0    -0.0    -0.0     0.0     0.0     0.0     0.0     0.0
     0.0    -0.0     0.0     0.0     0.0     0.0    -0.0    -0.0     0.0     0.0
    -0.0     0.0    -0.0    -0.0     0.1     0.0     0.1     0.1     0.1     0.0
     0.0    -0.0     0.0    -0.0    -0.1    -0.0    -0.0    -0.0    -0.0    -0.0
     0.1     0.1     0.1     0.1    -0.0     0.0     0.1     0.0     0.0     0.0
     0.0    -0.0    -0.1    -0.1    -0.0     0.0    -0.0     0.0    -0.0     0.0
     0.1     0.0     0.0     0.0    -0.0    -0.0    -0.0     0.0     0.1     0.0
    -0.0     0.0     0.1     0.1     0.0    -0.0    -0.0    -0.0     0.0     0.0
     0.0     0.0     0.0     0.1     0.1     0.0     0.0    -0.0    -0.1    -0.1
    -0.1    -0.0     0.1     0.1     0.0     0.0     0.0     0.0     0.0     0.0
    -0.0    -0.0    -0.0    -0.0    -0.0    -0.0     0.0    -0.0    -0.0     0.0
     0.0     0.0     0.0     0.0     0.0     0.1     0.1     0.0    -0.0    -0.0
     0.0    -0.1    -0.0     0.0    -0.0     0.0     0.0    -0.1    -0.1     0.0
     0.0     0.0     0.1     0.0     0.1     0.1     0.0     0.0     0.0    -0.0
    -0.0     0.0     0.0    -0.0    -0.0    -0.0    -0.0    -0.0     0.0     0.0
     0.0     0.0     0.0     0.0     0.0     0.0     0.0     0.1     0.1     0.1
    -0.0    -0.0    -0.0    -0.1    -0.1     0.0     0.0     0.0     0.1     0.1
     0.1     0.1     0.1     0.0    -0.0     0.0     0.1     0.0     0.1     0.1
     0.1     0.0    -0.0    -0.0    -0.0    -0.0    -0.0    -0.1    -0.0     0.0
    -0.1     0.0     0.0    -0.0     0.1     0.1     0.0     0.0     0.1     0.1
     0.1     0.1     0.1    -0.0    -0.1    -0.1    -0.2    -0.1    -0.0    -0.0
     0.1     0.1     0.1     0.2     0.1     0.1     0.1     0.0     0.1     0.0
    -0.0    -0.0    -0.1    -0.1    -0.1    -0.1    -0.1    -0.1    -0.1    -0.0
     0.1     0.2     0.2     0.1     0.2     0.1    -0.0     0.0     0.0    -0.1
     0.0    -0.0    -0.1    -0.1    -0.0     0.0     0.0    -0.1     0.0     0.0
     0.0     0.1     0.1     0.1     0.1     0.1     0.1     0.1    -0.0    -0.0
     0.0    -0.1    -0.1    -0.0    -0.1    -0.1     0.0     0.0     0.1     0.1
     0.1     0.0     0.0     0.0    -0.0    -0.0     0.1     0.1    -0.0     0.0
    -0.0    -0.1    -0.0     0.0     0.0     0.1     0.0     0.0     0.1     0.0
    -0.0     0.0    -0.0    -0.0    -0.0    -0.0     0.0     0.1    -0.0    -0.0
     0.1     0.0    -0.0     0.1    -0.0    -0.1     0.1     0.0    -0.0     0.1
     0.0    -0.0     0.0    -0.1    -0.0    -0.0     0.0     0.1     0.1     0.1
     0.0     0.1     0.2    -0.0    -0.0     0.1    -0.0    -0.0     0.0     0.0
    -0.1    -0.0    -0.0    -0.0     0.0    -0.0    -0.0     0.1     0.0     0.0
     0.1     0.1     0.1     0.0    -0.0     0.0    -0.0    -0.1    -0.0    -0.0
    -0.0     0.0     0.0     0.1     0.1     0.0     0.1     0.1     0.0     0.0
     0.0    -0.0     0.0     0.0    -0.1     0.0     0.0    -0.0     0.0    -0.0
     0.0     0.0     0.0     0.0     0.0     0.0    -0.0    -0.1     0.0     0.1
     0.0     0.1     0.1    -0.0     0.0     0.0    -0.1     0.0     0.1     0.1
     0.0     0.1     0.0    -0.1    -0.0    -0.1    -0.1     0.0    -0.1     0.0
     0.1    -0.0     0.1     0.2     0.0     0.0     0.1     0.0     0.1     0.0
    -0.0    -0.0    -0.1    -0.1    -0.1    -0.0    -0.0     0.0     0.1     0.1
     0.1     0.2     0.0    -0.1     0.1     0.0    -0.1    -0.1     0.0    -0.0
    -0.0     0.0     0.0     0.1     0.1     0.0     0.1     0.1     0.0     0.0
    -0.0    -0.1    -0.1     0.0    -0.0    -0.0     0.1    -0.0     0.0     0.1
     0.0     0.0     0.0     0.0     0.0     0.1     0.0    -0.0     0.0     0.0
    -0.0     0.0     0.0    -0.1    -0.0     0.0    -0.0    -0.0     0.1     0.1
    -0.0    -0.0    -0.0    -0.0    -0.0    -0.1     0.0     0.1     0.0     0.0
