Uncorrected accelerogram 20160214_001343_HHSS_20 GNS Science
Site HHSS      43 33 27S  172 35 34E     Cusp file:  20160214_001347_HHSS
Hillmorton High School
Instrument Cusp_42116
Resolution: 18-bit   Instr Period: 0.0050 s   Damping: 0.700
Accelerogram 20160214_001343_HHSS_20                 Processed 2016 February 22
11 km east of CHRISTCHURCH
2016 February 14         00:13:43 UT
Epicentre  43 29 50S 172 45 18E  Bearing N63E  Dist   15km  Depth    8km M  5.70
Number of points  38841    Duration 194.20 s
Raw readings in units of 1.00 mm/s/s  at intervals of 0.005 s
Data is unfiltered
Component N38W
Acceleration:  Peak    608.1 mm/s/s at  44.22 s     RMS    43.63 mm/s/s
Velocity record unevaluated
Displacement record unevaluated
    2016       2      14       0      13     430       0       0    2016       2
      43      29      50     172      45      18       8       0      14       0
      43      33      27     172      35      34     322     322      63      15
   38841       0       0   38841       0       0       0       0      13    7598
   200.0    0.70    0.00   0.000  0.0000   0.000   0.000   1.000     0.0    0.00
  43.557 172.593  43.497 172.755    5.70    0.00    0.00    0.00      0.      0.
  194.20    0.00    0.00  194.20  0.0050  0.0050      0.      0.      0.  9806.6
   608.1   44.22    43.6      0.      0.     0.0    0.00     0.0     0.0   0.000
    0.00    0.00    0.00    0.00   0.000    0.00    0.00    0.00    0.00   0.000
   0.000   0.000   0.000      0.      0.   0.000   0.000   0.000      0.      0.
    -0.0    -0.0    -0.0     0.0    -0.1    -0.1    -0.1    -0.1    -0.1    -0.2
    -0.1    -0.0    -0.3    -0.1     0.0    -0.1     0.2    -0.0    -0.1     0.0
    -0.1     0.0     0.0     0.0     0.0    -0.1    -0.0     0.1     0.1     0.0
     0.1     0.2     0.0     0.1    -0.1    -0.2     0.1     0.0     0.1     0.1
    -0.1    -0.0     0.1     0.1    -0.1    -0.2    -0.2    -0.1     0.0    -0.1
    -0.0    -0.1    -0.1     0.2     0.0    -0.1    -0.2    -0.2    -0.0     0.1
     0.2     0.1    -0.1    -0.1     0.0     0.1     0.0    -0.1    -0.1    -0.2
    -0.2    -0.2    -0.3    -0.3    -0.2    -0.1    -0.0    -0.0    -0.1    -0.1
    -0.1    -0.1    -0.0    -0.1    -0.1    -0.1    -0.3    -0.1     0.0    -0.2
     0.1     0.1     0.2     0.2     0.0     0.3     0.0    -0.0     0.1    -0.0
    -0.0    -0.1     0.1     0.2     0.1     0.1    -0.0     0.1    -0.0    -0.0
     0.1     0.0     0.0     0.2     0.2    -0.0    -0.1     0.1     0.0    -0.2
    -0.0    -0.0    -0.2    -0.1    -0.2    -0.1    -0.1    -0.1     0.0    -0.1
    -0.2    -0.1    -0.1    -0.0     0.0    -0.0     0.0     0.0     0.0     0.1
     0.1    -0.0    -0.2    -0.1     0.0     0.1     0.1     0.1     0.0    -0.1
     0.1     0.1    -0.1    -0.1    -0.0     0.0    -0.0     0.0     0.3     0.2
     0.1     0.1    -0.1    -0.2    -0.0    -0.1     0.0     0.3     0.1     0.2
     0.1     0.0     0.2     0.0     0.1     0.2    -0.0     0.0    -0.0    -0.0
    -0.1    -0.1     0.2     0.1     0.0     0.1    -0.0     0.1     0.1    -0.1
    -0.0    -0.1    -0.0    -0.1    -0.1     0.1    -0.0    -0.0     0.1     0.1
     0.2     0.0    -0.0     0.2     0.1     0.3     0.1    -0.1     0.1    -0.1
     0.0     0.1     0.1     0.1    -0.1     0.1     0.1     0.1     0.2     0.1
     0.1     0.0     0.1     0.0    -0.2    -0.1    -0.2    -0.2    -0.0    -0.1
    -0.3    -0.1    -0.1    -0.1     0.1     0.1     0.1    -0.0     0.1     0.2
    -0.0     0.1     0.2    -0.0     0.1    -0.0    -0.1     0.0     0.2     0.3
     0.2     0.1     0.2     0.1     0.0     0.0    -0.0     0.1     0.1     0.1
     0.2     0.2     0.1     0.2     0.0     0.2     0.2     0.0     0.2     0.1
    -0.0     0.2    -0.0     0.0     0.1    -0.1     0.0    -0.1    -0.0     0.0
    -0.2     0.0     0.2    -0.0     0.3     0.2    -0.0     0.1     0.1     0.1
    -0.0    -0.0     0.0    -0.1     0.1    -0.1    -0.1     0.1     0.0     0.1
     0.1     0.2     0.1     0.0     0.2     0.0     0.0     0.0     0.0     0.2
    -0.1    -0.0     0.3     0.1    -0.0     0.1     0.0     0.0     0.0     0.1
     0.4     0.2     0.0     0.2     0.1    -0.1    -0.0    -0.1     0.0     0.0
    -0.3     0.0     0.2    -0.1     0.0     0.1     0.1    -0.1    -0.1     0.0
    -0.2    -0.0    -0.0    -0.3    -0.2    -0.1    -0.2    -0.1    -0.3    -0.3
     0.0     0.0    -0.1     0.0     0.0     0.0     0.1     0.0    -0.0     0.0
     0.2     0.1     0.1     0.1     0.1     0.2     0.1     0.0     0.2    -0.0
     0.0     0.2    -0.0    -0.1    -0.3    -0.1    -0.0    -0.3    -0.0     0.0
    -0.1     0.1     0.0    -0.2     0.2     0.0    -0.3     0.2     0.1    -0.1
     0.1     0.1     0.1    -0.1    -0.0     0.2    -0.1     0.0     0.0    -0.1
     0.1     0.1    -0.1    -0.1    -0.1    -0.2    -0.2    -0.1    -0.1    -0.1
    -0.2    -0.2    -0.2    -0.0    -0.1    -0.1    -0.0    -0.0     0.2     0.1
    -0.2     0.1     0.2    -0.0    -0.0    -0.1    -0.1    -0.1    -0.0     0.1
    -0.0    -0.0     0.1    -0.1    -0.2     0.0    -0.1    -0.3    -0.1    -0.3
    -0.1     0.1    -0.1    -0.0     0.0     0.0     0.1    -0.0     0.1     0.1
     0.1     0.0     0.1     0.3     0.2    -0.2    -0.2    -0.1    -0.0     0.1
    -0.1    -0.1    -0.0    -0.2    -0.1    -0.1    -0.1     0.0     0.1     0.1
     0.1     0.1     0.0    -0.1    -0.1     0.0    -0.1     0.0     0.2     0.0
     0.0     0.0    -0.2    -0.0    -0.1    -0.1    -0.1    -0.2    -0.1     0.0
    -0.1    -0.2    -0.1     0.1     0.2    -0.1    -0.0     0.0    -0.0     0.1
     0.1    -0.0     0.0     0.1     0.1     0.1    -0.0     0.1     0.2     0.1
     0.0    -0.0    -0.1    -0.2    -0.3    -0.1    -0.0    -0.1    -0.1    -0.1
    -0.3    -0.2    -0.1    -0.1    -0.1    -0.1    -0.1    -0.1    -0.0    -0.1
    -0.1    -0.0    -0.2     0.1     0.1    -0.2     0.0     0.0     0.1     0.1
    -0.1     0.1    -0.0    -0.0    -0.0    -0.1    -0.1    -0.2    -0.0     0.1
    -0.1     0.1     0.2    -0.0     0.0     0.1     0.1    -0.1     0.1     0.1
    -0.0     0.3     0.2     0.1     0.3    -0.0     0.0     0.0    -0.1    -0.2
    -0.2     0.1    -0.1    -0.3     0.0     0.0     0.0     0.0    -0.0    -0.0
     0.0    -0.0    -0.0    -0.1    -0.1     0.0    -0.2    -0.1     0.1    -0.2
    -0.1     0.2     0.2     0.2     0.0     0.1     0.1     0.1     0.2     0.2
     0.3     0.0    -0.0     0.0    -0.0     0.0    -0.3    -0.0     0.1    -0.2
     0.2    -0.0    -0.2     0.0    -0.0     0.0     0.2     0.0     0.0     0.1
    -0.1    -0.0    -0.0    -0.2    -0.1    -0.0    -0.0    -0.1    -0.0    -0.1
    -0.1     0.0     0.2     0.2     0.1     0.1    -0.0     0.2     0.3     0.2
     0.2     0.0     0.1     0.1    -0.2    -0.1     0.0    -0.1    -0.2    -0.1
    -0.0     0.0    -0.1     0.0     0.0    -0.3    -0.3    -0.1    -0.0     0.1
     0.1     0.0     0.2     0.1    -0.0     0.0    -0.0    -0.1    -0.1     0.0
     0.1     0.0     0.1    -0.0    -0.1    -0.1    -0.2    -0.1     0.1     0.1
     0.1     0.2     0.0     0.2     0.2     0.0     0.1     0.1     0.1    -0.1
    -0.0     0.1    -0.2     0.1     0.2    -0.0     0.2     0.1    -0.2    -0.0
     0.2     0.1     0.1     0.1     0.1     0.3     0.2     0.0     0.1     0.0
    -0.1    -0.0     0.1    -0.0    -0.2    -0.1    -0.1    -0.0     0.1     0.2
     0.1    -0.0     0.2     0.1     0.1     0.1    -0.0     0.3     0.3     0.0
     0.1     0.1     0.1     0.1    -0.1     0.0    -0.1    -0.0     0.1    -0.1
    -0.1    -0.0     0.1     0.0    -0.2    -0.0    -0.1    -0.2    -0.0    -0.0
    -0.0    -0.0    -0.1    -0.1    -0.0     0.1     0.2     0.1    -0.0     0.1
     0.1     0.0     0.1     0.1     0.2     0.1    -0.0     0.0     0.0     0.2
     0.0    -0.2     0.2     0.1    -0.0     0.1     0.1     0.1    -0.0    -0.1
    -0.1    -0.1     0.0    -0.1    -0.2     0.0     0.0     0.0     0.2     0.1
     0.1     0.1    -0.0     0.0    -0.2    -0.1    -0.0    -0.0     0.2    -0.0
     0.1     0.1    -0.1     0.1     0.1     0.2     0.2     0.0     0.1     0.1
     0.1     0.1     0.1     0.1    -0.0    -0.1    -0.1     0.1    -0.0    -0.0
     0.1    -0.3    -0.0     0.0    -0.2    -0.0    -0.2    -0.1    -0.0    -0.1
     0.1     0.0    -0.1     0.0     0.1     0.1    -0.0    -0.1    -0.0     0.1
     0.0     0.1     0.2     0.1     0.0     0.2     0.3     0.0    -0.1    -0.1
    -0.4    -0.1    -0.0    -0.3    -0.2    -0.1    -0.2     0.1     0.1    -0.0
     0.1     0.1     0.0    -0.0     0.0     0.0    -0.1    -0.1    -0.1     0.0
     0.3     0.1    -0.2     0.0    -0.0    -0.2    -0.0    -0.2     0.1     0.1
    -0.2     0.1    -0.1    -0.2    -0.0    -0.1    -0.1    -0.0     0.0     0.2
     0.1     0.1     0.3     0.2     0.1     0.0    -0.2    -0.1     0.1    -0.1
    -0.1    -0.2    -0.1     0.1    -0.2    -0.3     0.0    -0.2    -0.2     0.0
    -0.2    -0.2    -0.1    -0.2    -0.2    -0.1    -0.0     0.1    -0.0    -0.1
     0.1    -0.0    -0.1     0.1     0.1     0.1     0.2     0.1    -0.0     0.2
     0.3     0.2     0.1     0.0    -0.1    -0.4    -0.1     0.1    -0.1     0.1
     0.1    -0.0     0.3     0.2    -0.0     0.0    -0.1    -0.0    -0.0     0.0
     0.1     0.1     0.1     0.1    -0.2    -0.2     0.0     0.0    -0.1    -0.1
    -0.2    -0.2    -0.0     0.1     0.2     0.2    -0.0    -0.2    -0.1     0.2
     0.1    -0.1     0.0    -0.0    -0.2     0.1     0.0    -0.2     0.1     0.1
     0.1     0.3     0.3     0.1     0.1     0.2     0.3     0.1    -0.1    -0.1
    -0.0    -0.2    -0.1    -0.1    -0.0     0.1    -0.3    -0.2     0.1    -0.0
    -0.1    -0.3    -0.2     0.0    -0.2    -0.1     0.1    -0.1    -0.1     0.1
    -0.1     0.0     0.2    -0.0    -0.0    -0.0    -0.1    -0.0    -0.0    -0.0
     0.1     0.1    -0.1    -0.1     0.1     0.1    -0.0    -0.1    -0.1    -0.1
    -0.1    -0.1    -0.2    -0.2     0.1     0.1    -0.0    -0.0    -0.1    -0.1
    -0.0     0.1     0.0    -0.0     0.1    -0.0     0.0     0.2     0.1    -0.0
    -0.0     0.0     0.2    -0.0    -0.2    -0.1    -0.1    -0.2    -0.3    -0.1
     0.0    -0.1    -0.1     0.1     0.2     0.2    -0.0     0.1    -0.0    -0.3
    -0.1    -0.0    -0.2    -0.2    -0.1    -0.2    -0.2    -0.1    -0.1    -0.1
    -0.0     0.1     0.1     0.1     0.1     0.1     0.0     0.1    -0.2    -0.2
    -0.1    -0.1     0.1    -0.0    -0.1    -0.1    -0.2    -0.1    -0.1    -0.1
     0.0     0.1    -0.0     0.0    -0.1    -0.2    -0.0    -0.1     0.0     0.1
     0.0     0.1     0.0    -0.2    -0.2     0.1     0.2     0.2     0.1     0.2
     0.0    -0.0     0.1     0.1     0.1    -0.0    -0.3    -0.1    -0.1    -0.0
     0.0    -0.0     0.1    -0.0    -0.1     0.1     0.2    -0.0    -0.2    -0.0
    -0.1    -0.3    -0.1    -0.0    -0.2     0.0    -0.0    -0.1     0.1    -0.1
    -0.3    -0.1     0.1     0.1     0.1    -0.1     0.0     0.2    -0.1    -0.1
    -0.1    -0.1     0.2    -0.2     0.1     0.1    -0.1     0.3     0.0    -0.1
     0.3    -0.1     0.0    -0.1    -0.0     0.3    -0.1     0.0     0.1    -0.1
     0.0    -0.1    -0.2    -0.1    -0.1    -0.0    -0.1    -0.1     0.1     0.0
     0.0     0.1     0.2     0.1    -0.1    -0.1    -0.0    -0.2    -0.2    -0.0
    -0.1     0.0     0.1     0.0     0.2     0.1    -0.0     0.1     0.1     0.0
     0.1     0.1     0.0    -0.1    -0.1    -0.1    -0.2    -0.0     0.1    -0.1
     0.0    -0.1    -0.1     0.2     0.0     0.1     0.2     0.1    -0.0    -0.1
     0.0    -0.0    -0.3    -0.1    -0.2    -0.3    -0.2    -0.1     0.2     0.1
     0.0     0.3    -0.0    -0.1     0.1    -0.0     0.1    -0.0    -0.3    -0.0
    -0.1    -0.2    -0.0    -0.2    -0.2    -0.1    -0.2    -0.1     0.1    -0.0
    -0.2     0.0     0.1    -0.1    -0.1    -0.0    -0.1     0.1    -0.1    -0.2
    -0.1    -0.1     0.0     0.2    -0.0    -0.1    -0.1    -0.1    -0.2    -0.2
    -0.1    -0.1    -0.1    -0.2    -0.1     0.0     0.1     0.1    -0.2    -0.0
     0.0    -0.3    -0.1    -0.2    -0.2    -0.2    -0.1     0.0    -0.1     0.0
     0.1    -0.1     0.1     0.1     0.1     0.2     0.1     0.0     0.2    -0.1
    -0.3     0.1    -0.0    -0.1     0.1    -0.1     0.0     0.3     0.2     0.2
     0.1     0.0    -0.1    -0.1    -0.0    -0.0    -0.0    -0.0    -0.1     0.0
    -0.0     0.1     0.2    -0.1    -0.1     0.0     0.0     0.2     0.0     0.1
     0.1    -0.0     0.1    -0.0    -0.1     0.0     0.1     0.1     0.2    -0.0
     0.0     0.2     0.1     0.2     0.2     0.0     0.1     0.1     0.1     0.1
    -0.1     0.1     0.1    -0.0    -0.1    -0.0    -0.0    -0.1     0.1     0.1
     0.1    -0.0    -0.1     0.1     0.1    -0.0     0.1    -0.1     0.0     0.2
     0.2     0.2     0.2     0.2    -0.0    -0.1    -0.1     0.0     0.0    -0.1
    -0.1    -0.1     0.0     0.1     0.1     0.1     0.2     0.2     0.2     0.0
    -0.0     0.1     0.1     0.0     0.0     0.1     0.0    -0.3    -0.1    -0.1
    -0.1    -0.1    -0.1     0.1     0.1     0.2     0.1    -0.1     0.2    -0.0
    -0.2     0.1    -0.1    -0.2     0.1    -0.1     0.1     0.1    -0.4    -0.0
     0.1    -0.2    -0.1    -0.0     0.1     0.1    -0.1     0.1    -0.0    -0.0
     0.0    -0.1     0.1     0.0    -0.1     0.1     0.0    -0.0    -0.0    -0.1
     0.0     0.0     0.1     0.2     0.1     0.1     0.2     0.1     0.1     0.2
     0.1    -0.0    -0.0     0.1     0.0     0.1     0.1     0.1     0.1    -0.1
     0.0    -0.1    -0.2    -0.0    -0.1    -0.2    -0.1    -0.2    -0.1     0.1
     0.0    -0.0    -0.1    -0.1     0.1     0.1     0.0     0.1     0.1     0.3
     0.2    -0.0    -0.0    -0.1    -0.1     0.1     0.1     0.0    -0.1     0.0
     0.2    -0.0     0.0     0.2     0.1     0.0     0.0     0.0    -0.0    -0.1
     0.1     0.2     0.1     0.1     0.0    -0.0    -0.1     0.0     0.0     0.1
     0.2     0.0     0.1     0.1     0.0     0.2     0.2    -0.0     0.0     0.1
     0.1     0.1    -0.0     0.0     0.1     0.1     0.1    -0.0    -0.1    -0.0
     0.2     0.1     0.1     0.2     0.2     0.1    -0.0    -0.0     0.1    -0.1
    -0.1    -0.2    -0.2    -0.0    -0.1    -0.1     0.1     0.1     0.2     0.2
     0.1     0.2     0.1     0.0     0.2    -0.1    -0.1     0.2     0.0    -0.2
     0.0     0.1     0.0     0.1     0.1     0.1    -0.0     0.0     0.1    -0.1
     0.0     0.1     0.1     0.2    -0.0    -0.1    -0.1    -0.0     0.1    -0.1
     0.0     0.2     0.2     0.1    -0.1    -0.1     0.0     0.1     0.0     0.0
     0.0     0.2     0.1    -0.3     0.0     0.1     0.1     0.2    -0.0    -0.0
     0.2     0.2     0.0     0.1     0.2    -0.1    -0.1     0.1     0.1     0.1
     0.0     0.1     0.0    -0.1    -0.1    -0.2    -0.0    -0.1    -0.1     0.1
     0.0     0.2     0.1    -0.2     0.1    -0.0    -0.1     0.1    -0.2     0.1
     0.4     0.2    -0.0     0.0     0.2    -0.0    -0.0     0.1    -0.1    -0.1
    -0.1    -0.1    -0.1     0.0     0.0    -0.1    -0.0     0.0     0.0     0.0
    -0.1     0.1     0.1     0.0     0.0    -0.0    -0.1    -0.2    -0.0     0.1
     0.1    -0.0    -0.1     0.0    -0.0    -0.2    -0.3    -0.2    -0.0    -0.1
     0.2     0.2     0.0     0.1    -0.1     0.0     0.2     0.0     0.0     0.1
     0.0    -0.1     0.1     0.2     0.1     0.1     0.1     0.1     0.0     0.0
     0.0    -0.1     0.1     0.0    -0.1     0.2     0.2     0.2     0.1     0.1
     0.2     0.2     0.0    -0.0    -0.1     0.1    -0.2    -0.1    -0.0    -0.3
     0.0     0.2     0.1     0.2     0.1     0.1     0.1    -0.0     0.0     0.0
    -0.0    -0.0    -0.1     0.1     0.2     0.1     0.1    -0.1     0.0     0.2
    -0.2     0.1     0.1    -0.1     0.0     0.1     0.2     0.1     0.3     0.3
    -0.0     0.0     0.0     0.2     0.1    -0.0     0.2     0.0    -0.0    -0.1
    -0.0     0.1    -0.1     0.3     0.3     0.1     0.2     0.1    -0.1    -0.0
     0.0     0.0    -0.1     0.1     0.2    -0.0     0.2     0.2     0.1     0.1
     0.0     0.0    -0.1    -0.1     0.1     0.0     0.1     0.2     0.1     0.2
     0.1     0.0    -0.0    -0.2    -0.1     0.1    -0.1    -0.0     0.1    -0.0
    -0.0     0.1     0.1     0.1     0.2     0.2     0.0    -0.0     0.0     0.1
     0.1    -0.0    -0.1    -0.1     0.1     0.0    -0.1     0.0    -0.0    -0.2
    -0.1     0.0    -0.0    -0.1     0.1     0.0    -0.2     0.0     0.0    -0.0
     0.1    -0.1    -0.3    -0.1     0.1    -0.1    -0.1     0.0     0.1     0.1
    -0.0    -0.0     0.2     0.1     0.2     0.2    -0.1     0.0     0.3     0.0
     0.0     0.3     0.2     0.1    -0.0     0.2     0.2    -0.1     0.1     0.1
    -0.0     0.2     0.1    -0.1    -0.0    -0.1    -0.1    -0.1    -0.0     0.1
    -0.1     0.1     0.1    -0.0     0.1    -0.1     0.0     0.1    -0.3    -0.1
    -0.1    -0.2     0.0     0.0     0.0    -0.1    -0.1    -0.2    -0.2     0.0
    -0.2    -0.1    -0.1    -0.1     0.1    -0.1     0.0     0.2     0.0     0.2
     0.2    -0.0     0.1     0.2    -0.0    -0.1    -0.0    -0.1     0.1     0.1
     0.1     0.3     0.1    -0.0     0.1     0.1     0.2    -0.0    -0.1    -0.1
    -0.2    -0.1    -0.2    -0.3    -0.2    -0.1    -0.2    -0.2     0.1    -0.0
    -0.1     0.0    -0.0     0.1    -0.0    -0.2    -0.1    -0.2    -0.0     0.0
    -0.1    -0.1    -0.0    -0.0    -0.1     0.0     0.1     0.0    -0.1     0.2
     0.2    -0.3     0.0     0.3     0.0     0.1    -0.0    -0.2    -0.1    -0.1
    -0.0    -0.1    -0.1    -0.0     0.1     0.2     0.0    -0.1    -0.1    -0.0
     0.0     0.1    -0.0     0.0     0.0    -0.0     0.4     0.1     0.0     0.4
    -0.1    -0.1     0.1     0.0     0.1    -0.1    -0.1     0.0    -0.0     0.0
     0.1     0.0    -0.1     0.0     0.1     0.1     0.0     0.1     0.1     0.0
     0.1     0.0     0.0     0.1     0.1     0.1    -0.0     0.2     0.2     0.0
     0.1     0.2     0.2     0.0     0.0     0.1     0.1    -0.2    -0.1     0.4
    -0.1    -0.2     0.2    -0.1    -0.1    -0.1    -0.1     0.0    -0.1     0.2
     0.2     0.0     0.1     0.1     0.1    -0.0    -0.0     0.1     0.1     0.3
    -0.0     0.0     0.1    -0.0     0.2    -0.0     0.0     0.2    -0.0     0.2
     0.1     0.1     0.2    -0.1     0.1     0.1     0.0     0.2     0.1     0.1
     0.1    -0.0     0.1    -0.1    -0.1    -0.0    -0.0    -0.2    -0.2     0.0
    -0.2    -0.0     0.3    -0.0     0.0     0.1    -0.1    -0.1    -0.1     0.1
     0.1    -0.1     0.1    -0.1     0.0     0.3     0.0     0.2     0.2     0.1
     0.2    -0.1     0.1     0.2    -0.0     0.0     0.1     0.2     0.2    -0.2
    -0.1     0.2     0.0     0.0     0.0     0.0     0.2     0.0    -0.1    -0.2
    -0.1     0.1    -0.1    -0.1    -0.0     0.1     0.1    -0.0    -0.0     0.1
     0.1     0.1     0.1    -0.0     0.0    -0.0    -0.0    -0.0    -0.2     0.0
    -0.1    -0.1     0.1     0.1     0.1    -0.1    -0.1    -0.0    -0.2    -0.0
    -0.2    -0.2     0.1     0.0     0.0     0.2     0.1     0.0    -0.0    -0.1
     0.1     0.1    -0.0     0.2     0.1     0.1     0.1     0.1     0.3     0.1
     0.1     0.1    -0.2     0.1    -0.0    -0.1     0.1    -0.2     0.1     0.1
    -0.2     0.0    -0.1    -0.1     0.1     0.0     0.0    -0.1    -0.1     0.1
     0.0    -0.0    -0.2    -0.0     0.2     0.1     0.2     0.1     0.1     0.2
     0.0     0.0     0.1     0.1     0.1    -0.1     0.1     0.0    -0.0    -0.1
    -0.3     0.0    -0.1    -0.1     0.1    -0.0    -0.0    -0.1     0.1    -0.1
    -0.1     0.2     0.1     0.1     0.0    -0.0     0.1     0.1     0.1     0.2
     0.2     0.1     0.2     0.2     0.1     0.1     0.1     0.2    -0.0     0.0
    -0.0    -0.2     0.1    -0.2    -0.3     0.1    -0.1     0.1     0.2     0.0
     0.2    -0.1    -0.1     0.3    -0.1    -0.0     0.4     0.1     0.0     0.1
    -0.0    -0.0     0.1     0.2    -0.0    -0.0     0.2     0.1     0.3     0.2
    -0.0     0.0    -0.0    -0.1    -0.1    -0.2    -0.3    -0.1    -0.0    -0.1
