Uncorrected accelerogram 20160214_001343_SBRC_20 GNS Science
Site SBRC      43 48 31S  172 15 09E     Cusp file:  20160214_001402_SBRC
Southbridge School
Instrument Cusp_215
Resolution: 18-bit   Instr Period: 0.0050 s   Damping: 0.700
Accelerogram 20160214_001343_SBRC_20                 Processed 2016 February 22
11 km east of CHRISTCHURCH
2016 February 14         00:13:43 UT
Epicentre  43 29 50S 172 45 18E  Bearing N50E  Dist   53km  Depth    8km M  5.70
Number of points  10786    Duration  53.93 s
Raw readings in units of 1.00 mm/s/s  at intervals of 0.005 s
Data is unfiltered
Component S59W
Acceleration:  Peak    116.7 mm/s/s at   9.51 s     RMS    20.04 mm/s/s
Velocity record unevaluated
Displacement record unevaluated
    2016       2      14       0      13     430       0       0    2016       2
      43      29      50     172      45      18       8       0      14       0
      43      48      31     172      15       9     239     239      50      53
   10786       0       0   10786       0       0       0       0      13   53633
   200.0    0.70    0.00   0.000  0.0000   0.000   0.000   1.000     0.0    0.00
  43.809 172.252  43.497 172.755    5.70    0.00    0.00    0.00      0.      0.
   53.93    0.00    0.00   53.93  0.0050  0.0050      0.      0.      0.  9806.6
   116.7    9.51    20.0      0.      0.     0.0    0.00     0.0     0.0   0.000
    0.00    0.00    0.00    0.00   0.000    0.00    0.00    0.00    0.00   0.000
   0.000   0.000   0.000      0.      0.   0.000   0.000   0.000      0.      0.
   -13.7   -12.8    10.1     8.7     7.5    30.1    -5.1    -9.2   -12.9   -15.7
    31.5     3.2    -9.4     7.2    -9.3    -0.5    10.1     5.4    -9.3    -2.3
     7.2    10.9    -4.6    -9.9    24.9   -13.8     2.1    47.9     1.0    15.7
    23.2     8.5    14.1    -7.9    -1.6     5.7     9.9    20.2    -1.4   -13.7
    -8.3     1.7    19.5     9.5    -1.1    -0.2    10.7    27.3    -2.9   -14.9
     0.7     4.1    22.7     9.5   -12.0    -8.6   -17.5    13.8    29.3   -26.2
   -15.8    23.7     6.3    -1.1    17.6    25.5    -3.5   -15.5     6.3    -0.3
   -11.5    -2.3    20.1    27.7    -2.8     0.5    12.8    -7.3    -4.9   -11.6
   -14.8    -5.2    -7.6     6.3     3.0    -5.2     1.7    -8.0    -3.6     3.5
    -8.3    -1.6     2.1     0.2    -0.4    -8.1     6.9    19.5     7.5    -3.4
     7.2    -1.1   -10.0     9.5     2.9    13.8    28.4    24.8    28.8     0.5
    -6.3    20.0    11.3     5.6    19.2    -0.1   -12.9    -1.2    -0.4    -3.4
   -13.3   -19.7    -9.6     8.8    -4.2   -19.1    -9.8   -13.4     8.8    18.7
     7.3    10.5    -0.4    -7.2   -10.5    14.1    15.0    -6.4    20.1     9.6
    -2.9     0.4     2.4    20.4    16.2    26.1     7.3    -4.7    12.2    -3.0
    12.9    11.1    -0.5     5.9    -1.2    13.1     6.9     9.2    29.7    19.5
    12.1    14.1     9.1    -2.8     0.5     0.8     1.9     1.3   -22.9    -9.2
     2.8    -4.0    11.0   -10.0    -5.0    21.6   -10.2     6.6    22.7   -10.7
    11.2     8.6    -7.1    26.5    24.8    19.2    32.4     4.7   -15.8     6.2
     4.7    -5.7    14.1    23.6    10.7    16.6    28.8    -5.6   -16.1     5.5
    -0.9    -0.8   -12.1    -4.4    11.6    -8.9    21.8    33.4     0.5    24.0
    14.9   -11.8     6.5     2.3    -1.9     5.0     2.2     2.0     2.8     3.9
    -0.4    -4.2    -3.2   -10.5   -12.6    -0.6    -9.8   -13.6    -6.6   -19.8
    -2.4    25.6    15.4    -7.1    11.9    31.2     4.4    12.7    16.2    -7.1
    10.8    17.8   -15.2   -20.0    18.7    24.3    17.3    11.1    -8.8     4.1
     7.6    -4.4    -7.7    -4.4    -7.5   -11.4     5.6    -4.5     7.4    20.5
     6.8    22.9    -2.0    -4.8    32.7    28.3     4.2    -8.6     4.5   -10.2
   -19.6    -8.8    -8.2    20.8    23.9    -8.6   -10.4     6.5    15.4     4.0
   -14.8    -4.4    -0.9    14.9    14.6   -16.5    27.3    26.0     2.9    25.7
    11.2     7.9    -0.9    16.7    13.0   -15.4     9.7    -1.6    -4.8     7.7
    13.5    12.6   -11.2    -9.8    -9.9    10.8    22.1    -2.8    -5.4    -1.9
    20.2    24.6     2.7     1.2    10.9    15.1   -12.6   -18.3     2.6    12.0
    14.0    -9.6    -3.8    12.8     0.9     6.9     6.8     0.8     8.0     6.2
    14.0     9.7   -10.1    -4.3   -10.8    -2.4     3.5    -8.5    16.3     7.8
    -6.5   -10.2   -25.0   -18.2    -8.3    26.5    36.0    -5.4    -5.5    33.0
    15.4   -17.6     7.1    15.2     2.4    -4.5    -3.8     2.7    -4.0    -1.2
    -5.0    -8.1    -6.0     2.6     7.3   -25.6   -15.5    10.4     9.1    10.7
   -16.6    -5.2    17.3     3.0    11.1    16.8    18.9     8.8    -1.2    10.1
     3.9    -6.1   -10.2    -6.1     1.7    -4.1    -1.7     8.0    -3.7    -8.0
   -10.2   -26.3    -9.4   -10.3   -19.0    10.8    19.3     3.7    -9.5     8.5
     4.1   -19.9    -3.1   -12.9    -0.8    24.2    -1.1   -10.5    -1.7    16.2
    13.1     0.6    -3.3   -19.7    -2.5    -5.0   -24.1    21.2    35.4     1.9
    -5.0   -11.5     5.3    10.6   -16.9     7.3    21.2     1.2    -5.8    -4.5
    -8.6   -23.8    -8.1     3.3     1.9     7.0    -2.5    15.8    27.0    -1.4
    -8.1     1.3     1.5     7.1   -10.8   -13.7    22.6    15.1     4.7    25.3
    31.4    12.9     5.4     8.5    -4.0    12.1    12.4    -0.0     9.3     6.9
    -8.7   -19.7     8.9     5.0    -3.0     2.7   -15.7     5.9     2.7     0.4
     9.4   -10.5    -9.4    -4.9    10.1    -5.2   -28.0     1.0    19.4     6.7
   -15.1   -22.1    -0.8    18.7     8.4   -10.1   -17.0     6.6    31.7    22.1
    18.6     8.4    -3.2     2.0     8.8     8.6    -7.2    -2.4     0.3   -14.5
   -15.7   -12.1   -11.3   -12.2    -8.2   -26.2   -31.5    -0.4    -6.5   -19.0
     3.3    -3.0   -37.1   -36.1    -3.1     9.5    -0.7   -10.8   -22.3     5.6
    24.0     2.0    -3.8   -12.3    18.5    30.8    -9.6    -2.0    11.9    12.9
    14.2     9.6    10.6     9.0    19.7    24.0    14.0     8.4    -4.2   -14.5
   -17.8    -1.4     7.0   -11.2    -6.4   -12.2    -5.5    18.3     1.4     6.4
    16.3     2.6     8.5     8.0    -6.0     5.0    16.0    14.5    29.9    26.9
    26.6    32.6    23.7    30.7    14.3    19.2    34.4     2.3     0.3    -3.2
   -11.9    14.5    14.3     4.0    18.7    10.5   -13.7    -1.2    -4.7   -21.0
    -9.7   -14.0    -9.3    -9.2   -24.5   -20.2    -7.2    -0.2   -12.2    -4.2
     4.5    -1.2     7.2     0.5   -14.3    -5.3    10.8   -15.9   -24.8    -6.2
    -9.0     2.2     8.3    19.7    18.0     9.0     3.2   -32.0   -29.0   -15.3
    -3.4    -2.6   -41.7   -26.3     1.4    -8.9    -2.7    15.0    19.8    13.6
    10.6     7.3    15.2    -1.5   -33.5   -14.3    -0.7     1.6    19.0    16.0
     9.1    -2.5    -7.0    -9.8   -14.0     5.0   -22.8   -46.3   -16.7    -9.9
    -2.9    12.2    15.2     7.7    21.7    33.0    22.9    22.3     0.1    10.0
    14.8   -12.7     2.2     6.4     7.2     3.1     2.2    22.8    13.0    14.4
    20.3     6.3    13.9    15.5   -14.4   -25.2   -11.2    -8.8   -13.6   -15.8
     1.2   -10.6   -35.5   -12.8    -0.0     1.5    -3.9   -15.3   -25.3   -29.0
     2.2     4.7    -2.6    17.2    16.9    16.5    20.2    21.5    22.2    -1.3
   -12.8     9.7    -0.6   -24.5    -8.7    -2.2   -12.0   -10.4    -4.5     4.2
    25.8    18.9    -8.2    14.0     5.8   -18.9     6.5    -0.9    -9.7     3.0
   -10.0   -27.1   -26.6   -21.6    -9.6    16.9    12.5     3.0     3.9     3.1
    34.0    34.7     0.1   -11.8    -5.1     7.9    10.6    -2.5   -11.7     3.1
    -7.7   -23.6    -2.1   -15.9   -32.3   -22.0   -24.6   -23.2   -26.9   -15.5
   -11.5   -17.9     3.6    -6.2     9.6    16.9   -17.7    11.1    -2.0    -7.7
    18.2   -15.7   -13.0   -18.1   -13.2    -2.6   -35.5    -5.5    15.4    -3.2
    -4.2     6.9    29.0    15.9    14.8    31.2     6.6     3.1     1.7   -17.9
    -5.5    -6.0   -11.9   -15.2   -11.8    12.0   -12.0   -19.1     0.0   -12.0
    -6.0   -14.0    -4.0    16.9   -15.0     2.1    25.9     0.3     2.1     7.4
    16.7     9.5     7.9    39.8    26.6    28.2    44.2    33.7    20.3     4.5
    11.0     5.6     5.2    10.8     2.6     4.5    18.5    26.7     4.8    11.9
     9.6    -1.0    29.5     9.5   -10.8     3.5     7.6    13.5    -4.6    -9.9
     9.9     8.4    19.9    39.3    31.7    22.0    30.4    50.8    28.1    -7.9
    -1.9   -14.8   -26.4   -21.4    -8.7    17.4     4.7   -17.1    -9.0     4.1
     0.6     5.2    24.0    18.7     5.9   -12.1   -19.6     7.4    11.0     9.5
    28.5    23.4    27.2    26.6     5.5     7.7    11.5    11.3    12.1    15.9
     9.3   -10.9    -1.2     5.1    -7.0    -0.9     2.3    -3.7     1.7    12.7
    12.8    -3.7   -18.7   -13.0   -11.0   -22.2   -14.8    -8.6    -8.3     5.5
    -2.3   -11.8     2.4    14.8     9.8   -10.0    -6.6    -4.4    -4.2     1.0
   -13.3    11.9     7.7   -13.6    20.1     3.9     0.1     9.5   -28.2   -32.3
   -19.6    -3.4     5.4     7.2    -5.5   -27.7   -12.4    -9.2    18.4    27.5
   -29.2    -7.3    25.8     9.3    13.7    13.4     3.2     3.9    18.2    11.7
     9.7    28.9    12.5    -1.4    -1.0   -10.4   -11.7   -22.4   -24.6     6.9
    11.7   -16.3   -18.7   -20.2   -25.4   -22.9   -25.6    -7.7    -4.6    -1.3
    17.6    12.1    28.0    23.4     0.9    -4.5   -29.1   -32.4   -32.4   -16.4
    -4.4    -1.3    19.7    -1.8     8.3    11.6     0.4    34.5    16.4    -1.0
    23.7    25.0     1.2    15.9    35.6     6.0   -19.1   -39.2   -25.4    -4.3
   -17.1   -22.2   -15.8   -13.1   -11.8     2.7   -23.7   -15.2    30.2    -3.2
    -2.7    10.8     2.0    31.2    26.2    17.5    23.8    -3.1    -3.1    16.7
     4.0     0.8    -5.9   -16.2    -8.7   -14.2   -15.0   -13.0    -0.2    -0.0
   -13.0     2.4   -12.3   -18.6    10.4    13.6    11.8    10.4    11.2     5.4
   -13.5     4.0    26.0     8.4     5.6    13.0     4.3     6.4    -2.1    -6.3
    -1.3    -6.8     3.7     9.0    14.2    -4.7   -19.4    21.1    12.9    -3.8
    13.2     9.3    17.3    21.7    23.4    12.0   -17.1     0.2    17.7    18.5
    30.2    10.4    19.7    34.9    -4.6   -14.8    -8.4     5.4     3.0   -10.9
    12.1    -8.4   -19.1    15.2    12.6   -10.8   -15.9     0.9     8.2     0.1
   -10.0    -3.4     6.2     1.8    10.6    14.3    -3.2     9.6    29.2    -0.7
    10.4    14.3   -23.2     4.8    -6.1   -32.8   -17.0   -26.3     4.1    10.6
   -15.8     6.7   -21.8   -26.1    15.2    -0.1    14.7    13.9     9.8    16.2
   -13.9    28.0    36.8     1.7     3.3    -1.1    19.8    17.3    17.9    19.0
     2.9    15.6    -0.7     9.6    19.8     1.0    18.8    -4.2   -15.3     5.1
    -8.2    -5.8   -10.0    -2.1    17.1     2.2     0.6     3.0     5.4    18.1
    17.1     0.9   -17.1   -13.2   -12.3   -12.4    10.1    18.7     9.8    -2.4
   -13.1     2.1    12.6     0.5   -12.2   -26.7    -6.4   -15.3   -43.5   -11.4
   -10.3     0.1     5.2   -18.3    10.7     7.0   -10.6    -9.4   -20.2   -13.5
    -7.8    -6.6     0.9     5.8   -10.5   -19.1     7.2    -7.2   -26.1     4.3
    -9.9    -8.8    11.6   -17.3    -5.8     1.4   -14.6    -9.6   -10.4   -21.7
   -25.0     1.7   -11.5   -11.1    12.8    -2.0    10.0   -17.1   -28.8    -0.2
    -7.6    10.9     7.2     5.1    15.1    -9.0     3.6    17.2    -0.8     2.5
    10.1     6.0     7.0   -11.2    -7.8    25.7    20.5    -3.8   -25.0   -24.9
   -15.0    -5.5    -3.0   -11.0     0.5   -27.9   -15.1    22.8   -24.8   -11.0
     7.3    -8.0     1.7   -22.4    -2.6     4.8   -15.8   -10.3   -28.5   -16.8
    -4.4    -6.6    -6.7     5.2    23.8    -3.1     6.6     6.1   -20.5     6.3
    -0.1    -5.6    18.6     4.4   -10.6     4.5    -6.7   -37.6   -16.6     7.4
   -11.1   -26.3   -16.9   -16.0   -31.7   -18.5    -9.1   -18.0     7.3     3.7
   -14.0    17.1    -9.6   -26.1     2.5    -9.4    17.5     9.9   -16.0    17.7
    -7.4   -21.0    26.6    21.6    -2.7   -13.0   -13.0     9.7     1.7    34.3
    61.8     5.6     4.6     6.8    -3.1     3.2   -11.7    11.8    -3.2    -8.0
    19.4   -25.1   -15.3     4.9    -7.9    19.2    16.9     8.3     6.6     8.0
    19.6    31.7    34.3    16.9     4.4    -3.7    11.8    -3.1    -2.5    30.3
    -3.3     0.8     5.9   -25.6   -15.3    -4.1     0.6   -16.6   -25.2   -25.3
   -38.4   -14.4   -24.5   -46.0   -28.9   -26.9   -11.7   -21.7   -20.9    11.0
    -7.4   -10.5    -3.0    -4.4    -2.4     6.6    18.3    14.1    27.0    11.2
    20.5    40.0    12.1    12.1    16.3    33.5    28.4    20.3    27.9     1.8
    24.1    48.8    28.9    15.8    14.9    18.5    11.2     5.2   -14.2   -34.9
   -17.3    -7.2   -21.0   -21.6   -15.2   -24.3   -28.9   -14.3    -8.3     8.8
    14.7   -15.9   -13.3     9.0     2.3   -10.0   -12.3   -16.5     4.7    31.0
    16.4     6.2    23.2    46.0    31.7    21.9    22.6   -10.7    14.5    25.5
   -15.0   -12.5   -17.3    -6.7     8.3   -19.1   -33.4   -25.0    -7.1    -4.2
     3.8    24.2     6.9   -10.7   -23.5   -27.7   -16.1   -20.0    -4.0     0.9
    -1.9    -2.3    -3.4    20.4    -3.7   -12.6    -1.1   -24.5     8.5    21.6
   -13.0    -3.4    26.7    42.7    35.0    27.9    22.4     4.2    -2.2     4.0
    12.0     8.6   -15.8   -24.6     3.4    -0.1   -32.7   -22.2   -12.3   -15.9
   -11.7     0.6    25.1    14.1    21.7    21.2   -11.3    23.1    35.2    24.6
    30.2    17.1    19.5    13.4    16.2    37.5    31.9    14.6    32.1    35.9
     2.1     4.8    10.3    -0.6     4.9    -0.2   -26.0   -27.6    -3.3   -11.2
   -11.5     4.9   -25.7   -17.7    10.0   -15.6    11.7    17.2    -1.8    17.6
     2.1    39.1    33.1    -8.9    26.1     4.3    12.9    42.2    19.2    26.3
    28.2    22.7     4.4    -0.6    17.4    10.5    10.2    12.4    -1.0   -15.4
   -19.1   -17.2   -11.7   -22.4   -46.6   -22.8     4.5    -0.9     9.1    13.6
    12.3     4.6   -14.9     2.4    12.0     3.5    14.4    10.7     5.4    16.8
    33.6    27.2    23.0    24.5    16.6    28.2     2.4    -8.5    26.8    39.1
    30.1     8.2    12.1    22.9    28.0    25.8    17.1    26.4    19.1    14.3
    25.1    17.9     1.9    12.1    17.5    15.6    39.1    30.3    17.8    19.5
     1.6    -3.2     3.7     3.4   -24.4   -23.9     1.6    -9.6   -15.8   -28.0
   -20.0    14.1     4.5    -1.9    13.5     7.5    -4.5     2.8    20.0    12.1
     4.1    22.6    26.4     5.3   -10.5     5.4    10.7    10.5    18.2    -8.2
    -4.5     6.1    -6.9    12.0    29.7    23.5     5.5     5.5     7.4     1.0
     1.0   -10.2     6.2     6.9   -14.5    18.6    22.1     2.7    22.2    17.6
     0.4    -3.9   -12.8   -11.8    -5.9   -10.8    -2.1     8.0    -4.1    13.3
    26.6   -13.7   -12.3     8.1   -17.0   -15.8   -17.6   -10.7    14.7   -21.2
   -10.2    -0.0   -37.3    -6.9   -20.1   -34.2    -5.2   -20.3   -11.2     6.3
    -5.1   -26.6   -20.7    -8.8    -6.1     9.6     2.2    12.3    20.1    20.4
    33.0    15.1    24.0    41.4    18.4    16.5    26.3    17.7    28.9    28.7
     2.8    14.2    15.1   -11.8   -10.2   -14.7     2.0    18.9   -14.8   -15.8
    -5.6    -8.7    -4.4    -9.4   -19.5   -32.6    -3.2    17.4   -10.5     4.6
    37.0    28.3     6.3    15.4    46.8    29.8    11.6    31.5    31.9    25.1
    -0.1    -3.0    34.4    16.1    -4.1     5.3     5.4    10.1   -11.0   -31.7
   -14.8   -15.1   -37.7   -28.3   -35.5   -58.8   -39.1   -22.1    -7.8   -12.1
   -21.0     2.8     0.5   -10.0    -8.3    -3.8     2.8    10.9    28.4    25.5
    15.2     6.5    -4.0     9.3    24.6    28.2    29.5    25.1    27.5    21.5
    -3.6    -7.7     7.3    14.5     2.5   -19.6   -17.6    -1.7     6.8    11.1
    13.6     1.5    -4.1    25.0    18.3     5.1    15.2    -7.0     9.3    26.7
    26.8    49.9    19.0    11.0    20.7    -9.0     3.9    23.6    24.4    28.1
    36.5    20.3    -2.3    27.8    24.9     3.7     0.1   -18.1    10.5    13.7
   -21.8   -10.2   -18.3   -35.3   -29.5   -37.4   -34.4   -29.5   -38.3   -51.7
   -53.2   -25.1   -13.5   -35.7   -45.1   -30.4   -15.4   -11.7   -15.0     6.0
    22.1     2.6    13.8    39.6    51.1    52.1    29.4    41.1    54.9    32.6
    28.4    32.4    40.0    15.1   -25.5   -12.4   -17.4   -27.8   -15.9   -25.6
   -25.1   -42.0   -45.4   -20.4   -20.7   -13.0   -21.1   -15.9    -3.1   -18.5
    -2.9   -10.5   -22.5    10.6    15.6     1.6    -5.1    -8.0    17.2    27.2
    -0.8     3.0    33.8    38.9    21.2    11.7    13.6     9.0    -1.2     7.6
    18.6    -3.9    -3.1    16.9    32.7    45.5    23.2    32.4    38.4    12.9
    37.7    43.3     5.7    -4.4    -1.2    -2.2    13.6     8.3   -12.6   -10.3
   -34.9   -34.3     1.1    -8.1    -9.1   -12.6   -21.5    -8.9   -18.1   -16.4
   -17.7   -20.9   -10.4     1.9    36.7    31.7    22.0    30.4    15.4    14.9
    18.5    30.4    46.8    58.4    54.4    25.3    16.2    25.2    13.3    17.2
    42.9     1.6    -8.3    21.9   -14.6   -26.5   -34.1   -32.2   -27.9   -50.1
   -39.9   -71.5   -81.3   -47.7   -47.5   -57.3   -78.0   -66.1   -67.4   -66.8
   -43.5   -61.7   -43.9   -16.3    -9.9     7.0    19.2    32.1    43.1    72.2
    65.2    67.9   116.7    98.7    87.0   104.2    96.4    89.4    93.6   100.7
    80.3    78.3    58.7    28.2    49.9    37.6    34.3    43.6     9.0    -2.6
   -12.1   -10.5     2.4   -23.7   -22.4   -30.3   -67.5   -44.2   -42.9   -72.6
   -54.6   -50.7   -54.9   -33.6   -37.9   -46.6   -40.6   -51.1   -37.4    -9.9
    -6.2   -10.6   -13.3    21.8    22.0   -10.3    30.9    28.6     3.1    37.8
    36.7    20.7    21.8    40.1    24.1   -17.3     4.1     4.8    -9.2     5.1
    -2.1    -5.9    -4.9    -6.5   -12.4   -33.0   -23.7    -2.6   -22.5   -12.5
    16.6    -2.3     5.3    40.3    35.6    10.0    27.3    65.1    60.3    55.4
    37.8    20.0    32.3    13.0    10.8    -3.1   -30.0    12.7   -11.3   -40.2
     3.1   -24.3   -39.2   -29.2   -46.2   -42.5   -42.8   -37.0   -43.2   -50.1
   -57.0   -66.4   -21.5   -13.5   -44.1   -27.3   -16.8   -29.5   -27.0   -10.4
    -0.1    -4.4   -14.5    -3.0    -7.9   -20.8     5.0    -1.8    10.0    42.6
    30.0    41.9    47.8    42.9    53.7    67.9    66.3    47.7    82.6   105.3
    83.0    90.2    96.9    87.9    68.7    54.8    66.8    45.2    14.5    27.3
    28.7    23.8     7.9   -21.6   -24.1   -22.5   -24.3   -40.7   -46.4   -56.7
   -87.0   -79.8   -97.5  -102.2   -81.3   -98.4   -90.6   -87.3   -92.0   -93.5
   -99.5   -98.5   -98.0   -66.5   -55.8   -56.9   -42.6   -37.6    -9.5    -1.1
    -8.1     7.0    19.3    41.3    58.1    46.0    47.1    60.0    47.2    59.8
    79.0    84.9   106.8    88.6    80.7    99.8   100.6    81.6    63.5    92.8
    94.2    86.4    68.5    14.4    28.7    17.7   -14.7     8.5     0.6    -3.0
   -14.6   -54.6   -56.2   -68.9   -82.6   -63.3   -64.3   -89.7  -103.9   -70.1
   -59.1   -68.3   -35.0   -54.0   -71.4   -52.2   -55.2   -43.1   -45.3   -48.7
   -32.7    -9.9    -7.8   -36.6   -24.3    -9.7   -16.0    -3.4    -5.7   -15.4
    14.1    30.9     5.7     0.1     0.3    26.1    39.1     9.6    22.6    16.1
     5.5    11.6   -10.8    -7.5    -4.9     2.0    10.3   -17.5    -7.3     7.6
    -2.6    16.0    15.6    10.6    15.4    16.2    48.3    53.8    34.4    70.3
   104.3    75.0    66.5    85.7    80.4    75.4    73.0    83.5    86.8    58.0
    26.9     7.0   -12.5   -11.3    -1.2   -27.5   -32.5   -30.1   -42.9   -49.8
   -60.4   -41.3   -49.5   -67.3   -56.5   -55.8   -56.7   -63.1   -56.0   -55.2
   -43.7   -43.6   -57.8   -38.7   -54.2   -47.0   -21.0   -15.2   -12.6   -26.6
    -8.7   -15.6    -4.2    15.7    -8.8    10.0     1.8    10.5    32.9    10.0
    16.6    -2.0    13.2    30.0     3.9    31.1    12.6     4.7    21.2    -8.9
     3.7    14.3    25.3    25.9     9.5    26.0     4.5     7.8    36.1    16.6
    30.0    48.2    25.9    17.6    25.1    24.3    31.5    42.3    32.5    18.0
     3.1    -2.5    -1.4   -10.0    -4.2   -14.1   -30.3   -16.2   -14.1   -28.9
   -55.0   -44.0   -12.3   -43.9   -64.5   -44.9   -24.6   -19.3   -36.3   -30.0
   -22.1   -21.2   -20.8   -29.2   -11.8   -12.2   -35.5   -26.3   -11.4   -18.0
