Uncorrected accelerogram 20160214_001343_CBGS_20 GNS Science
Site CBGS      43 31 46S  172 37 12E     Cusp file:  20160214_001347_CBGS
Christchurch Botanic Gardens
Instrument Cusp_42255
Resolution: 18-bit   Instr Period: 0.0050 s   Damping: 0.700
Accelerogram 20160214_001343_CBGS_20                 Processed 2016 February 22
11 km east of CHRISTCHURCH
2016 February 14         00:13:43 UT
Epicentre  43 29 50S 172 45 18E  Bearing N72E  Dist   11km  Depth    8km M  5.70
Number of points  35913    Duration 179.56 s
Raw readings in units of 1.00 mm/s/s  at intervals of 0.005 s
Data is unfiltered
Component N00E
Acceleration:  Peak  -1027.8 mm/s/s at  45.06 s     RMS    75.93 mm/s/s
Velocity record unevaluated
Displacement record unevaluated
    2016       2      14       0      13     430       0       0    2016       2
      43      29      50     172      45      18       8       0      14       0
      43      31      46     172      37      12       0       0      72      11
   35913       0       0   35913       0       0       0       0      13    7054
   200.0    0.70    0.00   0.000  0.0000   0.000   0.000   1.000     0.0    0.00
  43.529 172.620  43.497 172.755    5.70    0.00    0.00    0.00      0.      0.
  179.56    0.00    0.00  179.56  0.0050  0.0050      0.      0.      0.  9806.6
 -1027.8   45.06    75.9      0.      0.     0.0    0.00     0.0     0.0   0.000
    0.00    0.00    0.00    0.00   0.000    0.00    0.00    0.00    0.00   0.000
   0.000   0.000   0.000      0.      0.   0.000   0.000   0.000      0.      0.
    -0.0    -0.1    -0.1    -0.1     0.1     0.2     0.1     0.0    -0.2    -0.0
     0.0    -0.2    -0.0    -0.2    -0.2     0.0    -0.2    -0.2    -0.0    -0.1
    -0.1    -0.1    -0.0     0.1    -0.2    -0.2    -0.1     0.1     0.2     0.0
    -0.2    -0.5    -0.2    -0.1    -0.3    -0.1     0.1    -0.1    -0.1     0.1
     0.2     0.0    -0.3    -0.2    -0.1    -0.1    -0.2    -0.1    -0.0    -0.1
    -0.0    -0.1    -0.1     0.1    -0.0     0.0     0.1    -0.2    -0.2     0.0
     0.0    -0.0     0.1     0.0    -0.1    -0.0    -0.0    -0.0     0.1    -0.0
    -0.0     0.1    -0.0     0.0     0.1     0.0    -0.1    -0.2     0.0     0.2
     0.1    -0.1    -0.1    -0.2    -0.3    -0.1    -0.0    -0.1    -0.1     0.1
    -0.1    -0.2    -0.2    -0.2    -0.1    -0.1    -0.2    -0.1    -0.1     0.0
     0.1     0.1    -0.1    -0.2    -0.0     0.1    -0.1     0.0     0.0    -0.0
     0.0    -0.1    -0.1    -0.1    -0.0     0.1     0.0     0.0     0.1     0.0
     0.0     0.0     0.1     0.1     0.0    -0.1    -0.1    -0.1    -0.1    -0.0
     0.0     0.1     0.2    -0.0    -0.2    -0.0     0.2    -0.0    -0.2    -0.2
    -0.2    -0.2    -0.2    -0.1    -0.1     0.0     0.2     0.0    -0.1    -0.1
    -0.2    -0.1    -0.1     0.0     0.0     0.0     0.2     0.2     0.2     0.1
    -0.1    -0.0     0.1     0.1     0.1     0.0    -0.0    -0.1    -0.3    -0.3
    -0.1    -0.1    -0.0    -0.1     0.0     0.0    -0.1     0.1     0.1    -0.1
     0.0     0.2    -0.1    -0.2    -0.2    -0.3    -0.2     0.1     0.2     0.2
     0.1     0.1     0.3     0.0    -0.1    -0.1    -0.1    -0.0    -0.0     0.0
     0.1    -0.1    -0.2    -0.1    -0.0     0.1     0.2     0.1     0.2     0.2
    -0.1    -0.1    -0.0    -0.0    -0.1    -0.1    -0.1    -0.2     0.1     0.0
    -0.0     0.1     0.0     0.0    -0.3    -0.1    -0.2    -0.4     0.0     0.2
     0.3     0.3     0.2    -0.1    -0.4    -0.2    -0.3    -0.2     0.0    -0.1
    -0.0    -0.1    -0.2     0.0    -0.1    -0.1    -0.2    -0.0     0.2    -0.1
     0.1     0.1    -0.1    -0.0     0.1     0.3     0.1     0.0     0.1    -0.1
    -0.1    -0.1     0.0     0.2     0.1    -0.1    -0.0    -0.0    -0.2    -0.1
    -0.1    -0.2     0.0     0.0     0.0     0.0     0.0     0.2     0.1    -0.0
     0.1     0.2     0.1     0.1     0.2     0.1     0.0     0.1     0.0    -0.0
    -0.1    -0.1     0.1     0.0    -0.1    -0.2    -0.5    -0.4    -0.3    -0.2
     0.1     0.3     0.1    -0.1    -0.0     0.1    -0.1    -0.2     0.0    -0.0
     0.0     0.2     0.1     0.0     0.0    -0.1    -0.0    -0.0    -0.2    -0.2
    -0.3    -0.1    -0.1    -0.2     0.1    -0.2    -0.3    -0.1    -0.2    -0.1
     0.2     0.3     0.1    -0.0    -0.0    -0.0    -0.0    -0.0     0.1     0.3
     0.2     0.0    -0.0    -0.1    -0.2    -0.2    -0.1    -0.1    -0.2    -0.3
    -0.2    -0.0     0.0    -0.1     0.0     0.1     0.1     0.0    -0.0    -0.1
     0.1     0.2    -0.0    -0.1    -0.1    -0.2     0.0     0.1     0.1     0.1
    -0.1    -0.1    -0.3    -0.2    -0.0    -0.0     0.1    -0.0    -0.0     0.2
     0.0    -0.1    -0.2    -0.2    -0.1    -0.3    -0.2    -0.1    -0.1     0.1
     0.1    -0.2    -0.2     0.0     0.0    -0.0     0.1     0.0    -0.1    -0.1
    -0.1     0.0    -0.0     0.0     0.1     0.2     0.4     0.1     0.1     0.2
    -0.1    -0.3    -0.4    -0.3    -0.1    -0.1    -0.1    -0.0    -0.1    -0.2
     0.0     0.1     0.0    -0.0    -0.0    -0.0     0.1     0.0    -0.0    -0.1
    -0.2     0.0     0.2     0.0    -0.1    -0.1    -0.1     0.0     0.0    -0.0
     0.1    -0.0     0.0    -0.0    -0.0     0.2     0.0    -0.2    -0.1    -0.1
    -0.2    -0.1     0.1     0.1    -0.1     0.0    -0.0    -0.0     0.2     0.1
     0.1     0.2     0.0    -0.0    -0.0    -0.1    -0.1    -0.0     0.0     0.0
     0.1    -0.1    -0.3    -0.2     0.1     0.0    -0.1     0.1     0.1     0.2
     0.0     0.0     0.2    -0.0    -0.0    -0.0    -0.1     0.0    -0.1    -0.2
    -0.2    -0.1     0.0    -0.1    -0.0     0.1     0.1     0.2     0.3     0.2
     0.2    -0.1    -0.2    -0.1    -0.1    -0.1    -0.1     0.0     0.2     0.1
     0.1    -0.0    -0.2    -0.2    -0.1     0.1     0.1    -0.1    -0.2    -0.2
    -0.2    -0.3    -0.1     0.1     0.2     0.3     0.0    -0.1     0.0     0.0
    -0.0    -0.1     0.1     0.3     0.2     0.3     0.1     0.0     0.0    -0.1
    -0.1    -0.1     0.0     0.0     0.1    -0.1    -0.0     0.2     0.2     0.1
     0.1     0.1     0.1     0.1     0.0     0.1     0.3     0.1     0.0     0.1
    -0.0    -0.0     0.1    -0.1     0.1     0.2     0.3     0.2    -0.0     0.1
     0.0    -0.1     0.1    -0.1    -0.3    -0.2    -0.2    -0.1    -0.0    -0.1
     0.0     0.3     0.3     0.2     0.1    -0.2    -0.2    -0.2    -0.0     0.1
     0.2     0.2    -0.0    -0.1     0.1     0.2    -0.0    -0.0     0.2     0.2
     0.2     0.3     0.2     0.1     0.0     0.0    -0.1    -0.2    -0.0    -0.1
    -0.0    -0.0    -0.0     0.2     0.0    -0.1    -0.0    -0.1    -0.1    -0.0
     0.1     0.0     0.1     0.2     0.3     0.3     0.1     0.1    -0.1    -0.2
     0.1     0.2     0.5     0.5     0.3     0.2    -0.1    -0.0    -0.1    -0.1
    -0.1    -0.3    -0.0    -0.0    -0.2    -0.2    -0.1     0.2    -0.1    -0.2
    -0.0     0.0     0.1     0.0    -0.0    -0.0    -0.0    -0.1    -0.0     0.1
     0.1     0.0     0.1    -0.0    -0.1    -0.1    -0.2    -0.1    -0.1    -0.2
     0.2     0.3     0.0    -0.0     0.0    -0.1    -0.2    -0.1    -0.1    -0.1
     0.1     0.2     0.2     0.1    -0.0    -0.2    -0.3    -0.2    -0.1    -0.1
    -0.1    -0.1    -0.1     0.1     0.2     0.0    -0.1     0.1    -0.1    -0.1
     0.1     0.0     0.2     0.1     0.0     0.1    -0.0     0.0     0.0    -0.0
     0.0    -0.0    -0.0    -0.1    -0.1    -0.0     0.1    -0.1    -0.1    -0.2
    -0.2    -0.0    -0.1    -0.1    -0.0    -0.1     0.1     0.1    -0.1     0.0
     0.1     0.0     0.1     0.2     0.0    -0.0     0.1     0.1     0.1     0.1
     0.0     0.2     0.1     0.0    -0.0    -0.2    -0.1    -0.1     0.2     0.2
     0.1     0.0    -0.1     0.1     0.0    -0.0     0.1    -0.0    -0.2    -0.3
    -0.1    -0.2    -0.3    -0.2    -0.0     0.0    -0.0    -0.0     0.1     0.0
    -0.1    -0.0     0.1    -0.0    -0.1     0.1    -0.1    -0.3    -0.0    -0.0
     0.1     0.0    -0.3    -0.2    -0.2    -0.2    -0.1    -0.2    -0.2    -0.0
     0.0     0.0     0.1     0.2     0.2     0.2     0.0    -0.0    -0.0    -0.1
    -0.3    -0.2    -0.0    -0.2    -0.0    -0.1    -0.0    -0.0    -0.3    -0.2
    -0.0    -0.0    -0.2    -0.3    -0.0    -0.0     0.0    -0.1    -0.3    -0.1
    -0.0    -0.1    -0.1    -0.1    -0.2    -0.0     0.1     0.1    -0.1    -0.1
    -0.2    -0.2     0.1     0.1    -0.1     0.1    -0.1    -0.1     0.1    -0.1
    -0.2    -0.1    -0.2    -0.4    -0.4    -0.3    -0.3    -0.1     0.0     0.2
     0.2     0.1     0.0    -0.2    -0.3    -0.2    -0.1     0.1     0.1     0.1
     0.2     0.2     0.1     0.0     0.0    -0.1    -0.1    -0.1    -0.1     0.1
    -0.0    -0.2    -0.2    -0.2    -0.1     0.1     0.1     0.1     0.1    -0.2
    -0.1    -0.0    -0.3    -0.2    -0.2    -0.0     0.1    -0.2    -0.0    -0.1
    -0.2     0.1    -0.1    -0.2    -0.1    -0.1    -0.0    -0.1    -0.1     0.1
     0.1    -0.0    -0.1    -0.1    -0.1    -0.1    -0.1     0.1    -0.1    -0.2
    -0.1    -0.2    -0.1    -0.0    -0.1    -0.1    -0.3    -0.3    -0.2    -0.1
    -0.1    -0.0     0.0    -0.1    -0.1    -0.1    -0.1     0.1     0.1    -0.1
     0.0    -0.0    -0.1    -0.2    -0.2    -0.1    -0.1    -0.1    -0.1    -0.2
    -0.2    -0.3    -0.2    -0.1    -0.2    -0.1    -0.2    -0.2    -0.2    -0.2
    -0.0    -0.1    -0.0     0.1    -0.2    -0.0     0.2     0.2     0.2     0.1
    -0.1     0.0     0.2     0.2     0.1     0.0    -0.1    -0.2    -0.2    -0.1
     0.1     0.1     0.0    -0.1    -0.2    -0.3    -0.3    -0.1     0.0    -0.1
    -0.0     0.0    -0.3    -0.2    -0.1    -0.3    -0.1    -0.2    -0.4    -0.3
    -0.3    -0.3    -0.3    -0.1     0.0     0.0     0.0    -0.0    -0.1    -0.2
     0.1    -0.1    -0.2     0.1    -0.2    -0.3    -0.1    -0.2    -0.2    -0.2
    -0.1     0.1     0.0     0.0     0.1    -0.2    -0.2    -0.3    -0.1    -0.1
    -0.2    -0.0    -0.1    -0.1     0.0    -0.1    -0.1    -0.0     0.2     0.2
    -0.1     0.1    -0.2    -0.5    -0.2    -0.1    -0.2    -0.3    -0.3    -0.2
    -0.1    -0.2    -0.2    -0.1    -0.0    -0.1     0.0     0.1     0.1     0.1
    -0.1    -0.2    -0.3    -0.3    -0.2    -0.2    -0.2    -0.2    -0.2    -0.3
    -0.3    -0.1    -0.1    -0.1    -0.0    -0.1    -0.2    -0.3    -0.2     0.0
    -0.1    -0.2    -0.3    -0.4    -0.3    -0.2     0.1     0.0    -0.0    -0.1
    -0.2    -0.1    -0.0     0.0    -0.0    -0.1    -0.1    -0.1    -0.0    -0.1
    -0.2    -0.2    -0.3    -0.2    -0.2    -0.2    -0.3    -0.4    -0.2    -0.3
    -0.2    -0.2    -0.4    -0.3    -0.4    -0.3    -0.2    -0.3    -0.3    -0.3
    -0.2    -0.2    -0.2     0.1    -0.1    -0.2    -0.1    -0.2    -0.2    -0.0
    -0.1    -0.1    -0.1    -0.2    -0.3    -0.2    -0.0    -0.1    -0.2    -0.3
    -0.3    -0.1    -0.1     0.0    -0.0    -0.2    -0.1    -0.1    -0.0     0.1
     0.0    -0.1    -0.1    -0.2    -0.3    -0.3    -0.0     0.1    -0.1    -0.2
    -0.2    -0.2    -0.3    -0.2    -0.1    -0.2    -0.1    -0.0    -0.1    -0.2
    -0.2    -0.2    -0.4    -0.5    -0.3    -0.1    -0.0     0.0    -0.0    -0.1
    -0.1     0.1     0.0    -0.0    -0.2    -0.2     0.0     0.1    -0.0    -0.0
    -0.2    -0.3    -0.2    -0.2    -0.2    -0.2    -0.0     0.1    -0.0    -0.0
     0.1     0.1    -0.0    -0.0    -0.1    -0.1    -0.1    -0.2    -0.1    -0.1
    -0.2    -0.1    -0.1     0.0     0.2    -0.1    -0.3    -0.2    -0.2    -0.1
     0.0    -0.0     0.1     0.1    -0.1    -0.2    -0.2    -0.1    -0.0     0.2
     0.3    -0.1    -0.1    -0.0    -0.1    -0.1    -0.1    -0.3    -0.2    -0.2
    -0.1     0.1     0.3     0.0     0.0     0.2     0.1     0.1     0.1     0.1
     0.2     0.1    -0.1    -0.2    -0.2    -0.1     0.1     0.0     0.0     0.2
     0.1     0.0     0.0    -0.1    -0.1     0.1     0.2     0.2     0.1    -0.3
    -0.3    -0.2    -0.3    -0.5    -0.3    -0.2    -0.0     0.2     0.1    -0.1
    -0.1    -0.5    -0.4    -0.2    -0.4    -0.1     0.0    -0.1     0.1     0.2
     0.0    -0.1    -0.1    -0.2     0.1     0.1     0.0     0.3     0.3     0.2
    -0.1    -0.4    -0.3    -0.2    -0.2    -0.1     0.1    -0.1    -0.0     0.1
    -0.1    -0.1    -0.0     0.0    -0.1    -0.2     0.0    -0.1    -0.1    -0.0
    -0.3    -0.2    -0.1    -0.4    -0.4    -0.4    -0.2    -0.2    -0.0    -0.0
    -0.1    -0.1    -0.2    -0.2     0.0    -0.0    -0.0     0.3     0.3     0.2
     0.2     0.1     0.0    -0.2    -0.3    -0.1    -0.1    -0.0     0.1     0.3
     0.5     0.5     0.4     0.3     0.1     0.1     0.2     0.1     0.0     0.0
     0.1     0.1    -0.0    -0.1    -0.2    -0.1    -0.1    -0.1     0.0     0.1
     0.0     0.0    -0.1    -0.2    -0.0    -0.1    -0.2    -0.2    -0.2    -0.0
    -0.0     0.2     0.2     0.1     0.2     0.2     0.2     0.1     0.2     0.1
    -0.2    -0.2    -0.3    -0.3    -0.2    -0.4    -0.2    -0.1    -0.0     0.1
    -0.0     0.1    -0.1    -0.4    -0.1    -0.0    -0.1    -0.1    -0.2    -0.2
    -0.0     0.1    -0.1    -0.2     0.0    -0.1    -0.1    -0.1    -0.2    -0.1
    -0.0    -0.1    -0.0     0.1     0.0    -0.2    -0.2    -0.3    -0.3    -0.2
    -0.2     0.1     0.2     0.0    -0.1     0.0    -0.0    -0.2    -0.0    -0.1
     0.1     0.2     0.0     0.1    -0.0    -0.0    -0.1    -0.1     0.1     0.0
     0.1     0.1    -0.2    -0.2    -0.3    -0.1     0.0    -0.0     0.0     0.0
     0.2     0.1    -0.1    -0.2    -0.4    -0.4    -0.2    -0.0     0.2     0.1
     0.1     0.0    -0.1    -0.1    -0.0     0.0    -0.1    -0.0    -0.1    -0.2
     0.0     0.2    -0.0    -0.1     0.0    -0.0     0.1     0.1    -0.1     0.0
     0.0    -0.0    -0.0     0.0     0.1     0.1    -0.0    -0.3    -0.1    -0.1
    -0.1    -0.0    -0.0     0.1     0.0    -0.2    -0.4    -0.2    -0.1    -0.2
    -0.1     0.2     0.3     0.2     0.1     0.3     0.2     0.1    -0.1    -0.2
    -0.3    -0.3    -0.2    -0.1    -0.0    -0.0     0.1     0.1     0.0     0.1
    -0.1    -0.1     0.0    -0.2    -0.1    -0.1    -0.2    -0.1     0.2    -0.0
     0.1     0.3     0.2     0.3     0.3     0.1     0.3     0.1     0.1     0.3
    -0.0    -0.1    -0.2    -0.3    -0.2    -0.1    -0.2    -0.1     0.2     0.3
     0.1     0.1    -0.0    -0.0    -0.1     0.1     0.1    -0.0     0.0    -0.2
    -0.2    -0.0    -0.0     0.0    -0.0     0.2     0.3     0.0     0.0     0.0
    -0.2    -0.2    -0.2    -0.2    -0.1    -0.1    -0.2    -0.1    -0.2    -0.1
     0.0    -0.0    -0.1    -0.0     0.1     0.1     0.1    -0.0    -0.2    -0.3
    -0.2    -0.1     0.0     0.2     0.3     0.5     0.6     0.3     0.2     0.0
    -0.0    -0.0    -0.1    -0.2    -0.3    -0.3    -0.3    -0.2     0.1     0.0
    -0.0    -0.1    -0.1     0.0     0.1     0.0    -0.1    -0.1    -0.2    -0.2
    -0.0    -0.1     0.1     0.3     0.0     0.1     0.2    -0.0    -0.3    -0.6
    -0.2     0.0    -0.0     0.1    -0.0     0.1     0.2     0.1     0.3     0.3
     0.2     0.3     0.1    -0.1     0.1     0.1    -0.0    -0.1    -0.1    -0.2
    -0.2     0.0    -0.0    -0.1     0.1     0.0    -0.0     0.0     0.1     0.1
     0.1     0.2     0.2    -0.0    -0.1     0.0     0.1     0.1     0.1     0.2
    -0.0    -0.1    -0.3    -0.3    -0.2    -0.1     0.0     0.0     0.0     0.1
     0.3     0.5     0.4     0.4     0.2    -0.1    -0.2    -0.3    -0.3    -0.2
    -0.2    -0.4    -0.2    -0.0     0.1     0.1     0.0     0.2     0.2    -0.0
     0.0    -0.0    -0.1    -0.3    -0.4    -0.2     0.0     0.1    -0.1     0.1
    -0.0    -0.1     0.2    -0.0    -0.2    -0.0    -0.2    -0.4    -0.3    -0.0
    -0.2    -0.1     0.2     0.3     0.2     0.3     0.1    -0.1    -0.1    -0.0
     0.2     0.0    -0.2    -0.0     0.1     0.1     0.2     0.1     0.1     0.1
     0.1     0.3     0.1     0.1     0.1    -0.0    -0.1    -0.1    -0.0    -0.3
    -0.1     0.1    -0.0     0.0    -0.0     0.0     0.0    -0.3    -0.2    -0.0
     0.0     0.1    -0.0    -0.1    -0.1    -0.1    -0.0     0.1     0.2     0.2
     0.2    -0.2    -0.3    -0.2    -0.1     0.1     0.3     0.2    -0.1    -0.2
    -0.1    -0.2    -0.1    -0.3    -0.2    -0.0    -0.0     0.0    -0.0     0.1
     0.2    -0.0    -0.1    -0.2    -0.2    -0.0     0.1     0.2     0.1    -0.1
     0.1     0.0    -0.1     0.0     0.1     0.2     0.2     0.2     0.0    -0.2
    -0.2    -0.1    -0.0     0.0     0.0     0.1     0.0     0.2     0.1     0.1
     0.0    -0.2    -0.2    -0.2    -0.3    -0.2    -0.1    -0.0    -0.0     0.0
     0.0    -0.1     0.0    -0.0    -0.1    -0.1    -0.2    -0.1     0.0     0.2
     0.3     0.3     0.1    -0.0    -0.2    -0.4    -0.2     0.2     0.1     0.1
    -0.2    -0.3    -0.1    -0.2    -0.4    -0.5    -0.4    -0.1     0.1     0.3
     0.2     0.0     0.2     0.2    -0.1    -0.1     0.1     0.1    -0.1    -0.1
    -0.0     0.1    -0.1    -0.2    -0.1    -0.2     0.0     0.0     0.0     0.2
     0.0     0.1     0.3     0.0    -0.1    -0.2    -0.3    -0.1    -0.1    -0.2
    -0.3    -0.2    -0.0    -0.1    -0.2    -0.2    -0.1     0.0    -0.1     0.1
    -0.0    -0.2     0.0    -0.0     0.1     0.2    -0.0    -0.1    -0.1    -0.0
     0.2     0.1    -0.1    -0.1    -0.2    -0.2    -0.1     0.1     0.1    -0.1
     0.1     0.1     0.1     0.0    -0.0    -0.0    -0.3    -0.1    -0.1    -0.3
    -0.0    -0.1    -0.0     0.1     0.1     0.2     0.0    -0.2    -0.3    -0.2
    -0.1     0.0    -0.0    -0.3    -0.2    -0.1     0.0    -0.0    -0.1    -0.0
    -0.0     0.1     0.2     0.1    -0.1    -0.1    -0.1    -0.3    -0.4    -0.0
    -0.1    -0.2    -0.0    -0.1    -0.0     0.1    -0.1    -0.2    -0.1     0.1
     0.3     0.2     0.1    -0.0    -0.1    -0.1    -0.1    -0.1     0.1     0.1
    -0.2     0.2     0.4     0.2     0.3     0.2     0.1    -0.1    -0.2     0.2
     0.1     0.1     0.1    -0.3    -0.2    -0.1    -0.2    -0.0     0.1     0.0
     0.1     0.0    -0.2    -0.2    -0.2    -0.1     0.1    -0.1    -0.0     0.1
    -0.1     0.0    -0.0    -0.0     0.1     0.0     0.0     0.0     0.1     0.2
     0.1     0.1     0.0    -0.1     0.1     0.1     0.1     0.2     0.1     0.1
    -0.0    -0.1    -0.1    -0.1    -0.2    -0.1     0.1     0.2     0.2     0.2
     0.1    -0.1    -0.0    -0.2    -0.1    -0.2    -0.3    -0.1    -0.0     0.2
     0.2     0.2     0.3     0.1    -0.0    -0.1    -0.2    -0.1    -0.2     0.1
    -0.0    -0.1    -0.0    -0.1    -0.1    -0.1    -0.0     0.0     0.1     0.1
     0.0     0.1    -0.1    -0.0     0.1     0.1     0.3     0.3     0.2    -0.0
    -0.1    -0.1    -0.3    -0.2     0.0     0.0     0.1     0.1     0.1     0.1
    -0.2    -0.1    -0.0    -0.0     0.1    -0.0    -0.0    -0.0    -0.0    -0.2
    -0.5    -0.3    -0.1     0.0     0.2     0.1     0.2     0.0    -0.3    -0.1
    -0.2    -0.1     0.1    -0.0     0.1    -0.2    -0.3    -0.1    -0.1    -0.0
     0.0    -0.0    -0.2     0.0     0.3     0.1    -0.1    -0.2    -0.2    -0.0
     0.0     0.1    -0.2    -0.0     0.1     0.0     0.0    -0.1    -0.2    -0.2
    -0.3    -0.3    -0.1    -0.1    -0.2     0.1     0.2     0.1     0.0     0.0
    -0.1    -0.1    -0.1    -0.1    -0.1    -0.1    -0.1    -0.0    -0.0     0.0
     0.1    -0.0    -0.2    -0.1    -0.2    -0.4    -0.2    -0.0    -0.1    -0.1
    -0.2    -0.1    -0.1    -0.1    -0.1    -0.0     0.2     0.2     0.0    -0.0
     0.1     0.0    -0.1    -0.1    -0.1    -0.2    -0.1    -0.1    -0.2     0.1
     0.0    -0.1    -0.1    -0.1     0.1     0.3     0.2    -0.0     0.1     0.1
    -0.1    -0.0    -0.2    -0.2     0.0     0.0     0.0     0.2     0.2     0.3
     0.2     0.1     0.1    -0.1    -0.2    -0.2    -0.3    -0.2    -0.2    -0.3
    -0.2    -0.1     0.2     0.2    -0.1    -0.1    -0.2    -0.2    -0.1    -0.2
     0.1     0.0    -0.2     0.0    -0.1    -0.2    -0.2    -0.2     0.1    -0.0
    -0.1    -0.0    -0.3    -0.4    -0.3    -0.1     0.0    -0.1     0.0     0.2
     0.1    -0.1    -0.1    -0.1    -0.2     0.2     0.4     0.1    -0.0     0.0
     0.0     0.1    -0.1    -0.1    -0.0    -0.2    -0.1    -0.0    -0.3    -0.2
