Uncorrected accelerogram 20160214_001343_PARS_20 GNS Science
Site PARS      43 34 04S  172 45 03E     Cusp file:  20160214_001346_PARS
Panorama Road
Instrument Cusp_42273
Resolution: 18-bit   Instr Period: 0.0050 s   Damping: 0.700
Accelerogram 20160214_001343_PARS_20                 Processed 2016 February 22
11 km east of CHRISTCHURCH
2016 February 14         00:13:43 UT
Epicentre  43 29 50S 172 45 18E  Bearing N03E  Dist    8km  Depth    8km M  5.70
Number of points  35520    Duration 177.59 s
Raw readings in units of 1.00 mm/s/s  at intervals of 0.005 s
Data is unfiltered
Component N03E
Acceleration:  Peak  -1143.5 mm/s/s at  44.13 s     RMS    72.75 mm/s/s
Velocity record unevaluated
Displacement record unevaluated
    2016       2      14       0      13     430       0       0    2016       2
      43      29      50     172      45      18       8       0      14       0
      43      34       4     172      45       3       3       3       3       8
   35520       0       0   35520       0       0       0       0      13    6696
   200.0    0.70    0.00   0.000  0.0000   0.000   0.000   1.000     0.0    0.00
  43.568 172.751  43.497 172.755    5.70    0.00    0.00    0.00      0.      0.
  177.59    0.00    0.00  177.59  0.0050  0.0050      0.      0.      0.  9806.6
 -1143.5   44.13    72.7      0.      0.     0.0    0.00     0.0     0.0   0.000
    0.00    0.00    0.00    0.00   0.000    0.00    0.00    0.00    0.00   0.000
   0.000   0.000   0.000      0.      0.   0.000   0.000   0.000      0.      0.
    -0.1     0.2     0.1    -0.3    -0.2    -0.3    -0.2     0.0    -0.1     0.0
    -0.0     0.0     0.0    -0.2     0.1     0.2    -0.1    -0.0    -0.0    -0.0
     0.0     0.0     0.1     0.1    -0.0    -0.2    -0.0    -0.2    -0.3     0.1
    -0.1    -0.2     0.2    -0.0    -0.1     0.0    -0.1    -0.2    -0.3    -0.1
    -0.1    -0.2    -0.0    -0.0    -0.0    -0.1    -0.0    -0.0    -0.3    -0.1
    -0.0    -0.2    -0.0    -0.0    -0.1     0.0    -0.1    -0.2    -0.2    -0.1
    -0.0     0.0    -0.1     0.0    -0.3    -0.3    -0.0    -0.1    -0.2    -0.1
    -0.0    -0.0    -0.1    -0.1    -0.0     0.0    -0.0     0.1     0.2     0.0
    -0.0    -0.1    -0.1     0.0    -0.1     0.1     0.1    -0.1     0.0    -0.1
    -0.2    -0.0    -0.0    -0.1    -0.1     0.0    -0.0    -0.0    -0.0    -0.2
    -0.1    -0.1    -0.1     0.0    -0.1    -0.2     0.0    -0.1    -0.1    -0.1
    -0.1    -0.0    -0.2    -0.2    -0.2    -0.2    -0.0    -0.1    -0.1    -0.2
    -0.2    -0.1    -0.1     0.0    -0.0    -0.1    -0.1    -0.0    -0.1    -0.3
    -0.2    -0.1    -0.1     0.0     0.1    -0.1    -0.1    -0.1    -0.2    -0.2
    -0.1    -0.2    -0.2    -0.2    -0.0     0.0    -0.3    -0.1     0.0    -0.1
    -0.1    -0.3    -0.3    -0.1    -0.1    -0.2    -0.1     0.0    -0.2    -0.3
    -0.2    -0.1    -0.2    -0.0    -0.1    -0.2    -0.1    -0.1    -0.2    -0.1
    -0.1    -0.1    -0.1    -0.1    -0.1    -0.2    -0.2    -0.3    -0.2    -0.0
    -0.2    -0.1    -0.1    -0.3    -0.2    -0.1    -0.2    -0.0     0.0    -0.0
    -0.1    -0.1    -0.0    -0.1    -0.1    -0.1    -0.1    -0.0    -0.1    -0.1
     0.1     0.1     0.1    -0.1    -0.3    -0.1     0.0    -0.1    -0.1     0.1
    -0.1    -0.1    -0.0     0.0    -0.0    -0.2    -0.2     0.1    -0.0    -0.1
    -0.1    -0.2    -0.2    -0.1    -0.1    -0.0    -0.0    -0.1     0.0     0.0
    -0.1    -0.1    -0.1    -0.1    -0.0    -0.0     0.0    -0.1    -0.1     0.1
    -0.1    -0.2    -0.0    -0.1    -0.0     0.2     0.0    -0.0     0.1     0.1
    -0.1    -0.1     0.1     0.1     0.1    -0.2    -0.1     0.1    -0.2    -0.1
    -0.0     0.1     0.2     0.0    -0.1    -0.1    -0.2    -0.1     0.0    -0.2
     0.0     0.2    -0.0    -0.1    -0.0    -0.1    -0.3    -0.2    -0.1    -0.1
     0.0     0.0    -0.1    -0.1    -0.1    -0.1    -0.2    -0.1    -0.0     0.1
    -0.0     0.0     0.1    -0.1    -0.1    -0.2    -0.1     0.1    -0.1     0.0
     0.3     0.1    -0.1     0.0    -0.0    -0.1     0.2     0.0    -0.1     0.1
     0.0    -0.1    -0.0     0.1     0.2    -0.0     0.1     0.1    -0.1     0.0
    -0.2     0.2     0.1    -0.3    -0.1    -0.1    -0.0     0.0    -0.2    -0.0
    -0.1    -0.1    -0.1    -0.1    -0.2    -0.2    -0.1    -0.2    -0.1     0.1
    -0.0     0.0     0.0    -0.0    -0.0    -0.1    -0.2    -0.1    -0.2    -0.3
    -0.0    -0.1    -0.1    -0.1    -0.3    -0.2     0.1    -0.1    -0.1    -0.1
    -0.3    -0.2    -0.1    -0.2    -0.0    -0.1    -0.0     0.0    -0.1    -0.0
    -0.1    -0.2    -0.1     0.1    -0.1    -0.2    -0.0    -0.2    -0.1     0.0
     0.0     0.1    -0.0    -0.0    -0.1    -0.1    -0.1    -0.2     0.0     0.0
     0.0    -0.0    -0.1    -0.1    -0.3    -0.3    -0.1     0.1     0.0     0.0
    -0.1    -0.2    -0.2    -0.2    -0.2     0.0     0.1    -0.1    -0.3    -0.2
    -0.2    -0.1    -0.1    -0.1     0.0    -0.2    -0.3    -0.0    -0.2    -0.1
     0.1    -0.2    -0.3    -0.2    -0.2    -0.3    -0.3    -0.2     0.1     0.2
    -0.2    -0.3    -0.1    -0.1     0.0    -0.0    -0.1    -0.0    -0.1    -0.1
     0.1    -0.0     0.1     0.2    -0.0    -0.0    -0.2    -0.1     0.0     0.0
     0.3     0.2    -0.2    -0.1    -0.0     0.0    -0.0    -0.0     0.2     0.1
     0.0    -0.1    -0.3     0.1     0.2     0.0     0.1     0.0    -0.1     0.0
     0.0    -0.2    -0.1     0.0    -0.1     0.2     0.1    -0.1     0.0    -0.1
    -0.0     0.2    -0.0     0.2     0.1    -0.1     0.1    -0.1    -0.0     0.0
    -0.0     0.0    -0.3    -0.3    -0.2    -0.2    -0.0     0.0    -0.0    -0.0
    -0.0    -0.2    -0.1    -0.1    -0.3    -0.1    -0.1    -0.2    -0.1    -0.0
    -0.2    -0.2     0.0    -0.1    -0.3    -0.2    -0.2    -0.1    -0.0     0.2
     0.1    -0.2    -0.2    -0.1    -0.1    -0.1    -0.1     0.1     0.0    -0.2
    -0.1    -0.1    -0.2    -0.1     0.1     0.1    -0.2    -0.2    -0.1    -0.2
    -0.2     0.1     0.1    -0.0     0.1    -0.0    -0.2    -0.1    -0.1     0.0
     0.0    -0.1    -0.1    -0.1    -0.0    -0.1     0.0     0.2     0.2     0.2
    -0.1    -0.2    -0.1    -0.1    -0.2     0.1     0.0    -0.0    -0.0    -0.0
    -0.0    -0.2    -0.1    -0.1    -0.3     0.0     0.0    -0.2    -0.2    -0.0
    -0.0    -0.1     0.1    -0.0    -0.1     0.0    -0.1    -0.2    -0.2    -0.0
     0.1    -0.1    -0.0     0.2     0.1    -0.1    -0.2     0.0     0.0    -0.2
    -0.1    -0.0    -0.1     0.1     0.1     0.0    -0.1    -0.1     0.0     0.1
     0.0    -0.1    -0.2    -0.2    -0.0    -0.0    -0.2    -0.2    -0.1    -0.0
     0.1    -0.1    -0.2    -0.0    -0.1    -0.0    -0.1    -0.1    -0.1    -0.2
    -0.1    -0.1    -0.1    -0.1     0.0     0.1    -0.2    -0.1    -0.1    -0.3
     0.0     0.0    -0.0     0.1    -0.0    -0.1    -0.0     0.1    -0.0    -0.0
    -0.1    -0.2     0.1    -0.0    -0.1    -0.1    -0.2    -0.0    -0.0    -0.1
    -0.0    -0.2    -0.1     0.1    -0.1    -0.1    -0.1    -0.2     0.1    -0.1
    -0.1     0.0    -0.2     0.1     0.1    -0.2    -0.1    -0.1    -0.1     0.0
    -0.0    -0.2    -0.1     0.1    -0.0    -0.1    -0.1    -0.0    -0.2    -0.1
    -0.1    -0.2    -0.1     0.0     0.1    -0.2    -0.2     0.1    -0.0     0.1
     0.1     0.0     0.1     0.1    -0.0    -0.1    -0.1     0.2     0.0    -0.1
     0.1     0.0     0.1     0.3    -0.0    -0.1    -0.0    -0.0    -0.0    -0.0
     0.2     0.1    -0.0     0.1    -0.1     0.0     0.2     0.2     0.0    -0.1
     0.0     0.0    -0.1    -0.1     0.0     0.1     0.1     0.0     0.1     0.2
     0.2     0.1     0.2     0.0    -0.0     0.0     0.0     0.1     0.1    -0.0
    -0.1    -0.0     0.2     0.1     0.1     0.1     0.1     0.0    -0.1     0.0
     0.1     0.1     0.0     0.1     0.0    -0.1    -0.2    -0.1    -0.1    -0.2
    -0.3    -0.0     0.1    -0.1    -0.0    -0.2    -0.1     0.1    -0.1    -0.0
    -0.0    -0.0     0.0    -0.1    -0.1    -0.2    -0.0     0.0    -0.2     0.0
     0.1     0.0     0.2     0.1     0.0    -0.0    -0.1     0.0     0.1     0.2
     0.1    -0.0     0.0    -0.0    -0.1    -0.1     0.1     0.1     0.1     0.1
    -0.1    -0.2    -0.1    -0.1    -0.0     0.0    -0.1    -0.1     0.1     0.2
     0.1    -0.0    -0.2     0.0     0.1    -0.2     0.1     0.1    -0.2     0.0
     0.0    -0.1     0.0    -0.1    -0.2    -0.1    -0.2     0.0     0.0    -0.2
    -0.1    -0.1    -0.1    -0.0    -0.1    -0.1    -0.0    -0.1    -0.3     0.0
     0.1    -0.2    -0.2    -0.2    -0.1    -0.1    -0.2    -0.2    -0.0    -0.1
    -0.0     0.1    -0.1    -0.2    -0.0    -0.0    -0.1    -0.2    -0.2    -0.0
    -0.2    -0.0     0.0    -0.2     0.0    -0.0    -0.0     0.0    -0.2    -0.2
    -0.1    -0.2    -0.1    -0.1    -0.1    -0.2    -0.3    -0.1     0.0    -0.2
    -0.1     0.1    -0.2    -0.2    -0.3    -0.2    -0.1    -0.3    -0.2    -0.2
    -0.1    -0.2    -0.2     0.0    -0.1    -0.1    -0.1    -0.2    -0.1    -0.2
    -0.2    -0.1     0.0     0.0     0.1     0.1    -0.0     0.1    -0.1    -0.1
    -0.0    -0.1    -0.0     0.0     0.1     0.1    -0.1    -0.1     0.1     0.0
    -0.1    -0.1    -0.1    -0.0     0.0     0.1     0.0    -0.1    -0.0    -0.0
     0.1     0.1    -0.1    -0.1    -0.1    -0.0     0.0     0.2     0.1    -0.1
    -0.1    -0.0     0.0    -0.1     0.1     0.0    -0.0     0.1    -0.1     0.1
     0.0    -0.3    -0.0    -0.1    -0.1     0.0    -0.2    -0.2    -0.0     0.1
     0.1    -0.1    -0.1    -0.1    -0.3    -0.1     0.0    -0.0    -0.2    -0.1
    -0.1    -0.1    -0.1    -0.2     0.1     0.1    -0.3    -0.1     0.1    -0.1
    -0.1     0.0    -0.2    -0.4    -0.1    -0.2    -0.3    -0.0    -0.1    -0.2
    -0.1    -0.1    -0.1    -0.0     0.0     0.1     0.1     0.0    -0.2    -0.2
    -0.1    -0.1    -0.0    -0.1    -0.2     0.0    -0.0     0.0     0.1     0.0
     0.2    -0.0    -0.3    -0.1    -0.1    -0.1    -0.2    -0.1     0.0    -0.1
     0.1     0.1    -0.2    -0.2    -0.2    -0.2    -0.2    -0.1    -0.0    -0.1
    -0.1    -0.2    -0.2     0.1     0.1     0.1     0.1    -0.2    -0.1     0.1
    -0.1    -0.2    -0.2    -0.3    -0.2    -0.1     0.1    -0.2    -0.2     0.2
     0.1    -0.1    -0.1    -0.2     0.0    -0.1    -0.0     0.1    -0.2    -0.2
    -0.0    -0.1    -0.3    -0.1    -0.0    -0.2    -0.0    -0.2    -0.3     0.0
     0.0     0.1     0.1    -0.0    -0.1    -0.0    -0.1    -0.1    -0.1     0.0
     0.0    -0.1    -0.2    -0.1    -0.0    -0.1    -0.2    -0.1     0.0    -0.1
    -0.1    -0.1    -0.3    -0.2    -0.0    -0.1    -0.1    -0.1    -0.2    -0.3
    -0.3    -0.2    -0.1    -0.2    -0.2    -0.1    -0.3    -0.2    -0.2    -0.2
     0.1    -0.2    -0.3    -0.1    -0.3    -0.2    -0.1    -0.2    -0.1    -0.0
    -0.2    -0.1    -0.1    -0.2    -0.0    -0.1    -0.2    -0.1    -0.1    -0.0
    -0.2    -0.2    -0.0     0.0     0.0    -0.3    -0.1     0.1    -0.0     0.2
     0.1    -0.2    -0.0    -0.1    -0.4    -0.3    -0.3    -0.1     0.0    -0.2
    -0.0     0.0    -0.1     0.2     0.0     0.0     0.1    -0.2    -0.2    -0.3
    -0.2    -0.1    -0.3    -0.1    -0.1    -0.1    -0.0    -0.1    -0.3    -0.2
    -0.1    -0.1    -0.1    -0.2    -0.1    -0.2    -0.2    -0.1    -0.3    -0.2
    -0.2    -0.2    -0.1    -0.1    -0.0    -0.1    -0.1    -0.2    -0.3    -0.1
    -0.2    -0.1    -0.1    -0.1    -0.1    -0.3    -0.3    -0.2    -0.2    -0.2
    -0.2    -0.1    -0.2    -0.2    -0.1    -0.1    -0.2    -0.3    -0.0     0.1
    -0.2     0.0    -0.0    -0.2    -0.1    -0.0    -0.1     0.0     0.1     0.0
     0.0     0.0    -0.1     0.0     0.1    -0.2    -0.1    -0.1    -0.0     0.1
    -0.0    -0.0     0.1    -0.0     0.0    -0.2    -0.2    -0.0    -0.1     0.0
     0.1    -0.2    -0.1     0.0     0.0    -0.0    -0.0     0.0    -0.0    -0.1
    -0.0    -0.1    -0.2    -0.0     0.0    -0.1    -0.2    -0.3    -0.1     0.0
    -0.1    -0.0    -0.0    -0.1    -0.2    -0.1     0.1    -0.1    -0.0    -0.0
    -0.1     0.0    -0.1    -0.1     0.1     0.0     0.0    -0.1    -0.0     0.0
    -0.0    -0.1    -0.1    -0.1    -0.0    -0.1    -0.2     0.0     0.1    -0.1
    -0.1    -0.1    -0.0     0.1     0.1     0.1    -0.1    -0.2     0.1     0.2
     0.1     0.1     0.1     0.1     0.1    -0.1    -0.1     0.1     0.1     0.1
     0.1     0.0     0.1     0.1    -0.1    -0.1     0.1     0.0     0.0    -0.2
    -0.2    -0.0    -0.0     0.0     0.0     0.0     0.1    -0.1     0.0     0.1
     0.0    -0.0    -0.0     0.1     0.1    -0.1    -0.2    -0.2    -0.0     0.2
     0.1    -0.1    -0.1     0.2    -0.0    -0.2     0.0     0.0     0.1     0.0
    -0.2    -0.1    -0.1     0.0    -0.1    -0.1     0.1    -0.1     0.0    -0.0
    -0.3    -0.1    -0.1    -0.1     0.1    -0.0    -0.1     0.0     0.2    -0.1
    -0.2     0.0     0.0    -0.1    -0.1     0.0    -0.1     0.0     0.1    -0.1
    -0.0    -0.2    -0.1     0.1    -0.3    -0.2    -0.1    -0.1     0.0    -0.0
    -0.1    -0.1    -0.2    -0.1     0.2    -0.0    -0.2    -0.1    -0.2    -0.2
    -0.1    -0.1    -0.1    -0.1     0.0    -0.1    -0.1     0.0     0.0    -0.1
    -0.0     0.1     0.0    -0.1    -0.0     0.1    -0.1     0.0     0.1     0.1
    -0.0    -0.2    -0.2    -0.2    -0.1     0.2    -0.2    -0.1     0.2    -0.2
     0.0     0.0    -0.1    -0.0     0.0     0.2    -0.1    -0.2    -0.2    -0.3
    -0.1     0.0    -0.2    -0.1     0.0    -0.1    -0.1    -0.2    -0.2    -0.1
    -0.1    -0.0    -0.1    -0.2    -0.0    -0.2    -0.2    -0.0    -0.1    -0.1
    -0.1    -0.1    -0.2    -0.2    -0.0     0.0    -0.0    -0.0    -0.1    -0.1
    -0.0    -0.1    -0.2     0.0     0.0    -0.3    -0.3    -0.1    -0.2    -0.1
     0.1    -0.1    -0.1    -0.0    -0.2    -0.1    -0.2    -0.1     0.1    -0.1
    -0.2    -0.2    -0.2    -0.1    -0.2    -0.3    -0.0    -0.1    -0.2    -0.0
    -0.1    -0.3    -0.1    -0.0    -0.2    -0.1    -0.1    -0.3    -0.2    -0.2
    -0.2    -0.1    -0.0    -0.1    -0.2    -0.2    -0.2    -0.2    -0.2    -0.1
    -0.0    -0.2    -0.2     0.1     0.0    -0.3    -0.2    -0.1    -0.1     0.0
    -0.1    -0.1    -0.1    -0.2    -0.1    -0.1    -0.1     0.1    -0.0    -0.0
    -0.0    -0.2     0.0     0.1    -0.2    -0.0    -0.1    -0.2    -0.2    -0.2
    -0.2    -0.1    -0.1     0.1     0.2    -0.0    -0.0     0.0    -0.1    -0.1
     0.1    -0.1    -0.2     0.0    -0.1    -0.1    -0.1    -0.2    -0.1    -0.1
    -0.0    -0.0    -0.2     0.0    -0.1    -0.1     0.1    -0.1    -0.1    -0.0
     0.0     0.0    -0.1    -0.1    -0.1    -0.1     0.0    -0.0     0.1    -0.0
    -0.4    -0.1    -0.0    -0.2    -0.1    -0.2    -0.1    -0.1    -0.2    -0.0
    -0.1    -0.0     0.0    -0.1    -0.1    -0.1    -0.0    -0.2    -0.1    -0.1
    -0.2    -0.0    -0.1    -0.2    -0.0     0.1     0.0    -0.1    -0.1    -0.1
    -0.2    -0.3    -0.2     0.0    -0.1    -0.0    -0.1    -0.2    -0.1    -0.2
    -0.0     0.0    -0.1     0.1     0.0    -0.2    -0.2    -0.3    -0.2    -0.1
    -0.1     0.0     0.1    -0.1    -0.1    -0.2    -0.2    -0.3    -0.2    -0.2
    -0.2     0.1    -0.0    -0.2     0.1     0.1    -0.1    -0.1    -0.1    -0.1
    -0.1     0.0    -0.1    -0.0     0.0     0.1    -0.1    -0.3    -0.0    -0.1
    -0.2    -0.0    -0.1    -0.2    -0.0     0.1    -0.2    -0.2    -0.1    -0.3
    -0.1     0.0    -0.2    -0.1    -0.1    -0.3    -0.1     0.0    -0.2    -0.1
    -0.0    -0.1    -0.2    -0.3    -0.2    -0.1     0.0     0.1    -0.1    -0.1
    -0.2    -0.1    -0.1    -0.2    -0.0     0.0    -0.1    -0.0    -0.1    -0.2
     0.0    -0.1    -0.2     0.0    -0.1    -0.2    -0.2    -0.2    -0.1     0.0
    -0.2    -0.3    -0.1    -0.1    -0.1    -0.1     0.1     0.0    -0.1    -0.1
    -0.0    -0.1    -0.1     0.1     0.1    -0.1    -0.0    -0.1    -0.0     0.0
    -0.1     0.1     0.0    -0.1    -0.1    -0.1    -0.1    -0.1     0.0    -0.1
     0.1     0.1    -0.1    -0.0    -0.1    -0.1     0.1    -0.0    -0.0    -0.1
    -0.1     0.0     0.0     0.1    -0.1    -0.2    -0.0     0.0     0.0     0.0
    -0.0     0.1     0.1     0.0    -0.2    -0.2    -0.0    -0.1    -0.1    -0.0
    -0.1     0.0    -0.1    -0.3    -0.0    -0.1    -0.3    -0.2    -0.1     0.0
    -0.1    -0.1     0.1    -0.1    -0.1    -0.1    -0.3    -0.2    -0.1    -0.1
    -0.1    -0.0     0.0    -0.1    -0.1    -0.0     0.0    -0.1    -0.1    -0.0
    -0.1    -0.1    -0.1    -0.1    -0.0    -0.1    -0.2     0.0     0.2     0.1
    -0.1     0.1     0.1    -0.0    -0.1    -0.0     0.1    -0.0    -0.2    -0.1
    -0.0    -0.1    -0.2     0.1     0.1    -0.1     0.2     0.2     0.1     0.1
    -0.1    -0.2    -0.1    -0.1    -0.0     0.0     0.1     0.0    -0.0    -0.2
    -0.2    -0.1    -0.1     0.0     0.1     0.0    -0.1    -0.1     0.0    -0.1
    -0.2    -0.1    -0.0     0.1    -0.1    -0.1    -0.2    -0.1     0.1    -0.0
     0.1     0.1    -0.1    -0.0    -0.1    -0.1    -0.1    -0.1    -0.0    -0.1
    -0.1    -0.0    -0.1    -0.3     0.0     0.1    -0.0     0.1    -0.1    -0.1
     0.1    -0.0    -0.2    -0.1     0.1     0.2    -0.1    -0.2    -0.0    -0.1
     0.1     0.2    -0.1     0.1     0.2    -0.1    -0.1     0.1     0.0    -0.0
     0.1    -0.1    -0.2    -0.1    -0.0    -0.1    -0.1     0.2    -0.0    -0.0
     0.2    -0.1     0.1    -0.0    -0.3    -0.2    -0.2    -0.1    -0.1    -0.0
    -0.1    -0.0    -0.1    -0.2    -0.1    -0.0     0.0     0.0    -0.0     0.0
    -0.1    -0.0     0.1    -0.1    -0.1     0.2     0.1    -0.1    -0.1     0.1
     0.1    -0.0    -0.0    -0.3    -0.2     0.1    -0.0     0.0     0.1    -0.2
    -0.1     0.0     0.1     0.2     0.0    -0.1    -0.0    -0.1    -0.0     0.0
    -0.0     0.1     0.2     0.1    -0.1    -0.0     0.1    -0.1    -0.1     0.1
     0.2     0.1    -0.1    -0.0    -0.1    -0.1     0.0     0.0     0.1    -0.0
     0.1     0.1    -0.1    -0.1    -0.1    -0.1    -0.1    -0.0    -0.0    -0.0
    -0.1    -0.3    -0.1     0.0    -0.0    -0.1    -0.0     0.1     0.0    -0.0
     0.0     0.1    -0.0    -0.2    -0.2    -0.1     0.0     0.1    -0.1    -0.0
    -0.1    -0.2    -0.1     0.0     0.1    -0.1    -0.1    -0.0    -0.1    -0.1
    -0.0    -0.1    -0.1    -0.1    -0.0     0.0    -0.1    -0.2    -0.2    -0.1
     0.2     0.2    -0.0     0.1     0.0    -0.1    -0.2    -0.2     0.1    -0.2
    -0.2    -0.0    -0.2    -0.2    -0.2    -0.0     0.1     0.0    -0.0    -0.2
    -0.3    -0.1    -0.3    -0.3    -0.0     0.0    -0.1    -0.1    -0.1    -0.2
    -0.3    -0.0     0.1     0.2     0.1    -0.1     0.1    -0.1    -0.2     0.1
     0.1    -0.1    -0.1    -0.0    -0.1    -0.2    -0.0     0.2     0.0    -0.2
    -0.1    -0.0     0.0     0.1     0.1     0.0    -0.1    -0.0     0.1     0.0
    -0.0    -0.3    -0.2     0.0    -0.2    -0.2    -0.1    -0.1    -0.1     0.0
    -0.1    -0.3    -0.2    -0.1    -0.0    -0.1    -0.1    -0.0    -0.1    -0.0
     0.0    -0.1    -0.2    -0.0    -0.1    -0.0    -0.0    -0.1     0.1     0.1
    -0.0    -0.0    -0.1    -0.1    -0.2    -0.1     0.1    -0.1     0.1    -0.1
    -0.1     0.0    -0.1    -0.0    -0.0    -0.1    -0.0    -0.1    -0.0    -0.1
    -0.1    -0.1    -0.1    -0.1    -0.1     0.0    -0.2    -0.1     0.0    -0.1
     0.0    -0.1    -0.2    -0.2    -0.2    -0.1    -0.1    -0.1    -0.2    -0.1
    -0.2    -0.2     0.1     0.0    -0.1     0.0    -0.1    -0.1    -0.2    -0.2
    -0.1    -0.0     0.0     0.0    -0.2    -0.3    -0.3    -0.1    -0.1    -0.0
     0.1    -0.1    -0.2    -0.3    -0.1     0.1    -0.1    -0.2     0.0     0.0
    -0.1    -0.1     0.0    -0.1    -0.0    -0.0     0.0     0.1     0.1     0.0
    -0.1     0.0     0.2    -0.0     0.0     0.1     0.1     0.0    -0.1     0.0
     0.2     0.1    -0.1    -0.0    -0.1     0.0    -0.1    -0.2     0.1    -0.2
    -0.2     0.1    -0.0     0.1     0.0     0.0     0.1    -0.2     0.0     0.0
    -0.0     0.1    -0.1    -0.0     0.1    -0.0    -0.2    -0.3    -0.1    -0.2
    -0.1     0.1    -0.0    -0.2    -0.2    -0.1     0.1     0.1    -0.1    -0.1
