Uncorrected accelerogram 20160214_001343_RHSC_20 GNS Science
Site RHSC      43 32 10S  172 33 52E     Cusp file:  20160214_001347_RHSC
Riccarton High School
Instrument Cusp_10405
Resolution: 18-bit   Instr Period: 0.0050 s   Damping: 0.700
Accelerogram 20160214_001343_RHSC_20                 Processed 2016 February 22
11 km east of CHRISTCHURCH
2016 February 14         00:13:43 UT
Epicentre  43 29 50S 172 45 18E  Bearing N74E  Dist   16km  Depth    8km M  5.70
Number of points  30707    Duration 153.53 s
Raw readings in units of 1.00 mm/s/s  at intervals of 0.005 s
Data is unfiltered
Component N86W
Acceleration:  Peak    635.5 mm/s/s at  25.71 s     RMS    55.05 mm/s/s
Velocity record unevaluated
Displacement record unevaluated
    2016       2      14       0      13     430       0       0    2016       2
      43      29      50     172      45      18       8       0      14       0
      43      32      10     172      33      52     274     274      74      16
   30707       0       0   30707       0       0       0       0      13   27657
   200.0    0.70    0.00   0.000  0.0000   0.000   0.000   1.000     0.0    0.00
  43.536 172.564  43.497 172.755    5.70    0.00    0.00    0.00      0.      0.
  153.53    0.00    0.00  153.53  0.0050  0.0050      0.      0.      0.  9806.6
   635.5   25.71    55.1      0.      0.     0.0    0.00     0.0     0.0   0.000
    0.00    0.00    0.00    0.00   0.000    0.00    0.00    0.00    0.00   0.000
   0.000   0.000   0.000      0.      0.   0.000   0.000   0.000      0.      0.
     0.2     0.1     0.3     1.3    -0.5    -0.9     1.0     0.1    -0.5     0.5
     0.7    -0.2     0.2     0.5    -0.2     0.4     1.0     0.5    -0.4    -0.2
     0.7     0.1     0.2     0.7    -0.3    -0.1     0.2     0.5     0.6     0.2
     0.5    -0.5    -0.2     0.6     0.5    -0.0    -0.3     0.2    -0.6     0.1
     1.1     0.6     0.3    -0.2     0.1     0.6     1.0     0.8     0.1     0.3
     0.0     0.1     1.5     0.7    -1.2     0.3     1.4    -0.1     0.1     0.4
     0.0     0.5    -0.6    -0.4     0.1    -0.6     0.3     0.5     0.2     0.1
     0.1     0.4    -0.0     1.2     1.3    -0.5     1.2     1.4     0.2     0.2
     0.7     1.2     0.3     0.1    -0.5    -1.2    -0.4     0.8     0.1    -0.4
     0.9     0.1     0.2     0.5    -0.2    -0.3     0.1     0.1    -0.1     1.2
     0.0     0.5     0.7    -0.5     0.4     0.1     0.1    -0.1     0.0    -0.7
    -0.3     0.9     0.5     0.3    -0.8    -0.1    -0.2    -0.3     0.3    -0.3
     0.2     0.3    -0.6    -1.0    -0.1     0.2     0.3     0.4    -0.4    -0.3
     0.1    -0.3     0.3     1.0    -0.4     0.2     0.7    -0.0    -0.4    -0.7
     0.5     0.2     0.3     0.7    -0.1     0.1     0.1     0.6     0.2    -0.8
    -0.4    -0.6     0.2     0.9    -0.2    -0.3    -0.1    -0.4     0.1     0.5
     0.4    -0.7    -0.4    -0.1    -0.9     0.6     0.3    -0.5     0.3    -0.1
     0.4    -0.2    -0.6     0.0     0.1    -0.5     0.0     1.8     0.3    -0.4
     0.2    -1.0    -0.1     1.1    -0.4    -0.6     0.1    -0.3     0.1     0.9
     1.4    -0.0    -0.2     0.7    -0.8    -0.3     0.2    -0.7     0.1     0.3
    -0.2    -0.1     0.6    -0.4    -0.7     1.4     0.8     0.0    -0.3    -0.6
     0.6     0.6    -0.4    -0.2     0.5     0.4     0.1     0.1     0.2     0.1
     0.6     0.9     0.4     0.7     0.4    -0.2     0.6     1.0    -1.0    -0.6
     1.3    -0.6    -0.2     0.8    -0.2    -0.5    -0.4     0.0    -0.1    -0.0
     0.1     0.3    -0.4    -0.0     0.7    -0.3     0.0    -0.1     0.1    -0.6
    -0.1    -0.0    -1.0     1.0    -0.4    -0.8     0.2    -0.4     0.1    -0.1
    -0.5    -0.9     0.4    -0.2    -1.0     0.1     0.1     0.5    -0.6    -1.2
     0.0     0.7     0.0    -0.3    -0.3    -0.9     0.3    -0.5    -1.6     0.2
     0.2     0.0    -0.5    -1.0     0.1    -0.5    -0.1     0.6    -0.4    -0.9
    -0.4    -0.2    -0.5    -0.0     0.4    -0.2    -0.1     0.2    -0.5     0.2
     0.4     0.1     0.1    -0.8    -0.0    -0.2    -0.3     0.1    -0.4     0.6
     0.3    -0.0     0.4    -0.4     0.3     1.1    -0.0    -0.2     0.3    -0.1
     0.2     0.0     0.1     0.9    -0.2    -0.6     0.1     0.4     0.7    -0.4
    -0.7    -0.2    -0.9    -0.1     0.5    -0.3     0.2    -0.2    -0.5     1.0
     0.7    -0.0     0.3     0.3     1.2     0.9    -0.3     1.0     1.2    -0.2
    -0.6    -0.7    -0.0     0.2     0.3     1.2    -0.4    -1.2     0.0    -0.2
    -0.4    -0.5    -0.2     0.9    -0.4    -0.8     0.5    -0.1    -0.5    -0.2
     0.1     0.1     0.7     0.2    -0.6     0.3     0.5     0.6     0.4    -0.8
    -0.5     1.0    -0.2    -0.0     1.0    -0.4     0.2    -0.1     0.1     1.2
     0.2     0.9     0.4    -0.9     0.0     0.2     0.1     0.2    -0.4    -0.3
     0.2     0.2    -0.4    -0.8    -0.4    -0.0    -0.1     0.0     0.3    -1.0
     0.1     0.9    -0.5     0.5     0.3     0.1     0.4     0.5     0.8    -0.6
     0.2     0.6    -0.8    -0.3     0.6    -0.1    -1.2    -0.3    -0.2    -0.4
     1.1     1.1    -0.4    -0.6     0.0     0.1     0.4     0.4    -0.2    -0.3
    -0.2    -0.1     0.2     0.3    -0.7    -0.0     0.0    -0.5    -0.0     0.1
     0.4     0.3     1.1     0.6    -0.3     0.7     0.8     1.1     0.2    -0.3
     0.7     1.3     0.3    -0.1     0.8    -0.2     0.8    -0.1    -1.5     0.3
     0.2     0.5     0.6     0.2    -0.1     0.4     0.1    -0.7     0.6     0.0
    -0.5     0.4     0.2    -0.4    -0.2     0.8    -0.3    -1.0     0.0    -0.1
    -0.1     0.9     1.4     0.5     0.1    -0.5    -0.5     0.6     0.3    -0.4
     0.0     0.7     0.2     0.3     0.7     0.4    -0.0    -0.6     0.9     0.2
    -0.5     0.2     0.1     0.0    -0.5     0.6     0.9     0.7    -0.7    -0.1
     0.8    -0.9     0.4    -0.3    -0.1     0.8     0.6     0.3    -1.0     0.4
     0.3     0.2     0.0    -0.6    -0.1    -0.4    -0.1    -0.6    -0.4     0.1
     0.1     0.6     0.1     0.6     0.2    -0.5     0.3     0.1     0.6     0.6
    -0.7    -0.4     1.1     0.5    -0.5     0.5     0.8     1.0     0.8     0.1
     0.7     0.2    -0.1     0.7    -0.1     0.1     0.8    -0.6    -0.4    -0.2
    -0.5     0.7     0.4     0.2     0.7    -0.4    -0.4     0.3    -0.3    -0.5
     0.3     0.8     0.4     0.0     0.1     0.1     1.1     0.8     0.6     0.5
    -0.1     1.2     0.2    -0.8     0.2     0.3     0.2     0.0     0.7     1.2
     0.7    -0.1     0.3     0.4    -0.4     0.2    -0.2     0.2     0.6    -0.5
    -0.5    -0.2    -0.4    -0.2    -0.2    -1.1     0.5     1.4    -0.1    -0.1
    -0.0     0.4     0.6     0.2    -0.1    -0.3     0.2     0.3     0.7     0.3
     0.2     0.7    -0.0    -0.0     0.2     0.1     1.1     0.6     0.5     0.8
    -0.4    -0.2     0.1    -0.2     0.3     0.2    -0.3     0.2     0.5    -0.3
     0.2     0.4     1.3     1.1    -0.4     0.6     0.4    -0.6    -0.7    -0.3
     0.5    -0.5    -0.6     0.5     0.1     0.2     0.5    -0.0     0.4     1.1
     0.7     0.2     0.4     0.0    -1.0    -0.5     0.4     0.3     0.2    -0.2
     0.1     0.7     0.2    -0.2    -0.8    -0.2     0.7    -0.4     0.2     0.8
     0.1     0.0    -0.2    -0.2     0.2     0.5     0.5    -0.3    -1.1    -0.7
     0.1     0.1    -0.5     0.1     0.4    -0.0     0.2     0.1    -0.3    -0.2
     0.1     0.4     0.8     1.0     0.4     0.2     0.4     0.5     0.5     0.1
     0.3     0.1    -0.3     0.2    -0.0     0.4     0.6    -0.2     0.6     0.6
    -0.2     0.8     0.5    -0.2     0.3    -0.8    -0.4     0.7    -0.2    -0.3
    -1.0     0.0     1.0    -0.5    -0.1    -0.3    -0.6    -0.1     0.3     1.2
     0.6     0.2     0.1     0.3    -0.1    -0.1     0.8     0.1     0.1     0.3
     0.3     0.5     0.3    -0.1     0.4     1.3     0.2     0.2     0.8    -0.4
    -0.1     0.7    -0.3     0.1     0.9     0.1    -0.0    -0.5    -0.7     0.6
     0.8     0.4    -0.3    -1.2    -0.5    -0.1    -0.2     0.5    -0.3    -0.0
     0.8     0.2     0.8     0.7    -0.7    -0.4    -0.4    -0.4     0.2    -0.7
    -0.6     0.5     0.5     0.3     0.3    -0.5    -0.2     0.3    -0.5    -0.3
    -0.3     0.9     0.5    -0.5     1.0    -0.0    -0.2     0.7    -0.3     0.2
     0.3    -0.4     0.1    -0.1     0.1     0.5     0.7     0.7     0.1     0.2
     0.1     0.7     0.0    -0.9    -0.1    -0.4     0.7     0.2    -0.1     1.0
    -0.1     0.6     0.2    -0.6     0.3    -0.5    -0.4     0.2    -0.2    -0.9
    -0.6     0.8     0.2    -0.2    -0.2    -0.3     0.9     0.4    -0.0     0.5
     0.3    -0.2    -1.2    -0.9    -0.1    -0.6    -0.5    -0.5    -0.4     0.1
    -0.5     0.3     0.3    -0.3     0.4    -0.6     0.4     1.2    -0.1     0.1
    -0.6    -0.2     0.4    -0.2     0.3    -0.3     0.7     0.3    -0.3     0.3
    -0.1     0.8     0.1     0.4    -0.3    -0.4     1.4     0.4     0.5    -0.3
     0.0     2.1     0.4    -1.4    -0.2     0.3    -0.4    -0.3    -0.4    -0.2
    -0.0     0.2     0.3     0.7     1.0     0.1     0.9     0.8     0.0     0.3
    -0.0    -0.1    -0.5     0.1    -0.2    -0.9    -0.3    -0.5     0.9     0.9
    -0.3     0.1     0.5     0.3    -0.1    -0.0    -0.4    -0.5     0.0     0.5
     0.6     0.8     0.8     0.6     0.5     0.6     0.2     0.1     0.1    -0.4
    -0.4    -0.8    -0.2     0.1    -0.3    -0.3    -0.5    -0.1    -0.6     0.3
     0.9    -0.6    -0.6    -0.3     0.2    -0.0    -0.4     0.4     0.8     0.0
     0.3     1.1    -0.7    -0.7     0.3     0.3     0.2    -0.4     0.2     0.5
     0.4     0.5     0.1     0.2     0.3    -0.0    -0.3    -0.1    -0.3     0.2
     0.5    -0.3    -0.1    -0.2    -0.6     0.3     0.5    -0.9    -0.1     1.2
    -0.0    -0.2     0.5     0.3    -0.0    -0.0     0.1     0.0    -0.0     0.6
     0.6    -0.6    -0.7     0.6     0.1    -0.3     0.8    -0.4    -0.5     0.6
    -0.0    -0.5     0.1     1.2     0.7     0.2     0.3    -0.3     0.5     0.4
    -0.1     0.3    -0.7    -0.1     0.3    -0.1     0.6     0.6     0.3     0.3
     0.3     0.2     0.1    -0.4    -0.5     0.4     0.3    -0.2     0.3     0.6
    -0.1    -0.6    -0.0     0.3    -0.4    -0.2     0.3    -0.0     0.4    -0.4
    -0.9    -0.0    -0.2     0.9     0.6    -0.1     1.1     0.4     0.9     0.6
    -0.1     0.8     0.5     0.3     0.6    -0.0    -0.2     0.4     0.5     0.2
    -0.2     0.1     0.2    -0.0     0.2    -0.0     0.2     0.7     0.8     0.7
    -0.1    -0.4     1.1     0.6    -0.8     0.0    -0.2    -0.8    -0.2    -0.1
    -0.1     0.1     0.4     0.4    -1.0    -0.5     0.9     0.0     0.4     0.7
     0.3    -0.4     0.2     0.5    -0.6     0.3     0.5     0.4     0.3    -0.4
     0.6     0.9     0.5     1.0     0.6    -0.0     0.6     0.6     0.7     0.2
    -0.6    -0.0     0.2    -0.3     0.1     0.6    -0.3    -0.0     0.9     0.8
     0.2    -0.2     1.2     1.5     0.1    -0.0    -0.4    -0.1     0.8     0.3
     0.3     0.0    -0.2    -0.4    -0.2     0.1     0.3     0.6    -0.2     0.2
    -0.1    -0.3     0.7     0.3    -0.3    -0.1     0.9     0.9     0.9     0.5
     0.7     0.3    -0.9    -0.2    -0.1     0.4     0.1     0.5     1.1    -0.4
    -0.1     0.3     0.9     0.2    -1.0    -0.0     0.1     0.3     0.9     0.7
     0.3     0.7    -0.3    -1.3    -0.4     0.2     0.4    -0.2     0.9     0.6
    -0.4     0.4    -0.8    -0.2     0.4     1.2     1.2    -0.9     0.6     0.6
    -0.0     0.0    -0.7    -0.2    -0.5     0.1    -0.2    -0.3     1.0    -0.2
    -0.2     0.7     0.0    -0.5     0.5     0.4    -0.1    -0.3    -0.6     0.0
    -0.2     0.4    -0.1     0.1     0.9    -0.4     0.6     1.0     0.2    -0.1
     0.7     0.9    -0.6     0.2    -0.2    -0.9     0.2    -0.1     0.2     0.8
     0.3     0.2     0.6     0.5     0.4     0.6     0.6     0.9     0.8     0.6
     0.5     0.3     0.5    -0.1    -0.3     0.1     0.3     0.4     0.2     0.3
     0.8     0.7     0.0     0.9     0.7    -0.3     0.1     0.5     0.5    -0.3
     0.4     0.5    -0.8    -0.3     0.2     0.7     0.7    -0.2    -0.9    -0.7
     0.3     0.2    -0.4    -0.2     0.7     0.1    -0.1     0.3     0.1     0.7
     0.1     0.1     0.1    -0.5     0.8     0.2    -0.6     0.1    -0.1    -0.0
    -0.0    -0.2     0.3     0.6     0.4    -0.2    -0.1     0.5     0.7     0.3
     0.2     0.6     0.6     0.7     0.1    -0.2    -0.3    -0.1     0.9     0.5
     0.6     0.1    -1.5    -1.1    -0.1     0.6     0.5     0.8     1.0    -0.5
    -0.2     0.1    -0.3     0.3    -0.0     0.1     0.1    -0.4    -0.2    -0.6
     0.2     0.8     0.2     0.3     0.7    -0.5    -0.4     0.2    -0.8     0.8
     0.9     0.4     0.4    -0.6    -0.3     0.3     0.7    -0.2     0.1     0.6
    -0.5    -0.5     0.3     0.6     0.4     0.9     0.3    -0.6    -0.8    -0.1
     0.9    -0.3    -0.3     0.3    -0.0    -0.0    -0.1     0.8     0.9     0.6
     0.3     0.3     0.2    -0.1     1.1     0.3    -0.2     0.6     0.1     0.1
    -0.3     0.3     0.0    -0.3     0.9    -0.0    -0.1     0.2     0.4     1.1
     0.1     0.5     0.9     0.0     0.3     0.1     0.2     0.4     0.2     0.6
     0.2    -0.0     0.4    -0.4    -0.1     1.1     0.4     0.2    -0.2    -0.5
    -0.3    -0.6     0.3     0.3     0.5     0.6     0.1    -0.7    -1.4     0.0
     0.3     0.4     1.1     0.7     0.6     0.8     0.5     0.2    -0.2    -0.9
    -0.2     0.6     0.3     0.1     0.1     0.9     0.5    -0.4     0.7     1.2
     0.6     0.5     0.7    -0.2    -0.2     0.2    -0.8     0.5     0.4    -0.4
     1.2     0.5     0.4     0.0    -0.8     0.1    -0.7    -0.3     0.4     0.1
     0.1     0.0     0.8    -0.1     0.0     1.5     0.1    -0.1     0.6    -0.2
    -0.0    -0.4     0.3     0.6    -0.6     1.2     1.1     0.2    -0.3    -0.8
     0.7     0.1    -0.5    -0.5    -0.2    -0.3    -0.4     0.6    -0.4    -0.2
     0.6    -0.6    -0.8     0.6     0.9     0.1     0.6     0.6     0.3    -0.0
    -0.3     0.2    -0.4     0.5     0.9     0.1    -0.7     0.2     1.3     0.2
     1.4     0.5     0.1     0.5    -0.1     0.6    -1.0    -0.3     0.3    -0.5
     0.6     0.4    -0.2     0.6     0.1    -0.4     1.0     0.1     0.0     0.4
     0.1    -0.9    -1.5     0.6    -0.2    -0.6     0.2    -0.4    -0.1    -0.3
     0.2     0.2     0.3     0.4     0.4     0.5    -1.1    -0.2     0.0    -0.9
     0.4     0.4     0.3     0.1     0.1     1.3     0.6    -0.4    -0.1    -0.8
    -1.1    -1.2     0.1     1.0     0.1     0.5     0.4     0.1    -0.3    -0.6
     0.3    -0.1    -0.1     1.1    -0.1    -0.6     0.4    -0.1     0.3     0.2
     0.4     0.9     0.4     0.8     0.7     0.4     0.2     0.3     0.5    -0.1
    -0.0    -0.1    -0.2    -0.1     0.4     1.1     0.6     0.6     0.7     0.4
     0.1     0.1     0.9     0.2     0.1    -0.6    -0.5     1.9     0.9     0.6
     0.6    -0.6    -0.0     0.2    -0.4    -0.8    -0.4    -0.4     0.2     0.7
    -0.4    -0.2    -0.5    -0.5     0.7    -0.3    -0.4     0.2     0.3     0.0
     0.3     0.8    -0.3     0.3    -0.1    -0.4     0.2    -0.3     0.5     0.8
     0.3     0.3     0.3     0.5     0.8     0.1    -0.5    -0.0     0.1     0.1
    -0.0    -0.4    -0.2     0.5     0.3     0.5     1.0     0.6     0.9     0.2
     0.0     1.2     0.8     0.3    -0.0     1.1     1.0    -0.6     0.2    -0.6
    -0.3     0.3     0.1     0.6    -0.8     0.1     0.2    -0.0    -0.1    -0.2
     0.8    -0.9    -0.2    -0.7    -1.3     0.8     0.4     0.1    -0.1    -0.2
     0.3     0.6     1.0    -0.2    -0.2     0.7    -0.5    -0.1     0.0    -0.3
     0.5    -0.3     0.6     1.4     0.5     0.4     1.4     0.1    -0.7     0.5
    -0.2     0.5     0.3     0.0     0.6     0.7     1.3    -0.0    -0.6     0.2
     0.3    -0.2    -0.6    -0.4    -0.3    -0.3     0.6     0.5    -0.6    -0.1
     0.5     0.6     0.4    -0.5     0.0     0.0    -0.6    -0.3    -0.1     0.4
     0.1     0.3     0.5     0.3     0.0    -0.7     0.1    -0.1    -0.1     0.3
    -0.4     0.4     0.0    -0.5     0.5     0.9     0.1     0.2     0.8     0.1
     0.6     0.3     0.1     1.6     0.9    -0.2    -0.0     0.5     0.3     0.1
     0.2    -0.4    -0.4     0.3     0.8     0.6     0.3     0.8     0.6     0.3
     0.7     0.1     1.0     1.3    -0.3     0.3     0.3     0.4     0.8     0.4
     0.2     0.3     0.5    -0.2    -0.1     0.6     0.4     0.5    -0.2    -0.5
    -0.2    -0.5     0.0     0.3     0.5     0.3    -0.8     0.4    -0.2    -0.4
     1.0    -0.3    -0.3     0.6     0.4     0.1    -0.2     0.1     0.3     0.0
    -0.3     0.1     0.5     1.0     0.2    -0.2     0.3    -0.6    -0.6    -0.8
    -0.1     0.4    -0.2     0.6     0.7     0.2     0.0    -0.1    -0.3     0.2
     1.0    -0.1    -0.4     0.5    -0.6     0.0     0.3    -0.3     0.1    -0.1
     0.3    -0.5    -0.7    -0.0     0.2    -0.0    -0.4     0.6    -0.3    -0.2
     0.9     0.4     0.6    -0.1     0.1     1.2     0.0    -0.7     0.2     0.1
     0.1     0.7     0.2     0.3     0.6     0.6     1.0     0.3    -0.3    -0.2
    -0.0     0.5     0.8    -0.3    -0.9     0.1    -0.5    -0.2     0.2    -0.6
     0.8     0.1    -0.0     0.4    -0.8     0.4    -0.1     0.1     1.1     0.1
    -0.0     0.2     0.2     0.4     0.8    -0.4    -0.7    -0.2     0.1     0.8
     0.6     0.2     0.2    -0.5    -0.2     0.1    -0.7    -0.1    -0.1     0.3
     1.2     0.4     0.3    -0.0     0.2     0.0    -0.1     0.9    -0.4     0.3
     1.1     0.3     0.7     0.4     0.6     1.2     0.8     0.6     1.2     0.7
    -0.6     0.3     0.5    -0.5    -0.2     0.1     0.7     1.2    -0.1     0.0
     0.7    -0.5     0.2     0.0    -0.8    -0.9    -1.0    -0.0    -0.2     0.0
     0.4    -0.2     0.3     0.2     0.4     0.8    -0.2    -0.4    -0.6     0.1
     0.7    -0.9    -0.5    -0.6     0.1     0.8     0.1     0.6    -0.8     0.1
     0.6    -0.4     0.7     0.0    -0.2     0.6     0.5    -0.0    -0.4    -0.4
    -0.0    -0.1    -0.3    -0.1    -0.4    -0.0    -0.4    -0.1    -0.0    -0.8
     0.3     0.4     0.5     0.6     0.5     0.6    -0.1     0.4     0.3     0.1
    -0.3    -0.6     0.6     1.0     0.7     0.8     0.7     0.6     0.5    -0.1
    -0.8    -0.9    -0.2     0.8     0.4     1.3     0.9    -0.8     0.1    -0.5
     0.1     0.4    -0.6     0.3     0.0     0.7     0.4    -0.1     0.6    -0.0
     0.4    -0.3    -0.1     1.0     0.3    -0.0     0.5     0.4    -0.2     0.7
     0.9     0.3    -0.5     0.0     0.8    -0.4    -0.3    -0.4    -0.3     0.5
     0.8     0.7    -0.0     0.6     0.3    -0.1    -0.0    -0.4    -0.0    -0.2
    -0.1     0.4     0.2    -0.7    -0.4     0.7    -0.2    -0.5    -0.1     0.3
     0.4    -0.8    -0.0     1.0     0.2    -0.0     0.3     0.5     0.2    -0.5
    -0.2     0.7     1.0     0.7    -0.3    -1.0    -0.6    -0.2     0.2     0.4
     0.3     0.4     0.6     0.8    -0.0    -0.3     0.2    -0.5    -0.5     0.1
    -0.3    -0.2     0.3     0.4     0.2     0.7     0.4    -0.5     0.5    -0.2
    -0.6     0.4     0.6     1.0     0.2     0.5     0.5    -0.3     0.0     0.0
     0.6     0.3    -0.2     0.0     0.1    -0.2    -0.7    -0.2     0.3     0.2
     0.7     0.6     0.1     0.5     0.7     0.1    -0.3     0.3     0.1     0.3
     0.1    -0.5    -0.0    -0.6    -0.1     0.1     0.4     0.5     0.1    -0.0
    -0.7     0.1     0.1    -0.4    -0.1     0.5     0.5    -0.2     0.5     0.3
     0.4    -0.2    -0.6    -0.1     0.1     0.5     0.0     0.7     0.5    -0.2
    -0.5    -0.5     0.6     0.1     0.6     0.0    -0.2     1.0     0.3     0.4
    -0.7    -0.9    -0.7    -0.1     0.2    -0.8     0.2    -0.7    -0.3     1.2
     0.6     0.5     0.2     0.4    -0.3     0.4     0.3    -0.2     0.5    -0.4
     0.2    -0.2    -1.0     0.1     0.4     0.1    -0.1     0.1     0.4     0.6
     0.9     0.5     0.5     0.8    -0.1    -0.3    -0.5    -1.0     0.5    -0.3
    -0.3     1.4    -0.0    -0.8     0.1     0.5    -0.1    -0.5    -0.2     0.6
     0.8    -0.2     0.8     0.7    -0.8    -0.5    -0.3    -0.5     0.1     0.3
