Uncorrected accelerogram 20160214_001343_OHSS_20 GNS Science
Site OHSS      43 26 41S  172 39 38E     Cusp file:  20160214_001346_OHSS
Ouruhia School
Instrument Cusp_42124
Resolution: 18-bit   Instr Period: 0.0050 s   Damping: 0.700
Accelerogram 20160214_001343_OHSS_20                 Processed 2016 February 22
11 km east of CHRISTCHURCH
2016 February 14         00:13:43 UT
Epicentre  43 29 50S 172 45 18E  Bearing S53E  Dist   10km  Depth    8km M  5.70
Number of points  38585    Duration 192.92 s
Raw readings in units of 1.00 mm/s/s  at intervals of 0.005 s
Data is unfiltered
Component S25E
Acceleration:  Peak  -1294.3 mm/s/s at  43.29 s     RMS    83.13 mm/s/s
Velocity record unevaluated
Displacement record unevaluated
    2016       2      14       0      13     430       0       0    2016       2
      43      29      50     172      45      18       8       0      14       0
      43      26      41     172      39      38     155     155     127      10
   38585       0       0   38585       0       0       0       0      13    6546
   200.0    0.70    0.00   0.000  0.0000   0.000   0.000   1.000     0.0    0.00
  43.445 172.661  43.497 172.755    5.70    0.00    0.00    0.00      0.      0.
  192.92    0.00    0.00  192.92  0.0050  0.0050      0.      0.      0.  9806.6
 -1294.3   43.29    83.1      0.      0.     0.0    0.00     0.0     0.0   0.000
    0.00    0.00    0.00    0.00   0.000    0.00    0.00    0.00    0.00   0.000
   0.000   0.000   0.000      0.      0.   0.000   0.000   0.000      0.      0.
    -0.9    -0.8    -0.1     0.3     0.4    -0.0    -0.6    -0.1     0.6     0.6
     0.7     0.2    -0.8    -1.8    -2.2    -1.8    -0.8     0.9     3.0     3.1
     1.7     0.6    -1.0    -2.6    -3.5    -3.4    -1.9    -0.3     0.8     0.8
     0.7     1.2     1.8     2.4     2.2     0.2    -2.4    -2.9    -1.7    -1.0
    -0.6     0.0    -0.0    -0.7    -1.1    -0.8    -0.0     0.7     1.6     2.3
     1.7     0.4    -0.5    -1.2    -2.0    -2.1    -1.1    -0.7    -0.7    -0.3
    -0.2     0.7     1.1     1.1     1.4     0.5    -0.9    -1.7    -0.6     0.8
     0.0    -0.8    -0.7    -0.6    -0.9    -0.8     0.0     0.9     0.9    -0.0
     0.2     0.4    -0.1    -0.6    -0.9    -0.1     0.4     0.0    -0.7    -1.5
    -1.3    -0.4     0.3     0.5     0.6     0.5    -0.4    -1.0     0.0     1.3
     1.0    -0.2    -1.2    -1.0    -1.4    -1.6    -0.3     0.7     0.9    -0.0
    -0.4     0.2     0.9     1.3     0.2    -0.4    -0.5    -1.0    -0.9    -0.9
    -0.5    -0.0     0.1     0.2     0.1     0.3    -0.0    -0.3    -0.1     0.6
     1.0     0.4    -0.1    -0.6    -1.2    -1.1    -0.7    -0.3     0.1    -0.0
    -0.6    -1.1    -0.5     0.9     1.1     0.5     0.3     0.1    -0.2    -0.2
     0.1     0.0    -0.5    -1.0    -1.2    -1.1    -0.6     0.3     0.8     0.3
    -0.1    -0.2    -0.9    -0.7    -0.1     0.4     1.0     0.7     0.4     0.1
    -0.4    -0.8    -1.3    -0.8    -0.2    -0.7    -0.8     0.1     0.6     0.6
     0.5     0.2     0.0    -0.4    -0.9    -0.3     0.1    -0.2    -0.4    -0.5
    -0.4    -0.1     0.1     0.2     0.4     0.3    -0.7    -1.3    -0.8    -0.2
     0.1     0.0     0.0     0.4     0.3     0.0     0.1     0.2     0.0    -0.5
    -0.6    -0.8    -0.8    -0.3    -0.1     0.3     0.7     0.1    -0.7    -0.7
    -0.3    -0.4    -0.4     0.0     0.7     0.8    -0.2    -0.4    -0.2    -0.3
    -0.4    -0.6    -0.0     0.3     0.1    -0.0    -0.2    -0.2    -0.3    -0.5
    -0.2     0.2     0.0    -0.5    -0.4    -0.1    -0.1    -0.2    -0.7    -0.9
    -0.5    -0.4    -0.4    -0.0     0.4     0.8     0.8     0.5     0.0    -0.6
    -1.1    -1.1    -1.0    -0.7    -0.1    -0.2    -0.1     0.4     0.5     0.5
    -0.1    -0.0     0.2    -0.8    -1.0    -0.6    -0.1     0.2    -0.2    -0.5
    -0.2     0.2    -0.4    -0.7    -0.4    -0.2     0.1    -0.0    -0.1     0.1
     0.1     0.1    -0.1    -0.2    -0.1    -0.4    -0.3    -0.1    -0.2    -0.6
    -0.6    -0.2     0.0    -0.4    -0.7     0.0     0.6     0.0    -0.7    -0.9
    -0.4     0.2    -0.5    -1.0    -0.6    -0.1     0.2     0.3     0.3     0.7
     0.8     0.4     0.0    -0.5    -0.9    -0.7    -0.9    -1.1    -0.6    -0.4
    -0.4     0.3     0.7     0.2     0.1     0.3     0.4     0.1    -0.8    -0.6
     0.2     0.2    -0.1    -0.7    -1.2    -0.7    -0.3    -0.3    -0.1     0.2
     0.2     0.1     0.1     0.4     0.3    -0.2    -0.7    -1.0    -0.7    -0.3
    -0.3    -0.1     0.0    -0.6    -0.7    -0.4    -0.2     0.0    -0.0     0.3
     0.4     0.3    -0.1    -0.7    -1.0    -0.9    -0.3    -0.2    -0.3    -0.1
    -0.0     0.1     0.3     0.7     0.8     0.2    -0.3    -0.8    -0.5    -0.1
    -0.3    -0.4    -0.8    -0.7    -0.2     0.1     0.7     0.6     0.1    -0.0
    -0.0    -0.1    -0.5    -1.1    -1.3    -0.9    -0.3     0.3     0.6     1.1
     1.1     0.5     0.2    -0.3    -0.5    -0.5    -1.1    -1.2    -0.6    -0.3
    -0.4    -0.3     0.1     0.2     0.3     0.1    -0.0     0.1     0.0    -0.2
    -0.4    -0.3    -0.2    -0.5    -0.8    -0.7    -0.4    -0.5    -0.8    -0.4
     0.2     0.6     0.6     0.7     0.5    -0.2    -0.5    -0.4    -0.7    -0.6
    -0.3    -0.3     0.1     0.5    -0.1    -0.6    -0.7    -0.3     0.0    -0.1
    -0.4    -0.1     0.2    -0.0     0.0     0.1     0.0    -0.2    -0.7    -0.8
    -0.5     0.1     0.2    -0.0    -0.0    -0.3    -0.5    -0.4    -0.0    -0.1
    -0.3     0.2     0.7     0.6    -0.1    -0.4    -0.6    -0.6    -0.4    -0.4
    -0.1     0.1    -0.0    -0.3    -0.4    -0.0     0.2     0.4     0.3     0.3
     0.2     0.0    -0.4    -1.1    -0.7    -0.6    -0.3     0.3     0.2     0.3
     0.0    -0.2    -0.1    -0.0     0.2    -0.2    -0.4    -0.5    -0.5    -0.4
    -0.4    -0.1     0.1     0.2    -0.0    -0.3    -0.2     0.1     0.2     0.0
     0.0    -0.1    -0.6    -0.8    -0.7    -0.7    -0.6    -0.5     0.0     0.3
     0.2     0.2    -0.1    -0.2    -0.0     0.5     0.6    -0.0    -0.7    -0.8
    -0.5    -0.4    -0.1     0.2     0.1     0.1     0.1     0.1    -0.1    -0.6
    -0.3     0.2     0.3    -0.1    -0.1     0.1    -0.3    -0.5    -0.4    -0.2
    -0.2    -0.4    -0.4    -0.3    -0.2     0.5     0.9     0.2    -0.2    -0.5
    -0.6    -0.7    -0.7    -0.5    -0.2     0.5     0.7     0.7     0.5    -0.1
    -0.3    -0.5    -0.5    -0.1    -0.1    -0.1    -0.0    -0.1    -0.3    -0.2
    -0.3    -0.4    -0.2    -0.7    -1.1    -0.7    -0.0     0.4     0.5     0.5
     0.3     0.1     0.1    -0.3    -0.5    -0.2     0.0    -0.1    -0.2    -0.4
    -0.5    -0.5    -0.7    -0.6    -0.1     0.0     0.6     1.0     0.7     0.4
    -0.1    -0.7    -0.8    -0.9    -1.1    -0.9    -0.4    -0.4    -0.1     0.6
     0.3     0.3     0.7     0.3     0.2     0.2    -0.1    -0.5    -0.8    -0.6
    -0.6    -0.6    -0.8    -0.8    -0.5    -0.4    -0.1     0.1     0.2     0.4
     0.4     0.2    -0.0     0.1     0.0    -0.3    -0.5    -1.1    -0.9    -0.4
    -0.2    -0.0     0.1    -0.0    -0.3    -0.1    -0.1    -0.3    -0.3    -0.1
    -0.1    -0.1     0.0    -0.1    -0.1    -0.2    -0.5    -0.5    -0.2    -0.1
    -0.2    -0.1     0.0    -0.1    -0.3    -0.3    -0.3    -0.5    -0.4    -0.2
    -0.0     0.1     0.1     0.1    -0.2    -0.4    -0.4    -0.0     0.2     0.2
     0.2    -0.3    -0.7    -0.8    -0.9    -0.4    -0.4    -0.5    -0.3    -0.3
    -0.2    -0.0    -0.0     0.1     0.0    -0.1    -0.2    -0.2    -0.0    -0.3
    -0.5    -0.5    -0.1    -0.0    -0.3    -0.6    -0.5    -0.2     0.1     0.7
     0.6     0.1    -0.4    -1.1    -0.7    -0.5    -0.8    -0.8    -0.4     0.1
     0.2     0.3     0.2    -0.1    -0.2    -0.3    -0.2    -0.1    -0.4    -0.6
    -0.7    -0.5    -0.2     0.1     0.2     0.0    -0.1     0.0    -0.0    -0.0
    -0.3    -0.3    -0.2    -0.4    -0.3    -0.4    -0.3    -0.2    -0.3    -0.1
    -0.1     0.1     0.2    -0.0    -0.3    -0.3    -0.3    -0.6    -0.6    -0.4
    -0.4    -0.3    -0.3    -0.4    -0.2    -0.0    -0.0    -0.2    -0.2    -0.1
    -0.1    -0.0     0.0     0.1     0.0    -0.4    -0.5    -0.5    -0.7    -0.6
    -0.3    -0.0    -0.0     0.4     0.4    -0.2    -0.1    -0.3    -0.2    -0.1
    -0.2     0.0    -0.2    -0.2    -0.4    -0.5    -0.3    -0.6    -0.3    -0.0
    -0.1     0.1     0.1     0.2     0.4     0.4    -0.1    -0.4    -0.3    -0.4
    -0.2    -0.2    -0.2    -0.2    -0.2    -0.2    -0.5    -0.3     0.0    -0.2
     0.0    -0.0     0.0    -0.0    -0.5    -0.5    -0.3    -0.2    -0.1    -0.1
    -0.0    -0.2    -0.2    -0.1    -0.2    -0.4    -0.7    -0.5    -0.1     0.1
     0.1    -0.1    -0.1    -0.1    -0.1    -0.2    -0.3    -0.3    -0.1    -0.1
    -0.3    -0.4    -0.4    -0.2    -0.1    -0.2    -0.1    -0.0    -0.0    -0.3
    -0.3    -0.1    -0.1    -0.2    -0.4    -0.5    -0.4    -0.3    -0.3     0.0
     0.0    -0.1     0.0    -0.1    -0.3    -0.3    -0.5    -0.3    -0.1    -0.1
    -0.2    -0.3    -0.5    -0.4    -0.2    -0.2    -0.3    -0.2    -0.2    -0.3
    -0.1    -0.0     0.2     0.2    -0.1    -0.0    -0.2    -0.3    -0.2    -0.3
     0.0     0.0    -0.2    -0.3    -0.3    -0.1    -0.3    -0.4    -0.1    -0.0
    -0.2    -0.0     0.1    -0.0     0.0     0.1     0.0    -0.0    -0.2    -0.4
    -0.3    -0.2    -0.1    -0.1    -0.3    -0.2    -0.1    -0.1    -0.2    -0.1
     0.0    -0.2    -0.4    -0.3    -0.2    -0.2    -0.4    -0.3    -0.1    -0.2
    -0.4     0.1     0.2     0.0    -0.1    -0.2    -0.2    -0.3    -0.1     0.3
     0.0    -0.3    -0.3    -0.3    -0.1    -0.3    -0.4    -0.2    -0.3    -0.2
    -0.4    -0.6    -0.6    -0.6    -0.3    -0.0     0.1     0.0     0.0    -0.1
    -0.2     0.1     0.1    -0.1    -0.5    -0.6    -0.6    -0.7    -0.3    -0.1
    -0.1    -0.0     0.1     0.2     0.1     0.1    -0.2    -0.2    -0.1    -0.4
    -0.6    -0.4    -0.3    -0.2    -0.1    -0.2    -0.0    -0.1    -0.1     0.1
    -0.0    -0.4    -0.4    -0.5    -0.5    -0.4    -0.2    -0.1     0.1     0.2
    -0.0    -0.1    -0.2    -0.5    -0.4    -0.2    -0.2    -0.0    -0.0    -0.1
    -0.3    -0.6    -0.4    -0.2    -0.2    -0.2    -0.3    -0.1    -0.1    -0.1
     0.0    -0.1    -0.3    -0.3    -0.2    -0.0    -0.1    -0.3    -0.3    -0.3
    -0.2    -0.2    -0.4    -0.3    -0.0     0.1     0.1    -0.2    -0.2     0.1
     0.0    -0.1    -0.4    -0.3     0.0     0.1     0.1    -0.0    -0.3    -0.3
    -0.2    -0.1    -0.1    -0.3    -0.4    -0.1     0.2     0.1    -0.1    -0.1
    -0.1    -0.1    -0.0     0.0     0.2     0.1    -0.1    -0.2    -0.4    -0.4
    -0.2     0.2     0.3     0.1     0.0    -0.1     0.1     0.2    -0.2    -0.2
    -0.2    -0.1    -0.0    -0.1    -0.1     0.0     0.2     0.1     0.2     0.2
    -0.0    -0.0    -0.1    -0.2    -0.4    -0.4    -0.2    -0.1    -0.3    -0.3
    -0.1    -0.1     0.2     0.2    -0.2    -0.2    -0.1     0.0     0.1    -0.1
    -0.2    -0.1     0.0     0.2     0.5     0.5     0.3    -0.2    -0.5    -0.4
    -0.5    -0.6    -0.4    -0.3    -0.2    -0.0     0.2     0.1     0.2     0.5
     0.5     0.2    -0.1    -0.0    -0.1    -0.3    -0.3    -0.4    -0.3    -0.2
    -0.3    -0.1     0.2     0.5     0.4     0.1     0.0    -0.2    -0.3    -0.3
    -0.4    -0.6    -0.4    -0.2    -0.2     0.0     0.2     0.3     0.3     0.1
     0.0    -0.0    -0.3    -0.4    -0.2    -0.2    -0.2    -0.1    -0.3    -0.1
     0.0     0.2     0.4     0.1    -0.2    -0.3    -0.1    -0.2    -0.3     0.0
    -0.0    -0.3    -0.2    -0.1    -0.2    -0.2    -0.2    -0.2     0.0    -0.1
    -0.2    -0.0     0.1    -0.1    -0.1    -0.0    -0.3    -0.4    -0.5    -0.2
     0.0    -0.2    -0.3    -0.2    -0.0     0.1     0.0     0.1     0.1     0.0
     0.1    -0.1    -0.1    -0.1    -0.4    -0.4    -0.3    -0.6    -0.4    -0.3
    -0.3     0.0     0.3     0.4     0.2     0.1     0.4    -0.0    -0.3    -0.2
    -0.2    -0.3    -0.5    -0.4     0.0    -0.1    -0.3    -0.1    -0.1    -0.1
     0.0    -0.1    -0.2    -0.4    -0.3    -0.2    -0.3    -0.3    -0.4    -0.3
    -0.3    -0.2     0.0     0.1     0.1     0.0     0.1     0.1    -0.1    -0.1
    -0.3    -0.5    -0.4    -0.5    -0.4    -0.2    -0.1    -0.0    -0.1    -0.2
    -0.2    -0.4    -0.3    -0.3    -0.0     0.2    -0.1    -0.3    -0.2    -0.3
    -0.3    -0.1     0.2     0.3    -0.0    -0.2    -0.2    -0.2    -0.5    -0.5
    -0.3    -0.2    -0.0    -0.1     0.0     0.0     0.2     0.5     0.2    -0.1
    -0.2    -0.3    -0.3    -0.1     0.1    -0.2    -0.2    -0.0    -0.2    -0.1
    -0.1    -0.1     0.3     0.3    -0.3    -0.4    -0.2    -0.1    -0.3    -0.4
    -0.4    -0.3    -0.3    -0.2     0.1     0.0     0.0     0.2     0.0    -0.1
    -0.2    -0.1     0.1    -0.0    -0.0    -0.0     0.1     0.1    -0.2    -0.1
    -0.1    -0.2    -0.3    -0.4    -0.1    -0.1    -0.2     0.1     0.1     0.1
     0.2    -0.1    -0.1    -0.1    -0.0    -0.0    -0.2    -0.0    -0.0    -0.3
    -0.2    -0.0    -0.0    -0.0    -0.0     0.0    -0.2    -0.2    -0.1    -0.2
    -0.2     0.2     0.1    -0.0     0.4     0.2    -0.2    -0.1    -0.3    -0.4
    -0.4    -0.4    -0.2    -0.0     0.1     0.2     0.2    -0.1    -0.2    -0.4
    -0.4    -0.4    -0.4    -0.2    -0.4    -0.3    -0.0    -0.3    -0.1     0.1
     0.3     0.4     0.2     0.2    -0.2    -0.5    -0.5    -0.6    -0.6    -0.4
    -0.5    -0.1     0.2     0.1     0.5     0.5     0.3     0.1    -0.3    -0.4
    -0.5    -0.4    -0.4    -0.2    -0.1    -0.1     0.0    -0.1    -0.3    -0.0
     0.2     0.4     0.4     0.2    -0.2    -0.5    -0.4    -0.3    -0.3    -0.0
    -0.2    -0.4    -0.3    -0.3    -0.1     0.0     0.0     0.1    -0.0    -0.1
    -0.1    -0.1     0.0    -0.1    -0.2    -0.3    -0.2    -0.4    -0.3     0.1
     0.0    -0.1    -0.2    -0.2    -0.4    -0.6    -0.5    -0.3    -0.0     0.0
    -0.0    -0.1    -0.0    -0.0    -0.3    -0.1    -0.1    -0.2     0.0    -0.3
    -0.3    -0.1    -0.1    -0.0     0.0    -0.2    -0.2    -0.3    -0.1     0.1
    -0.0    -0.1    -0.1    -0.3    -0.3    -0.2    -0.1    -0.1    -0.0    -0.1
    -0.2    -0.4    -0.4    -0.1    -0.1     0.2     0.3     0.3     0.2    -0.3
    -0.4    -0.4    -0.2     0.0    -0.3    -0.3    -0.3    -0.5    -0.2    -0.0
     0.1     0.0    -0.0     0.1    -0.1    -0.1     0.0    -0.1    -0.2    -0.3
    -0.3    -0.1    -0.2     0.0     0.3     0.1     0.2     0.2    -0.3    -0.2
    -0.0    -0.1    -0.1    -0.1    -0.1    -0.2    -0.2    -0.2     0.0     0.1
    -0.1     0.1    -0.0    -0.2    -0.4    -0.5    -0.2    -0.3    -0.3    -0.3
    -0.4    -0.4    -0.2    -0.1     0.1     0.0    -0.2    -0.2    -0.3    -0.2
    -0.2    -0.3    -0.1    -0.1    -0.2    -0.3    -0.3    -0.1    -0.1    -0.0
    -0.1    -0.2    -0.1    -0.2    -0.1     0.0    -0.2    -0.2     0.1     0.0
    -0.3    -0.1    -0.1    -0.3    -0.0    -0.0    -0.4    -0.3    -0.2    -0.1
    -0.0     0.0    -0.1    -0.0    -0.2    -0.3    -0.1    -0.4    -0.3    -0.2
    -0.3     0.1    -0.0    -0.4     0.1     0.3     0.1     0.0     0.2     0.0
    -0.3    -0.3    -0.1     0.0    -0.2    -0.4    -0.3    -0.2    -0.0    -0.1
    -0.1    -0.1    -0.1    -0.0    -0.2    -0.2    -0.1    -0.2    -0.1     0.0
    -0.0    -0.1    -0.3    -0.2     0.1     0.2     0.1    -0.0    -0.0     0.0
    -0.1    -0.2    -0.2    -0.2    -0.2    -0.3    -0.4    -0.3     0.1     0.0
     0.0    -0.0    -0.3     0.0     0.0    -0.1    -0.0    -0.2    -0.1     0.1
     0.0    -0.0    -0.2    -0.1    -0.0    -0.1    -0.0     0.2     0.1    -0.1
    -0.1    -0.2    -0.1    -0.1    -0.0     0.0    -0.3    -0.2    -0.0     0.0
    -0.1    -0.2     0.0    -0.1    -0.2    -0.0     0.2     0.0    -0.1    -0.1
    -0.1    -0.1    -0.1    -0.0    -0.0    -0.3    -0.3    -0.2    -0.1     0.0
     0.0     0.0    -0.0     0.1     0.2    -0.1    -0.2    -0.1    -0.1     0.0
    -0.2    -0.3    -0.2    -0.2    -0.2    -0.1    -0.1    -0.0     0.1     0.0
    -0.1    -0.2    -0.4    -0.3    -0.1    -0.2    -0.2    -0.0     0.2     0.1
     0.1    -0.0    -0.0     0.2     0.1     0.1    -0.1    -0.2    -0.1    -0.2
    -0.1    -0.0    -0.1     0.0    -0.0    -0.2    -0.3    -0.3    -0.1     0.1
    -0.0    -0.1     0.0     0.1     0.0    -0.1     0.1     0.0    -0.0    -0.1
    -0.4    -0.3    -0.2    -0.2    -0.3    -0.1     0.1    -0.1    -0.1    -0.1
    -0.3    -0.2     0.1    -0.1    -0.1    -0.1    -0.3    -0.2     0.1     0.1
     0.1     0.0    -0.2    -0.1    -0.2    -0.1    -0.1    -0.3    -0.2    -0.2
    -0.1     0.1    -0.3    -0.3     0.0    -0.1    -0.2    -0.1    -0.2    -0.1
     0.0    -0.2    -0.2    -0.0    -0.3    -0.1    -0.1    -0.4    -0.2    -0.2
    -0.2    -0.1    -0.1    -0.2    -0.1     0.1     0.1    -0.0    -0.1    -0.1
    -0.1    -0.2    -0.1    -0.2    -0.2    -0.1    -0.3    -0.2     0.1     0.0
    -0.0    -0.0    -0.1    -0.2    -0.2    -0.0     0.0    -0.2     0.0    -0.1
    -0.2    -0.1    -0.1    -0.1    -0.0    -0.1    -0.1     0.0     0.1    -0.1
    -0.2    -0.3    -0.2     0.0    -0.1    -0.2    -0.3    -0.2     0.0     0.0
     0.1     0.0    -0.2    -0.3    -0.3    -0.2    -0.3    -0.4    -0.3    -0.2
    -0.1     0.1     0.0     0.0    -0.0    -0.3    -0.3    -0.4    -0.3    -0.3
    -0.5    -0.1     0.1     0.1    -0.0    -0.1    -0.0    -0.3    -0.2     0.1
    -0.0    -0.2    -0.0     0.2     0.0    -0.0    -0.1    -0.1     0.0    -0.1
    -0.2    -0.2    -0.1    -0.1    -0.2    -0.1    -0.2    -0.1    -0.1    -0.2
    -0.1    -0.2    -0.2    -0.1    -0.1    -0.2    -0.3    -0.2    -0.2    -0.2
     0.1     0.0    -0.2    -0.2    -0.3    -0.3    -0.2    -0.3    -0.2    -0.1
    -0.1     0.2     0.0    -0.2    -0.1    -0.2    -0.1     0.1    -0.1     0.0
    -0.1    -0.3    -0.1    -0.3    -0.3    -0.2    -0.2    -0.1    -0.0    -0.1
    -0.1     0.0     0.2     0.2     0.1    -0.0    -0.2    -0.2    -0.3    -0.4
    -0.2    -0.2    -0.2    -0.1    -0.2     0.0    -0.1    -0.2    -0.1    -0.1
    -0.0    -0.2    -0.3    -0.1    -0.0    -0.1    -0.1    -0.1    -0.3     0.1
     0.0    -0.3    -0.2    -0.2    -0.1    -0.2    -0.3    -0.3    -0.3    -0.2
    -0.2    -0.3    -0.2    -0.1     0.0    -0.2    -0.1     0.2    -0.1    -0.1
     0.2     0.0    -0.1    -0.2    -0.1    -0.0    -0.1    -0.1    -0.1     0.0
    -0.2    -0.3    -0.2    -0.3    -0.2    -0.0     0.0     0.1     0.1    -0.0
    -0.1    -0.0    -0.1    -0.1    -0.1    -0.1     0.1    -0.1    -0.0     0.0
    -0.1     0.0     0.0     0.0    -0.0     0.0    -0.2    -0.2    -0.0    -0.3
    -0.2    -0.2    -0.2    -0.0    -0.1    -0.1    -0.2    -0.2    -0.1    -0.3
    -0.1     0.0    -0.2    -0.2    -0.4    -0.1     0.0    -0.2    -0.1    -0.1
    -0.1     0.1    -0.0     0.0     0.0    -0.2    -0.1    -0.2    -0.2    -0.0
    -0.1    -0.1     0.1     0.2     0.0     0.1     0.1    -0.1    -0.3    -0.4
    -0.3    -0.3    -0.1     0.0    -0.2    -0.2     0.1     0.1     0.1    -0.0
    -0.2    -0.1    -0.1    -0.3    -0.1    -0.1    -0.3    -0.3    -0.2    -0.2
    -0.1    -0.2    -0.2    -0.1    -0.1    -0.1     0.1    -0.0    -0.1    -0.2
    -0.1    -0.0    -0.1    -0.0     0.0    -0.2    -0.2    -0.1    -0.1     0.0
     0.0     0.0     0.0    -0.1    -0.2    -0.0     0.1    -0.0    -0.2    -0.1
    -0.1    -0.2    -0.4    -0.3    -0.3    -0.3    -0.1    -0.2    -0.1     0.2
     0.0    -0.0    -0.1    -0.2    -0.4    -0.3    -0.3    -0.3    -0.3    -0.1
     0.1    -0.0    -0.1    -0.1     0.0     0.2     0.0     0.0    -0.0    -0.0
    -0.0    -0.2    -0.1    -0.3    -0.3    -0.3    -0.3    -0.1    -0.1    -0.1
     0.0    -0.1    -0.1    -0.0    -0.0    -0.0     0.1     0.0     0.2     0.2
    -0.0    -0.0    -0.2    -0.2     0.0    -0.0    -0.1    -0.1    -0.3    -0.2
    -0.1    -0.3    -0.0    -0.1    -0.2    -0.1    -0.3    -0.0    -0.1    -0.3
    -0.2    -0.4    -0.1     0.2     0.1     0.2     0.1    -0.1    -0.1    -0.0
    -0.2    -0.3    -0.2    -0.2    -0.1    -0.0    -0.1    -0.1     0.0    -0.2
