Uncorrected accelerogram 20160214_001343_SPRS_20 GNS Science
Site SPRS      43 20 12S  171 55 48E     Basalt file:  20160214_001356_SPRS
Springfield Volunteer Fire Station
Instrument Basalt_2029
Resolution: 24-bit   Instr Period: 0.0050 s   Damping: 0.700
Accelerogram 20160214_001343_SPRS_20                 Processed 2016 February 22
11 km east of CHRISTCHURCH
2016 February 14         00:13:43 UT
Epicentre  43 29 50S 172 45 18E  Bearing S75E  Dist   69km  Depth    8km M  5.70
Number of points  25400    Duration 127.00 s
Raw readings in units of 1.00 mm/s/s  at intervals of 0.005 s
Data is unfiltered
Component N38E
Acceleration:  Peak    132.6 mm/s/s at  51.26 s     RMS    11.99 mm/s/s
Velocity record unevaluated
Displacement record unevaluated
    2016       2      14       0      13     430       0       0    2016       2
      43      29      50     172      45      18       8       0      14       0
      43      20      12     171      55      48      38      38     105      69
   25400       0       0   25400       0       0       0       0      13   16000
   200.0    0.70    0.00   0.000  0.0000   0.000   0.000   1.000     0.0    0.00
  43.337 171.930  43.497 172.755    5.70    0.00    0.00    0.00      0.      0.
  127.00    0.00    0.00  127.00  0.0050  0.0050      0.      0.      0.  9806.6
   132.6   51.26    12.0      0.      0.     0.0    0.00     0.0     0.0   0.000
    0.00    0.00    0.00    0.00   0.000    0.00    0.00    0.00    0.00   0.000
   0.000   0.000   0.000      0.      0.   0.000   0.000   0.000      0.      0.
     0.1    -0.1    -0.1     0.1     0.0    -0.0    -0.1     0.0     0.0    -0.1
    -0.1    -0.0     0.0    -0.1    -0.1     0.0    -0.0    -0.0    -0.1    -0.0
     0.0     0.0     0.0     0.1     0.1     0.0    -0.0    -0.1    -0.1    -0.1
    -0.1    -0.1    -0.0     0.0    -0.0    -0.1     0.0     0.0    -0.0    -0.0
     0.0     0.0    -0.1    -0.1    -0.1    -0.0     0.0    -0.1    -0.0    -0.0
    -0.0    -0.0    -0.0    -0.0    -0.1    -0.1     0.0    -0.0    -0.0     0.0
    -0.0    -0.0    -0.1     0.0     0.0    -0.0     0.0    -0.0    -0.0    -0.0
    -0.1    -0.0    -0.0    -0.1    -0.1     0.0    -0.0     0.0    -0.0     0.0
     0.0    -0.0     0.0    -0.0    -0.0    -0.0    -0.1    -0.1    -0.1     0.0
     0.0    -0.0    -0.0     0.0    -0.1    -0.1    -0.1     0.0     0.0    -0.0
    -0.0     0.0     0.1    -0.0    -0.0     0.1     0.0    -0.1    -0.1    -0.0
    -0.1    -0.1    -0.1     0.0    -0.0    -0.1     0.0     0.1     0.1    -0.0
    -0.1     0.0     0.0    -0.1    -0.1     0.0    -0.0    -0.1    -0.1    -0.0
     0.0     0.0     0.0    -0.0     0.0     0.0    -0.1    -0.1     0.0     0.0
    -0.1    -0.0     0.1     0.1    -0.1    -0.1     0.0     0.0    -0.1    -0.1
    -0.0    -0.0    -0.0    -0.1    -0.0     0.1     0.0    -0.1     0.0     0.0
    -0.1    -0.0     0.0     0.0    -0.0    -0.0    -0.0    -0.0    -0.0    -0.1
    -0.1    -0.0    -0.1    -0.1    -0.0    -0.0     0.0     0.1    -0.0     0.0
     0.1     0.0    -0.0    -0.0    -0.0    -0.1    -0.1    -0.0     0.0    -0.1
    -0.1    -0.0     0.0    -0.0    -0.1     0.1     0.0    -0.0     0.0    -0.0
     0.0    -0.0    -0.0    -0.0    -0.0    -0.0    -0.1    -0.0    -0.0    -0.0
    -0.0    -0.0     0.0    -0.0    -0.0     0.0     0.0    -0.0    -0.0     0.0
     0.0     0.1    -0.1    -0.1     0.0    -0.1    -0.1    -0.0     0.0    -0.0
    -0.1    -0.0     0.0    -0.0    -0.0     0.0     0.0     0.0     0.0     0.0
     0.1    -0.0    -0.1    -0.0     0.0    -0.1    -0.1    -0.1    -0.1    -0.1
    -0.2    -0.1     0.0     0.1     0.0    -0.0     0.1     0.1    -0.0    -0.0
     0.0     0.1    -0.1    -0.1    -0.0    -0.1    -0.1    -0.1    -0.0     0.0
    -0.0    -0.0    -0.0     0.0    -0.0    -0.1    -0.1     0.1     0.1    -0.1
    -0.0     0.1     0.0    -0.1    -0.1     0.0    -0.0    -0.1    -0.1    -0.1
    -0.0    -0.1    -0.1     0.0     0.1     0.1     0.0     0.0     0.1     0.0
    -0.1    -0.1     0.0    -0.1    -0.2    -0.0     0.1    -0.0    -0.1     0.0
     0.0    -0.0    -0.0     0.0     0.1     0.1     0.0    -0.0    -0.0     0.1
    -0.1    -0.1    -0.0    -0.0    -0.1    -0.1     0.0     0.0    -0.1    -0.1
     0.0     0.0    -0.1    -0.0    -0.0    -0.0     0.0    -0.0    -0.0    -0.0
     0.0    -0.0    -0.1    -0.0     0.0    -0.1    -0.0     0.0    -0.0    -0.1
    -0.0    -0.0    -0.1    -0.1    -0.0     0.0    -0.0    -0.0    -0.0    -0.0
    -0.0    -0.0    -0.0    -0.0     0.1    -0.0    -0.1     0.0    -0.1    -0.1
    -0.0    -0.0    -0.0    -0.0    -0.0    -0.0    -0.0    -0.0    -0.0    -0.1
    -0.0    -0.0    -0.1    -0.0     0.0    -0.0    -0.1     0.0     0.0    -0.1
     0.0     0.1     0.0    -0.0    -0.0     0.0    -0.0    -0.0    -0.0    -0.1
    -0.0    -0.0    -0.1    -0.0     0.0    -0.0    -0.1     0.0     0.0    -0.1
    -0.0     0.0     0.0     0.1    -0.0    -0.0     0.0    -0.0    -0.1    -0.1
    -0.0    -0.0    -0.1    -0.1     0.1     0.0     0.0     0.0     0.1     0.1
    -0.0    -0.1    -0.0    -0.0    -0.1    -0.1    -0.1     0.0    -0.0    -0.1
     0.0     0.1    -0.0    -0.1    -0.0     0.1    -0.0    -0.0    -0.1     0.0
     0.0    -0.1    -0.1    -0.0     0.0    -0.1    -0.1     0.1     0.0    -0.0
     0.0    -0.1     0.1    -0.1    -0.1     0.0     0.0    -0.0    -0.1    -0.0
     0.0    -0.0    -0.1    -0.0     0.0     0.0    -0.0     0.0    -0.0    -0.0
    -0.1    -0.1     0.0     0.0    -0.1    -0.0     0.0    -0.1    -0.1     0.0
     0.0     0.0     0.0    -0.0     0.0     0.0    -0.1    -0.1    -0.1    -0.0
    -0.0    -0.1     0.0    -0.0    -0.0    -0.0    -0.0     0.0     0.0    -0.0
    -0.1    -0.0    -0.1    -0.1    -0.0    -0.0     0.0     0.0    -0.0     0.0
    -0.1    -0.1    -0.0     0.0     0.0    -0.0     0.0     0.0    -0.0    -0.1
    -0.1    -0.1    -0.1    -0.1     0.0     0.0     0.0    -0.0     0.1     0.1
    -0.0    -0.0    -0.0     0.0    -0.1    -0.1    -0.1    -0.1    -0.0    -0.1
    -0.0     0.1    -0.0    -0.0    -0.1     0.0     0.1    -0.1    -0.0     0.0
     0.0    -0.0    -0.1    -0.0    -0.0    -0.1    -0.1     0.0     0.0    -0.0
    -0.1     0.0     0.0    -0.1    -0.1    -0.1     0.0    -0.0    -0.1     0.0
     0.1     0.1    -0.1    -0.0     0.0    -0.1    -0.1    -0.1    -0.0     0.0
    -0.1    -0.0     0.1     0.0    -0.0    -0.1    -0.0     0.0    -0.1    -0.1
     0.0     0.0    -0.0    -0.1     0.0    -0.0    -0.1    -0.1    -0.0     0.1
    -0.1    -0.1    -0.0     0.0     0.0    -0.1    -0.0     0.1     0.0    -0.1
    -0.0    -0.0    -0.0    -0.1    -0.1     0.0     0.0    -0.1    -0.1     0.0
    -0.0    -0.0    -0.0    -0.0     0.0    -0.0    -0.1    -0.0     0.0    -0.1
    -0.1    -0.0     0.0    -0.1    -0.1     0.0     0.1     0.0     0.0     0.0
    -0.0    -0.0    -0.1    -0.1    -0.0    -0.0    -0.1    -0.0     0.0     0.0
    -0.0    -0.1     0.0    -0.0    -0.0     0.0     0.0     0.1     0.0    -0.1
    -0.0    -0.1    -0.1    -0.1    -0.0    -0.1    -0.1     0.0     0.0     0.1
     0.1     0.0     0.1     0.0    -0.1    -0.1    -0.1    -0.1    -0.1    -0.0
     0.1     0.1     0.0    -0.0     0.0    -0.0    -0.0    -0.0    -0.1    -0.1
    -0.1    -0.0    -0.0     0.0     0.0     0.0     0.1     0.0    -0.1    -0.1
     0.0     0.0    -0.1    -0.0    -0.0     0.0     0.0    -0.1     0.0     0.1
    -0.0    -0.1    -0.0    -0.0    -0.0    -0.0     0.0     0.0    -0.0    -0.0
    -0.0     0.0    -0.0    -0.1    -0.1     0.0     0.1     0.0     0.0     0.1
     0.1    -0.0    -0.0    -0.0    -0.0    -0.1    -0.1    -0.1     0.1    -0.0
    -0.1     0.0     0.1    -0.0    -0.1    -0.0     0.0    -0.0    -0.1    -0.1
     0.1    -0.0    -0.1    -0.1    -0.0    -0.0    -0.1    -0.0     0.0    -0.0
     0.0    -0.0     0.0     0.1    -0.1    -0.1    -0.0     0.0    -0.1    -0.1
     0.0     0.0    -0.0    -0.1    -0.0     0.0     0.0    -0.1    -0.0     0.1
    -0.0    -0.1    -0.0    -0.0    -0.0    -0.1    -0.0     0.0    -0.0    -0.0
    -0.0    -0.0    -0.0    -0.0    -0.0     0.0     0.0    -0.0     0.0    -0.0
    -0.1    -0.0    -0.0     0.0     0.0    -0.0    -0.0    -0.0     0.0    -0.1
    -0.1    -0.0    -0.0    -0.0    -0.1    -0.0     0.0    -0.0    -0.0    -0.0
     0.0     0.0     0.0    -0.0     0.0    -0.1    -0.1     0.0    -0.1    -0.0
    -0.0    -0.0    -0.0    -0.0    -0.0     0.0     0.1    -0.0    -0.0    -0.0
    -0.0    -0.1    -0.1     0.0     0.0    -0.0    -0.0     0.0     0.0    -0.0
    -0.1    -0.1    -0.0     0.0    -0.0     0.0     0.1     0.0    -0.0    -0.1
    -0.0    -0.0    -0.1    -0.0     0.0     0.0     0.0    -0.0     0.0     0.0
    -0.1    -0.1    -0.0     0.0    -0.0    -0.0     0.0     0.0    -0.0    -0.1
     0.0     0.0    -0.1    -0.1    -0.0     0.0     0.0    -0.1    -0.0     0.1
    -0.0    -0.0    -0.1     0.0     0.0    -0.1    -0.0     0.0     0.1    -0.1
    -0.1     0.0    -0.0    -0.1    -0.1    -0.0     0.1    -0.0    -0.1     0.0
     0.1     0.0    -0.1    -0.0     0.0    -0.0    -0.1    -0.1     0.0    -0.0
    -0.1    -0.0     0.1     0.0    -0.1    -0.0     0.1     0.0    -0.1    -0.1
     0.0    -0.0    -0.1    -0.1    -0.0     0.0    -0.1    -0.1     0.0     0.0
     0.0    -0.1     0.0     0.0    -0.0    -0.1    -0.1     0.0    -0.0    -0.0
    -0.1     0.0    -0.0    -0.1     0.0     0.0     0.0    -0.0    -0.0     0.1
    -0.1    -0.1    -0.1    -0.1    -0.1    -0.1    -0.1    -0.0     0.1     0.0
     0.0     0.0     0.0    -0.0    -0.0     0.0    -0.0    -0.1    -0.0    -0.1
    -0.0    -0.0    -0.1     0.0     0.0    -0.0    -0.0     0.0     0.0    -0.0
    -0.0    -0.0    -0.1    -0.1    -0.1     0.0     0.0    -0.0     0.0     0.0
    -0.0    -0.0    -0.1    -0.0    -0.0    -0.0    -0.1     0.0     0.1    -0.0
    -0.1    -0.1    -0.0    -0.1    -0.1     0.0     0.0     0.0     0.0    -0.0
     0.0    -0.1    -0.1    -0.0    -0.0    -0.1    -0.0    -0.0    -0.0     0.1
    -0.0    -0.0     0.1     0.0    -0.1    -0.1     0.0    -0.0    -0.2    -0.1
    -0.0     0.0    -0.0    -0.0     0.0     0.0    -0.0    -0.1    -0.0    -0.0
    -0.0    -0.1    -0.0     0.1    -0.0    -0.1     0.0     0.0    -0.0    -0.1
    -0.0    -0.0    -0.0    -0.1    -0.1     0.0    -0.0    -0.1    -0.0     0.0
     0.0    -0.1    -0.0     0.0     0.0    -0.0    -0.0    -0.0    -0.0    -0.0
    -0.2    -0.0     0.1    -0.0    -0.1    -0.0     0.1    -0.0    -0.0     0.0
     0.0    -0.0    -0.1    -0.1    -0.0    -0.0    -0.0    -0.0     0.1     0.0
    -0.0    -0.1     0.0    -0.0    -0.1     0.0     0.0     0.0    -0.0    -0.1
    -0.0    -0.0    -0.0    -0.1     0.0     0.0    -0.0    -0.0    -0.1    -0.0
    -0.0    -0.1    -0.0     0.0     0.0    -0.0    -0.1    -0.0    -0.1    -0.1
    -0.0     0.1     0.1     0.0     0.0    -0.0    -0.1    -0.0    -0.1     0.0
     0.1     0.0     0.1     0.0    -0.1    -0.1    -0.1    -0.0    -0.0    -0.0
     0.0     0.0     0.0    -0.0    -0.0    -0.0    -0.0    -0.0    -0.0    -0.0
    -0.1    -0.1    -0.1    -0.0    -0.0    -0.1    -0.0     0.1     0.0    -0.1
     0.0    -0.0    -0.1    -0.1    -0.1     0.0     0.1     0.0    -0.0     0.0
     0.0    -0.1    -0.1     0.0    -0.0    -0.1    -0.0     0.0    -0.0    -0.0
    -0.0    -0.0     0.0     0.0    -0.1     0.1     0.1    -0.0    -0.1    -0.0
     0.0    -0.0    -0.1    -0.0     0.1     0.0    -0.0    -0.1     0.0     0.0
    -0.2    -0.1     0.0     0.0    -0.0    -0.1     0.0     0.1    -0.0    -0.0
    -0.0     0.0     0.0    -0.0    -0.0     0.0    -0.0    -0.2    -0.1     0.0
    -0.1    -0.0     0.1     0.1     0.1    -0.1    -0.1     0.0    -0.1    -0.1
    -0.1     0.0     0.0    -0.1    -0.1     0.0     0.0    -0.0    -0.0     0.0
     0.1     0.0    -0.1     0.0     0.1    -0.0    -0.1    -0.0    -0.0    -0.1
    -0.1    -0.0    -0.0    -0.0     0.1     0.0     0.1     0.1    -0.1    -0.1
     0.0    -0.1    -0.1    -0.1     0.0    -0.0    -0.1    -0.0     0.0     0.1
    -0.0    -0.0     0.0    -0.0    -0.0    -0.1    -0.1    -0.0    -0.1     0.0
     0.1     0.0    -0.0    -0.0    -0.1    -0.1    -0.0    -0.1     0.0     0.1
     0.0    -0.0     0.0     0.0    -0.1    -0.1     0.0    -0.0     0.0    -0.0
     0.0    -0.0    -0.1    -0.0    -0.1    -0.0    -0.0    -0.0     0.1     0.0
    -0.0    -0.0     0.0    -0.0    -0.1     0.0    -0.0    -0.0     0.0    -0.1
    -0.0     0.0    -0.1    -0.0     0.0     0.0    -0.0    -0.1    -0.0    -0.0
    -0.0    -0.0     0.0     0.1     0.0     0.0    -0.0    -0.0    -0.1    -0.1
    -0.0     0.0     0.1    -0.1     0.0     0.0    -0.0    -0.0    -0.1    -0.0
     0.0    -0.1    -0.1     0.0     0.0    -0.0    -0.1     0.1     0.1     0.0
    -0.1    -0.1    -0.0    -0.1    -0.1    -0.1     0.0     0.0    -0.0     0.0
     0.1     0.0    -0.1    -0.1     0.0     0.0    -0.0    -0.0    -0.0    -0.0
    -0.1    -0.2    -0.0     0.0    -0.0    -0.0     0.1     0.1    -0.0     0.0
     0.0     0.1     0.0    -0.1    -0.0    -0.1    -0.1    -0.1    -0.1     0.0
    -0.0    -0.1     0.0     0.1     0.0    -0.0    -0.0     0.0     0.0    -0.0
    -0.0     0.0     0.0    -0.0    -0.1     0.0    -0.0    -0.1    -0.0    -0.0
     0.0     0.0    -0.0     0.0     0.0    -0.0    -0.1    -0.0     0.0    -0.1
    -0.1    -0.0    -0.0    -0.0     0.0     0.0     0.0     0.0    -0.1    -0.0
     0.0     0.0    -0.0    -0.0     0.0    -0.1    -0.0    -0.0    -0.1    -0.1
    -0.1    -0.0    -0.0    -0.0     0.0     0.0     0.1     0.0    -0.1    -0.0
     0.0    -0.1    -0.1    -0.0    -0.1    -0.0    -0.1    -0.1     0.0    -0.0
     0.0    -0.0     0.1     0.0    -0.1     0.1    -0.1    -0.0    -0.0    -0.0
     0.0    -0.0    -0.0    -0.1    -0.0     0.0    -0.1    -0.1     0.0     0.0
    -0.0     0.0     0.1     0.1     0.0    -0.1    -0.1    -0.0    -0.1    -0.2
    -0.1     0.0    -0.0    -0.0     0.0     0.1    -0.0    -0.0     0.0     0.0
     0.0    -0.1    -0.1     0.0    -0.0    -0.1    -0.1     0.0    -0.0     0.0
    -0.0     0.0     0.1    -0.1    -0.1     0.0     0.1    -0.0    -0.1    -0.0
     0.0    -0.0    -0.0    -0.0     0.0     0.1    -0.1    -0.0     0.1    -0.1
    -0.1    -0.0     0.1     0.0    -0.1    -0.0    -0.0    -0.0    -0.1    -0.1
     0.1     0.1    -0.1    -0.0     0.1     0.0    -0.1    -0.1    -0.1    -0.0
    -0.0    -0.1     0.0     0.1    -0.0    -0.0     0.0     0.1    -0.1    -0.0
    -0.1    -0.1    -0.0    -0.1    -0.0     0.0    -0.0    -0.0     0.0     0.1
     0.1    -0.0    -0.0    -0.0    -0.0    -0.1    -0.1    -0.0    -0.0    -0.0
    -0.1     0.0     0.1    -0.1     0.0    -0.0    -0.1    -0.0    -0.0     0.0
     0.0    -0.0    -0.0     0.0     0.0    -0.0    -0.0     0.0    -0.0    -0.0
     0.0    -0.1    -0.0    -0.0    -0.1     0.0     0.0    -0.1    -0.0     0.0
    -0.0    -0.0    -0.0     0.0     0.0    -0.0    -0.0    -0.0     0.1    -0.0
    -0.2    -0.0    -0.0    -0.0     0.1    -0.0     0.0     0.0    -0.1    -0.1
    -0.0    -0.1    -0.1     0.0     0.0     0.0     0.0    -0.0     0.0    -0.0
    -0.1    -0.1     0.0    -0.0    -0.1    -0.0     0.0     0.0    -0.0    -0.1
     0.0     0.0    -0.0    -0.1    -0.0     0.1    -0.0    -0.1     0.0     0.0
     0.0     0.0    -0.0     0.0    -0.1    -0.1    -0.1     0.0    -0.0    -0.0
     0.1     0.1     0.0    -0.0    -0.1     0.1    -0.1    -0.2    -0.0     0.0
     0.1    -0.0    -0.0     0.0     0.0     0.0    -0.1     0.0     0.0    -0.0
    -0.0    -0.0    -0.0    -0.1    -0.1    -0.0     0.1     0.0    -0.1    -0.0
     0.0    -0.0    -0.1     0.0     0.1     0.0    -0.1    -0.1     0.0    -0.0
    -0.1    -0.1    -0.0     0.0    -0.0     0.0     0.1     0.1     0.1    -0.1
    -0.1    -0.1    -0.1    -0.1    -0.1     0.0     0.0     0.1     0.1     0.1
     0.0    -0.1     0.0    -0.0    -0.1    -0.1    -0.1    -0.1    -0.0     0.0
     0.0     0.1     0.0    -0.0     0.0    -0.0    -0.0    -0.1    -0.1    -0.0
    -0.0     0.0     0.1     0.1     0.1     0.0    -0.1    -0.1    -0.2    -0.1
    -0.0     0.0     0.0    -0.0     0.0     0.1    -0.0    -0.0    -0.0    -0.0
    -0.1    -0.1    -0.0     0.0     0.1    -0.0    -0.0     0.0    -0.1    -0.1
    -0.0     0.0     0.0    -0.1    -0.0     0.0    -0.0    -0.1     0.0     0.1
     0.0     0.0    -0.1    -0.0     0.0    -0.1    -0.1    -0.0     0.1     0.0
    -0.0     0.1     0.1     0.0    -0.0    -0.1     0.0    -0.1    -0.1    -0.0
     0.0     0.0    -0.0    -0.0     0.0    -0.0    -0.0    -0.1     0.0    -0.0
    -0.1    -0.1     0.0     0.1    -0.0    -0.0     0.0     0.1     0.0    -0.2
    -0.0     0.1    -0.1    -0.0    -0.0     0.1     0.0    -0.1    -0.0    -0.0
    -0.1    -0.1    -0.1     0.1     0.0    -0.0     0.0     0.0     0.1    -0.1
    -0.1     0.0    -0.1    -0.1    -0.1    -0.0     0.1     0.0    -0.1     0.1
     0.1    -0.0    -0.1    -0.1    -0.0    -0.0    -0.1    -0.0     0.1     0.0
     0.0     0.0     0.0    -0.0    -0.1    -0.1    -0.0     0.0    -0.1    -0.1
     0.1    -0.0    -0.1    -0.0     0.1     0.1     0.0    -0.0    -0.0     0.1
    -0.1    -0.1    -0.1    -0.1    -0.0    -0.0     0.0     0.1     0.1     0.0
    -0.0     0.0    -0.1    -0.1     0.0    -0.1    -0.0     0.0     0.0     0.1
     0.0     0.0     0.0     0.0    -0.0    -0.1    -0.0     0.0    -0.0    -0.0
    -0.0    -0.1    -0.0    -0.0    -0.0     0.0    -0.1     0.0     0.0     0.0
     0.0    -0.1    -0.0    -0.0    -0.1    -0.1    -0.0     0.1    -0.0    -0.0
     0.1     0.0     0.0    -0.1    -0.0     0.0    -0.0    -0.1    -0.1     0.0
     0.0    -0.0    -0.0     0.0     0.1    -0.0    -0.0     0.0    -0.0    -0.1
    -0.1    -0.0     0.0    -0.0    -0.0     0.1     0.1     0.0    -0.1    -0.0
     0.0    -0.1    -0.2    -0.1     0.0     0.0    -0.0     0.0     0.1     0.0
    -0.0    -0.0     0.0    -0.0    -0.1    -0.1     0.1     0.0    -0.0     0.0
    -0.0    -0.0    -0.1    -0.1     0.0     0.0    -0.0    -0.0     0.0     0.1
     0.0    -0.1    -0.0     0.0    -0.0    -0.1    -0.0     0.0    -0.0    -0.1
    -0.1     0.0     0.0    -0.1    -0.0     0.1     0.1    -0.1    -0.0    -0.0
    -0.1    -0.1    -0.1     0.0     0.0     0.0     0.1     0.1     0.0    -0.1
    -0.1    -0.1    -0.0    -0.1    -0.1    -0.0     0.0     0.0     0.0     0.1
     0.1    -0.0    -0.0    -0.1    -0.1    -0.0    -0.1    -0.0     0.0     0.1
    -0.0    -0.0     0.0    -0.0    -0.0     0.0     0.0    -0.0    -0.1    -0.1
    -0.1    -0.1    -0.1    -0.1    -0.0     0.0     0.0     0.1     0.1    -0.0
    -0.1    -0.1    -0.0    -0.1    -0.1     0.1     0.0     0.1     0.0     0.0
    -0.0    -0.1    -0.1    -0.1    -0.0    -0.0     0.0    -0.0     0.0     0.1
     0.0     0.0     0.0     0.0    -0.0    -0.1     0.0    -0.0    -0.1    -0.1
    -0.1     0.0    -0.0    -0.0     0.0     0.1    -0.0    -0.1    -0.1     0.0
     0.0    -0.1     0.0     0.1     0.1    -0.1    -0.1     0.0    -0.1    -0.1
    -0.1     0.1     0.0    -0.1     0.0     0.0     0.0    -0.0    -0.0     0.1
     0.0    -0.1    -0.1    -0.0    -0.0    -0.1    -0.1     0.0     0.1    -0.0
    -0.0    -0.0     0.0     0.0    -0.1    -0.0     0.1     0.0    -0.1    -0.1
    -0.0    -0.0    -0.1    -0.1     0.1     0.1    -0.1     0.0     0.0    -0.0
    -0.1    -0.2    -0.0     0.0    -0.1    -0.1    -0.0     0.1    -0.0    -0.0
     0.0     0.0    -0.0    -0.1    -0.0     0.1     0.0    -0.1    -0.0     0.0
    -0.0    -0.0    -0.0     0.0    -0.1    -0.1    -0.1    -0.0     0.0    -0.0
     0.0     0.0     0.1    -0.0    -0.1    -0.0    -0.1    -0.1    -0.1    -0.0
     0.0    -0.0    -0.0    -0.0    -0.0    -0.0    -0.1    -0.0     0.0     0.0
    -0.1     0.0     0.0    -0.0    -0.1    -0.0     0.0    -0.1    -0.0     0.0
     0.0     0.0    -0.0    -0.0    -0.0    -0.1    -0.0     0.0     0.0     0.0
     0.0    -0.0     0.0    -0.0    -0.1    -0.0    -0.1    -0.1    -0.1    -0.0
