Uncorrected accelerogram 20160214_001343_TOKS_20 GNS Science
Site TOKS      43 49 21S  172 46 51E     Basalt file:  20160214_001351_TOKS
Te Oka Bay Road SW Banks Peninsula
Instrument Basalt_2425
Resolution: 24-bit   Instr Period: 0.0050 s   Damping: 0.700
Accelerogram 20160214_001343_TOKS_20                 Processed 2016 February 22
11 km east of CHRISTCHURCH
2016 February 14         00:13:43 UT
Epicentre  43 29 50S 172 45 18E  Bearing N03W  Dist   36km  Depth    8km M  5.70
Number of points  32600    Duration 163.00 s
Raw readings in units of 1.00 mm/s/s  at intervals of 0.005 s
Data is unfiltered
Component N90W
Acceleration:  Peak    594.2 mm/s/s at  47.74 s     RMS    30.82 mm/s/s
Velocity record unevaluated
Displacement record unevaluated
    2016       2      14       0      13     430       0       0    2016       2
      43      29      50     172      45      18       8       0      14       0
      43      49      21     172      46      51     270     270     357      36
   32600       0       0   32600       0       0       0       0      13   11000
   200.0    0.70    0.00   0.000  0.0000   0.000   0.000   1.000     0.0    0.00
  43.822 172.781  43.497 172.755    5.70    0.00    0.00    0.00      0.      0.
  163.00    0.00    0.00  163.00  0.0050  0.0050      0.      0.      0.  9806.6
   594.2   47.74    30.8      0.      0.     0.0    0.00     0.0     0.0   0.000
    0.00    0.00    0.00    0.00   0.000    0.00    0.00    0.00    0.00   0.000
   0.000   0.000   0.000      0.      0.   0.000   0.000   0.000      0.      0.
    -0.0     0.1    -0.0     0.0     0.0    -0.0     0.0    -0.0    -0.0     0.0
     0.0     0.0    -0.0     0.0     0.0    -0.0     0.0     0.0    -0.0    -0.0
    -0.0     0.0     0.0    -0.0    -0.0     0.0     0.1     0.0    -0.0     0.0
     0.0    -0.0    -0.0     0.0     0.0     0.0     0.0     0.0     0.0     0.0
     0.0     0.0    -0.0     0.0     0.0    -0.0    -0.0    -0.0     0.0     0.0
     0.0    -0.0    -0.0     0.0     0.0     0.0    -0.0     0.0     0.0     0.0
    -0.0     0.0     0.1     0.0    -0.0    -0.0     0.0     0.0    -0.0    -0.0
     0.0     0.0    -0.0     0.0     0.0    -0.0     0.0    -0.0    -0.0     0.0
     0.0     0.0    -0.0    -0.0     0.0    -0.0     0.0     0.0    -0.0     0.0
     0.0    -0.0    -0.0     0.1     0.0    -0.0    -0.0    -0.0     0.0    -0.0
     0.0     0.1    -0.0    -0.0     0.0     0.0     0.0     0.0     0.0    -0.0
    -0.0     0.0     0.0    -0.0     0.0     0.0    -0.0     0.0    -0.0     0.0
     0.0    -0.1    -0.0     0.0     0.0    -0.0    -0.0     0.0    -0.0    -0.0
     0.0    -0.0     0.0     0.0    -0.0     0.0    -0.0    -0.0     0.0    -0.0
     0.0     0.0    -0.0     0.0     0.0    -0.0     0.0    -0.0    -0.0     0.0
    -0.0     0.0    -0.0    -0.0     0.0    -0.0     0.0    -0.0    -0.0     0.1
    -0.0    -0.0     0.0    -0.0     0.0    -0.0     0.0     0.0    -0.0     0.0
    -0.0    -0.0    -0.0    -0.0     0.0    -0.0     0.0     0.0    -0.0     0.0
     0.0    -0.0     0.0     0.0    -0.0     0.0     0.0    -0.0    -0.0     0.0
    -0.0     0.0    -0.0     0.0     0.0    -0.0     0.0    -0.0     0.0    -0.0
     0.0     0.0    -0.0     0.0    -0.0     0.0     0.0    -0.0     0.0    -0.0
     0.0    -0.0    -0.0     0.0     0.0    -0.0    -0.0     0.0     0.0    -0.0
    -0.0    -0.0     0.0     0.0     0.0    -0.0    -0.0    -0.0     0.0     0.0
     0.0    -0.0    -0.0     0.0     0.0    -0.0     0.0     0.0     0.0    -0.0
     0.0     0.0    -0.0    -0.0    -0.0     0.0     0.0     0.0     0.0     0.0
    -0.0    -0.1     0.0    -0.0     0.0     0.0    -0.0    -0.0    -0.0     0.0
     0.0    -0.0    -0.0     0.0     0.0     0.0     0.0    -0.1     0.0     0.0
    -0.0     0.0    -0.0     0.0     0.0    -0.0    -0.0     0.0     0.0    -0.1
     0.0     0.0    -0.0     0.0    -0.0    -0.0     0.0     0.0    -0.0    -0.0
     0.0     0.0     0.0    -0.0    -0.0     0.0    -0.0     0.0     0.0     0.0
    -0.0    -0.0     0.0    -0.0    -0.0    -0.0     0.0     0.0    -0.0     0.0
     0.0    -0.0     0.0     0.0    -0.0    -0.0     0.0     0.0    -0.0     0.0
     0.0    -0.1     0.0    -0.0    -0.0     0.0    -0.0     0.0     0.0    -0.0
    -0.0     0.0     0.0    -0.0     0.0     0.0    -0.0    -0.0     0.0    -0.0
    -0.0    -0.0    -0.0    -0.0     0.0     0.0    -0.0     0.0    -0.0    -0.0
    -0.0     0.0     0.0    -0.0    -0.0     0.0    -0.0    -0.0     0.0    -0.0
    -0.0     0.0     0.0     0.0    -0.0    -0.0     0.0    -0.0    -0.0     0.1
    -0.0    -0.0     0.0    -0.0     0.0    -0.0     0.0     0.0    -0.0     0.0
    -0.0     0.0     0.0    -0.0    -0.0    -0.0     0.0     0.0     0.0     0.0
    -0.0     0.0     0.0    -0.0     0.0     0.0    -0.0     0.0     0.0     0.0
    -0.0    -0.0     0.0    -0.0    -0.0     0.0     0.0    -0.0     0.0     0.0
    -0.0     0.0     0.0    -0.0    -0.0     0.0     0.0     0.0    -0.0    -0.0
    -0.0     0.0     0.0     0.0    -0.0    -0.0    -0.0    -0.0     0.0    -0.0
    -0.0     0.0    -0.0     0.0     0.0    -0.0     0.0     0.0    -0.0    -0.0
    -0.0     0.1    -0.0    -0.0     0.0    -0.1     0.1    -0.0    -0.1     0.0
    -0.1     0.0    -0.0     0.0     0.0    -0.0     0.1    -0.0     0.0     0.0
    -0.0     0.0    -0.0     0.0    -0.0    -0.0     0.0    -0.0     0.0    -0.0
     0.0    -0.0    -0.0     0.0    -0.0    -0.0     0.0    -0.0     0.0    -0.0
    -0.0     0.0     0.0     0.0     0.0    -0.0     0.0    -0.0    -0.0     0.0
    -0.0    -0.0    -0.0    -0.0     0.0     0.0    -0.0     0.0    -0.0     0.0
    -0.0     0.0     0.0    -0.0     0.0    -0.0     0.0    -0.0     0.0     0.0
    -0.0     0.0    -0.0     0.0     0.0    -0.1     0.0     0.0     0.0     0.0
    -0.0     0.0     0.0    -0.0     0.0    -0.0     0.0    -0.0    -0.0     0.0
    -0.0     0.0    -0.0    -0.0     0.0    -0.0     0.0     0.0     0.0     0.0
    -0.1     0.0     0.0    -0.0     0.1    -0.0    -0.0     0.0     0.0    -0.0
     0.0    -0.0     0.0    -0.0    -0.0     0.0    -0.0     0.0    -0.0    -0.0
     0.0    -0.0     0.0    -0.0     0.0     0.0    -0.0     0.0    -0.0    -0.0
     0.0    -0.0     0.0    -0.0     0.0     0.0    -0.1     0.0    -0.0    -0.0
     0.0     0.0     0.0    -0.0     0.0    -0.0     0.0     0.0    -0.0     0.0
     0.0    -0.0     0.0     0.0     0.0    -0.0     0.0     0.0     0.0     0.0
     0.0    -0.0    -0.0     0.0    -0.0     0.0     0.0    -0.0     0.0    -0.0
     0.0     0.0    -0.0     0.0    -0.0     0.0     0.0    -0.0    -0.0    -0.0
    -0.0     0.0     0.0    -0.0     0.0    -0.0    -0.0     0.0    -0.0     0.0
     0.0    -0.0     0.0    -0.0     0.0     0.0    -0.0     0.0    -0.0    -0.0
     0.0    -0.0     0.0     0.0    -0.0     0.0     0.0    -0.0    -0.0    -0.0
     0.0    -0.0     0.1    -0.0    -0.0     0.1    -0.0    -0.0     0.0     0.0
     0.0    -0.0    -0.0     0.0     0.0    -0.0    -0.0     0.0    -0.0     0.0
     0.0    -0.0     0.0     0.0     0.0     0.0    -0.0     0.0     0.0    -0.0
     0.0     0.0     0.0    -0.0     0.0     0.0    -0.0    -0.0     0.0    -0.0
     0.0    -0.0     0.0     0.0    -0.0     0.0     0.1     0.0     0.0     0.0
     0.0    -0.0     0.0    -0.0    -0.0     0.1    -0.0     0.0     0.0    -0.0
     0.1    -0.0    -0.0     0.0    -0.0     0.0    -0.0    -0.0     0.1    -0.0
    -0.0     0.0     0.0     0.0    -0.0     0.0    -0.0     0.0     0.0    -0.0
     0.0    -0.0     0.0    -0.0     0.0     0.0     0.0     0.0     0.0     0.0
    -0.0     0.0     0.0     0.0    -0.0    -0.0     0.0    -0.0     0.0     0.0
    -0.0     0.0    -0.0     0.0     0.0     0.0    -0.0     0.0     0.0    -0.0
     0.0    -0.0    -0.0    -0.0     0.0    -0.0     0.0     0.1    -0.0     0.0
     0.0    -0.0     0.0    -0.0     0.0     0.0    -0.0     0.0     0.0    -0.0
     0.0     0.0     0.0    -0.0    -0.0     0.0     0.0    -0.0     0.0     0.0
     0.0    -0.0    -0.0     0.0     0.0     0.0    -0.0    -0.0     0.0     0.0
    -0.0    -0.0     0.0    -0.0     0.0     0.1     0.0    -0.0     0.0    -0.0
     0.0     0.0    -0.0     0.0     0.0     0.0    -0.0     0.0    -0.0    -0.0
     0.0    -0.0    -0.0     0.0    -0.0     0.0    -0.0     0.0     0.0    -0.0
     0.0     0.0    -0.0    -0.0     0.0    -0.0     0.0     0.0    -0.0     0.0
     0.0     0.0     0.0     0.0    -0.0    -0.0     0.0    -0.0     0.0     0.0
    -0.0     0.0    -0.0     0.0     0.0    -0.1     0.0     0.0    -0.0     0.0
    -0.0     0.0    -0.0    -0.0     0.1    -0.0    -0.0     0.0    -0.0    -0.0
     0.0    -0.0     0.0    -0.0     0.0     0.0    -0.0     0.0    -0.0    -0.0
     0.0    -0.0     0.0     0.0    -0.0     0.0    -0.0    -0.0     0.0    -0.0
     0.0     0.0     0.0    -0.0     0.0     0.0     0.0     0.0    -0.0     0.0
     0.0     0.0    -0.0     0.0     0.0    -0.0     0.0     0.0     0.0    -0.0
     0.0     0.0    -0.0     0.0    -0.0     0.0     0.0     0.0    -0.0    -0.0
     0.0     0.0     0.0    -0.0    -0.0     0.0     0.0     0.0    -0.0     0.0
    -0.0    -0.0     0.0     0.0    -0.0     0.0     0.0    -0.0     0.0     0.0
    -0.0     0.0    -0.0     0.0     0.0    -0.0     0.0    -0.0    -0.0     0.1
    -0.0    -0.0     0.1    -0.0     0.0     0.0    -0.1     0.1     0.0    -0.0
     0.0    -0.0     0.0     0.0    -0.0     0.0     0.0    -0.0     0.0     0.0
    -0.0     0.0     0.0     0.0     0.0     0.0     0.0     0.0     0.0    -0.0
     0.0    -0.0     0.0     0.0     0.0     0.0     0.0     0.0    -0.0     0.0
     0.0     0.0    -0.0     0.0     0.0    -0.0     0.0     0.0    -0.0     0.0
    -0.0     0.0     0.0     0.0    -0.0    -0.0     0.1    -0.0     0.0     0.0
    -0.0     0.0     0.0     0.0    -0.0     0.0    -0.0     0.0     0.0     0.0
     0.0    -0.0     0.0    -0.0     0.0     0.1    -0.0    -0.0     0.0     0.0
     0.0     0.0    -0.0    -0.0     0.0    -0.0     0.0     0.0    -0.0     0.0
    -0.0    -0.0     0.0    -0.0     0.0    -0.0     0.0     0.0    -0.0     0.0
    -0.0    -0.0     0.0    -0.0     0.0     0.0    -0.0    -0.0    -0.0    -0.0
     0.0     0.0     0.0     0.0    -0.0     0.0     0.0     0.0    -0.0     0.0
     0.0    -0.0     0.0     0.0    -0.0     0.0    -0.0     0.0    -0.0     0.0
     0.1    -0.1     0.0     0.0     0.0     0.0    -0.0     0.0    -0.0     0.0
     0.0     0.0     0.0    -0.0     0.0    -0.0     0.0     0.0    -0.0     0.0
     0.0     0.0     0.0    -0.0    -0.0     0.0     0.0    -0.0     0.0     0.0
    -0.0    -0.0     0.0     0.0     0.0     0.0     0.0    -0.0     0.0     0.0
    -0.0    -0.0     0.0    -0.0    -0.0     0.0     0.0    -0.0     0.0    -0.0
    -0.0     0.0     0.0     0.0     0.0    -0.0     0.0     0.0    -0.0    -0.0
    -0.0     0.0    -0.0    -0.0     0.0    -0.1     0.0    -0.0    -0.0     0.0
    -0.0     0.0    -0.0     0.0     0.0    -0.0     0.0    -0.0     0.0     0.0
    -0.0     0.0    -0.0    -0.0     0.0     0.0    -0.0     0.0     0.0    -0.0
     0.0    -0.0     0.0     0.0    -0.0     0.0     0.0    -0.0     0.0     0.0
     0.0    -0.0    -0.0     0.0    -0.0    -0.0    -0.0     0.0    -0.0     0.0
     0.0    -0.0     0.0    -0.0    -0.0    -0.0    -0.0     0.0    -0.0    -0.0
     0.0    -0.0    -0.0    -0.0     0.0     0.0    -0.0    -0.0     0.0    -0.0
     0.0     0.0    -0.1     0.0    -0.0    -0.0     0.0     0.0    -0.0    -0.0
     0.0    -0.0     0.0     0.0    -0.0     0.0    -0.0     0.0    -0.0     0.0
     0.0    -0.0     0.1    -0.0    -0.0     0.0    -0.0     0.0    -0.0     0.0
     0.0    -0.0    -0.0     0.0    -0.0    -0.0     0.0    -0.0     0.0     0.0
    -0.0     0.0    -0.0     0.0     0.0    -0.0     0.0     0.0     0.0    -0.0
    -0.0     0.0    -0.0     0.0     0.0    -0.0     0.0    -0.0     0.0     0.0
     0.0    -0.0    -0.1     0.0     0.1    -0.0     0.0    -0.0     0.0    -0.0
    -0.0     0.0    -0.0    -0.0    -0.0     0.0     0.0    -0.0    -0.0    -0.0
     0.0     0.0    -0.0     0.0    -0.0    -0.0    -0.0    -0.0     0.0    -0.0
     0.0     0.0     0.0    -0.0     0.0    -0.0    -0.0     0.0     0.0     0.0
     0.0    -0.0    -0.0    -0.0    -0.0     0.0     0.0     0.0     0.0    -0.0
     0.0     0.0    -0.1     0.0     0.0     0.0     0.0    -0.0     0.0     0.0
     0.0     0.0    -0.0     0.1     0.0    -0.0     0.0     0.0     0.0    -0.0
     0.0    -0.0    -0.0     0.0    -0.0     0.0    -0.0     0.0     0.0    -0.0
    -0.0     0.0     0.0    -0.0     0.0     0.0    -0.0     0.0    -0.0     0.0
     0.0     0.0     0.0    -0.0     0.0     0.0    -0.0     0.0     0.0    -0.0
     0.0     0.0    -0.0    -0.0     0.0    -0.0     0.0     0.0    -0.0     0.0
    -0.0     0.0     0.0    -0.0     0.0     0.0     0.0     0.0    -0.0    -0.0
     0.0    -0.0    -0.0     0.0    -0.0     0.0    -0.0     0.0     0.0    -0.1
     0.0     0.0    -0.0     0.0    -0.0    -0.0     0.0     0.0     0.0     0.0
    -0.0    -0.0    -0.0     0.0     0.0    -0.0    -0.0     0.0     0.0     0.0
     0.0    -0.0     0.0     0.0    -0.0     0.0     0.0     0.0     0.0    -0.0
     0.0     0.0     0.0    -0.0     0.0    -0.0    -0.0     0.0    -0.0    -0.0
     0.0     0.0     0.0    -0.0     0.0    -0.0    -0.0    -0.0    -0.0     0.0
    -0.0     0.0     0.0     0.0    -0.0    -0.0     0.0     0.0     0.0     0.0
     0.0     0.0     0.0     0.0    -0.0     0.0     0.0    -0.0     0.0     0.0
    -0.0    -0.0     0.0     0.0     0.0    -0.0     0.0     0.0    -0.0    -0.0
     0.0    -0.0    -0.0     0.0     0.0     0.0    -0.0    -0.0    -0.0    -0.0
     0.0    -0.0     0.0     0.0     0.0     0.0    -0.0     0.0     0.0    -0.0
    -0.0    -0.0     0.0     0.0     0.0     0.0    -0.0     0.0    -0.0     0.0
     0.0    -0.0     0.0    -0.0    -0.0     0.0     0.0     0.0    -0.0    -0.0
     0.0     0.0     0.0    -0.0    -0.0     0.0     0.0    -0.0     0.0     0.0
    -0.0     0.0    -0.0     0.0    -0.0    -0.0     0.0    -0.0     0.0     0.0
     0.0     0.0    -0.0    -0.0    -0.0     0.0    -0.0    -0.0     0.1    -0.0
    -0.0     0.0    -0.0    -0.0     0.0    -0.0     0.0    -0.0    -0.0     0.0
    -0.0     0.0    -0.0     0.0    -0.0     0.0     0.0    -0.0     0.0    -0.0
    -0.0     0.0    -0.0     0.0     0.0    -0.0     0.0    -0.0     0.0    -0.0
    -0.0     0.0     0.0    -0.0     0.0     0.1    -0.0     0.0     0.0    -0.0
     0.1    -0.0    -0.0     0.0    -0.0     0.0     0.0    -0.0     0.0    -0.0
     0.0     0.0    -0.0    -0.0     0.0    -0.0     0.0     0.1    -0.0    -0.0
     0.0    -0.0    -0.0     0.0    -0.0    -0.0     0.0    -0.0     0.0     0.0
    -0.0     0.0    -0.0    -0.0     0.0     0.0     0.0    -0.0    -0.0     0.0
     0.0     0.0     0.0    -0.0     0.0    -0.0     0.0     0.0     0.0    -0.0
    -0.0     0.0    -0.0     0.0    -0.0    -0.0     0.0    -0.0     0.0     0.0
    -0.0    -0.0     0.0     0.0    -0.0     0.0     0.0    -0.0     0.0     0.0
     0.0    -0.0     0.0    -0.0    -0.0    -0.0    -0.0     0.0     0.0     0.0
     0.0    -0.0     0.0    -0.0     0.0    -0.0    -0.0     0.1    -0.0     0.0
     0.0    -0.1     0.0     0.0    -0.0     0.0    -0.0    -0.0     0.0     0.0
     0.0    -0.0    -0.0    -0.0     0.0     0.0     0.0    -0.0     0.0     0.0
    -0.0     0.0    -0.0     0.0     0.0    -0.0     0.0    -0.0    -0.0     0.0
    -0.0     0.0     0.0     0.0     0.0    -0.0     0.0    -0.0    -0.0     0.0
    -0.0    -0.0    -0.0     0.0    -0.0     0.0     0.0    -0.0     0.0    -0.0
    -0.0     0.0    -0.0    -0.0     0.0     0.0    -0.0    -0.0     0.0    -0.0
     0.0     0.0    -0.0     0.0    -0.0    -0.0     0.0    -0.0     0.0     0.0
    -0.0     0.0     0.0    -0.0     0.0    -0.0    -0.0     0.0    -0.0     0.0
    -0.0    -0.0     0.1    -0.0     0.0    -0.0     0.0     0.0    -0.0    -0.0
    -0.0     0.0     0.0    -0.0     0.0     0.0    -0.0    -0.0     0.0    -0.0
    -0.0     0.0     0.0     0.0     0.0    -0.0    -0.0     0.0     0.0    -0.0
     0.0     0.0     0.0    -0.0    -0.0     0.0    -0.0    -0.0    -0.0     0.0
     0.0    -0.0     0.0    -0.0     0.0     0.0    -0.0     0.1    -0.0     0.0
     0.0    -0.0     0.1     0.0    -0.0    -0.0    -0.0     0.0     0.0     0.0
    -0.0    -0.0    -0.0     0.1    -0.0    -0.0     0.0    -0.0     0.1     0.0
     0.0     0.0    -0.0     0.0    -0.0     0.0     0.0     0.0     0.0    -0.0
    -0.0     0.0    -0.0    -0.0     0.0     0.0     0.0     0.0     0.0    -0.0
    -0.0     0.0    -0.0     0.0     0.0    -0.0     0.0    -0.0    -0.0     0.0
     0.0    -0.0    -0.0     0.1    -0.0    -0.0     0.0    -0.0     0.0     0.0
     0.0     0.0     0.0     0.0    -0.0    -0.0     0.0    -0.0     0.0     0.0
    -0.0     0.0     0.0     0.0     0.0    -0.0     0.0    -0.0     0.0     0.0
    -0.0     0.0    -0.0     0.0     0.0    -0.0     0.0    -0.0     0.0     0.0
    -0.0    -0.0     0.0     0.0    -0.0    -0.0     0.0    -0.0     0.0     0.0
     0.0     0.0    -0.0     0.0     0.0    -0.0    -0.0     0.0     0.0    -0.0
    -0.0    -0.0    -0.0     0.0     0.0    -0.0     0.0     0.0    -0.0    -0.0
     0.0     0.0    -0.0     0.0     0.0     0.0     0.0    -0.0     0.0     0.0
     0.0     0.0    -0.0     0.0    -0.0     0.0     0.0    -0.0    -0.0     0.0
     0.0    -0.0     0.0    -0.0     0.0     0.0    -0.0     0.1    -0.0    -0.0
     0.0    -0.0     0.0     0.0     0.0    -0.0     0.0     0.0    -0.0     0.0
     0.0    -0.0    -0.0    -0.0     0.0     0.0     0.0     0.0     0.0     0.0
    -0.0     0.1     0.0    -0.0    -0.0    -0.0     0.0     0.0     0.0    -0.0
     0.0    -0.0     0.0     0.0    -0.0     0.1    -0.0    -0.0     0.0     0.0
     0.0    -0.0     0.0     0.0     0.0     0.0     0.0    -0.0    -0.0    -0.0
     0.0     0.0    -0.0    -0.0     0.0    -0.0     0.0     0.0     0.0     0.0
     0.0    -0.0    -0.0     0.0     0.0     0.0    -0.0    -0.0     0.0     0.0
    -0.0    -0.0     0.0     0.0    -0.0    -0.0     0.0    -0.0     0.0     0.0
    -0.0     0.0    -0.0     0.0    -0.0     0.0     0.0    -0.0     0.0     0.0
     0.0    -0.0    -0.0     0.0     0.0    -0.0     0.0     0.0    -0.0     0.0
     0.0    -0.0     0.0    -0.0     0.0     0.0    -0.0     0.0     0.0    -0.0
     0.0     0.0     0.0     0.0     0.0     0.0     0.0    -0.0     0.0     0.0
     0.0    -0.0    -0.0     0.0     0.0     0.0     0.0     0.0     0.0    -0.0
     0.0     0.0     0.0     0.0     0.0     0.0     0.0     0.0    -0.0     0.0
     0.0    -0.0     0.0     0.0     0.0     0.0    -0.0     0.0    -0.0    -0.0
     0.1     0.0    -0.0    -0.0     0.0     0.0    -0.0     0.0    -0.0    -0.0
     0.0     0.0     0.0    -0.0     0.0     0.0     0.0     0.0     0.0     0.0
     0.0     0.0     0.0     0.0     0.0    -0.0    -0.0     0.0     0.0    -0.0
     0.0     0.0    -0.0     0.0    -0.0    -0.0     0.1    -0.0     0.0     0.0
    -0.0     0.0     0.0     0.0     0.0    -0.0     0.0     0.0     0.0    -0.0
     0.0     0.0    -0.0     0.0     0.0    -0.0     0.0     0.0    -0.0     0.0
     0.0     0.0     0.0     0.0     0.0     0.0     0.0     0.0     0.0     0.0
     0.0     0.0    -0.0     0.0     0.0    -0.0     0.0     0.0    -0.0     0.0
    -0.0     0.0     0.0    -0.0     0.0     0.0    -0.0     0.0     0.0     0.0
    -0.0     0.0     0.0    -0.0     0.0    -0.0     0.0    -0.0     0.0     0.0
     0.0     0.1    -0.1     0.0     0.0    -0.0     0.0    -0.0     0.0     0.0
    -0.0     0.0    -0.0     0.0     0.0    -0.0     0.0    -0.0     0.0     0.1
     0.0    -0.0     0.0    -0.0     0.0     0.0    -0.0    -0.0     0.0     0.0
    -0.0     0.0    -0.0    -0.0     0.0    -0.0     0.0    -0.0    -0.0     0.0
     0.0     0.0    -0.0     0.0    -0.0    -0.0     0.0    -0.0     0.0     0.0
     0.0     0.0    -0.0     0.0     0.0     0.0     0.0    -0.0    -0.0     0.0
