Uncorrected accelerogram 20160214_001343_MPSS_20 GNS Science
Site MPSS      43 29 58S  172 38 32E     Cusp file:  20160214_001346_MPSS
Mairehau Primary School
Instrument Cusp_42009
Resolution: 18-bit   Instr Period: 0.0050 s   Damping: 0.700
Accelerogram 20160214_001343_MPSS_20                 Processed 2016 February 22
11 km east of CHRISTCHURCH
2016 February 14         00:13:43 UT
Epicentre  43 29 50S 172 45 18E  Bearing N89E  Dist    9km  Depth    8km M  5.70
Number of points  38525    Duration 192.62 s
Raw readings in units of 1.00 mm/s/s  at intervals of 0.005 s
Data is unfiltered
Component N77W
Acceleration:  Peak  -1509.3 mm/s/s at  43.01 s     RMS   103.75 mm/s/s
Velocity record unevaluated
Displacement record unevaluated
    2016       2      14       0      13     430       0       0    2016       2
      43      29      50     172      45      18       8       0      14       0
      43      29      58     172      38      32     283     283      89       9
   38525       0       0   38525       0       0       0       0      13    6576
   200.0    0.70    0.00   0.000  0.0000   0.000   0.000   1.000     0.0    0.00
  43.499 172.642  43.497 172.755    5.70    0.00    0.00    0.00      0.      0.
  192.62    0.00    0.00  192.62  0.0050  0.0050      0.      0.      0.  9806.6
 -1509.3   43.01   103.8      0.      0.     0.0    0.00     0.0     0.0   0.000
    0.00    0.00    0.00    0.00   0.000    0.00    0.00    0.00    0.00   0.000
   0.000   0.000   0.000      0.      0.   0.000   0.000   0.000      0.      0.
    -0.3    -0.2    -0.4    -0.4    -0.3    -0.2    -0.1    -0.1    -0.1    -0.2
    -0.1    -0.2    -0.2    -0.2    -0.4    -0.2    -0.1    -0.1    -0.2    -0.3
    -0.3    -0.2    -0.2    -0.4    -0.3    -0.2    -0.4    -0.2    -0.2    -0.3
    -0.3    -0.3    -0.2    -0.3    -0.2    -0.1    -0.2     0.0    -0.0    -0.1
    -0.1    -0.2    -0.2    -0.3    -0.1    -0.2    -0.2    -0.1    -0.2    -0.1
    -0.0    -0.0    -0.1    -0.2    -0.2    -0.4    -0.3    -0.2    -0.3    -0.2
    -0.2    -0.4    -0.4    -0.4    -0.4    -0.3    -0.3    -0.2    -0.1    -0.1
    -0.0    -0.1    -0.1    -0.0    -0.0    -0.1    -0.2    -0.2    -0.3    -0.4
    -0.2    -0.1    -0.2    -0.3    -0.3    -0.3    -0.4    -0.3    -0.2    -0.3
    -0.3    -0.3    -0.3    -0.2    -0.3    -0.1    -0.1    -0.1     0.1     0.0
    -0.1    -0.2    -0.2    -0.5    -0.6    -0.4    -0.4    -0.3    -0.4    -0.5
    -0.3    -0.4    -0.3    -0.1    -0.2    -0.1    -0.2    -0.2    -0.1    -0.3
    -0.3    -0.2    -0.2    -0.2    -0.2    -0.2    -0.2    -0.2    -0.1    -0.1
    -0.2    -0.3    -0.2    -0.3    -0.3    -0.1    -0.1    -0.1    -0.1    -0.1
    -0.0    -0.1    -0.0     0.1    -0.0    -0.1    -0.1    -0.1    -0.2    -0.2
    -0.3    -0.3    -0.4    -0.3    -0.2    -0.2    -0.2    -0.1    -0.1    -0.1
     0.0     0.1    -0.1    -0.2    -0.2    -0.1    -0.1    -0.1    -0.0    -0.2
    -0.3    -0.2    -0.2    -0.1    -0.1    -0.1    -0.1    -0.1    -0.1    -0.3
    -0.3    -0.3    -0.2    -0.1    -0.1     0.1     0.1    -0.1    -0.1    -0.1
    -0.2    -0.3    -0.3    -0.2    -0.3    -0.3    -0.2    -0.2    -0.2    -0.2
    -0.2    -0.2    -0.2    -0.3    -0.2    -0.3    -0.3    -0.3    -0.4    -0.3
    -0.3    -0.4    -0.4    -0.3    -0.2    -0.3    -0.4    -0.3    -0.0    -0.1
    -0.1     0.1    -0.1    -0.1    -0.1    -0.1    -0.2    -0.2    -0.1    -0.1
    -0.1    -0.1    -0.1    -0.0    -0.1    -0.1    -0.1    -0.2    -0.3    -0.2
    -0.2    -0.0     0.0    -0.1     0.0     0.1    -0.1    -0.3    -0.1     0.0
    -0.2    -0.2    -0.2    -0.2    -0.1    -0.1    -0.1    -0.2    -0.3    -0.3
    -0.2    -0.1    -0.1    -0.2    -0.3    -0.4    -0.4    -0.2    -0.0    -0.1
    -0.1    -0.2    -0.2    -0.2    -0.2    -0.1    -0.2    -0.2    -0.2    -0.2
    -0.1    -0.2    -0.2    -0.2    -0.1    -0.0    -0.1    -0.0    -0.0     0.0
    -0.0    -0.2    -0.1    -0.1    -0.2    -0.3    -0.2    -0.1    -0.2    -0.2
    -0.1    -0.3    -0.2    -0.2    -0.2    -0.2    -0.2    -0.0    -0.1    -0.2
    -0.0    -0.0    -0.2    -0.2    -0.2    -0.3    -0.3    -0.2    -0.2    -0.2
    -0.2    -0.3    -0.3    -0.1    -0.2    -0.3    -0.1    -0.1    -0.2    -0.0
    -0.1    -0.1    -0.1    -0.1    -0.1    -0.3    -0.2    -0.1    -0.2    -0.3
    -0.3    -0.3    -0.2    -0.0    -0.0    -0.3    -0.3    -0.2    -0.2    -0.2
    -0.2    -0.1    -0.1    -0.0     0.0    -0.1     0.0    -0.1    -0.1    -0.1
    -0.4    -0.3    -0.2    -0.4    -0.4    -0.2    -0.1    -0.2    -0.2    -0.3
    -0.2    -0.0    -0.1    -0.2    -0.1    -0.0    -0.0    -0.0    -0.2    -0.2
    -0.2    -0.3    -0.2    -0.2    -0.3    -0.3    -0.3    -0.2    -0.4    -0.4
    -0.4    -0.5    -0.3    -0.1    -0.3    -0.3    -0.2    -0.2    -0.1    -0.1
    -0.1    -0.0    -0.1    -0.2    -0.0     0.0     0.0    -0.0    -0.2    -0.2
    -0.2    -0.4    -0.2    -0.2    -0.3    -0.3    -0.2    -0.1    -0.1    -0.1
    -0.0    -0.0    -0.1    -0.1    -0.2    -0.3    -0.3    -0.2    -0.2    -0.3
    -0.3    -0.1    -0.3    -0.3    -0.1    -0.2    -0.3    -0.3    -0.3    -0.2
    -0.2    -0.2    -0.2    -0.2    -0.3    -0.3    -0.1    -0.2    -0.1     0.0
    -0.1     0.0    -0.0    -0.1    -0.2    -0.4    -0.5    -0.4    -0.3    -0.4
    -0.3    -0.2    -0.3    -0.2    -0.3    -0.3    -0.4    -0.3    -0.2    -0.3
    -0.2    -0.2    -0.2    -0.3    -0.3    -0.2    -0.3    -0.2    -0.2    -0.2
    -0.1    -0.2    -0.2    -0.1    -0.2    -0.3    -0.3    -0.2    -0.2    -0.1
    -0.0     0.0     0.1     0.1    -0.1    -0.2    -0.2    -0.2    -0.2    -0.3
    -0.3    -0.2    -0.3    -0.2    -0.1    -0.2    -0.1    -0.0    -0.2    -0.2
    -0.3    -0.3    -0.2    -0.2    -0.2    -0.1    -0.2    -0.2    -0.1    -0.2
    -0.2    -0.1    -0.2    -0.2    -0.3    -0.4    -0.4    -0.3    -0.3    -0.2
    -0.1    -0.3    -0.3    -0.2    -0.3    -0.2    -0.3    -0.3    -0.2    -0.3
    -0.3    -0.3    -0.2    -0.2    -0.2    -0.1    -0.1    -0.1    -0.1    -0.3
    -0.3    -0.3    -0.2    -0.1    -0.2    -0.1     0.0    -0.1    -0.1    -0.2
    -0.3    -0.2    -0.2    -0.2    -0.2    -0.3    -0.2    -0.1    -0.3    -0.3
    -0.2    -0.2    -0.2    -0.2    -0.2    -0.2    -0.2    -0.0    -0.1    -0.1
    -0.1    -0.2    -0.2    -0.2    -0.1    -0.2    -0.2    -0.2    -0.3    -0.2
    -0.1    -0.1    -0.1    -0.0    -0.1    -0.2    -0.1    -0.0    -0.2    -0.2
    -0.2    -0.4    -0.3    -0.2    -0.2    -0.2    -0.2    -0.1    -0.2    -0.2
    -0.1    -0.2    -0.3    -0.3    -0.3    -0.3    -0.3    -0.3    -0.3    -0.2
    -0.1    -0.2    -0.2    -0.0    -0.2    -0.2    -0.1    -0.3    -0.3    -0.2
    -0.1    -0.0    -0.2    -0.3    -0.2    -0.4    -0.3    -0.3    -0.3    -0.1
    -0.1    -0.2    -0.2    -0.2    -0.2    -0.1     0.0    -0.1    -0.2    -0.2
    -0.1    -0.2    -0.2    -0.2    -0.1    -0.1    -0.2    -0.1    -0.1    -0.1
    -0.1    -0.2    -0.1    -0.1    -0.2    -0.1    -0.3    -0.2    -0.1    -0.2
    -0.2    -0.2    -0.3    -0.4    -0.3    -0.2    -0.2    -0.3    -0.3    -0.1
    -0.1    -0.2    -0.2    -0.2    -0.2    -0.3    -0.2    -0.2    -0.4    -0.3
    -0.3    -0.3    -0.3    -0.4    -0.3    -0.3    -0.3    -0.2    -0.2    -0.2
    -0.2    -0.1    -0.0     0.1     0.0    -0.0    -0.0    -0.3    -0.3    -0.2
    -0.3    -0.2    -0.2    -0.3    -0.1    -0.1    -0.2    -0.2    -0.1     0.0
    -0.0    -0.1    -0.2    -0.3    -0.3    -0.2    -0.2    -0.2    -0.1    -0.2
    -0.2    -0.1    -0.1    -0.2    -0.2    -0.1    -0.2    -0.3    -0.2    -0.2
    -0.2    -0.2    -0.2    -0.1    -0.1    -0.1    -0.2    -0.3    -0.2    -0.1
    -0.2    -0.3    -0.2    -0.4    -0.4    -0.2    -0.2    -0.2    -0.2    -0.2
    -0.2    -0.0     0.1     0.1    -0.1    -0.2    -0.1    -0.1    -0.2    -0.4
    -0.3    -0.1    -0.1    -0.1     0.0    -0.1    -0.1    -0.0    -0.0    -0.2
    -0.2    -0.1    -0.2    -0.2    -0.2    -0.3    -0.4    -0.3    -0.2    -0.3
    -0.2    -0.2    -0.4    -0.3    -0.2    -0.1    -0.1    -0.2    -0.2    -0.1
    -0.2    -0.2    -0.1    -0.1    -0.1    -0.2    -0.2    -0.1    -0.3    -0.2
    -0.2    -0.2    -0.2    -0.3    -0.2    -0.1    -0.1    -0.0    -0.1    -0.0
    -0.1    -0.3    -0.2    -0.3    -0.4    -0.4    -0.4    -0.3    -0.3    -0.4
    -0.3    -0.3    -0.3    -0.1    -0.1    -0.1    -0.2    -0.2    -0.2    -0.2
    -0.2    -0.2    -0.2    -0.1    -0.2    -0.2    -0.1    -0.2    -0.2    -0.2
    -0.2    -0.1    -0.2    -0.2    -0.2    -0.2    -0.2    -0.1     0.1     0.0
    -0.0     0.0    -0.1    -0.1    -0.2    -0.3    -0.2    -0.3    -0.2    -0.1
    -0.1    -0.0    -0.2    -0.2    -0.2    -0.2    -0.2    -0.3    -0.1    -0.1
    -0.3    -0.2     0.0    -0.2    -0.2    -0.2    -0.2    -0.2    -0.2    -0.3
    -0.3    -0.4    -0.3    -0.2    -0.2    -0.1    -0.0    -0.1    -0.1     0.0
    -0.1    -0.0     0.1    -0.1    -0.1    -0.1    -0.1    -0.1    -0.2    -0.2
    -0.2    -0.2    -0.1    -0.2    -0.3    -0.2    -0.3    -0.2    -0.2    -0.2
     0.0     0.0    -0.1    -0.1    -0.3    -0.4    -0.2    -0.2    -0.3    -0.2
    -0.2    -0.2    -0.1    -0.1    -0.1    -0.1    -0.3    -0.2    -0.1    -0.1
    -0.1    -0.1    -0.1    -0.0     0.1    -0.1     0.1     0.1    -0.1    -0.1
    -0.1    -0.2    -0.3    -0.3    -0.2    -0.2    -0.2    -0.2    -0.2    -0.1
    -0.1    -0.2    -0.1    -0.1    -0.2    -0.2    -0.3    -0.4    -0.3    -0.4
    -0.3    -0.2    -0.1    -0.1    -0.3    -0.2    -0.1    -0.2    -0.1    -0.2
    -0.2    -0.2    -0.2    -0.3    -0.3    -0.2    -0.1    -0.1    -0.1    -0.0
    -0.0    -0.0    -0.1    -0.2    -0.3    -0.3    -0.2    -0.3    -0.2    -0.0
     0.0    -0.0    -0.1    -0.1    -0.1    -0.1    -0.1    -0.0    -0.1    -0.1
    -0.1    -0.2    -0.3    -0.2    -0.0    -0.0    -0.1    -0.2    -0.1    -0.0
    -0.2    -0.2    -0.1    -0.2    -0.1    -0.1    -0.2    -0.2    -0.3    -0.2
    -0.1    -0.2    -0.3    -0.3    -0.2    -0.2    -0.4    -0.4    -0.2    -0.2
    -0.2    -0.1    -0.1    -0.1    -0.2    -0.2    -0.1    -0.2    -0.1    -0.0
    -0.2    -0.1    -0.2    -0.1    -0.1    -0.2    -0.2    -0.3    -0.3    -0.4
    -0.3    -0.2    -0.2    -0.0    -0.0    -0.1    -0.1    -0.1    -0.1    -0.2
    -0.1    -0.1    -0.2    -0.2    -0.2    -0.1    -0.3    -0.2    -0.1    -0.2
    -0.1    -0.1    -0.1    -0.2    -0.3    -0.2    -0.3    -0.1    -0.0    -0.1
    -0.2    -0.2    -0.1    -0.2    -0.2    -0.3    -0.3    -0.3    -0.4    -0.4
    -0.4    -0.4    -0.3    -0.3    -0.2    -0.1    -0.0    -0.0    -0.1    -0.1
    -0.1    -0.2    -0.3    -0.2    -0.1    -0.2    -0.1    -0.1    -0.1    -0.1
    -0.1    -0.1    -0.1    -0.1    -0.2    -0.1    -0.1    -0.1     0.1     0.0
    -0.1    -0.1    -0.1    -0.1    -0.3    -0.3    -0.2    -0.3    -0.4    -0.4
    -0.3    -0.2    -0.2    -0.3    -0.3    -0.2    -0.1    -0.1    -0.2    -0.2
    -0.1    -0.0    -0.1    -0.1     0.0    -0.0    -0.0    -0.1    -0.1    -0.0
    -0.0    -0.1     0.0    -0.0     0.0     0.0     0.0     0.1    -0.0    -0.2
    -0.2    -0.2    -0.3    -0.3    -0.3    -0.4    -0.4    -0.4    -0.3    -0.3
    -0.2    -0.2    -0.2    -0.0    -0.0    -0.1    -0.2    -0.5    -0.4    -0.3
    -0.5    -0.4    -0.4    -0.3    -0.3    -0.2    -0.1    -0.1    -0.3    -0.2
    -0.1    -0.1    -0.1    -0.0    -0.1    -0.1    -0.2    -0.1     0.0    -0.2
    -0.1    -0.2    -0.2    -0.2    -0.2    -0.2    -0.2    -0.1    -0.2    -0.2
    -0.1    -0.1    -0.1    -0.1     0.1     0.1    -0.1     0.0     0.0    -0.1
    -0.1    -0.1    -0.1    -0.1    -0.1    -0.0    -0.1    -0.2    -0.1    -0.1
    -0.0     0.1    -0.2    -0.2    -0.1    -0.2    -0.2    -0.2    -0.3    -0.2
    -0.2    -0.3    -0.2     0.0    -0.0    -0.0    -0.0    -0.1    -0.1    -0.3
    -0.3    -0.3    -0.3    -0.2    -0.1    -0.0     0.0     0.1     0.1    -0.0
    -0.1    -0.1    -0.2    -0.3    -0.2    -0.2    -0.1    -0.1    -0.2    -0.3
    -0.1     0.0     0.0    -0.0    -0.1    -0.2    -0.2    -0.3    -0.3    -0.3
    -0.3    -0.1    -0.1    -0.2    -0.1    -0.2    -0.2    -0.2    -0.3    -0.4
    -0.3    -0.2    -0.3    -0.1    -0.1    -0.1    -0.0    -0.1     0.1     0.0
    -0.2    -0.1    -0.0    -0.2    -0.3    -0.1    -0.1    -0.2    -0.2    -0.2
     0.0     0.1    -0.0     0.0    -0.0    -0.1    -0.2    -0.3    -0.2    -0.3
    -0.3    -0.2    -0.3    -0.2    -0.1    -0.2    -0.2    -0.1    -0.2    -0.2
    -0.2    -0.3    -0.2    -0.1    -0.2    -0.2    -0.2    -0.3    -0.2    -0.1
    -0.2    -0.3    -0.4    -0.3    -0.2    -0.2    -0.2    -0.1    -0.1    -0.1
    -0.1    -0.1    -0.2    -0.2    -0.3    -0.4    -0.3    -0.2    -0.2    -0.2
    -0.2    -0.2    -0.2    -0.2    -0.2    -0.3    -0.1    -0.1    -0.2    -0.1
    -0.1    -0.1    -0.2    -0.1    -0.2    -0.4    -0.2    -0.4    -0.4    -0.3
    -0.3    -0.2    -0.3    -0.3    -0.2    -0.1    -0.1    -0.2    -0.2    -0.2
    -0.2    -0.1    -0.1     0.0    -0.1    -0.2    -0.2    -0.2    -0.1    -0.3
    -0.2    -0.1    -0.2    -0.1    -0.1    -0.2    -0.3    -0.1    -0.0    -0.0
    -0.1    -0.0    -0.0    -0.2    -0.2    -0.1    -0.1    -0.1    -0.1    -0.1
    -0.1    -0.3    -0.3    -0.2    -0.2    -0.2    -0.3    -0.2    -0.1    -0.2
    -0.2    -0.2    -0.2    -0.2    -0.2    -0.2    -0.2    -0.2    -0.2    -0.1
    -0.1    -0.2    -0.1    -0.1    -0.1    -0.2    -0.2    -0.1    -0.2    -0.1
    -0.1    -0.1    -0.2    -0.3    -0.1    -0.1    -0.1    -0.1    -0.2    -0.0
    -0.1    -0.2    -0.1    -0.2    -0.2    -0.2    -0.2    -0.1    -0.1    -0.1
    -0.2    -0.2    -0.2    -0.4    -0.2    -0.4    -0.3    -0.1    -0.2    -0.3
    -0.2    -0.1    -0.0    -0.2    -0.2    -0.2    -0.2    -0.2    -0.2    -0.2
    -0.1    -0.1    -0.2    -0.1    -0.2    -0.2    -0.1    -0.1    -0.2    -0.1
    -0.1    -0.2    -0.1    -0.2    -0.2    -0.0    -0.2    -0.3    -0.1    -0.1
    -0.1    -0.2    -0.2    -0.1    -0.3    -0.1     0.0    -0.1    -0.1    -0.2
    -0.2    -0.1    -0.2    -0.2    -0.2    -0.2    -0.2    -0.2    -0.3    -0.2
    -0.1    -0.3    -0.3    -0.2    -0.2    -0.3    -0.3    -0.1    -0.1    -0.2
    -0.1    -0.2    -0.2    -0.1    -0.1    -0.1    -0.1    -0.1    -0.1    -0.2
    -0.2    -0.2    -0.2    -0.2    -0.2    -0.3    -0.2    -0.1    -0.1    -0.1
    -0.2    -0.1    -0.2    -0.2    -0.2    -0.2    -0.2    -0.1    -0.1    -0.1
     0.0    -0.0    -0.2    -0.2    -0.3    -0.3    -0.2    -0.4    -0.3    -0.3
    -0.4    -0.3    -0.2    -0.2    -0.1    -0.1    -0.0    -0.1    -0.2    -0.2
    -0.2    -0.2    -0.2    -0.1    -0.2    -0.2    -0.2    -0.3    -0.2    -0.1
    -0.2    -0.1    -0.2    -0.2    -0.1     0.0    -0.1    -0.2    -0.1    -0.2
    -0.2    -0.1    -0.0    -0.1    -0.2    -0.1    -0.1    -0.2    -0.2    -0.2
    -0.1    -0.1    -0.1    -0.1    -0.2    -0.2    -0.1    -0.2    -0.1    -0.1
    -0.3    -0.1    -0.0    -0.1    -0.2    -0.2    -0.2    -0.2    -0.1    -0.1
    -0.1    -0.0     0.1    -0.0    -0.2    -0.4    -0.3    -0.1    -0.2    -0.2
    -0.1    -0.2    -0.3    -0.2    -0.2    -0.2    -0.0    -0.2    -0.1    -0.2
    -0.2    -0.2    -0.3    -0.1    -0.2    -0.2    -0.2    -0.3    -0.3    -0.2
    -0.2    -0.2    -0.2    -0.2    -0.3    -0.2    -0.2    -0.2    -0.1    -0.2
    -0.1    -0.2    -0.3    -0.1    -0.3    -0.2    -0.0    -0.1    -0.1    -0.1
    -0.1    -0.2    -0.1    -0.1    -0.1    -0.1    -0.2     0.0    -0.0    -0.2
    -0.1    -0.2    -0.1    -0.1    -0.1    -0.2    -0.2    -0.3    -0.3    -0.2
    -0.2    -0.3    -0.3    -0.3    -0.3    -0.2    -0.2    -0.2    -0.1    -0.1
    -0.1    -0.1     0.1     0.1    -0.0    -0.2    -0.2    -0.2    -0.3    -0.2
    -0.2    -0.3    -0.3    -0.2    -0.1    -0.1    -0.1    -0.1    -0.2    -0.2
    -0.2    -0.2    -0.2    -0.3    -0.2    -0.2    -0.1    -0.1    -0.2    -0.2
    -0.1    -0.2    -0.2    -0.2    -0.2    -0.1    -0.1    -0.2    -0.3    -0.4
    -0.3    -0.3    -0.4    -0.3    -0.3    -0.4    -0.3    -0.2    -0.3    -0.2
    -0.2    -0.3    -0.1    -0.1    -0.2    -0.0    -0.0    -0.1     0.0    -0.0
    -0.2    -0.1    -0.1    -0.2    -0.2    -0.3    -0.2    -0.2    -0.3    -0.2
    -0.1    -0.1     0.0     0.1     0.1     0.0    -0.2    -0.2    -0.1    -0.3
    -0.4    -0.4    -0.5    -0.3    -0.3    -0.2    -0.2    -0.3    -0.3    -0.2
    -0.1    -0.1    -0.1    -0.2    -0.3    -0.2    -0.2    -0.2    -0.1    -0.2
    -0.2    -0.2    -0.2    -0.2    -0.3    -0.2    -0.3    -0.3    -0.0    -0.0
     0.0    -0.0    -0.1     0.0    -0.1    -0.1    -0.1    -0.2    -0.2    -0.2
    -0.2    -0.2    -0.2    -0.2    -0.1    -0.1    -0.1     0.1     0.1     0.0
    -0.1    -0.1    -0.0    -0.1    -0.1    -0.0    -0.1    -0.2    -0.2    -0.3
    -0.3    -0.4    -0.5    -0.3    -0.4    -0.4    -0.3    -0.3    -0.2    -0.1
    -0.1    -0.1    -0.2    -0.1    -0.2    -0.2    -0.1    -0.2    -0.2    -0.1
    -0.1    -0.1    -0.2    -0.2    -0.2    -0.2    -0.2    -0.1    -0.2    -0.2
    -0.1    -0.3    -0.3    -0.4    -0.3    -0.3    -0.5    -0.2    -0.2    -0.2
    -0.1    -0.2    -0.0    -0.1    -0.2    -0.0    -0.2    -0.2    -0.1    -0.2
    -0.2    -0.1    -0.0    -0.0    -0.1    -0.1    -0.0    -0.2    -0.2    -0.1
    -0.3    -0.3    -0.2    -0.3    -0.2    -0.1    -0.3    -0.2    -0.2    -0.3
    -0.3    -0.2    -0.2    -0.2    -0.2    -0.1    -0.1    -0.3    -0.2    -0.2
    -0.2    -0.2    -0.2    -0.3    -0.3    -0.2    -0.1    -0.1    -0.1    -0.2
    -0.2    -0.2    -0.3    -0.3    -0.3    -0.5    -0.3    -0.2    -0.2    -0.2
    -0.2    -0.2    -0.1    -0.1    -0.1    -0.1    -0.1    -0.1    -0.3    -0.2
    -0.1    -0.1     0.0     0.0    -0.2    -0.3    -0.2    -0.1    -0.1    -0.2
    -0.2    -0.2    -0.2    -0.1    -0.2    -0.2    -0.1    -0.2    -0.2    -0.3
    -0.3    -0.2    -0.2    -0.3    -0.3    -0.3    -0.2    -0.1    -0.1    -0.2
    -0.1    -0.1    -0.2    -0.0    -0.2    -0.3    -0.1    -0.2    -0.2    -0.2
    -0.2    -0.2    -0.3    -0.3    -0.1    -0.1    -0.1    -0.1    -0.1    -0.2
    -0.3    -0.3    -0.4    -0.4    -0.2    -0.2    -0.0     0.0    -0.1    -0.1
    -0.2    -0.4    -0.3    -0.2    -0.3    -0.3    -0.1    -0.1    -0.2    -0.0
    -0.1    -0.2    -0.2    -0.0    -0.2    -0.3    -0.2    -0.2    -0.3    -0.4
    -0.6    -0.5    -0.4    -0.3    -0.3    -0.2    -0.1    -0.1    -0.1    -0.1
    -0.1    -0.2    -0.1    -0.2    -0.3    -0.2    -0.3    -0.4    -0.2    -0.1
    -0.1    -0.0     0.1     0.1     0.0     0.0    -0.2    -0.4    -0.3    -0.2
    -0.2    -0.1    -0.1    -0.1     0.0     0.1     0.0    -0.0     0.0    -0.1
    -0.1    -0.2    -0.3    -0.2    -0.4    -0.3    -0.3    -0.5    -0.4    -0.3
    -0.3    -0.0    -0.0     0.0     0.0    -0.2    -0.3    -0.2    -0.1    -0.1
    -0.1    -0.1    -0.2    -0.1    -0.1    -0.0    -0.1    -0.2    -0.1    -0.2
    -0.1    -0.1    -0.0     0.0    -0.1    -0.1    -0.2    -0.2    -0.1    -0.2
    -0.2    -0.1     0.0    -0.1    -0.3    -0.3    -0.4    -0.5    -0.3    -0.1
    -0.3    -0.3    -0.2    -0.3    -0.4    -0.3    -0.3    -0.3    -0.3    -0.3
    -0.2    -0.0     0.0     0.0    -0.1    -0.1    -0.2    -0.2    -0.2    -0.1
    -0.0    -0.1    -0.1    -0.1    -0.1    -0.1    -0.1    -0.1    -0.1    -0.0
    -0.1    -0.1     0.0    -0.0    -0.2    -0.2    -0.1    -0.1    -0.2    -0.2
    -0.1    -0.1    -0.1    -0.0    -0.1    -0.2    -0.2    -0.1    -0.2    -0.2
    -0.1    -0.1    -0.2    -0.1    -0.1    -0.1    -0.2    -0.2    -0.1    -0.2
    -0.1    -0.0    -0.0    -0.0    -0.1    -0.1    -0.0    -0.1    -0.1    -0.2
    -0.0     0.0    -0.1    -0.1    -0.1    -0.1    -0.1    -0.0    -0.0    -0.1
    -0.1    -0.2    -0.1    -0.1    -0.1    -0.0     0.0    -0.1    -0.2    -0.2
    -0.2    -0.1    -0.2    -0.2    -0.1    -0.2    -0.3    -0.1    -0.0    -0.2
    -0.3    -0.2    -0.2    -0.2    -0.3    -0.3    -0.2    -0.4    -0.4    -0.2
    -0.1     0.1     0.2     0.1     0.1     0.1     0.1     0.1    -0.0    -0.0
