Uncorrected accelerogram 20160214_001343_PRPC_20 GNS Science
Site PRPC      43 31 33S  172 40 58E     Cusp file:  20160214_001346_PRPC
Pages Road Pumping Station
Instrument Cusp_10403
Resolution: 18-bit   Instr Period: 0.0050 s   Damping: 0.700
Accelerogram 20160214_001343_PRPC_20                 Processed 2016 February 22
11 km east of CHRISTCHURCH
2016 February 14         00:13:43 UT
Epicentre  43 29 50S 172 45 18E  Bearing N62E  Dist    7km  Depth    8km M  5.70
Number of points  70925    Duration 354.62 s
Raw readings in units of 1.00 mm/s/s  at intervals of 0.005 s
Data is unfiltered
Component N90W
Acceleration:  Peak   2257.2 mm/s/s at  42.35 s     RMS    89.89 mm/s/s
Velocity record unevaluated
Displacement record unevaluated
    2016       2      14       0      13     430       0       0    2016       2
      43      29      50     172      45      18       8       0      14       0
      43      31      33     172      40      58     270     270      62       7
   70925       0       0   70925       0       0       0       0      13    6334
   200.0    0.70    0.00   0.000  0.0000   0.000   0.000   1.000     0.0    0.00
  43.526 172.683  43.497 172.755    5.70    0.00    0.00    0.00      0.      0.
  354.62    0.00    0.00  354.62  0.0050  0.0050      0.      0.      0.  9806.6
  2257.2   42.35    89.9      0.      0.     0.0    0.00     0.0     0.0   0.000
    0.00    0.00    0.00    0.00   0.000    0.00    0.00    0.00    0.00   0.000
   0.000   0.000   0.000      0.      0.   0.000   0.000   0.000      0.      0.
     2.8     2.5     3.2     4.2     0.9    -1.6    -1.6    -2.6    -2.8    -4.9
    -4.6    -0.6     0.9     1.8     3.4     3.1     0.6    -0.1     0.2     0.6
    -0.0    -2.3    -3.0    -0.9     0.5    -1.9    -1.8    -0.3     0.4     3.1
     3.5     1.8    -1.1    -2.4    -0.8    -0.1    -1.3    -2.2    -2.4    -0.6
     2.7     1.7     0.3     0.8     2.7     3.3     0.4    -0.9    -2.1    -2.6
    -1.1     1.0     1.1    -1.9    -3.2    -1.8     1.1     1.1     0.2    -0.2
     0.1     1.5    -0.1    -1.6    -1.1     0.0    -0.5     0.4     1.4     0.3
     0.7    -1.1    -0.8     0.3     0.2     1.3     0.9     0.3     0.1     1.7
     0.4    -1.1    -0.9    -1.7    -0.9    -1.3    -0.9    -1.2    -0.2     2.1
     1.4     1.6     0.7     0.3     0.5    -0.1    -0.7    -2.4    -2.0    -0.5
    -0.6    -1.3    -0.3     1.3     1.0     0.0    -0.2     0.6     1.4     0.7
    -2.0    -2.5    -1.1     1.0     0.1    -2.5     0.4     1.9     1.0    -1.1
    -1.3    -0.5    -0.5     2.6     2.1     0.2    -0.9    -1.2    -0.6     0.6
     0.9    -1.1    -1.5    -1.6    -0.4     0.8     1.0    -0.1    -0.6     0.6
    -1.3    -0.0     0.4    -2.0    -0.5    -0.0    -0.4     0.0    -0.8    -0.8
     0.9     1.0     0.2    -0.0    -0.7    -0.3     0.8     1.2    -0.7    -2.5
    -0.0     0.9    -0.1     0.1    -0.4     1.2     1.3    -0.7    -1.3    -0.0
     0.6    -0.3    -0.9    -1.5    -0.1     1.4     1.0    -1.2    -0.0     1.0
    -1.0     0.6    -0.5    -1.0     1.3     1.1     0.2     0.7     0.4    -0.1
     1.6     0.5    -0.4    -0.1     0.6     0.7    -0.8    -0.4    -1.7    -0.4
     0.6    -0.1     1.2    -0.4    -2.2    -1.7     0.4     1.4     0.8    -0.1
     0.7     1.3    -0.4     0.3     0.6    -0.5    -0.2    -0.9     0.3     1.0
    -1.7    -0.6     0.9    -0.5    -1.1    -0.7     1.5     2.3     1.0    -0.1
    -0.9    -0.2     0.6    -0.7    -2.5    -3.4    -2.0     0.9     1.7     1.1
     1.9     2.4     2.0     1.5    -2.1    -2.7    -0.5    -0.9    -1.2    -2.5
    -1.8    -0.0     0.6     0.8     1.7     3.0     1.5    -0.2    -0.5    -1.4
    -2.0    -1.2    -1.5    -2.0    -0.6     0.6     2.9     3.6     1.6    -0.3
    -0.0     0.1    -1.3    -0.2    -1.2    -2.7    -1.7    -0.3     1.4     0.0
    -0.9     0.2     1.6     1.9    -0.1    -0.0    -0.1     0.1     1.3    -1.1
    -2.7    -0.1     0.7    -0.0     1.6     1.0    -0.8     0.3     0.5     1.0
     0.7    -0.4     0.4    -0.3    -0.3     0.2    -1.0    -0.9    -0.2     0.3
    -0.1    -0.7    -0.5     0.3     0.4     0.4     1.1    -1.0    -1.0     1.4
     1.2    -1.0    -1.4     0.4     0.5     1.4     0.1    -0.7     0.4    -0.7
     0.1     0.5     0.1     0.5     2.0     1.4    -0.8    -0.1     0.5     1.0
    -0.6    -0.8    -0.1    -0.0     0.7     0.0     0.4    -1.1    -0.8     0.8
     0.1     1.1     0.8    -1.3    -0.5     0.9     0.1     0.8     0.7    -2.3
    -1.9     0.7     0.7     0.1     0.1    -0.6     0.1     1.5     0.7    -1.2
    -1.1    -0.0     1.8     1.1    -1.8    -1.1    -0.9     0.8     2.1     1.2
    -0.2    -2.4    -0.1     0.9    -0.8    -0.5     0.4     0.1    -1.0     0.3
     1.7     0.7    -0.7    -0.7    -0.1     0.6     0.5    -0.3    -0.3     0.1
     1.4     1.6    -0.1    -0.7    -0.2    -1.1    -1.4    -0.8     0.0     1.3
     1.4     1.4     0.6    -0.1     0.7     0.3    -0.8    -0.1     0.6     0.3
    -1.1    -1.1     1.3     0.9    -0.4    -1.0    -1.3     0.3     1.5     0.8
    -0.7     0.0    -0.0    -1.4     0.2     1.1     0.7     0.1    -1.0    -0.6
    -0.9    -1.2    -0.1    -0.8    -1.1    -1.3    -1.4     0.6     1.0     0.3
    -0.6    -0.4     0.5    -0.2    -0.5     0.3     0.7    -0.1    -0.8    -0.0
    -0.1     0.0    -0.8    -1.8    -1.2    -0.7     1.3     0.4    -0.6     0.1
    -0.3     1.0     0.7     1.6     1.0    -0.5     0.9    -0.2    -0.2     0.8
     0.2    -0.8     0.1    -0.2    -1.3     0.3    -0.2    -0.0     1.4     0.2
    -0.6     0.5     0.7     0.4    -0.2     0.1     1.8     0.6    -1.2    -0.7
     0.5     0.7    -0.2    -0.7    -1.8    -1.2     0.6     0.2    -0.3     1.0
     1.4     0.5     1.3     1.6     1.1    -0.8    -2.6    -0.8    -0.6    -1.1
    -1.0    -0.2     0.7    -0.0     1.2     0.4    -0.4     0.1    -0.3    -1.2
    -0.5     1.4    -0.4     0.5     1.1    -0.6     0.1     0.4     0.4    -0.2
     0.3    -0.2    -0.6    -0.1     0.0     2.2     2.6     0.3    -1.6     0.1
     0.1    -0.4     1.0     0.2     0.5     0.8    -0.4    -0.3     1.9     1.0
    -0.2     0.1    -0.5     0.7    -0.2    -0.3     0.7     0.6    -0.3    -0.8
     0.7    -0.7    -1.1     0.9     0.6    -1.7    -0.8    -0.0    -0.9     0.9
     0.0    -0.9    -1.1    -0.9     1.0     1.1     0.8     0.2     0.5    -0.4
     0.4     2.1    -1.1    -1.8     0.5     1.5     1.0    -0.5     0.0     0.0
     0.8     1.6    -0.6    -1.7    -0.4     0.7     0.4    -1.1    -2.7     0.1
     2.6    -0.6    -0.5     0.8     0.0     1.7     2.5    -1.5    -3.0    -0.1
    -1.2     0.5     1.7    -0.5     1.5     0.2    -1.4    -0.2     0.0     1.4
     1.1    -1.1    -1.4     0.1     0.6     1.2     1.2     0.9     0.8    -0.5
    -0.8    -0.5     1.0     0.7    -1.8    -0.9     0.1    -0.2     0.5     0.6
     0.8     1.3     0.6    -0.3    -1.2    -0.7     1.3     1.1    -0.3    -0.9
    -0.8    -0.2     0.9     1.0    -0.8    -1.0     0.2     0.4    -0.3    -1.2
    -1.4    -0.9    -1.3    -0.8     0.1     0.3    -0.1    -1.0    -0.3     0.9
     0.5     0.4     0.6    -0.5    -0.3     0.7     0.3     0.7    -0.4    -1.7
    -0.1    -0.0    -2.2    -0.5     1.5     0.0     0.1    -0.1    -1.4     0.6
     1.7    -0.5     0.7     1.2    -1.2    -0.9     0.1    -0.9    -1.6    -0.3
    -0.4     0.5     2.0     0.8     0.8     1.9     1.1     0.1     1.7     1.4
    -0.7    -0.2    -0.2    -1.9    -1.5    -0.7    -2.3    -1.0    -1.1    -0.2
     2.9     0.5    -0.2    -0.1     0.3     0.6    -0.3     0.5    -0.7    -0.3
    -0.4    -0.9    -0.1    -0.1    -0.4    -0.8    -1.2    -0.4     1.3     0.2
     0.6     0.1    -0.8     0.9    -0.2     0.3     1.2     0.8    -0.7    -0.6
     1.1     0.2     0.4    -0.3    -1.0    -1.1    -0.0     0.6    -0.2     0.2
    -0.7     0.3     0.0    -1.5    -0.5    -0.4     0.3     0.3     0.8    -0.2
    -0.9     0.9     1.5     1.4     0.3     0.4    -0.6    -0.3     0.8    -1.1
    -0.7     0.0     0.1    -0.2     0.2     1.1     1.0     0.7    -0.9    -0.1
     0.2    -1.1    -1.5    -1.1     0.2     0.0     0.4     0.6     1.4     2.4
     1.0     0.3    -0.6    -1.3    -1.1    -1.3     0.2     0.2    -0.1     0.9
    -0.3    -0.5     0.3     1.3     1.4     0.4     1.4     1.4    -0.2    -1.4
    -0.5    -0.5    -1.2    -0.5    -0.6     0.7     0.3    -0.6     0.3    -0.9
    -1.0     0.3     0.5     0.2    -0.2     0.2     0.5    -0.8    -0.6     0.0
    -0.9    -1.4    -1.6    -0.8    -0.1     0.1    -0.5    -0.4     2.0     1.4
    -0.6    -0.8    -1.0     0.2     1.5     0.4     0.4    -0.1    -1.7    -0.1
     1.5    -0.1    -0.8     1.1     0.9    -0.5    -0.6    -0.8     0.5     0.8
     0.7     0.8     0.8     0.1    -0.9     0.6    -0.1    -0.1    -0.5    -1.1
     0.9     0.3    -0.2    -0.7    -0.2    -1.1    -1.6     0.8     0.0     1.0
     1.1    -0.5     0.3    -1.3    -3.2    -0.6     0.8    -0.4     0.8     1.2
     0.4     0.7     0.4    -0.6    -0.2    -0.1    -0.7     0.2     1.1     0.1
    -0.7     0.4    -0.7    -1.1    -0.8    -1.1    -0.1    -0.8    -1.1     0.5
     1.4    -0.6    -1.2     0.5     0.4    -0.3    -0.1     0.2     0.4     1.3
     0.0    -1.5    -0.4     0.4     1.2     1.9     1.1    -0.4    -0.4    -0.6
    -1.1     0.2     0.6    -0.8    -0.3     1.4    -0.2    -0.3    -0.1    -1.7
    -0.7     0.1     1.2     1.2     0.0     0.5     0.2    -0.1    -0.3    -1.8
    -2.2    -1.6    -1.3    -0.6     0.4     0.7     0.4     0.3     1.2     1.9
     0.7    -0.5    -0.6    -0.4    -1.4    -1.5    -0.4    -0.3    -0.1    -0.8
     0.1     0.3    -0.0     1.9     0.9     0.8     0.6    -0.0     0.3    -0.6
     0.1     0.2    -0.7    -1.7    -1.3    -1.8    -2.4    -1.0    -1.1    -0.5
     1.3     2.6     1.1    -0.1     0.6     0.4     0.2    -0.6    -1.0    -1.2
     0.1     1.4    -0.1    -1.0    -0.1     1.1    -0.1    -0.2     0.7     0.3
     1.0     1.1     0.6    -0.3    -1.4    -0.9     0.6    -0.6    -1.0     0.3
    -0.4     1.6     0.3    -0.9     2.6     0.1    -0.5    -0.1    -1.7    -0.0
    -0.7    -0.0     0.5    -0.7     0.9     0.9     0.6     0.9    -0.5     0.5
     0.6    -1.1    -1.4    -1.1    -0.3    -1.2    -1.1    -0.3    -0.2     1.0
     0.2     0.1     0.3     0.6     0.4    -1.4    -0.1    -0.0    -0.1     0.4
    -0.0     1.5     0.9     0.4     0.1    -1.3    -1.7    -0.7     0.2     0.5
     1.1    -0.7    -0.8     0.6    -0.2    -0.5    -0.8     0.5     0.7    -0.5
     0.3     0.4    -0.3    -1.4    -1.8    -1.8    -1.2     0.3     0.4     1.5
     1.5     0.7     1.2     0.1     0.3     1.0     0.6    -1.0    -1.5    -0.3
    -1.5    -0.4     0.3    -0.8     1.2     1.9     1.0     0.2    -1.1    -1.0
    -0.3    -0.9    -0.9     0.5     0.3    -0.5     1.2     1.1    -0.3    -0.5
    -1.4    -0.1     1.2     0.5     1.0     1.6     1.2    -0.3    -0.9    -1.5
    -2.1    -2.6    -1.8    -0.1    -0.5     0.3     1.1     1.9     1.9     0.4
     2.1     1.5    -0.4    -0.6    -2.3    -1.7     0.6     1.2     0.9    -0.2
     0.1     0.6    -1.0    -0.5     1.1     0.2    -0.0    -0.3    -1.3    -1.9
    -1.9     0.4     1.0     0.3     2.4     2.5     1.1     0.4     0.3    -0.5
    -1.2    -1.2    -1.3    -1.1    -0.9    -0.0    -0.8    -0.7    -0.4     0.3
     0.6    -1.1    -0.2    -0.5    -0.1     0.4     0.1     0.2     0.7     1.5
    -1.6    -1.4    -0.3    -0.7     0.1     0.1     0.5    -0.2     0.3     0.1
    -0.7     0.2     0.8     1.5    -0.2    -0.7     1.3     0.4    -0.9    -0.5
     0.4     1.5     0.1    -2.4    -1.3    -0.3    -0.9     0.7     0.3    -0.6
    -0.2    -0.5     0.6     0.8    -0.0     0.1     1.1     0.6    -0.5     0.1
    -0.3    -0.7     0.2     0.7     0.0    -0.8    -0.9    -0.2    -0.1    -0.6
    -0.4    -0.7     0.3    -0.6    -0.8     1.5    -0.7    -0.9     0.7    -0.3
    -0.1    -1.0    -0.9     1.0     1.0    -0.5    -0.7     0.5     0.3    -0.1
    -0.5     0.7     1.7    -1.0    -0.9     0.2    -1.0    -1.1    -0.8     0.1
     0.4    -0.0    -0.3    -1.2    -1.1     0.5     1.4    -0.1    -0.5     0.6
     0.4    -0.0     0.3    -0.4    -1.3    -1.1    -1.0    -0.2     0.5    -0.3
    -0.2     2.1     1.3    -0.7     0.0     0.3    -0.6    -1.5    -0.4     0.2
     1.0     1.6    -0.3     0.4     0.4    -0.8    -0.1    -0.4     0.4     1.3
    -0.1     0.1     0.8     0.4     0.5    -0.5    -1.2    -0.5    -0.1     0.6
     1.0     0.4    -0.9    -0.7     0.2     0.1    -0.2    -1.1     0.5     2.4
     0.8    -0.6    -0.6    -0.3     1.4     1.8     1.3    -0.0    -1.2     0.1
    -0.8    -0.4     0.3    -0.6     0.6    -0.3    -1.8    -0.8    -0.2    -0.1
     0.7     0.9     2.1     2.0     0.8     0.2    -1.5    -2.1    -1.6    -0.2
    -0.5     0.0     0.5    -0.3    -0.3    -1.1     0.5     0.7    -0.4    -0.5
    -0.1     1.0     0.2     1.1     0.2    -0.3     0.4    -0.6     1.1     1.2
    -0.0    -0.4     0.7     0.5    -1.0     0.1    -0.6     0.3     0.5    -1.6
    -1.4    -0.4    -0.9    -0.7     1.8     2.1     1.2    -0.5     0.0     1.6
     1.1    -0.8    -2.2    -0.0    -1.0    -0.8    -0.3    -0.4     1.5    -0.2
     0.9     0.3    -1.2     1.1     1.0     0.9     1.5     0.3    -0.2     0.0
    -1.6    -2.0    -0.8     0.3     0.6    -0.1     0.8     0.8     0.5     0.9
     0.2     0.4    -0.2    -0.4    -0.6    -1.5     0.2    -0.2    -1.4    -0.5
    -0.5     1.0     0.5    -1.9    -1.0     0.2     1.4     1.4    -1.6    -2.2
    -0.0     0.5     0.4    -1.0    -1.5    -1.4    -1.7     0.7     1.2     0.5
     0.4    -0.5     0.4    -0.1     0.4     0.1    -1.4    -0.7    -1.3     0.3
     2.2     0.8    -0.6    -0.2     0.0    -0.9     0.2     0.1     0.8     1.5
     0.1    -0.1     0.1     0.9    -1.4    -1.2     0.7     0.4     0.5    -0.8
     1.3     0.5    -0.6     1.0    -0.5     0.1    -0.1    -0.3     0.6     0.6
     0.3    -0.1    -0.1    -0.9     0.2    -0.2    -0.8     0.3     0.2     1.4
     0.5    -0.6    -0.0     0.3     0.6    -0.5    -0.7    -0.1     1.1     0.8
     0.4    -0.3    -1.2     0.2     0.6     0.3    -0.5     1.3     1.1    -1.6
    -0.0    -0.1    -0.0    -0.1    -1.7    -0.5     0.5    -0.1     0.5     0.1
    -1.4    -0.3     0.7     0.7    -0.8    -1.5     1.5     1.3    -0.2     0.1
    -0.5     0.0     0.0     0.6     0.8    -0.6    -0.3    -0.0     0.1    -0.0
     1.2     1.5    -0.2     0.4     0.8     0.0    -0.8    -0.5    -1.1    -1.0
     0.8     0.9    -0.8    -1.8    -0.5    -0.4     0.7     1.6    -0.9    -1.2
     1.4     1.2    -1.0    -1.4    -0.6     0.4    -0.2     0.3     1.3     1.4
     0.5    -1.0     0.0    -1.2    -1.7    -0.7    -0.7    -0.7    -1.0     0.3
     0.7    -0.6    -1.5    -1.0     0.2     0.6     1.1     0.9    -0.2    -0.0
    -0.1    -0.8    -1.2    -1.1     0.3     1.2     0.2     0.4    -0.4    -2.0
    -0.5    -0.3    -0.8    -0.9    -0.3     1.1    -0.1     0.2     1.0     0.2
     0.5    -0.5    -0.7     0.6    -0.2    -0.4     1.6     0.3    -1.8    -0.9
     0.7     0.1    -0.4     0.3    -0.6    -1.2    -1.7    -0.6    -0.4    -2.1
    -1.2    -0.5     1.4     0.4    -1.0     0.9     0.1    -0.1     0.3    -1.1
    -2.1    -1.9     0.6     1.5    -0.2     0.4     0.3    -0.1     0.3    -0.7
    -0.7     1.2     2.9     1.6     0.4    -1.7    -1.9    -0.2    -1.2     0.4
     0.4     0.5     0.8     1.0     1.1    -0.9    -0.5    -0.2     1.7     1.3
     0.6     1.0    -1.9    -1.3    -1.5    -1.8    -0.3    -0.6     0.7     1.0
     1.3     2.3     0.3    -1.0    -1.2    -1.2     0.8     0.8    -1.0    -1.5
     0.0     1.1     0.5     1.0    -0.4    -0.8     0.4     0.1     0.4     0.4
    -0.4    -0.3     0.7    -0.9    -2.4    -0.8    -0.3     0.4     0.7     0.4
     0.6    -0.1    -0.9     0.9     2.0    -0.1    -0.2     0.1    -0.6    -1.4
    -0.5     0.1    -1.4    -0.1     0.7     1.1     1.8     0.4     0.1     0.8
     0.5    -0.6    -0.6    -0.5    -0.6    -0.1    -0.0    -0.3     0.1     0.3
    -0.7    -1.3    -1.2    -0.9     0.1     1.2     0.9    -0.1     0.1     0.4
     0.3     0.7     0.0    -0.6     0.2     0.3    -1.1    -0.8     0.7     1.1
     1.0    -0.3     0.4     0.8    -0.5    -0.5    -0.8    -0.7     0.0     1.4
     0.5    -1.4    -1.3    -0.7    -0.1    -1.5    -1.2    -0.6    -0.2     1.3
    -1.7    -2.1    -0.7    -1.0     0.6     0.7     1.0     0.7    -0.2     0.5
     0.0    -0.2    -0.4    -0.8     0.6     0.1    -0.3     0.6     0.2     0.6
    -0.1    -1.2    -0.2     0.8     0.6    -0.1    -0.1    -0.8    -0.7    -1.0
    -1.4    -0.7     0.0     0.4     0.9     1.5    -0.4    -0.7     0.0    -0.8
    -0.1    -0.4    -0.8    -0.0     0.4     0.4    -0.1    -0.8    -1.2    -1.2
    -0.3     1.4     0.5    -0.1     1.4     0.8     0.5     0.3    -0.6    -0.3
     0.5     1.2     0.7     0.9    -0.0    -1.3    -0.2    -1.2    -1.0     0.1
     0.5     1.0    -0.2    -0.2    -0.7    -1.1    -0.1    -0.1     0.2     1.0
     1.6     0.1    -0.5    -0.0    -1.8    -1.8    -0.5    -1.0    -0.5     0.4
     0.8     2.1     1.1     0.2     0.4    -0.9    -0.2     0.8     0.7     0.4
    -1.2    -0.5    -1.1    -2.2     0.4    -0.2    -1.0    -0.3     0.6     2.5
     0.9    -0.5     0.6     0.6     0.2     0.1    -1.1    -1.6    -1.5    -1.1
    -1.2    -2.7    -1.4     1.2     0.9     0.7     0.5    -0.4     1.1     0.5
    -0.3     0.5    -1.2    -1.0    -0.5    -0.2     0.3    -1.0    -1.1     0.0
     0.5    -0.1     0.4    -0.2    -0.8     1.7     0.7    -0.7    -0.5    -2.2
    -1.2    -0.1    -1.0    -0.2     0.3     1.1     0.8    -0.9    -0.6     0.3
     0.6    -0.2     0.1     0.0    -0.9     0.7     0.6    -0.8    -0.8    -0.7
     0.2     0.4    -0.4     0.1     0.9    -0.1    -0.1    -0.2    -1.0    -0.6
    -1.3    -0.8     0.4    -0.4    -0.7    -0.9    -0.7     0.9     0.9    -1.0
     0.1     1.7     0.5    -0.9    -0.2     0.3    -0.7    -0.6    -0.5    -0.7
    -1.5    -1.2     0.5     0.5    -0.8    -1.3     0.8     2.2     1.0    -0.3
     0.6     1.3    -0.9    -0.6     1.1    -0.9    -1.2    -0.3     0.1     1.4
    -0.1    -0.6     0.5     0.1    -0.6    -0.5     0.9     0.4    -0.5    -0.1
     0.1     1.3     0.9    -0.0     1.3     0.8    -0.0     0.1    -0.9    -0.9
    -0.5    -0.2     0.5     0.2    -0.4    -0.3    -0.3    -0.9    -0.9    -0.8
    -0.1     0.8    -0.0     0.5     1.7     1.1    -0.1    -0.1    -0.1    -1.9
    -1.9    -0.9    -0.6    -0.7    -1.6    -1.7    -1.0    -1.1    -0.5     1.8
     1.9     1.1     2.1     2.7     0.4    -1.5    -1.1    -1.0    -0.6    -0.9
    -0.4     0.4    -0.5    -0.7    -0.7    -0.1     0.1    -0.7     1.1     2.2
     1.1     0.9    -0.3    -0.5    -1.3    -2.1     0.2    -0.2    -0.3     0.1
    -0.5     0.3     0.2    -0.8    -0.8    -0.2     0.6     1.6     0.1     0.2
     0.7    -0.3    -0.4    -0.7     0.3     0.2     0.4     1.2    -0.2    -0.2
    -0.6    -1.5    -1.0    -0.3     0.1     0.2     0.5     1.2     0.9    -0.3
    -0.6    -0.9    -1.0     0.0     0.5     0.5    -0.1     0.2     0.7    -0.3
     0.4    -0.1    -1.2     0.1    -0.2    -0.2     0.2    -0.4    -0.5    -1.1
    -0.7     0.4     0.6    -0.0     0.9     2.0     0.6     0.2     0.3    -0.2
    -0.3     0.2     0.7    -0.0    -0.1     0.2    -1.0    -1.1    -0.1    -0.8
     0.2     1.0     0.4     0.7    -0.2    -0.1    -0.7    -1.5    -0.5     0.3
     0.0    -1.0     0.4     0.8    -0.3     0.0    -0.8    -1.1     0.8     1.4
     0.0     0.4     0.4    -0.4     0.1     0.0    -0.4    -0.8    -0.4     1.0
     1.4     0.2    -0.5    -0.7    -0.8    -0.1    -0.3    -1.3     0.4     0.3
    -1.0     0.7    -0.1    -0.9    -0.1     0.8     1.3     0.5     1.4     0.7
    -0.7    -0.1    -0.6    -0.5     0.2    -0.2     0.7     1.1     0.6     0.6
     0.0    -0.3     0.2     0.9     1.0     1.5     0.9    -0.1     0.1    -0.5
    -2.1    -1.9    -0.9    -0.4     1.0     0.7     0.2     0.6    -0.4    -0.5
