Uncorrected accelerogram 20160214_001343_PPHS_20 GNS Science
Site PPHS      43 29 34S  172 36 25E     Cusp file:  20160214_001346_PPHS
Christchurch Papanui High School
Instrument Cusp_42261
Resolution: 18-bit   Instr Period: 0.0050 s   Damping: 0.700
Accelerogram 20160214_001343_PPHS_20                 Processed 2016 February 22
11 km east of CHRISTCHURCH
2016 February 14         00:13:43 UT
Epicentre  43 29 50S 172 45 18E  Bearing S88E  Dist   12km  Depth    8km M  5.70
Number of points  36717    Duration 183.58 s
Raw readings in units of 1.00 mm/s/s  at intervals of 0.005 s
Data is unfiltered
Component N57W
Acceleration:  Peak    662.3 mm/s/s at  43.58 s     RMS    56.21 mm/s/s
Velocity record unevaluated
Displacement record unevaluated
    2016       2      14       0      13     430       0       0    2016       2
      43      29      50     172      45      18       8       0      14       0
      43      29      34     172      36      25     303     303      92      12
   36717       0       0   36717       0       0       0       0      13    6990
   200.0    0.70    0.00   0.000  0.0000   0.000   0.000   1.000     0.0    0.00
  43.493 172.607  43.497 172.755    5.70    0.00    0.00    0.00      0.      0.
  183.58    0.00    0.00  183.58  0.0050  0.0050      0.      0.      0.  9806.6
   662.3   43.58    56.2      0.      0.     0.0    0.00     0.0     0.0   0.000
    0.00    0.00    0.00    0.00   0.000    0.00    0.00    0.00    0.00   0.000
   0.000   0.000   0.000      0.      0.   0.000   0.000   0.000      0.      0.
    -0.1    -0.0     0.1    -0.0     0.0     0.1    -0.0     0.2     0.2     0.0
     0.2     0.3     0.3     0.2     0.1    -0.0    -0.1     0.0    -0.1    -0.1
     0.0    -0.1    -0.2    -0.3    -0.2     0.1     0.1     0.0     0.2     0.3
     0.2     0.2     0.0    -0.2    -0.1    -0.3    -0.3    -0.0    -0.2    -0.2
    -0.1    -0.0     0.2     0.4     0.3     0.2     0.4     0.3     0.1     0.1
     0.0    -0.0    -0.2    -0.4    -0.2    -0.4    -0.6    -0.3    -0.3    -0.3
     0.0     0.1     0.2     0.3     0.2     0.4     0.4     0.3     0.3     0.2
    -0.1    -0.2    -0.1    -0.4    -0.4    -0.1    -0.1    -0.1     0.1     0.3
     0.4     0.5     0.4     0.2     0.3     0.3     0.1     0.0    -0.0    -0.1
    -0.3    -0.3    -0.3    -0.2    -0.0    -0.1     0.0     0.1    -0.1     0.1
     0.1     0.1     0.4     0.2     0.1     0.1     0.2     0.1    -0.1    -0.2
    -0.4    -0.4    -0.3    -0.2    -0.1    -0.2     0.1     0.1    -0.3    -0.2
    -0.2    -0.2    -0.0    -0.1    -0.1     0.2     0.2     0.0     0.1     0.3
     0.4     0.2    -0.0     0.2     0.2     0.2     0.4     0.3    -0.0    -0.1
     0.1     0.3     0.3     0.2    -0.1    -0.0     0.2     0.1     0.3     0.2
     0.3     0.3     0.1     0.2     0.2    -0.0    -0.0    -0.2    -0.2    -0.3
    -0.5    -0.3    -0.2    -0.1     0.1     0.0     0.2     0.1    -0.0     0.2
     0.2     0.0     0.1     0.0    -0.1    -0.2    -0.3    -0.2    -0.2    -0.3
    -0.2     0.1     0.4     0.6     0.7     0.7     0.6     0.5     0.2    -0.1
    -0.3    -0.3    -0.4    -0.6    -0.4    -0.3    -0.4     0.0     0.1     0.1
     0.5     0.3     0.3     0.4     0.1     0.0     0.0     0.0     0.1    -0.0
    -0.1    -0.2    -0.3    -0.2    -0.3    -0.5    -0.3    -0.2    -0.0     0.1
     0.2     0.3     0.4     0.4     0.1    -0.1     0.1    -0.2    -0.2     0.0
    -0.1    -0.1    -0.2    -0.2    -0.2    -0.2    -0.2    -0.1     0.1     0.4
     0.4     0.3     0.2     0.2     0.1     0.0    -0.2    -0.5    -0.5    -0.3
    -0.2     0.1    -0.3    -0.2     0.0     0.0     0.3     0.2     0.2     0.3
     0.1    -0.1    -0.1    -0.0    -0.1    -0.1    -0.3    -0.3    -0.1    -0.2
     0.0     0.3     0.3     0.2     0.1     0.1    -0.0    -0.1    -0.1    -0.2
    -0.2    -0.3    -0.3    -0.3    -0.5    -0.3    -0.2     0.0     0.1     0.1
     0.3     0.3     0.3     0.3     0.2     0.1     0.0    -0.2    -0.4    -0.7
    -0.7    -0.5    -0.5    -0.4    -0.5    -0.4     0.0     0.1     0.4     0.6
     0.5     0.5     0.3    -0.0    -0.3    -0.3    -0.3    -0.4    -0.7    -0.7
    -0.5    -0.4    -0.2     0.2     0.4     0.6     0.7     0.5     0.6     0.6
     0.4     0.0    -0.3    -0.6    -0.7    -0.8    -0.9    -0.6    -0.4    -0.3
     0.0     0.4     0.6     0.5     0.5     0.3     0.1    -0.1    -0.2    -0.3
    -0.5    -0.6    -0.6    -0.5    -0.2     0.0     0.2     0.3     0.3     0.2
     0.1     0.2     0.3     0.2     0.0     0.1    -0.1    -0.2    -0.1    -0.2
     0.1     0.2     0.2     0.5     0.2     0.2     0.5     0.2     0.1     0.2
     0.1    -0.1    -0.3    -0.4    -0.4    -0.4    -0.5    -0.4    -0.4    -0.5
    -0.4    -0.5    -0.4    -0.2    -0.4    -0.2     0.3     0.5     0.7     0.8
     0.5     0.2    -0.1    -0.6    -0.7    -0.5    -0.4    -0.4    -0.3    -0.2
    -0.1     0.0     0.0     0.1     0.2     0.3     0.6     1.1     1.2     0.8
     0.5     0.3    -0.1    -0.4    -0.5    -0.8    -0.5    -0.6    -0.6    -0.4
    -0.6    -0.4    -0.2    -0.1     0.2     0.4     0.4     0.3     0.2     0.0
    -0.0     0.1    -0.1    -0.3    -0.3    -0.5    -0.8    -0.6    -0.5    -0.3
    -0.2    -0.0     0.1     0.3     0.5     0.8     1.0     0.9     0.7     0.5
     0.4     0.4    -0.0    -0.4    -0.4    -0.5    -0.7    -0.7    -0.7    -0.6
    -0.4    -0.3    -0.3    -0.2    -0.0     0.2     0.3    -0.1    -0.3    -0.2
    -0.4    -0.6    -0.5    -0.3     0.1     0.2     0.4     0.4     0.1    -0.1
     0.0     0.1    -0.2    -0.5    -0.3    -0.0     0.2     0.2     0.1     0.1
     0.3     0.4     0.1     0.0    -0.1    -0.2    -0.1    -0.3    -0.4    -0.5
    -0.6    -0.4    -0.1     0.4     0.6     0.6     0.7     0.4     0.4     0.6
     0.6     0.4     0.0    -0.3    -0.2    -0.3    -0.1     0.1     0.0    -0.1
    -0.2    -0.3    -0.4    -0.4    -0.3    -0.3    -0.1    -0.2    -0.5    -0.3
     0.0    -0.0     0.0     0.0    -0.1    -0.1    -0.0    -0.1     0.1    -0.0
    -0.2    -0.0    -0.0     0.2     0.3     0.2     0.4     0.1     0.0     0.0
    -0.2     0.1     0.4     0.3     0.4     0.3     0.2     0.2    -0.1    -0.0
     0.1     0.0    -0.1    -0.3    -0.2    -0.1     0.2     0.6     0.4     0.4
     0.3     0.1    -0.1    -0.3    -0.2    -0.3    -0.8    -0.9    -0.8    -0.6
    -0.7    -0.6    -0.2     0.1    -0.0    -0.2     0.1     0.4     0.3     0.2
     0.2     0.2     0.3     0.5     0.4     0.3     0.6     0.8     1.0     1.2
     0.9     0.6     0.3    -0.0    -0.3    -0.8    -1.0    -1.0    -0.9    -0.7
    -0.1     0.2     0.1     0.1     0.1     0.0    -0.2    -0.5    -0.5    -0.3
    -0.4    -0.4    -0.3    -0.4    -0.2     0.2     0.3     0.4     0.5     0.3
     0.3     0.3     0.1    -0.2    -0.1     0.1     0.0     0.2     0.2     0.1
     0.2     0.3     0.2     0.1    -0.0    -0.0    -0.1     0.1     0.1    -0.2
     0.0     0.0     0.0     0.2     0.1     0.2     0.2     0.0     0.0    -0.3
    -0.1    -0.2    -0.5    -0.3    -0.2    -0.1     0.0    -0.1    -0.0     0.0
    -0.1    -0.2     0.2     0.3     0.0     0.1     0.2     0.2     0.2     0.2
     0.2     0.0     0.0    -0.1    -0.2    -0.2    -0.3    -0.3    -0.4    -0.1
     0.1     0.1     0.3     0.2     0.1     0.2     0.2     0.2    -0.1    -0.3
    -0.1    -0.2    -0.2    -0.1    -0.2    -0.1     0.2     0.1    -0.0     0.0
    -0.0    -0.0    -0.0    -0.2    -0.2    -0.0     0.1     0.1    -0.2    -0.3
    -0.2    -0.3    -0.2    -0.2    -0.4    -0.3    -0.3    -0.3    -0.2    -0.1
    -0.2    -0.1     0.1     0.0     0.1     0.3     0.1     0.1     0.2     0.2
     0.3     0.2     0.3     0.3    -0.0     0.1     0.1    -0.2    -0.1    -0.1
    -0.1     0.0     0.1     0.2     0.0    -0.0    -0.1    -0.3    -0.2    -0.1
    -0.3    -0.4    -0.2    -0.3    -0.2    -0.1    -0.1     0.1     0.2     0.2
     0.0    -0.0    -0.1    -0.3    -0.3    -0.4    -0.3    -0.1    -0.1     0.2
     0.2     0.3     0.4     0.2     0.4     0.2     0.3     0.5     0.2     0.2
    -0.2    -0.3    -0.1    -0.2    -0.0    -0.0    -0.1     0.1     0.2     0.4
     0.3     0.2     0.4     0.3     0.1     0.0     0.0     0.1    -0.0    -0.1
    -0.2    -0.2    -0.1    -0.3    -0.3    -0.3    -0.3    -0.1    -0.2    -0.2
    -0.2    -0.3    -0.1     0.1     0.0    -0.1    -0.0     0.1     0.2     0.1
    -0.1     0.0     0.0     0.1     0.0     0.1     0.3     0.4     0.3     0.2
     0.2     0.2     0.3     0.2    -0.2    -0.0     0.1    -0.1    -0.1     0.0
    -0.1    -0.2    -0.2    -0.2    -0.3    -0.3    -0.2    -0.1    -0.2    -0.0
     0.2     0.1     0.2     0.2     0.2     0.1    -0.1    -0.2    -0.3    -0.1
    -0.3    -0.3    -0.0    -0.2     0.0     0.2     0.2     0.3     0.3     0.4
     0.4     0.3     0.3     0.4     0.4    -0.0    -0.1    -0.0    -0.1    -0.1
    -0.2    -0.1     0.0     0.1     0.2     0.1     0.3     0.4     0.2     0.1
    -0.1    -0.2     0.0    -0.1    -0.3    -0.4    -0.4    -0.3    -0.4    -0.5
    -0.3    -0.1    -0.2    -0.4    -0.2     0.1    -0.0    -0.1    -0.1    -0.1
     0.0    -0.2    -0.4    -0.3    -0.3    -0.3    -0.2    -0.2    -0.2    -0.1
     0.2    -0.1    -0.0     0.1     0.2     0.4     0.3     0.3     0.3    -0.1
    -0.0     0.0     0.0     0.2     0.1    -0.0    -0.1    -0.3    -0.2    -0.1
    -0.0     0.1    -0.2     0.0     0.3     0.3     0.2     0.4     0.3     0.1
     0.2     0.1     0.1    -0.0    -0.2    -0.1     0.0    -0.1    -0.1    -0.2
     0.1     0.2     0.0     0.0     0.1     0.0     0.1     0.0    -0.2    -0.4
    -0.3    -0.3    -0.4    -0.3    -0.3    -0.4    -0.2    -0.2    -0.2     0.0
    -0.1    -0.1     0.1     0.0     0.1     0.1     0.1     0.1     0.2     0.0
    -0.1    -0.2    -0.3    -0.3    -0.1    -0.2    -0.2    -0.2    -0.0     0.0
    -0.0     0.1     0.1     0.2     0.4     0.3     0.2     0.1     0.0    -0.2
    -0.1    -0.1    -0.3    -0.4    -0.5    -0.5    -0.2    -0.2    -0.2    -0.1
     0.1     0.3     0.2     0.3     0.5     0.3     0.3     0.3     0.2    -0.1
    -0.1    -0.1    -0.4    -0.2    -0.1    -0.2     0.0     0.0    -0.0     0.2
     0.3     0.1     0.0     0.0    -0.0    -0.2    -0.4    -0.5    -0.6    -0.3
    -0.4    -0.4    -0.1    -0.0     0.1     0.0    -0.1    -0.1    -0.3    -0.2
    -0.3    -0.2     0.1    -0.1     0.0     0.2     0.2     0.2    -0.0    -0.1
    -0.1    -0.0    -0.2    -0.3    -0.1    -0.2    -0.2     0.1     0.2     0.2
     0.0    -0.0     0.2     0.1     0.1     0.1     0.1     0.1     0.1     0.1
    -0.0    -0.2    -0.3    -0.3    -0.1    -0.2    -0.2    -0.1     0.1     0.1
    -0.0     0.0    -0.0    -0.0    -0.0    -0.1     0.0    -0.0    -0.0     0.2
    -0.0    -0.3    -0.3    -0.2    -0.1    -0.3    -0.3    -0.1    -0.1    -0.3
    -0.1     0.1     0.1     0.1     0.1    -0.1    -0.2    -0.0    -0.0    -0.2
    -0.0    -0.0    -0.1     0.0     0.1     0.0    -0.0     0.0    -0.1    -0.0
     0.1     0.0     0.2     0.3     0.2     0.2     0.3     0.1     0.1    -0.1
    -0.2    -0.1    -0.2    -0.2    -0.2    -0.2    -0.1    -0.2    -0.1    -0.0
    -0.1     0.0    -0.2    -0.3    -0.1    -0.0    -0.2    -0.2    -0.2    -0.0
     0.0    -0.1    -0.0    -0.1    -0.4    -0.3    -0.3    -0.3    -0.2    -0.0
     0.0    -0.0    -0.0     0.1    -0.1    -0.3    -0.2    -0.1    -0.0    -0.1
    -0.3     0.0     0.2     0.0     0.1     0.1    -0.0     0.1     0.0    -0.1
    -0.2    -0.1    -0.0     0.0     0.1    -0.0    -0.1     0.0    -0.1    -0.3
    -0.3    -0.3    -0.3    -0.3    -0.3    -0.3    -0.2    -0.1     0.1     0.2
     0.4     0.6     0.4     0.3     0.2     0.1     0.0    -0.1    -0.1    -0.0
    -0.1    -0.2    -0.1    -0.1    -0.1    -0.0     0.0    -0.0    -0.1    -0.1
    -0.0    -0.0     0.0     0.1     0.1    -0.0     0.1     0.0    -0.2    -0.1
    -0.3    -0.3    -0.2    -0.4    -0.0    -0.1    -0.2     0.0    -0.1    -0.1
     0.1    -0.1    -0.2    -0.0     0.1    -0.1    -0.0    -0.0    -0.2    -0.2
    -0.3    -0.2    -0.0    -0.2    -0.1    -0.1    -0.1    -0.0    -0.1     0.1
     0.1     0.2     0.4     0.4     0.4     0.3     0.1     0.1    -0.3    -0.4
    -0.3    -0.3    -0.2    -0.3    -0.1     0.1     0.0     0.1     0.2     0.1
     0.0     0.1     0.2     0.2     0.0     0.1     0.1    -0.2    -0.2    -0.2
    -0.2    -0.4    -0.4    -0.3    -0.2    -0.1    -0.1    -0.2    -0.1    -0.1
    -0.2    -0.0     0.1     0.0     0.1    -0.0     0.1     0.1    -0.0     0.1
    -0.1    -0.2    -0.2    -0.3    -0.2    -0.1    -0.0    -0.2    -0.1    -0.0
    -0.1     0.0     0.0     0.0     0.3     0.3     0.2     0.1     0.1     0.3
     0.1    -0.1    -0.3    -0.3    -0.2    -0.4    -0.4    -0.3    -0.3    -0.0
     0.2     0.1     0.2     0.4     0.3     0.3     0.3     0.1     0.1    -0.1
    -0.4    -0.4    -0.5    -0.5    -0.5    -0.5    -0.3    -0.0     0.1     0.3
     0.4     0.3     0.2     0.2     0.2     0.2     0.0    -0.0     0.0    -0.1
    -0.3    -0.4    -0.4    -0.5    -0.4    -0.1    -0.1     0.1     0.1    -0.0
     0.2     0.2     0.3     0.2     0.0    -0.0    -0.3    -0.3    -0.2    -0.4
    -0.3    -0.1    -0.3    -0.5    -0.2    -0.1    -0.1     0.1     0.0     0.0
    -0.1    -0.1    -0.0    -0.2    -0.3    -0.2     0.2     0.1    -0.1     0.0
    -0.1     0.0    -0.0    -0.2    -0.3    -0.4    -0.1    -0.3    -0.2     0.0
     0.0     0.1     0.2     0.0    -0.2     0.0    -0.0    -0.2    -0.2    -0.3
    -0.2    -0.3    -0.2     0.0    -0.3    -0.2    -0.1    -0.0    -0.1    -0.3
    -0.0     0.1    -0.2    -0.0     0.2     0.2     0.1     0.1     0.1     0.2
     0.1    -0.0    -0.2    -0.4    -0.3    -0.2    -0.3    -0.1     0.2     0.0
     0.2     0.4     0.2     0.2     0.2     0.0     0.1    -0.2    -0.1    -0.0
    -0.3    -0.1    -0.1    -0.2    -0.1    -0.2    -0.1    -0.1    -0.1    -0.0
     0.0     0.1     0.2     0.1    -0.1     0.0    -0.1    -0.3    -0.1    -0.1
     0.1     0.2     0.0     0.1     0.0    -0.1     0.0     0.0    -0.0    -0.1
    -0.1    -0.1    -0.2    -0.1    -0.1    -0.0    -0.2    -0.4    -0.1     0.1
    -0.0    -0.2    -0.0    -0.0    -0.1    -0.1    -0.2    -0.0     0.1    -0.1
    -0.1    -0.1    -0.0     0.0    -0.0    -0.1    -0.1     0.0     0.1     0.1
    -0.1    -0.0    -0.1     0.0     0.2    -0.4    -0.4    -0.2    -0.1     0.0
     0.0     0.0     0.0    -0.1     0.0     0.2    -0.1    -0.1     0.2     0.1
    -0.1     0.0    -0.0    -0.2    -0.2    -0.1    -0.1    -0.1    -0.1    -0.1
     0.1     0.1    -0.0     0.0     0.2    -0.1     0.0     0.0    -0.4    -0.4
    -0.4    -0.4    -0.3    -0.4    -0.1     0.1     0.1     0.3     0.3     0.2
     0.2    -0.1    -0.1    -0.1    -0.2    -0.2    -0.2    -0.1    -0.1     0.0
    -0.1    -0.1     0.2     0.2    -0.1    -0.0     0.1     0.1     0.0    -0.1
    -0.1    -0.0    -0.2    -0.1    -0.0    -0.3    -0.4    -0.3    -0.2    -0.1
    -0.0     0.2     0.5     0.3     0.1     0.2     0.3     0.3     0.2     0.0
    -0.3    -0.2     0.1     0.0    -0.1     0.1     0.1     0.0     0.1     0.3
     0.2     0.0     0.2     0.3    -0.1    -0.2    -0.1    -0.2    -0.2    -0.5
    -0.4    -0.3    -0.5    -0.4    -0.3    -0.4    -0.4    -0.4    -0.3    -0.2
    -0.1     0.0     0.1    -0.1    -0.2    -0.4    -0.3    -0.2    -0.4    -0.3
    -0.1    -0.1    -0.2    -0.2     0.1     0.1     0.1     0.1     0.0     0.2
    -0.0     0.1     0.4     0.2     0.1     0.1    -0.1    -0.1    -0.1    -0.4
    -0.4    -0.2    -0.3    -0.3    -0.2    -0.3    -0.2     0.1     0.3     0.3
     0.2     0.1    -0.1    -0.2    -0.3    -0.2    -0.2    -0.3    -0.4    -0.3
    -0.1    -0.0    -0.0     0.1     0.1    -0.3    -0.4    -0.2    -0.2    -0.2
    -0.0     0.0    -0.1    -0.0    -0.2    -0.1     0.1    -0.1    -0.1    -0.2
    -0.2    -0.1    -0.1    -0.2    -0.3    -0.0     0.0    -0.2    -0.0    -0.0
    -0.2    -0.0    -0.0    -0.0    -0.1    -0.1     0.0    -0.1    -0.3    -0.1
    -0.1    -0.3    -0.2    -0.1    -0.2    -0.2    -0.1    -0.1     0.0     0.2
     0.1     0.2     0.3     0.2     0.2     0.2    -0.0    -0.1    -0.3    -0.4
    -0.2    -0.2    -0.2    -0.2    -0.2    -0.1    -0.3    -0.1     0.1    -0.2
     0.1     0.2     0.0     0.2     0.0    -0.1    -0.0    -0.2    -0.2    -0.1
    -0.0    -0.0    -0.1    -0.1    -0.1     0.0     0.1     0.3     0.3    -0.0
     0.2    -0.1    -0.1     0.2    -0.0     0.0    -0.0    -0.3    -0.2    -0.0
    -0.1    -0.3    -0.1    -0.2    -0.5    -0.4    -0.4    -0.4    -0.2    -0.4
    -0.5    -0.3    -0.1    -0.2    -0.2    -0.2    -0.1     0.0    -0.0    -0.0
    -0.2    -0.2     0.0    -0.1    -0.1     0.1     0.1     0.4     0.3     0.3
     0.5     0.2     0.3     0.3     0.1     0.0    -0.1    -0.1    -0.1    -0.0
     0.2    -0.1    -0.2    -0.1     0.0     0.2    -0.0     0.1     0.1    -0.3
    -0.1    -0.2    -0.4    -0.3    -0.3    -0.1     0.1     0.1     0.1     0.3
     0.3     0.2     0.1    -0.1    -0.1    -0.0    -0.2    -0.3    -0.3    -0.1
    -0.1    -0.2    -0.3    -0.3    -0.1    -0.2    -0.2     0.1     0.0    -0.0
     0.1     0.2     0.1     0.0     0.1    -0.1    -0.2    -0.1    -0.1    -0.0
    -0.1    -0.1     0.1    -0.1    -0.0    -0.0    -0.1    -0.2    -0.2    -0.2
    -0.3    -0.3    -0.2    -0.2    -0.1     0.0     0.0     0.0     0.0    -0.0
     0.1    -0.1    -0.1     0.1    -0.1    -0.0     0.2     0.1     0.1     0.1
    -0.1     0.1     0.1    -0.1    -0.2    -0.1     0.0     0.2     0.4     0.3
     0.1     0.2     0.0    -0.2    -0.0     0.0    -0.3    -0.4    -0.3    -0.2
    -0.1     0.0     0.0     0.1     0.2     0.2    -0.1    -0.0     0.3     0.2
     0.1    -0.1    -0.3    -0.1     0.1    -0.1    -0.3    -0.3    -0.2    -0.2
    -0.2    -0.3    -0.3    -0.0    -0.2    -0.3    -0.0    -0.1    -0.2    -0.1
    -0.2     0.1    -0.0    -0.2     0.1    -0.0    -0.1    -0.0    -0.1     0.0
     0.1     0.1    -0.1    -0.2    -0.0    -0.0    -0.0     0.2     0.1     0.1
     0.3     0.3     0.3     0.2    -0.1     0.1     0.1     0.1     0.0    -0.0
     0.0    -0.2    -0.3    -0.4    -0.4    -0.0    -0.1    -0.2    -0.0    -0.1
     0.0     0.2    -0.1    -0.2    -0.3    -0.3    -0.0    -0.1    -0.1    -0.2
    -0.3    -0.3    -0.4    -0.3    -0.2    -0.3    -0.2    -0.3    -0.3     0.1
     0.2     0.0     0.2     0.3     0.2     0.4     0.2     0.1     0.2     0.1
    -0.1    -0.1    -0.1    -0.2    -0.1     0.1    -0.2    -0.2     0.1     0.0
     0.2     0.2     0.1     0.1    -0.0     0.1     0.0    -0.1     0.1     0.0
     0.1     0.0    -0.1     0.0    -0.0    -0.0    -0.1    -0.3    -0.3    -0.2
    -0.4    -0.4    -0.2    -0.2    -0.1    -0.1    -0.1     0.1    -0.0     0.1
     0.2     0.2     0.3     0.2     0.2     0.1     0.1    -0.2    -0.4    -0.2
    -0.2    -0.3    -0.3    -0.2    -0.1    -0.2    -0.2    -0.1    -0.1    -0.1
     0.0     0.1     0.1     0.0     0.1    -0.1    -0.2    -0.1    -0.1    -0.2
    -0.1    -0.0    -0.1    -0.2    -0.2    -0.2    -0.0     0.1     0.0     0.0
     0.0    -0.0     0.1     0.2     0.0    -0.2    -0.1    -0.3    -0.3    -0.1
    -0.2    -0.0    -0.1    -0.1     0.1     0.1    -0.0     0.1     0.1    -0.2
    -0.3    -0.0    -0.0    -0.0    -0.1    -0.3    -0.1     0.0     0.1     0.2
     0.1    -0.2    -0.1     0.1     0.0     0.2     0.0     0.0     0.1    -0.1
    -0.1    -0.3    -0.2    -0.1    -0.1    -0.1    -0.3    -0.3    -0.1    -0.0
     0.2     0.2     0.1     0.1     0.1    -0.0    -0.2    -0.3    -0.1    -0.1
     0.1    -0.2    -0.5    -0.1    -0.0     0.1     0.1    -0.1     0.2     0.0
    -0.1     0.1    -0.2    -0.2    -0.0     0.1     0.0    -0.0    -0.1    -0.1
     0.0    -0.2    -0.1     0.0    -0.2     0.0     0.1     0.0    -0.0    -0.1
     0.0     0.1     0.1     0.1     0.0     0.0    -0.1     0.0     0.0    -0.2
    -0.0    -0.1    -0.2    -0.3    -0.0     0.2    -0.2    -0.1     0.0    -0.0
