Uncorrected accelerogram 20160214_001343_DALS_20 GNS Science
Site DALS      43 30 43S  172 40 24E     Cusp file:  20160214_001346_DALS
Dallington
Instrument Cusp_10457
Resolution: 18-bit   Instr Period: 0.0050 s   Damping: 0.700
Accelerogram 20160214_001343_DALS_20                 Processed 2016 February 22
11 km east of CHRISTCHURCH
2016 February 14         00:13:43 UT
Epicentre  43 29 50S 172 45 18E  Bearing N76E  Dist    7km  Depth    8km M  5.70
Number of points  71649    Duration 358.24 s
Raw readings in units of 1.00 mm/s/s  at intervals of 0.005 s
Data is unfiltered
Component N01W
Acceleration:  Peak   1921.7 mm/s/s at  42.52 s     RMS    89.00 mm/s/s
Velocity record unevaluated
Displacement record unevaluated
    2016       2      14       0      13     430       0       0    2016       2
      43      29      50     172      45      18       8       0      14       0
      43      30      43     172      40      24     359     359      76       7
   71649       0       0   71649       0       0       0       0      13    6169
   200.0    0.70    0.00   0.000  0.0000   0.000   0.000   1.000     0.0    0.00
  43.512 172.673  43.497 172.755    5.70    0.00    0.00    0.00      0.      0.
  358.24    0.00    0.00  358.24  0.0050  0.0050      0.      0.      0.  9806.6
  1921.7   42.52    89.0      0.      0.     0.0    0.00     0.0     0.0   0.000
    0.00    0.00    0.00    0.00   0.000    0.00    0.00    0.00    0.00   0.000
   0.000   0.000   0.000      0.      0.   0.000   0.000   0.000      0.      0.
     0.7     0.1    -0.7    -0.4     0.2    -0.2    -0.2     0.4    -0.1     0.6
    -0.2    -1.0    -0.1    -0.0     0.2    -0.2    -0.4    -0.6    -0.7    -0.2
    -0.2     0.5     0.4     0.1    -0.1    -0.3    -0.3    -0.4     0.5     0.4
     0.2     0.4     0.3     0.1     0.0    -0.1    -0.2     0.6    -0.1    -0.4
     0.9    -0.6    -1.0    -0.4    -0.1     0.6     0.1    -0.1     0.0     0.0
     0.3     0.0     0.5     0.4    -0.4     0.2     0.2    -0.4    -0.4     0.2
     0.6     0.2     0.3    -0.0    -0.1     0.8     0.1    -0.0     0.5     0.1
     0.1    -0.2    -0.0    -0.1     0.1     0.4     0.2    -0.2    -1.1    -0.1
     0.1     0.4     0.3    -0.8     0.9     0.6    -0.5     0.6     0.6     0.2
    -0.0     0.1     0.1    -0.6    -0.9    -0.4    -0.3    -0.3    -0.0    -0.1
    -0.0    -0.5    -0.1     0.9     0.0    -0.2     0.1    -0.2     0.0     0.2
     0.6     0.5    -0.2    -0.3    -0.3    -0.2     0.1    -0.1    -0.3    -0.0
    -0.1     0.2     0.7     0.8     1.0    -0.1    -0.4     0.7    -0.3    -0.7
     0.1     0.3     0.1     0.4     0.6     0.4     0.2     0.3     0.0    -0.4
     0.7     0.5    -0.4     0.4     0.4     0.1     0.1     0.2     0.3     0.5
    -0.2    -0.6    -0.4    -0.4     0.3     0.4     0.1    -0.1     0.3    -0.0
    -0.1    -0.4    -0.9    -0.1     0.0     0.0    -0.3     0.1     1.1     0.6
     0.4    -0.3     0.1     0.7    -0.1     0.4     0.5    -0.3    -0.8    -0.4
     0.5     0.1    -0.2    -0.1    -0.2     0.3     0.2    -0.7    -0.7    -0.6
    -0.1     0.2    -0.2    -0.0    -0.2    -0.2     0.3     0.3     0.1    -0.5
    -0.1     0.6     0.2     0.5     0.7    -0.5    -0.4     0.3     0.4     0.6
     0.5     0.8     0.6     0.2     0.0    -0.4     0.2     0.3     0.2    -0.1
    -0.3     0.8     0.4     0.5     0.5    -0.2     0.6     0.4    -0.4     0.1
     0.6    -0.1    -0.0     0.0    -0.1     0.4    -0.5    -0.2    -0.2    -0.5
     0.2     0.0     0.4    -0.1    -0.4    -0.0     0.0     0.3     0.0     0.3
     0.6     0.2     0.5     0.7     0.3     0.2    -0.1     0.7     0.8    -0.5
     0.1     0.1     0.1     0.9    -0.1    -0.5     0.4     0.5     0.7     0.9
    -0.3     0.1     0.2    -0.6     0.2     0.1     0.4     0.1    -1.1    -0.6
     0.6     0.0    -0.5     0.3     0.1     0.5     0.5    -0.6    -0.3    -0.0
    -0.0     0.1     0.1     0.8     0.5     0.5     0.8    -0.1     0.3     0.1
     0.1     0.7     0.5     0.2    -0.9     0.1     1.3     0.0     0.1     1.4
     0.8     0.3     0.3    -0.5     0.1     0.2    -0.7    -0.7    -0.1     0.3
    -0.0    -0.1     0.2     0.2     0.3     0.2    -0.1    -0.0    -0.3    -0.2
     0.3    -0.1    -0.3    -0.3     0.2     0.4     0.6     0.9     0.9     0.5
    -0.0     0.6    -0.4    -0.8     0.4     0.2     0.2     0.2     0.8     0.2
    -0.4    -0.1    -0.1    -0.2    -0.9     0.2     0.4    -0.5    -0.2     0.2
     0.1    -0.6    -0.1     0.0     0.1     0.0     0.2     0.1    -1.1    -0.6
    -0.3    -0.2    -0.0    -0.5    -0.3     0.3     0.3    -0.5    -0.0     0.8
     0.6     0.1    -0.2    -0.4     0.4     0.8     0.2     0.5    -0.5    -0.4
     0.8     0.1     0.3     0.5     0.0     0.1     0.1     0.1     0.2    -0.5
    -0.1     0.3    -0.0     0.6     0.1     0.6     0.8    -0.2     0.8     0.8
    -0.5    -0.1    -0.1    -0.3     0.6     0.4    -0.3     0.2     0.6     0.5
     0.1     0.2    -0.0    -0.6    -0.9    -0.8    -0.4     0.4     0.4    -0.7
     0.1     0.7     0.4     0.5     0.7     0.9    -0.2     0.0    -0.2    -0.7
    -0.1    -0.8    -0.4    -0.0     0.3     0.9     0.5     1.0     0.2    -0.4
     0.5    -0.4     0.0     0.5    -0.3     0.0    -0.2    -0.1     1.0     0.7
    -0.4     0.8     1.2     0.3     1.0     0.7    -0.4    -0.2    -0.7    -1.1
    -0.0    -0.3    -0.6     0.1     0.7     1.1     0.6     0.6     0.4    -0.1
    -0.2    -0.8    -0.8    -0.1     0.1     0.1     0.3     0.2     0.1     0.3
     0.5     1.2     0.5    -0.5     0.2    -0.2    -0.8    -0.8    -0.7    -0.0
    -0.2    -0.1    -0.1    -0.3     1.0     1.6     1.1     0.8     0.3     0.1
    -0.1    -0.5    -0.7    -1.0    -1.4    -0.8     0.2    -0.3     0.1     0.3
     0.3     1.0     0.2     0.1     0.4    -0.2    -0.2    -0.1    -0.6    -0.6
     0.1    -0.1     0.2     0.6    -0.6    -0.4    -0.1    -0.2     0.6     0.1
    -0.1    -0.2    -0.1    -0.1    -0.8    -0.1     0.2    -0.2    -0.4    -0.4
    -0.4    -0.9    -0.1     0.4    -0.1     0.4     0.4     0.8     0.5    -0.3
     0.4    -0.4    -0.3     0.1    -0.1    -0.4    -0.8     0.1    -0.4    -0.4
     0.3    -0.1    -0.1     0.5     1.3     0.6     0.7     0.5    -0.5     0.2
    -0.4    -0.6     0.3     0.0    -0.1    -0.2     0.2     0.3     0.1     0.6
     0.3     0.4     0.4     0.0     0.1    -0.3     0.1    -0.3    -1.1    -0.5
     0.0     0.1    -0.3     0.2     0.7     0.1     0.3     0.9     0.0     0.2
     0.7    -0.4    -0.0     0.0     0.2     0.2    -0.3     0.1     0.1     0.2
     0.1     0.3     0.1     0.2     0.2    -0.1     0.4    -0.2    -0.7     0.1
     0.2    -0.3    -0.4     0.2     0.2    -0.3     0.1    -0.3     0.2     1.1
    -0.0     0.5     0.1     0.0     0.6    -0.4     0.2     0.1    -0.7    -0.6
    -0.8    -0.4     0.2    -0.1     0.1     0.6     0.4     0.7     0.5     0.4
     0.5    -0.4    -1.0    -0.6    -0.2    -0.0    -0.4    -0.6     0.3     0.3
     0.0     0.5     0.1    -0.7    -0.5    -0.3     0.1    -0.2    -0.7    -0.0
     0.4     0.8     0.1     0.1     0.5    -0.1     0.1    -0.1    -0.1    -0.3
    -0.8    -0.3     0.3    -0.2    -0.7    -0.2    -0.4    -0.2     0.6     0.2
     0.6     0.8    -0.5    -0.2     0.1    -0.7     0.1     0.2    -0.1     0.3
     0.6     0.9     0.5     0.1    -0.2    -0.1    -0.6    -0.6     0.5     0.8
     0.6     0.1     0.0    -0.2    -0.3     0.3    -0.3     0.1     0.3     0.3
     0.7    -0.1     0.1     0.1    -0.3     0.2     0.1    -0.0    -0.2     0.1
     0.2    -0.2     0.6     0.6     0.5     0.6     0.7     0.9    -0.0    -0.1
     0.2    -0.4    -0.1     0.3    -0.5    -0.8    -0.5    -0.1     0.3     0.1
     0.3    -0.6    -0.4     0.5     0.2     0.5     0.2    -0.1     0.0     0.2
     0.4     0.2     0.5     0.4    -0.4    -0.1     0.4    -0.4    -0.9    -0.8
     0.1     0.2    -0.4     0.4     0.5    -0.2     0.1     0.2    -0.1     0.2
     0.1     0.6     0.5    -0.7    -0.2     0.6     0.4     0.0    -0.2    -0.2
     0.4    -0.1    -0.3     0.5    -0.1     0.2     0.1     0.3     1.0     0.6
     0.2    -0.1     0.7    -0.1    -0.5     0.4    -0.2    -0.2     0.1     0.7
     0.1    -0.3     0.9    -0.7    -0.3     0.9    -0.2     0.5     0.4     0.2
     0.5    -0.0     0.1     0.1     0.1    -0.1     0.2     0.1     0.4     0.0
    -0.7     0.3     0.2     0.0    -0.1     0.3     0.7     0.3     0.3     0.3
     0.8     0.7    -0.3    -0.9     0.1     1.2     1.1     1.2     0.8     0.7
     0.7     0.1    -0.7    -0.6    -0.6    -0.8    -0.3    -0.1     0.1     0.2
     0.6     0.7     0.6     0.8     0.3    -0.2    -0.4    -0.2    -0.2    -0.3
     0.1     0.2    -0.5     0.1     0.6    -0.4     0.1     0.5     0.0     0.1
    -0.4    -0.8    -0.1    -0.1    -0.2     0.5     0.5     0.4     1.0     1.5
     0.8    -0.0     0.3     0.4    -0.3    -0.4    -0.8    -0.9    -0.2    -0.9
     0.1     0.6    -0.5     0.7     0.2     0.2     1.2    -0.0     0.1     0.6
     0.1    -0.2    -0.3    -0.4    -0.2     0.1     0.0     0.7     1.1     0.8
     1.1     0.1    -0.1    -0.3    -1.0    -0.4    -0.6    -0.1    -0.0    -0.4
     0.4     0.1    -0.3     0.7     0.5    -0.2     0.4     0.4     0.6    -0.1
    -0.9    -0.5    -0.8     0.0     0.5    -0.2    -0.1     0.2     0.3     0.2
     0.3     0.3     0.2     0.6     0.2    -0.4     0.4     0.2    -0.3    -0.1
     0.3     1.0     0.4    -0.0     0.8     0.9     0.5     0.3    -0.5    -0.7
    -0.2    -0.4     0.4     0.8    -0.1     0.3     0.5     0.4     0.9     0.6
    -0.0    -0.0    -0.3    -1.0    -0.1    -0.0    -1.2    -0.3    -0.5    -0.3
     0.6     0.4     0.7     0.0    -0.2     0.7     0.3    -0.1    -0.2    -0.1
    -0.3    -0.4     0.1    -0.1     0.1     0.3     0.3     0.6    -0.1    -1.0
    -0.7    -0.7    -0.6    -0.2    -0.2     0.3     0.2    -0.0     0.5     0.3
     0.5     0.4    -0.3    -0.2    -0.3    -0.5    -0.0     0.1    -0.6    -0.4
     0.8     0.6    -0.5    -0.6    -0.2    -0.0     0.1    -0.1    -0.5     0.4
     0.2    -0.4     0.2     0.2     0.4     0.9     0.7     0.4     0.0     0.2
    -0.1    -0.4     0.3     0.5     0.5    -0.4    -0.5     0.5    -0.4     0.4
     0.4     0.2     1.1     0.1    -0.1    -0.1     0.1     0.4    -0.1     0.1
     1.1     1.0    -0.2     0.2     0.3    -0.3    -0.4    -0.8    -0.0     0.1
    -0.8     0.5     0.7     0.2     0.7     0.3     1.2     1.6     0.1     0.1
     0.3     0.8     0.4    -0.3     0.3    -0.1    -0.1    -0.4    -0.7    -0.9
    -0.4     0.3     0.1     0.2    -0.1     0.1     0.5     1.1     1.2     0.5
     0.7     0.8    -0.1    -0.3     0.5     0.2     0.3     0.7     0.4     0.5
    -0.1     0.3     0.5     0.3     0.9     0.6     0.6     0.7    -0.2    -0.4
    -0.8    -0.2     0.5    -0.5    -0.9    -0.4     0.4     0.3     0.3     1.0
     1.1     0.8     0.2     0.0     0.7     0.8    -0.2    -0.4    -0.3     0.2
     0.3    -0.5     0.2     0.1     0.2     0.2     0.1     1.0     1.0     1.5
     0.6     0.1     0.6    -0.4     0.1     0.9    -0.1    -0.1     0.1     0.5
     0.9    -0.3     0.3     0.6    -0.0     0.2     0.2    -0.3    -0.3     0.6
     0.1    -0.0     0.2    -0.4     0.1    -0.4     0.3     0.9    -0.8    -0.1
     0.4     0.3     0.8    -0.0     0.4     0.2    -0.4     0.0     0.1     0.4
     0.2     0.6     0.4     0.6     1.4     0.5     0.1     0.0    -0.0     0.2
    -0.1    -0.0    -0.4    -0.8     0.0    -0.3    -0.5     0.5     0.4     0.3
     0.3     0.4     0.2    -0.2     0.8     1.4     0.8     0.1    -0.2    -0.3
    -0.8    -0.1     0.1    -0.1     0.8    -0.4    -0.6     0.2     0.3     0.6
    -0.3     0.4     1.0     0.2     0.2     0.1     0.5     0.6     1.1     1.2
     0.3    -0.1    -0.5    -0.3    -0.4    -0.8    -0.8    -0.9     0.0     0.5
     0.3     1.0     0.4     0.7     0.9     0.1     0.1    -0.3     0.2     0.5
    -0.6    -0.5     0.5     0.3    -0.1     0.5     0.9     0.1    -0.2     0.4
    -0.5    -0.3     0.6    -0.2    -0.5    -0.4    -0.5    -0.2     1.1     0.3
    -0.3     1.5     0.1    -0.3     0.4    -0.9    -0.7     0.0     0.7     0.2
    -0.4     0.0    -0.9    -0.2     0.4    -0.0     0.1     0.5     1.2     0.2
    -0.2     0.3     0.6     0.2    -0.2     1.1     0.1    -1.2    -0.1     0.0
     0.1     0.5     0.7     0.3    -0.4     0.3     0.3    -0.8    -0.1     0.3
    -0.6    -0.7     0.4     1.0     0.3    -0.0     0.2     0.1    -0.5    -0.5
    -0.3    -0.2    -0.5    -0.4     0.9     0.9     0.3     0.0     0.4    -0.4
    -0.9     0.3    -0.3    -0.5    -0.4     0.1     0.6    -0.2     0.1     0.3
     0.5     0.6     0.6     1.0     0.1    -0.0     1.2     0.8     0.3     0.2
    -0.5    -0.1    -0.2    -0.5    -0.3    -0.3     0.1    -0.1    -0.2     0.1
     0.6     0.7     0.3     0.2     0.2     0.8     0.2    -0.5    -0.5    -0.4
     0.3     0.1     0.1     0.5     0.6    -0.2    -0.9    -0.3    -0.1     0.1
     0.5     0.3     0.3    -0.1     0.2     0.7     0.0    -0.4    -0.1     0.1
    -0.4     0.2     0.6     0.4     0.5     0.2     0.7     0.5    -0.2     0.2
     0.5     0.9     0.3     0.0     0.5     0.4     0.0    -0.5     0.1    -0.2
     0.1     1.4     0.2     0.1     0.8    -0.3     0.4     1.0    -0.2    -0.6
    -0.8    -0.5    -0.1    -0.1    -0.2     0.7     1.3    -0.1    -0.2     0.1
     0.2    -0.1    -1.0    -0.8    -0.3     0.6    -0.4    -0.7     0.1    -0.4
     0.7     0.8     0.4     0.8     0.4     0.2     0.2    -0.3     0.0     0.3
    -0.1    -0.1    -0.6    -0.3    -0.1    -0.0     0.1    -0.3     0.9     0.5
    -0.0     0.1    -0.4     0.4    -0.5    -1.0     0.2     0.0     0.5     0.8
    -0.5    -0.1     0.7     0.2     0.2     0.5     0.5     0.2    -0.4     0.1
     0.8     0.3    -0.4    -0.3     0.8     0.7    -0.2    -0.3    -0.4    -0.4
    -0.4    -0.1     0.1    -0.2    -0.6     0.2     0.9    -0.0     0.3     1.1
     0.4     0.1     0.3     0.2     0.5     0.5     0.2    -0.1     0.1     0.5
    -0.1    -0.7    -0.4    -0.1     0.7     0.3    -0.0     0.5    -0.9    -0.3
     0.6    -0.2     0.9     0.9     0.3     1.1     0.7     0.1     0.0    -0.1
     0.1     1.0     1.1    -0.2     0.0     0.7     0.7    -0.0    -0.8     0.2
     0.6     0.1    -0.0    -0.6    -0.4     0.4    -0.2    -0.1     0.5     0.2
     0.3    -0.0     0.0     0.3     0.0     0.4     1.1     0.7    -0.1    -0.1
     0.1    -0.9    -0.8     0.2    -0.3    -0.7    -0.3     0.2     0.6     0.7
     0.3    -0.2    -0.3    -0.4    -0.6    -0.5    -0.4    -0.7    -0.7     0.3
     0.6     0.0     0.3     0.5     0.2     0.2    -0.2    -0.2     0.4     0.5
    -0.0    -0.1     0.4    -0.3     0.0     0.1    -0.6     0.1    -0.1     0.3
     1.1     0.7     0.6     0.5     0.2     0.2     0.2    -0.5    -0.5    -0.3
    -0.3     0.3     0.1     0.0     0.6     0.7    -0.0    -0.5    -0.3    -0.2
    -0.5    -0.4     0.2     0.5     0.5     0.6     1.0     0.6     0.3     0.3
     0.6     0.1    -0.6    -0.0    -0.5    -0.2     0.4     0.1     0.3     0.0
     0.2     1.0     1.1    -0.3     0.0     1.0     0.1    -0.0    -0.8    -0.9
    -0.1     0.3     0.5     0.2     0.8     1.0     1.3     1.0    -0.1     0.2
     0.5    -0.5    -0.2    -0.4    -1.1     0.1     0.3     0.3     0.1    -0.6
    -0.2     0.2     0.4     0.0     0.8     1.6     0.5     0.0     0.0    -0.2
    -0.4    -0.8    -0.5     0.0     0.2    -0.6    -0.4     0.7     0.0     1.0
     1.5    -0.5    -0.8    -0.5    -0.2    -0.3    -0.3    -0.6    -0.4     0.4
     0.5     1.4     0.7     0.3     0.5     0.1     0.6    -0.4    -0.6    -0.1
    -0.2    -0.0    -0.1    -0.1     0.1     0.4     0.1     0.1     0.3     0.0
     1.0     0.4    -0.2     0.2    -0.3    -0.3    -0.9    -1.0    -0.6     0.4
     0.8    -0.0     0.3     0.6     0.8    -0.5    -0.3     0.8     0.0    -0.1
    -0.3     0.1     0.3     0.3    -0.3    -0.2     0.8     0.4     0.6     0.0
     0.1     0.5    -0.1     0.1    -0.1    -0.4     0.2     0.8    -0.2     0.6
     0.9    -0.2     0.4     0.2     0.3    -0.1    -0.1     0.5    -0.3    -0.4
    -0.9     0.0     0.5     0.1     0.1    -0.3     0.6     0.3    -0.2     0.0
    -0.1     0.3    -0.3    -0.4    -0.2    -1.0    -0.4     0.4     0.2    -0.2
    -0.8    -0.6    -0.2     0.5     0.1    -0.9    -0.1     0.3     0.1    -0.7
    -0.1     0.8     0.4     0.6     0.2    -0.0    -0.0    -0.4    -0.1     0.7
     1.2     1.3     0.3    -0.2     0.2     0.4     0.1    -0.4     0.2     0.2
     0.5     1.0     0.2     0.7     0.5     0.4     0.1    -0.6     0.5     0.2
    -0.4    -0.0    -0.5    -0.8    -0.4    -0.7    -0.2     0.4    -0.1     0.6
     0.1    -0.0     0.2    -0.3     0.5     0.7    -0.4    -0.5     0.2     0.1
    -0.0    -0.4     0.1     0.0    -0.1     0.2     0.1     0.6    -0.0     0.0
    -0.1    -0.1     1.1    -0.3    -0.4     0.8     0.1    -0.3    -0.2     0.1
    -0.3    -0.1     0.2     0.1     0.2    -0.6    -0.5    -0.4    -0.3     0.4
     0.3     0.5    -0.1    -0.2    -0.0     0.1     0.1    -0.3     0.6     0.5
    -0.3    -0.2     0.3     0.5    -0.1    -0.1    -0.0     0.5     0.3    -0.9
    -0.2     0.5    -0.2    -0.1    -0.1     0.7     0.5    -0.2     0.6    -0.4
    -0.6    -0.1     0.1     0.1    -0.4     0.4     0.1    -0.2     0.5     0.5
     0.3    -0.0     0.2    -0.3    -0.3     0.3     0.2     0.5     1.1     0.7
     0.1     0.8     0.1    -0.6     0.3     0.5    -0.3    -0.4     0.2    -0.2
    -0.3     0.2     0.5     0.6     0.5     0.1     0.1     0.2    -0.2     0.6
    -0.0    -0.0     0.3    -0.9    -0.0    -0.1     0.1     0.6     0.0    -0.1
     0.1     1.0    -0.1    -0.1     0.3    -0.9     0.2    -0.2    -0.1     0.5
    -0.3     0.7    -0.1    -0.4     0.0    -0.1     0.6    -0.0    -0.2     0.3
     0.6     0.4    -0.4     0.5     1.0     0.6     0.4     0.1     0.9     0.9
    -0.0    -0.5    -0.9    -0.4    -0.4    -0.7     0.2     0.1    -0.3    -0.2
    -0.1     1.5     1.6     0.1     0.1    -0.1    -0.4    -0.2     0.6     0.2
    -0.4     0.5     0.2    -0.3     0.2     0.7     0.5    -0.1    -0.0    -0.1
    -0.2     0.3     0.6     1.0     0.4     0.1     0.3    -0.7    -0.4     0.0
    -0.0     0.4    -0.0    -0.2    -0.1     0.1     0.1    -0.1    -0.2    -0.7
    -0.7    -0.4    -0.6    -0.8    -0.1     0.8     0.7     0.6     0.7     0.5
     0.9     0.6    -0.3     0.0     0.5     0.3     0.8     1.1     0.1    -0.4
     0.1    -0.5    -1.0    -0.4    -0.8    -0.5     0.6     0.1     0.6     1.5
     0.7     1.4     0.5    -0.0     0.5    -0.6    -0.0    -0.0    -0.4    -0.1
    -0.0    -0.0    -0.2     0.3     0.2     0.0     0.5     0.3     0.1     0.2
     0.1    -0.4    -0.3     0.0    -0.5     0.2     0.0    -0.7     0.5     0.2
     0.1     0.5     0.6     0.1     0.1     0.2    -0.7     0.2    -0.4    -0.5
     0.1    -0.2     0.4    -0.0    -0.3     0.2     0.4    -0.3     0.2    -0.1
    -0.4     0.1    -0.7     0.1    -0.2    -0.6     0.6     0.8     0.7    -0.1
    -0.4     0.1    -0.5    -0.5     0.3     0.1    -0.0     0.7     0.9     1.2
     1.4     1.1     0.4    -0.6    -0.6    -0.5    -0.3     0.1    -0.4    -0.8
    -0.5    -0.1     0.3     0.2    -0.4    -0.3     0.0    -0.3     0.1     0.7
     0.5     0.1     0.6     0.8    -0.1    -0.5    -0.5    -0.1     0.3     0.3
     0.5     0.0    -0.0     0.5    -0.7    -0.0     0.4    -0.3     0.7     0.0
    -0.3     0.4     0.6     0.5     0.4     0.8     0.1    -0.4    -0.1     0.1
     0.4     0.2     0.2    -0.1    -0.1    -0.2    -0.9    -0.2    -0.0     0.8
     0.8    -0.0     0.6     0.6     0.7     0.0     0.5     0.5     0.0    -0.1
    -1.1    -0.5    -0.7     0.0     0.2    -0.2     0.9     0.4     0.3    -0.1
    -0.4    -0.4     0.0     0.3    -0.4     0.6     0.3     0.1     0.8     0.5
     0.5     0.0     0.0    -0.4    -0.5    -0.2    -0.0    -0.0    -0.4    -0.3
