Uncorrected accelerogram 20160214_001343_AKSS_20 GNS Science
Site AKSS      43 48 39S  172 57 49E     Basalt file:  20160214_001351_AKSS
Akaroa School
Instrument Basalt_1675
Resolution: 24-bit   Instr Period: 0.0050 s   Damping: 0.700
Accelerogram 20160214_001343_AKSS_20                 Processed 2016 February 22
11 km east of CHRISTCHURCH
2016 February 14         00:13:43 UT
Epicentre  43 29 50S 172 45 18E  Bearing N26W  Dist   39km  Depth    8km M  5.70
Number of points  23000    Duration 115.00 s
Raw readings in units of 1.00 mm/s/s  at intervals of 0.005 s
Data is unfiltered
Component S90E
Acceleration:  Peak    554.2 mm/s/s at  46.84 s     RMS    28.75 mm/s/s
Velocity record unevaluated
Displacement record unevaluated
    2016       2      14       0      13     430       0       0    2016       2
      43      29      50     172      45      18       8       0      14       0
      43      48      39     172      57      49      90      90     334      39
   23000       0       0   23000       0       0       0       0      13   11000
   200.0    0.70    0.00   0.000  0.0000   0.000   0.000   1.000     0.0    0.00
  43.811 172.963  43.497 172.755    5.70    0.00    0.00    0.00      0.      0.
  115.00    0.00    0.00  115.00  0.0050  0.0050      0.      0.      0.  9806.6
   554.2   46.84    28.7      0.      0.     0.0    0.00     0.0     0.0   0.000
    0.00    0.00    0.00    0.00   0.000    0.00    0.00    0.00    0.00   0.000
   0.000   0.000   0.000      0.      0.   0.000   0.000   0.000      0.      0.
     0.0    -0.0    -0.1    -0.2    -0.1     0.0     0.1     0.1     0.1    -0.0
    -0.1     0.0     0.0    -0.0    -0.0    -0.1    -0.1     0.1     0.1     0.1
     0.1    -0.0    -0.1    -0.1     0.1     0.1     0.1     0.0    -0.1    -0.1
     0.0     0.0    -0.1    -0.0    -0.1    -0.0     0.1     0.2     0.2     0.1
    -0.0    -0.2    -0.1    -0.0    -0.0     0.1     0.1     0.0     0.0     0.1
     0.1    -0.0    -0.0    -0.1    -0.1    -0.0     0.1     0.1     0.0     0.1
    -0.0    -0.0     0.0     0.0     0.0     0.0     0.0    -0.0     0.1     0.1
    -0.1     0.0    -0.1    -0.1     0.1     0.1     0.1    -0.0    -0.1    -0.1
    -0.1    -0.0     0.1     0.2     0.1    -0.0    -0.0     0.0     0.1     0.1
    -0.0    -0.1    -0.0     0.1     0.0     0.1     0.1    -0.0    -0.1     0.1
     0.1     0.1     0.1    -0.1    -0.2    -0.0     0.1     0.1     0.1     0.0
    -0.0    -0.1    -0.0    -0.0    -0.0     0.0    -0.0    -0.0     0.1     0.2
     0.1    -0.0    -0.1    -0.0    -0.0    -0.0     0.0     0.1     0.1    -0.1
     0.0     0.1    -0.0     0.1     0.1    -0.0    -0.1    -0.0     0.0     0.0
     0.1    -0.0     0.0     0.1    -0.0    -0.0    -0.0    -0.1    -0.0     0.0
     0.0     0.1    -0.0    -0.0    -0.0    -0.0     0.1     0.1     0.1     0.0
    -0.1     0.0    -0.0    -0.0     0.0    -0.0     0.0     0.0    -0.0     0.1
     0.0    -0.1    -0.0    -0.1     0.0     0.1     0.1     0.1     0.1     0.1
     0.0    -0.0    -0.0    -0.1    -0.1    -0.1    -0.1     0.0     0.0     0.0
     0.1     0.1     0.1     0.1     0.0    -0.1    -0.1    -0.1    -0.1     0.0
     0.2     0.0     0.0     0.1     0.0     0.0     0.0    -0.0    -0.0     0.1
     0.2     0.1     0.1    -0.1    -0.1    -0.0    -0.0     0.1     0.1     0.1
    -0.0     0.0    -0.0    -0.1    -0.1    -0.1     0.0     0.1     0.1     0.1
     0.1     0.0    -0.1    -0.0    -0.0     0.0     0.1     0.1     0.1     0.0
     0.0    -0.1    -0.0     0.0    -0.0     0.0     0.1    -0.0     0.1     0.0
    -0.1    -0.0    -0.0    -0.0    -0.0    -0.0    -0.0    -0.0     0.1     0.2
     0.1     0.1     0.0    -0.0    -0.1    -0.1    -0.1     0.0    -0.0     0.0
     0.1     0.1     0.1    -0.1    -0.0    -0.1    -0.0    -0.0    -0.1     0.0
     0.1     0.1     0.1    -0.0    -0.0     0.0     0.0     0.1     0.1     0.1
     0.0    -0.1    -0.0    -0.1    -0.0     0.0    -0.0     0.1     0.1    -0.0
     0.0     0.0    -0.1     0.0    -0.0    -0.0     0.1     0.1     0.1     0.0
    -0.0    -0.1    -0.0     0.0    -0.0     0.0     0.0    -0.0    -0.0     0.0
     0.1     0.0    -0.0     0.0     0.1     0.2     0.0    -0.0    -0.1    -0.1
     0.0    -0.0    -0.0    -0.1     0.0     0.1     0.1     0.1    -0.0    -0.0
    -0.0    -0.1    -0.0     0.1     0.1     0.1     0.1    -0.0    -0.1    -0.0
    -0.1    -0.0    -0.1    -0.0     0.1     0.1     0.2    -0.0    -0.1    -0.1
    -0.1     0.1     0.1     0.2     0.1    -0.0    -0.0    -0.1    -0.1    -0.1
    -0.0    -0.0     0.0     0.2     0.1     0.0     0.1     0.0    -0.1    -0.0
     0.0    -0.0     0.0     0.0     0.0     0.1     0.0    -0.0    -0.0    -0.0
    -0.1    -0.1     0.0     0.0     0.1     0.1     0.1     0.1     0.1     0.0
    -0.1    -0.0     0.0    -0.0     0.1     0.0    -0.0     0.1     0.1    -0.0
    -0.1    -0.1    -0.1     0.0     0.1     0.0     0.1     0.0    -0.0     0.0
     0.0    -0.0     0.0     0.0     0.0     0.0     0.1     0.1     0.0     0.1
    -0.0    -0.1    -0.1    -0.1    -0.1    -0.2    -0.0     0.0     0.2     0.2
     0.1     0.1     0.1     0.1     0.0    -0.0    -0.1    -0.2    -0.1    -0.1
     0.0     0.1     0.1    -0.0    -0.0     0.0     0.1     0.1     0.2     0.0
    -0.1    -0.1    -0.2    -0.2    -0.0    -0.0     0.1     0.2     0.2     0.1
     0.1    -0.1    -0.1    -0.1    -0.0     0.0     0.1     0.2     0.1     0.0
     0.0    -0.1    -0.1    -0.1    -0.1    -0.1    -0.0     0.1     0.1     0.1
     0.1     0.0     0.1     0.1     0.1     0.0    -0.0    -0.1    -0.2    -0.1
    -0.0    -0.0     0.1     0.2     0.1     0.2     0.1     0.0     0.0     0.0
    -0.0    -0.1    -0.1    -0.1    -0.1    -0.0    -0.1    -0.1     0.0     0.1
     0.2     0.2     0.2    -0.0    -0.0     0.0    -0.1    -0.1    -0.0    -0.0
    -0.1     0.1     0.1     0.0     0.1    -0.0    -0.1    -0.1     0.0     0.0
     0.0     0.1    -0.1     0.0     0.1     0.0    -0.0     0.0     0.1    -0.0
     0.0     0.0    -0.1    -0.0     0.1     0.1    -0.0     0.0    -0.0    -0.1
    -0.1    -0.0    -0.1    -0.0     0.1     0.1     0.1     0.2     0.0    -0.0
     0.0    -0.0    -0.0     0.0     0.0    -0.1    -0.0    -0.0    -0.1    -0.0
     0.0    -0.0    -0.0     0.1     0.1     0.1     0.1    -0.0    -0.1    -0.1
     0.1    -0.0     0.0     0.1    -0.0    -0.0     0.0    -0.0     0.0    -0.0
    -0.0     0.0     0.0     0.1     0.0    -0.0     0.1     0.0    -0.0     0.0
     0.0     0.0     0.0    -0.0    -0.1    -0.0     0.0    -0.0     0.0     0.1
    -0.0    -0.1    -0.0    -0.1    -0.0     0.1     0.1     0.0    -0.0     0.0
     0.0    -0.0     0.1     0.0    -0.0    -0.0    -0.1    -0.1    -0.0     0.0
    -0.1     0.1     0.1     0.0     0.1     0.0     0.0     0.1     0.0    -0.1
    -0.1    -0.0    -0.0    -0.0     0.1     0.1     0.1     0.1    -0.1    -0.1
     0.0     0.1    -0.0    -0.2    -0.1    -0.1    -0.1     0.1     0.2     0.1
     0.1     0.1    -0.1     0.0     0.0    -0.1     0.0     0.0    -0.1     0.0
     0.0    -0.0     0.0     0.1    -0.0     0.0     0.1     0.0     0.0     0.0
    -0.0    -0.0     0.0     0.0    -0.0    -0.1     0.0    -0.0    -0.1     0.0
     0.0    -0.0     0.0     0.0     0.0     0.2     0.2    -0.0     0.1     0.0
    -0.1     0.0     0.0    -0.1    -0.1    -0.0    -0.1    -0.0     0.1     0.0
     0.0     0.1     0.0    -0.1    -0.0     0.0     0.0     0.0     0.0    -0.1
    -0.0     0.1    -0.1     0.0     0.1    -0.0     0.0     0.2     0.1     0.0
     0.1    -0.0    -0.0     0.1    -0.0    -0.1    -0.1    -0.1    -0.1    -0.0
     0.1     0.0    -0.0     0.1    -0.0     0.0     0.2     0.0    -0.0    -0.0
    -0.1    -0.0     0.1     0.1    -0.0    -0.1     0.0    -0.1     0.0     0.2
     0.1    -0.1    -0.0    -0.0    -0.1     0.0     0.1    -0.1    -0.0     0.0
    -0.1    -0.0     0.1     0.1    -0.0     0.1     0.0    -0.0     0.1     0.0
    -0.0     0.0     0.0    -0.0     0.0     0.1    -0.1    -0.2    -0.0    -0.1
    -0.1     0.1     0.2     0.0    -0.0     0.1    -0.0     0.0     0.1    -0.1
    -0.1    -0.0     0.0     0.0     0.1     0.1    -0.0    -0.1    -0.0    -0.0
     0.1     0.2     0.1    -0.0     0.1     0.0    -0.0     0.1     0.0    -0.1
    -0.2    -0.1    -0.1     0.0     0.2     0.1     0.0     0.0     0.0     0.0
     0.1    -0.0    -0.2    -0.1     0.0     0.1     0.1     0.2     0.0    -0.1
    -0.2    -0.2    -0.1     0.1     0.1     0.1     0.2     0.1     0.0     0.0
     0.0    -0.1    -0.1    -0.1    -0.1     0.0     0.1     0.0    -0.1    -0.1
    -0.1     0.0     0.2     0.2     0.0    -0.0    -0.1    -0.1     0.0     0.1
    -0.1    -0.2    -0.1    -0.0     0.1     0.2     0.1    -0.1    -0.1    -0.0
     0.0     0.2     0.1     0.0    -0.1    -0.1    -0.0     0.0     0.1     0.0
    -0.1    -0.0    -0.0     0.0     0.1     0.0    -0.1    -0.1    -0.1    -0.1
     0.1     0.2     0.1     0.0     0.0    -0.0     0.0     0.0    -0.1    -0.1
    -0.1     0.0     0.1     0.1     0.1    -0.1    -0.1    -0.2     0.0     0.2
     0.1     0.1    -0.0    -0.2    -0.1    -0.0     0.0     0.1     0.1     0.1
    -0.0     0.1     0.1     0.0    -0.0    -0.2    -0.1    -0.1     0.1     0.2
     0.0    -0.1    -0.2    -0.0     0.1     0.1     0.2     0.1    -0.0     0.0
     0.1     0.0     0.0    -0.0    -0.2    -0.0     0.1     0.1     0.1    -0.1
    -0.2    -0.1    -0.0     0.0     0.2     0.1    -0.0    -0.1    -0.0     0.0
     0.1     0.2     0.0    -0.1     0.0     0.0     0.0    -0.0    -0.1    -0.1
    -0.1     0.0     0.1     0.2     0.1    -0.0    -0.1    -0.0     0.0     0.1
     0.0    -0.1    -0.0    -0.0    -0.1    -0.0    -0.0    -0.1    -0.1     0.0
     0.1     0.1     0.2    -0.0    -0.1    -0.0    -0.0     0.0     0.1     0.0
    -0.0    -0.1    -0.1    -0.0     0.0     0.0    -0.0     0.0     0.0    -0.0
     0.1     0.0    -0.1    -0.0     0.0     0.0     0.1     0.1    -0.1    -0.0
     0.0    -0.0     0.0    -0.0    -0.2    -0.1     0.0     0.1     0.0     0.1
    -0.0     0.0     0.1     0.1     0.0     0.0    -0.1    -0.2    -0.1     0.1
     0.1     0.0    -0.0     0.0     0.2     0.2     0.0    -0.0    -0.2    -0.3
    -0.1     0.1     0.1     0.0     0.1    -0.0     0.0     0.1    -0.0    -0.0
     0.0    -0.1     0.0     0.1     0.1     0.0    -0.1    -0.1    -0.1     0.0
     0.0     0.0     0.1     0.0    -0.0    -0.0    -0.0    -0.0     0.1     0.1
    -0.1    -0.0     0.1     0.1     0.1     0.0    -0.1    -0.2    -0.1    -0.1
    -0.1     0.1    -0.0     0.0     0.1     0.1     0.1     0.2    -0.0    -0.2
    -0.1    -0.0    -0.0     0.0     0.0    -0.1    -0.0     0.1     0.2     0.1
    -0.0    -0.1    -0.0     0.1     0.1     0.0    -0.1    -0.1    -0.1     0.0
     0.1     0.0     0.0    -0.0    -0.1     0.1     0.1     0.0     0.0    -0.1
    -0.2    -0.0     0.1     0.1     0.1     0.1    -0.0    -0.1     0.0     0.1
     0.1     0.0    -0.1    -0.2    -0.0     0.1     0.1     0.1    -0.0    -0.1
    -0.0     0.1     0.1     0.1     0.0    -0.2    -0.0     0.0    -0.0    -0.1
    -0.1    -0.1     0.0     0.2     0.2     0.1     0.0    -0.1    -0.1     0.0
     0.0     0.0     0.0    -0.1    -0.1    -0.0     0.0     0.1     0.1     0.1
     0.0    -0.0     0.1     0.1     0.0    -0.0    -0.2    -0.2    -0.1    -0.0
     0.0     0.1     0.1     0.0     0.1     0.2     0.1    -0.1    -0.2    -0.3
    -0.1     0.1     0.1     0.1    -0.0    -0.1    -0.1     0.0     0.0     0.0
     0.1    -0.0    -0.1     0.1     0.1     0.0     0.1    -0.0    -0.2    -0.0
     0.1     0.1     0.1     0.0    -0.1    -0.1     0.1    -0.0     0.0     0.1
    -0.0    -0.0     0.0     0.1     0.0     0.0    -0.0    -0.2    -0.0     0.0
    -0.1     0.1     0.0    -0.1    -0.0     0.1     0.1     0.1     0.0    -0.1
    -0.1    -0.0    -0.0    -0.0     0.1    -0.0    -0.1     0.0     0.1     0.1
     0.0    -0.1    -0.1    -0.0     0.2     0.1     0.1     0.1    -0.1    -0.0
     0.1    -0.0    -0.2    -0.2    -0.1    -0.1     0.1     0.2     0.1     0.1
     0.0    -0.1    -0.1     0.1     0.0     0.0     0.1    -0.1    -0.2    -0.1
    -0.0     0.0     0.1     0.0    -0.1     0.1     0.1     0.0     0.0    -0.1
    -0.2    -0.1     0.2     0.2     0.1     0.0    -0.1    -0.1     0.0     0.0
    -0.0    -0.0     0.0    -0.1    -0.0     0.2     0.1     0.0     0.0    -0.1
    -0.1     0.1     0.1    -0.0    -0.0    -0.1    -0.1     0.1     0.1     0.0
    -0.0    -0.1    -0.1     0.1     0.2     0.1    -0.0     0.0    -0.1    -0.1
     0.1     0.1     0.0     0.0    -0.0    -0.2    -0.1     0.1     0.0    -0.0
     0.0    -0.1     0.0     0.2     0.2     0.0    -0.0    -0.1    -0.2    -0.0
     0.1    -0.0     0.0     0.0    -0.1    -0.1     0.1     0.1    -0.0    -0.0
    -0.1    -0.1     0.1     0.2     0.0     0.0     0.0    -0.1    -0.1     0.0
     0.1    -0.0    -0.0    -0.1    -0.2     0.1     0.1     0.1     0.1     0.0
    -0.1    -0.1     0.2     0.1    -0.1    -0.0    -0.1    -0.1    -0.0     0.1
     0.1    -0.0     0.1    -0.0    -0.1     0.1     0.0    -0.1    -0.1     0.0
    -0.1     0.1     0.2    -0.0    -0.1    -0.1    -0.0     0.0     0.2     0.2
    -0.0    -0.0    -0.1    -0.1    -0.1     0.0     0.1    -0.1     0.1     0.1
    -0.1     0.1    -0.0    -0.0    -0.1    -0.0     0.1     0.1     0.2     0.0
    -0.1    -0.1    -0.1    -0.1     0.0     0.2     0.1     0.0    -0.0    -0.1
    -0.1    -0.0     0.0    -0.1     0.0     0.1     0.1     0.1    -0.0    -0.1
    -0.1    -0.0     0.1     0.0     0.1     0.2    -0.0    -0.0    -0.0    -0.1
    -0.0     0.0     0.1     0.1     0.1     0.1    -0.1    -0.1    -0.0    -0.1
    -0.1     0.0     0.1     0.1     0.1     0.1    -0.1    -0.0    -0.0    -0.1
     0.0     0.1     0.1     0.0    -0.0    -0.0    -0.1     0.0     0.0    -0.1
     0.0     0.1    -0.0    -0.0     0.1     0.0    -0.0    -0.0    -0.0    -0.0
     0.0     0.1    -0.0    -0.0     0.1     0.0     0.0     0.1    -0.0    -0.1
    -0.0    -0.1    -0.1    -0.0     0.1     0.0     0.0     0.1     0.1     0.0
     0.1     0.1    -0.1    -0.1    -0.2    -0.2    -0.0    -0.0     0.1     0.0
     0.1     0.2     0.0     0.0    -0.1    -0.1     0.0     0.0     0.1     0.0
    -0.0     0.1    -0.0    -0.0     0.0    -0.0     0.0     0.0    -0.1     0.0
     0.1     0.0    -0.0     0.0    -0.1    -0.1    -0.1     0.1     0.1     0.1
     0.1     0.1    -0.0    -0.1    -0.0    -0.0     0.0     0.0    -0.0    -0.0
     0.0     0.1     0.0     0.0    -0.1    -0.1    -0.0     0.1    -0.0    -0.0
     0.1     0.0    -0.0    -0.0    -0.0    -0.1     0.1     0.2     0.2     0.1
     0.0    -0.1    -0.1    -0.0    -0.1    -0.1    -0.0    -0.1    -0.1     0.0
     0.0    -0.0     0.1     0.2     0.1     0.1     0.1     0.1     0.0     0.0
     0.0    -0.1    -0.1    -0.0    -0.1    -0.0     0.0    -0.0     0.0     0.1
    -0.0    -0.0     0.0     0.0     0.0     0.1     0.1    -0.0    -0.1    -0.0
    -0.1    -0.1     0.1     0.1     0.1     0.0    -0.0    -0.1    -0.1     0.0
     0.0     0.0     0.1     0.0     0.0     0.0    -0.0    -0.1    -0.0     0.0
     0.0     0.0    -0.0    -0.1    -0.1     0.0     0.0    -0.0     0.1     0.1
     0.0    -0.0    -0.0    -0.0     0.0     0.2     0.1    -0.0     0.0    -0.1
    -0.1    -0.0    -0.0    -0.1    -0.1     0.0     0.1     0.1     0.1     0.1
    -0.1     0.0     0.1    -0.0     0.1     0.2    -0.0    -0.1    -0.1    -0.2
    -0.1     0.1     0.1    -0.0    -0.0    -0.0    -0.1     0.0     0.1     0.0
     0.1     0.2     0.2     0.1     0.1    -0.2    -0.4    -0.2    -0.0     0.1
     0.2     0.1    -0.0    -0.1    -0.0    -0.1    -0.1     0.0    -0.0     0.0
     0.1     0.1     0.0     0.1    -0.0    -0.2    -0.0     0.1     0.0     0.1
     0.1     0.0    -0.1    -0.0    -0.1     0.0     0.2     0.1    -0.1    -0.0
    -0.1    -0.1    -0.0     0.0     0.0     0.1     0.2     0.0     0.0     0.0
    -0.1    -0.1    -0.1    -0.1     0.0     0.2     0.1    -0.1    -0.1    -0.1
    -0.1     0.0     0.2     0.1     0.1     0.0    -0.1     0.0     0.1    -0.1
    -0.2    -0.1    -0.0     0.1     0.2     0.1     0.0    -0.0    -0.1    -0.1
     0.0     0.1    -0.0     0.0     0.1     0.0     0.1     0.1    -0.0    -0.1
    -0.1    -0.1     0.0     0.2     0.1    -0.0    -0.0    -0.2    -0.2    -0.0
     0.1     0.1     0.1     0.0     0.0     0.1     0.1    -0.0    -0.1    -0.1
    -0.1     0.1     0.2     0.2     0.0    -0.1    -0.2    -0.1     0.1     0.1
     0.1     0.0    -0.1     0.0     0.0    -0.1    -0.1    -0.1    -0.1     0.1
     0.2     0.1     0.1    -0.0    -0.2    -0.1     0.1     0.1     0.1    -0.0
    -0.2    -0.1     0.1    -0.0     0.1     0.1    -0.1    -0.0    -0.0    -0.0
     0.0     0.1    -0.0    -0.0     0.1     0.0    -0.0     0.0    -0.1    -0.1
     0.1     0.1     0.1     0.2     0.0    -0.0    -0.0    -0.2    -0.2    -0.0
    -0.1     0.1     0.3     0.1     0.1     0.1    -0.1    -0.1     0.0    -0.1
    -0.1     0.0    -0.1     0.1     0.2     0.1    -0.0     0.0    -0.1    -0.0
     0.1    -0.0    -0.1    -0.0    -0.0     0.0     0.1     0.1    -0.0    -0.1
    -0.2    -0.1     0.1     0.1     0.1     0.0    -0.1    -0.0     0.1     0.1
     0.1     0.0    -0.1    -0.1     0.0     0.0    -0.0     0.0    -0.0    -0.0
     0.1     0.1     0.0     0.1    -0.1    -0.2    -0.0     0.0     0.0     0.1
     0.0    -0.1     0.0     0.0    -0.0     0.1     0.0     0.0     0.1     0.0
    -0.0     0.0    -0.1    -0.0     0.1    -0.0     0.0     0.0    -0.0     0.1
     0.1     0.0     0.1     0.1    -0.1    -0.1    -0.1    -0.2     0.0     0.1
     0.0     0.1     0.1    -0.1    -0.0     0.0    -0.1     0.1     0.1    -0.0
     0.0    -0.0    -0.1     0.0     0.0    -0.0    -0.0    -0.0    -0.1     0.0
     0.1     0.0     0.1     0.0    -0.1     0.0     0.0    -0.0     0.1    -0.0
    -0.1     0.1     0.0     0.0     0.1    -0.0     0.0     0.1     0.0    -0.0
    -0.0    -0.1    -0.0     0.1     0.0     0.0     0.1    -0.1     0.0     0.1
    -0.0     0.0    -0.1    -0.1     0.0     0.1     0.0     0.1     0.0    -0.1
     0.0     0.0    -0.0     0.0     0.0    -0.0     0.1     0.1     0.0     0.0
    -0.0    -0.0     0.0     0.0     0.0     0.0    -0.1    -0.0     0.0     0.0
     0.0    -0.0    -0.1    -0.1     0.0     0.1     0.1     0.1    -0.0    -0.0
     0.1     0.0     0.1    -0.1    -0.1     0.0    -0.0     0.1     0.0    -0.1
    -0.0     0.0     0.1     0.1     0.1    -0.1    -0.1    -0.0    -0.0     0.1
    -0.0    -0.0     0.0    -0.0     0.1     0.0    -0.0    -0.0    -0.0    -0.0
     0.1     0.1     0.0     0.0    -0.1    -0.1     0.0    -0.1    -0.1    -0.0
    -0.0     0.1     0.1    -0.0    -0.0    -0.0    -0.1     0.1     0.1    -0.0
    -0.0     0.0     0.1     0.1    -0.0    -0.2    -0.1     0.0     0.0     0.1
     0.0    -0.1    -0.0    -0.0     0.0    -0.0     0.0     0.0     0.0     0.1
     0.1     0.1    -0.0    -0.1    -0.0    -0.1     0.0     0.0    -0.1     0.1
     0.0     0.1     0.1    -0.1    -0.0     0.1     0.0     0.1     0.1    -0.1
    -0.1    -0.1    -0.0     0.1    -0.0    -0.1    -0.1     0.0     0.1     0.2
     0.0    -0.0    -0.0    -0.0     0.0     0.0    -0.1    -0.0     0.0     0.0
     0.1     0.0    -0.1    -0.1    -0.1     0.0     0.1    -0.1    -0.0     0.0
     0.1     0.1     0.1    -0.0    -0.0     0.0     0.0     0.1     0.0    -0.1
    -0.1    -0.1     0.1     0.1    -0.1    -0.1    -0.0    -0.0     0.0     0.0
    -0.0    -0.0    -0.1     0.0     0.2     0.1     0.1     0.0    -0.0    -0.0
    -0.0    -0.1    -0.1    -0.0     0.0     0.1    -0.0    -0.1    -0.0    -0.0
     0.1     0.2     0.1     0.0    -0.0    -0.1    -0.0    -0.0    -0.1    -0.1
     0.0     0.1     0.2     0.1     0.0     0.0    -0.0     0.1    -0.0    -0.0
    -0.0    -0.0    -0.0    -0.0    -0.0    -0.1    -0.1    -0.0     0.0     0.2
