Uncorrected accelerogram 20160214_001343_CMHS_20 GNS Science
Site CMHS      43 33 56S  172 37 27E     Cusp file:  20160214_001347_CMHS
Christchurch Cashmere High School
Instrument Cusp_42279
Resolution: 18-bit   Instr Period: 0.0050 s   Damping: 0.700
Accelerogram 20160214_001343_CMHS_20                 Processed 2016 February 22
11 km east of CHRISTCHURCH
2016 February 14         00:13:43 UT
Epicentre  43 29 50S 172 45 18E  Bearing N54E  Dist   13km  Depth    8km M  5.70
Number of points  38588    Duration 192.94 s
Raw readings in units of 1.00 mm/s/s  at intervals of 0.005 s
Data is unfiltered
Component N80W
Acceleration:  Peak   1268.9 mm/s/s at  43.69 s     RMS    66.05 mm/s/s
Velocity record unevaluated
Displacement record unevaluated
    2016       2      14       0      13     430       0       0    2016       2
      43      29      50     172      45      18       8       0      14       0
      43      33      56     172      37      27     280     280      54      13
   38588       0       0   38588       0       0       0       0      13    7247
   200.0    0.70    0.00   0.000  0.0000   0.000   0.000   1.000     0.0    0.00
  43.566 172.624  43.497 172.755    5.70    0.00    0.00    0.00      0.      0.
  192.94    0.00    0.00  192.94  0.0050  0.0050      0.      0.      0.  9806.6
  1268.9   43.69    66.1      0.      0.     0.0    0.00     0.0     0.0   0.000
    0.00    0.00    0.00    0.00   0.000    0.00    0.00    0.00    0.00   0.000
   0.000   0.000   0.000      0.      0.   0.000   0.000   0.000      0.      0.
    -0.1    -0.2    -0.2    -0.0    -0.0    -0.1    -0.1     0.1     0.1    -0.1
    -0.1     0.1    -0.0    -0.1    -0.0     0.0     0.1    -0.0    -0.3    -0.2
    -0.0    -0.1    -0.2    -0.2    -0.2    -0.1    -0.0    -0.0     0.0    -0.1
     0.0     0.2    -0.1    -0.3    -0.2    -0.2    -0.3    -0.2    -0.0     0.2
     0.2     0.1     0.2     0.1     0.1     0.1    -0.0    -0.0     0.0    -0.0
    -0.1    -0.1    -0.0    -0.0    -0.1    -0.0    -0.2    -0.2    -0.1    -0.0
     0.0     0.0    -0.0     0.1     0.1    -0.1    -0.1    -0.1    -0.1    -0.1
     0.0     0.0    -0.0     0.1    -0.1    -0.1    -0.2    -0.2    -0.0    -0.0
     0.1     0.0    -0.0     0.1    -0.1    -0.2    -0.1    -0.2    -0.1    -0.1
    -0.2    -0.1    -0.1    -0.1    -0.0     0.1    -0.0    -0.1    -0.1    -0.1
    -0.1    -0.0    -0.1    -0.1     0.1    -0.1    -0.1    -0.1    -0.1     0.0
     0.1    -0.0     0.0    -0.0    -0.1    -0.0    -0.1    -0.3    -0.2    -0.2
    -0.2    -0.3    -0.1     0.1     0.0     0.0     0.1    -0.0     0.0    -0.1
    -0.0     0.1    -0.1    -0.2    -0.2    -0.2    -0.2    -0.1    -0.1    -0.1
     0.1     0.1    -0.0    -0.1    -0.0     0.0    -0.1     0.0    -0.0    -0.3
    -0.1    -0.1    -0.3    -0.0     0.1     0.1     0.1     0.1    -0.0     0.1
     0.2     0.1     0.1    -0.0    -0.1    -0.1     0.0    -0.0    -0.2    -0.1
    -0.0    -0.1    -0.1     0.0     0.0    -0.0    -0.1    -0.1     0.0     0.0
    -0.1    -0.1    -0.1    -0.2    -0.1    -0.1    -0.2    -0.3    -0.1     0.1
    -0.1    -0.0     0.1    -0.1    -0.1     0.1     0.1    -0.1     0.0    -0.1
    -0.0     0.1     0.0     0.0     0.1    -0.1    -0.1     0.0    -0.1    -0.0
    -0.0    -0.1     0.1    -0.1    -0.0     0.1    -0.1     0.2     0.0    -0.2
    -0.1    -0.1     0.1     0.0    -0.1     0.1     0.1    -0.2    -0.1    -0.1
    -0.2    -0.1    -0.0    -0.0    -0.2    -0.0     0.1    -0.3    -0.0     0.1
    -0.1     0.1     0.1    -0.1    -0.0    -0.0    -0.0    -0.0    -0.1    -0.0
     0.0     0.0     0.2     0.2    -0.0     0.0     0.0    -0.0    -0.1    -0.0
     0.1    -0.0    -0.2    -0.3    -0.2    -0.1    -0.1    -0.1    -0.0    -0.1
    -0.2    -0.0     0.1     0.0    -0.0    -0.0     0.1    -0.0    -0.0     0.1
    -0.0     0.1    -0.0    -0.1    -0.1     0.0     0.0    -0.2    -0.1     0.0
    -0.1    -0.1    -0.1     0.0    -0.1    -0.1    -0.1    -0.1    -0.0    -0.2
    -0.2    -0.1    -0.3    -0.2    -0.1    -0.1    -0.0    -0.0    -0.1    -0.1
     0.1     0.2     0.1     0.1    -0.1    -0.1    -0.0     0.0     0.1    -0.1
    -0.1    -0.0    -0.1    -0.1    -0.2    -0.2    -0.1    -0.0    -0.1    -0.0
     0.1     0.0    -0.1    -0.2    -0.1    -0.1    -0.1     0.0     0.0    -0.1
    -0.1    -0.1    -0.1    -0.1    -0.1    -0.1    -0.0    -0.1     0.0     0.1
    -0.0    -0.0    -0.1    -0.1    -0.1    -0.0    -0.0    -0.0     0.0    -0.0
     0.2     0.2    -0.1     0.0     0.0    -0.1    -0.2    -0.1     0.0    -0.0
     0.1     0.1    -0.0    -0.1     0.0     0.1     0.0    -0.1    -0.0     0.1
     0.2     0.1    -0.0     0.1     0.2     0.1     0.0     0.0    -0.0    -0.1
    -0.0    -0.1    -0.2     0.1    -0.0    -0.1    -0.1    -0.0     0.1    -0.1
    -0.1     0.0    -0.0    -0.1    -0.2    -0.1    -0.0    -0.1    -0.1     0.1
     0.1    -0.0     0.0    -0.1    -0.1     0.0    -0.1    -0.0     0.0    -0.1
     0.1     0.1    -0.0     0.0    -0.2    -0.1    -0.0    -0.0     0.0    -0.1
    -0.0     0.0    -0.0     0.0    -0.1    -0.1     0.1     0.0    -0.2    -0.0
    -0.0    -0.1     0.1     0.0     0.0     0.1     0.2     0.3     0.1     0.1
     0.1    -0.0     0.1    -0.0     0.0     0.2    -0.0     0.0     0.1    -0.1
    -0.0    -0.0    -0.0     0.1     0.1     0.1     0.0     0.0     0.0    -0.1
    -0.2    -0.1    -0.0    -0.1    -0.1    -0.1    -0.0     0.0     0.1     0.1
    -0.0     0.1     0.1    -0.0     0.1    -0.0    -0.1     0.1     0.0     0.0
     0.1    -0.0     0.1     0.2     0.1     0.1     0.0     0.1     0.0    -0.1
     0.1     0.1     0.1     0.2     0.2     0.0    -0.2    -0.0     0.0    -0.1
     0.1     0.2    -0.0    -0.0    -0.0    -0.0    -0.0    -0.0     0.1     0.1
    -0.0    -0.0    -0.0    -0.1     0.0     0.0     0.0     0.0    -0.1     0.0
    -0.0    -0.1    -0.1    -0.2    -0.1    -0.1     0.1     0.1     0.1     0.2
     0.1     0.2     0.1    -0.0     0.1    -0.0    -0.1    -0.0     0.0     0.1
    -0.0    -0.1    -0.1    -0.3    -0.2    -0.1    -0.1     0.1    -0.1     0.1
     0.2    -0.0     0.1     0.0    -0.1     0.1    -0.0    -0.0    -0.0    -0.1
    -0.0     0.0    -0.0     0.1     0.2     0.1     0.1     0.2     0.1    -0.1
    -0.1     0.0    -0.0    -0.0    -0.0     0.1     0.1    -0.1     0.1     0.2
     0.1    -0.0    -0.0     0.1    -0.2    -0.1     0.0    -0.1     0.1     0.0
     0.1     0.2    -0.1     0.1     0.0    -0.1     0.0     0.0     0.1    -0.0
    -0.1     0.1     0.0     0.1     0.1     0.1     0.1     0.1     0.1     0.1
    -0.0    -0.0    -0.1    -0.1     0.0    -0.1    -0.1     0.1    -0.1     0.1
     0.2     0.1     0.1    -0.0    -0.1     0.0    -0.0     0.0     0.1    -0.1
    -0.2     0.0    -0.1    -0.1     0.1     0.1     0.1    -0.0    -0.1     0.1
    -0.0    -0.0    -0.1    -0.0     0.1     0.1    -0.0     0.0    -0.0    -0.0
     0.1     0.1    -0.0    -0.1     0.0     0.2     0.1     0.1    -0.1    -0.1
     0.1    -0.1    -0.1    -0.0    -0.1     0.0    -0.1     0.0     0.2    -0.0
     0.1     0.2     0.1     0.0    -0.1    -0.0    -0.0    -0.1    -0.0     0.1
     0.2     0.1    -0.1     0.0     0.1     0.0     0.1     0.1    -0.1    -0.1
     0.0    -0.2    -0.1     0.1     0.1     0.1     0.1     0.1     0.2     0.2
     0.1    -0.0    -0.0     0.0     0.2     0.0    -0.1     0.0    -0.0    -0.1
     0.1     0.1     0.2     0.2     0.1     0.0     0.0     0.1     0.0    -0.1
    -0.0     0.0    -0.0    -0.1    -0.0     0.1    -0.1    -0.1     0.0     0.0
     0.1    -0.1    -0.0     0.2    -0.1    -0.1     0.0    -0.2    -0.0    -0.0
    -0.1     0.1     0.0     0.1     0.1    -0.1     0.1     0.1     0.0     0.1
    -0.1    -0.1    -0.0    -0.1     0.1    -0.0    -0.1    -0.1    -0.0     0.1
     0.1     0.1     0.1     0.1     0.2     0.1     0.1     0.2     0.1     0.1
     0.1     0.1    -0.0     0.0     0.1     0.1     0.1     0.0     0.1    -0.1
    -0.2    -0.0    -0.0     0.1    -0.0    -0.2    -0.2    -0.1     0.1     0.1
     0.1     0.2    -0.1    -0.0    -0.1    -0.1     0.1    -0.0     0.0     0.1
    -0.0    -0.0     0.1     0.1    -0.0     0.1    -0.0    -0.0     0.2     0.0
     0.0     0.0    -0.1    -0.1     0.1     0.0    -0.1     0.0     0.0    -0.1
    -0.3    -0.3    -0.1    -0.1     0.0    -0.1    -0.0     0.1    -0.1    -0.0
     0.1     0.0     0.1     0.1     0.1     0.2     0.1    -0.1    -0.1     0.0
     0.2     0.1     0.2     0.4     0.2     0.2     0.2     0.1     0.1     0.1
     0.1     0.1    -0.1    -0.1     0.0     0.0    -0.1    -0.0     0.0    -0.1
    -0.1    -0.0     0.1     0.2     0.2     0.1    -0.0     0.0    -0.0    -0.1
     0.2     0.2     0.0    -0.1    -0.3    -0.1     0.0    -0.2     0.0     0.2
     0.0     0.2     0.2    -0.0     0.1     0.1    -0.1     0.0     0.2     0.1
    -0.1    -0.1    -0.0     0.1    -0.1    -0.1     0.1     0.0     0.1    -0.0
    -0.1     0.1    -0.0     0.0     0.1    -0.0     0.1     0.0    -0.1     0.0
     0.0    -0.1    -0.1     0.0     0.1    -0.1    -0.1     0.1     0.2     0.1
     0.2     0.2    -0.0     0.1     0.1    -0.0    -0.1    -0.0     0.1     0.0
     0.1     0.2    -0.0    -0.1    -0.0    -0.0    -0.0    -0.0    -0.0     0.0
     0.1     0.0    -0.0     0.2     0.3     0.1     0.0     0.0     0.0     0.0
     0.0     0.1     0.1    -0.0    -0.0     0.1     0.1     0.1     0.0     0.0
     0.0    -0.1    -0.1     0.1     0.0    -0.1    -0.0    -0.1    -0.1     0.0
     0.0    -0.0    -0.1    -0.1     0.1    -0.1     0.0     0.2     0.1     0.1
     0.1     0.1     0.2     0.2     0.1     0.0     0.0    -0.0    -0.1     0.0
     0.1    -0.0     0.1     0.1    -0.1    -0.1     0.1     0.1    -0.2     0.1
     0.2    -0.1    -0.0     0.1    -0.1    -0.1    -0.0    -0.1    -0.1    -0.1
    -0.1     0.0    -0.0     0.0     0.1    -0.1    -0.0    -0.1    -0.0     0.1
     0.1     0.0    -0.0     0.0    -0.1    -0.2    -0.1     0.0     0.1    -0.1
    -0.1    -0.2    -0.3    -0.0    -0.1    -0.2    -0.2    -0.1     0.0    -0.2
    -0.1     0.1    -0.1    -0.0    -0.0    -0.1    -0.2    -0.2    -0.1    -0.0
     0.0     0.0     0.0    -0.0    -0.1     0.0     0.0    -0.1     0.1     0.0
    -0.0     0.0    -0.1    -0.0    -0.0    -0.1    -0.0    -0.0     0.2     0.2
     0.0     0.1     0.1    -0.1    -0.1    -0.0    -0.0    -0.0     0.0     0.1
     0.2     0.2     0.1     0.1     0.0     0.0     0.1    -0.1    -0.1    -0.0
    -0.1     0.1     0.1    -0.0     0.2     0.2     0.1     0.2     0.2     0.2
     0.1     0.1     0.2     0.0     0.0     0.1     0.1     0.1     0.1     0.1
     0.1     0.1     0.0     0.2     0.1     0.1     0.4     0.0    -0.0     0.1
    -0.1    -0.1    -0.0     0.0     0.1     0.0     0.1     0.0     0.0     0.0
    -0.1    -0.1     0.0     0.1    -0.1     0.0     0.0    -0.1     0.1    -0.1
    -0.1     0.1    -0.1    -0.1    -0.2     0.1     0.0    -0.2     0.0     0.0
     0.0     0.1     0.1     0.0     0.0     0.1    -0.1     0.0     0.1    -0.0
     0.1     0.1    -0.0    -0.1    -0.2    -0.1    -0.0    -0.1    -0.0    -0.0
     0.0     0.1     0.1     0.2     0.2     0.2     0.1     0.0     0.0    -0.0
     0.0    -0.0    -0.0     0.0    -0.0     0.0    -0.0     0.0     0.2     0.1
     0.0     0.1     0.0     0.1     0.2     0.0     0.1     0.1    -0.1    -0.1
    -0.1    -0.1    -0.1    -0.0     0.1     0.0     0.0     0.0     0.1     0.2
     0.0     0.2     0.3     0.1     0.1    -0.0    -0.1    -0.0    -0.0    -0.0
    -0.0    -0.2     0.0     0.2     0.1     0.1     0.0    -0.1    -0.2    -0.1
     0.0     0.0     0.1    -0.0     0.1     0.2    -0.0     0.1     0.1     0.0
    -0.0    -0.0     0.1     0.0    -0.0     0.1     0.2     0.1    -0.1     0.0
     0.1     0.0     0.2     0.2     0.1    -0.1    -0.0    -0.2    -0.1     0.1
    -0.1    -0.1    -0.0    -0.1    -0.1     0.0     0.2     0.1    -0.0     0.1
     0.1    -0.0     0.1     0.1    -0.1    -0.2    -0.0     0.1    -0.1    -0.0
     0.1    -0.1    -0.0    -0.0    -0.0     0.1    -0.0     0.0    -0.0    -0.1
     0.1     0.1     0.1     0.0    -0.0     0.0     0.1    -0.0     0.0     0.1
    -0.1    -0.0     0.2    -0.0    -0.0     0.0    -0.1     0.0     0.1    -0.1
    -0.1     0.1    -0.0     0.1     0.0    -0.1     0.0    -0.0    -0.0    -0.0
     0.1     0.3     0.1     0.2     0.1    -0.1     0.1     0.1     0.0     0.1
     0.1     0.1    -0.1     0.0     0.2    -0.1    -0.2    -0.0    -0.1    -0.1
    -0.0    -0.0    -0.0     0.1    -0.0     0.1     0.1    -0.2    -0.2    -0.0
     0.1    -0.1    -0.2    -0.1    -0.2    -0.0     0.0    -0.1     0.0    -0.0
     0.0     0.2     0.1     0.1     0.1     0.1     0.0     0.1     0.0    -0.0
     0.1     0.2     0.0     0.0    -0.0    -0.0     0.2     0.1     0.0    -0.0
     0.0     0.1    -0.0     0.0     0.1    -0.1    -0.0    -0.0    -0.0    -0.0
    -0.1    -0.1    -0.0     0.1     0.1     0.0     0.0     0.1     0.1     0.1
     0.1     0.2     0.0     0.1     0.0    -0.0     0.1    -0.1    -0.0     0.0
     0.1     0.0    -0.1     0.0    -0.2     0.0     0.2    -0.1     0.1     0.1
    -0.2    -0.1    -0.1    -0.1    -0.2    -0.1     0.0    -0.1     0.1     0.1
    -0.0     0.0    -0.1    -0.0     0.1     0.1    -0.0     0.0     0.0    -0.1
    -0.0     0.0    -0.1    -0.1     0.1     0.1     0.2     0.2     0.2     0.1
     0.1     0.2     0.2     0.2     0.2     0.1     0.1     0.1     0.0     0.0
    -0.1    -0.1     0.0     0.0     0.1     0.2     0.2     0.0     0.0     0.0
    -0.1     0.0     0.1     0.0    -0.0    -0.1    -0.0     0.0    -0.0     0.1
    -0.0    -0.0     0.0    -0.0     0.1     0.1     0.0     0.0     0.1     0.1
    -0.1     0.2     0.1    -0.0     0.2     0.0    -0.1    -0.0    -0.2    -0.0
     0.1    -0.0    -0.1    -0.1     0.1     0.0    -0.1     0.0     0.1     0.0
     0.1    -0.0     0.0     0.1    -0.0    -0.1     0.1     0.1     0.1     0.1
     0.0     0.1     0.1     0.0     0.1     0.0    -0.1    -0.1    -0.1    -0.2
    -0.2    -0.1    -0.0    -0.0    -0.1    -0.1    -0.1    -0.0     0.0     0.0
     0.1     0.0    -0.2    -0.0     0.1     0.0     0.1     0.1    -0.1    -0.0
    -0.0    -0.1     0.1    -0.0    -0.0    -0.0    -0.1     0.1    -0.1    -0.2
    -0.1    -0.2    -0.2    -0.2     0.0     0.0     0.0     0.1     0.0     0.2
     0.2     0.1     0.0     0.0     0.1     0.1     0.0    -0.0     0.0     0.0
    -0.1    -0.0    -0.0     0.0     0.2     0.3     0.1     0.0     0.2     0.1
    -0.1    -0.2    -0.2     0.0     0.0    -0.1    -0.1    -0.0     0.1     0.0
    -0.1     0.1     0.2     0.1     0.3     0.1     0.1     0.2     0.0    -0.0
     0.2     0.2     0.1     0.1    -0.0     0.0    -0.0    -0.1     0.1     0.1
    -0.0     0.2     0.0    -0.0     0.2     0.1    -0.0    -0.1     0.2     0.2
     0.1     0.2     0.1    -0.1     0.1     0.1     0.1     0.1     0.0     0.1
     0.1    -0.1     0.0    -0.0     0.0     0.1    -0.0    -0.0     0.2     0.2
     0.0     0.1     0.2     0.1     0.1     0.1     0.1     0.2    -0.0     0.0
    -0.0     0.0     0.2    -0.1    -0.1    -0.0    -0.2    -0.2    -0.0     0.2
     0.1     0.0     0.2     0.1     0.0    -0.2    -0.2     0.0    -0.1    -0.1
    -0.0    -0.1     0.1    -0.0    -0.0    -0.0    -0.1     0.0     0.0     0.0
     0.0     0.0     0.0     0.1     0.1    -0.1     0.0     0.1     0.1     0.1
     0.1     0.2     0.1    -0.1    -0.1    -0.0    -0.0    -0.1    -0.1    -0.0
     0.1     0.1     0.1     0.2     0.1     0.1     0.1    -0.1     0.0     0.1
    -0.0    -0.1    -0.1     0.1     0.1     0.1     0.1    -0.0    -0.0     0.0
     0.0     0.2     0.1     0.1     0.3     0.1     0.1     0.3     0.2     0.1
     0.0     0.0     0.0    -0.1    -0.1    -0.0     0.0    -0.0    -0.1    -0.0
     0.1     0.2     0.1     0.1     0.1     0.1     0.1     0.1    -0.0    -0.1
     0.0    -0.0    -0.1     0.0     0.0    -0.1    -0.2    -0.0     0.3     0.1
     0.0     0.2     0.2     0.1     0.0     0.1     0.1     0.1     0.0     0.0
     0.1     0.1     0.2     0.3     0.1    -0.0     0.0     0.0     0.1     0.3
     0.1     0.0     0.0    -0.2     0.2     0.2     0.1     0.3     0.1     0.2
     0.2    -0.1    -0.0    -0.2    -0.1    -0.1    -0.1    -0.0    -0.3    -0.2
     0.0    -0.2    -0.2    -0.0     0.2     0.2    -0.0     0.1     0.2     0.1
     0.1    -0.0     0.0     0.1     0.1     0.0    -0.0    -0.0    -0.0     0.1
     0.2     0.1    -0.0    -0.0    -0.1     0.1     0.1    -0.2    -0.1     0.0
    -0.1    -0.0     0.0     0.1     0.1    -0.0    -0.0     0.1     0.1    -0.0
     0.1     0.1    -0.0    -0.1    -0.1     0.0    -0.1     0.0     0.1    -0.1
    -0.1    -0.1     0.1     0.0    -0.1     0.1     0.0     0.0     0.1     0.0
     0.1     0.0    -0.1     0.1     0.1    -0.1    -0.0     0.0    -0.1     0.0
     0.0    -0.2     0.0    -0.0     0.0     0.1    -0.1     0.2     0.3    -0.0
    -0.2    -0.1     0.0    -0.0    -0.1     0.1     0.0    -0.1    -0.0     0.1
     0.2     0.1     0.0     0.1     0.1    -0.0    -0.1    -0.1    -0.2    -0.0
     0.1     0.1     0.1     0.1     0.1     0.1    -0.1    -0.1     0.0     0.1
     0.0     0.1     0.2     0.2     0.1     0.1     0.0    -0.1     0.0    -0.1
     0.0     0.2     0.0     0.1     0.1    -0.0     0.0    -0.0    -0.0    -0.1
    -0.2     0.1     0.1     0.1     0.1     0.0     0.1     0.0    -0.0     0.0
    -0.0    -0.1     0.0    -0.0    -0.2    -0.1    -0.1     0.0     0.1     0.1
     0.2     0.1     0.1     0.1     0.2     0.1     0.0     0.0     0.1    -0.0
     0.1     0.1    -0.0    -0.0     0.1     0.1    -0.0     0.0     0.0    -0.0
     0.1     0.1     0.0     0.0    -0.0    -0.0    -0.0    -0.1    -0.1     0.1
    -0.0    -0.1     0.0    -0.1     0.1     0.1     0.0     0.0    -0.1     0.0
    -0.1     0.0     0.1    -0.0     0.1     0.1    -0.0     0.0     0.2     0.3
     0.1     0.0    -0.0    -0.1     0.2     0.3     0.0     0.2     0.3     0.2
     0.1     0.1     0.0    -0.1     0.0     0.1    -0.1     0.1     0.1     0.2
     0.3     0.1     0.1     0.2     0.0     0.0     0.1     0.2     0.1     0.1
     0.1     0.0     0.1     0.2     0.1    -0.1     0.0    -0.0    -0.1     0.1
    -0.1    -0.1     0.0    -0.0     0.0     0.2     0.2    -0.0    -0.0    -0.1
    -0.0     0.2     0.0    -0.0     0.1     0.1     0.1     0.2     0.1     0.0
     0.1     0.1     0.0     0.1     0.1    -0.1     0.1     0.2     0.0     0.1
    -0.0    -0.0     0.1    -0.1    -0.1    -0.1    -0.0    -0.0    -0.2    -0.0
     0.0    -0.0    -0.1     0.0     0.2    -0.1    -0.2     0.0     0.0     0.0
    -0.0    -0.0    -0.1    -0.0    -0.0    -0.0    -0.0    -0.1    -0.0    -0.0
     0.0     0.1     0.1     0.2     0.1     0.1     0.1     0.1     0.1     0.0
     0.1    -0.0    -0.1    -0.0     0.0     0.1     0.1     0.1     0.0     0.0
    -0.0     0.0     0.1     0.1    -0.0    -0.1     0.1     0.1    -0.0     0.1
    -0.1    -0.1     0.1     0.1     0.0     0.1     0.1    -0.1    -0.1    -0.1
    -0.2    -0.1    -0.1    -0.2    -0.1    -0.2    -0.2    -0.0     0.0    -0.1
    -0.1     0.1     0.2     0.1     0.2     0.1    -0.1     0.0     0.1    -0.0
    -0.1    -0.1    -0.1    -0.1    -0.0     0.0    -0.1    -0.1     0.0    -0.0
     0.1     0.2     0.2     0.1     0.1     0.2     0.2     0.1     0.0     0.1
     0.1     0.2     0.0     0.2     0.2     0.0     0.2     0.2     0.0     0.1
    -0.0     0.0    -0.0    -0.1    -0.0    -0.2    -0.1    -0.1    -0.1     0.1
    -0.1    -0.2    -0.1    -0.1    -0.1     0.1     0.0     0.0     0.1    -0.1
    -0.1     0.0    -0.0    -0.0    -0.0     0.0     0.1     0.1     0.0     0.0
     0.2     0.1     0.0     0.0    -0.1     0.1     0.1     0.0     0.1    -0.0
     0.1     0.2     0.1    -0.1     0.1     0.0     0.0     0.2    -0.0    -0.1
    -0.0    -0.3    -0.2    -0.1    -0.0     0.1    -0.1     0.1     0.2     0.1
