Uncorrected accelerogram 20160214_001343_THZ_20 GNS Science
Site THZ       41 45 45S  172 54 19E     Basalt file:  20160214_001415_THZ
Top House
Instrument Basalt_1264
Resolution: 24-bit   Instr Period: 0.0050 s   Damping: 0.700
Accelerogram 20160214_001343_THZ_20                  Processed 2016 February 22
11 km east of CHRISTCHURCH
2016 February 14         00:13:43 UT
Epicentre  43 29 50S 172 45 18E  Bearing S04W  Dist  193km  Depth    8km M  5.70
Number of points  30400    Duration 152.00 s
Raw readings in units of 1.00 mm/s/s  at intervals of 0.005 s
Data is unfiltered
Component S90E
Acceleration:  Peak      5.9 mm/s/s at  65.99 s     RMS     1.01 mm/s/s
Velocity record unevaluated
Displacement record unevaluated
    2016       2      14       0      13     430       0       0    2016       2
      43      29      50     172      45      18       8       0      14       0
      41      45      45     172      54      19      90      90     184     193
   30400       0       0   30400       0       0       0       0      13   35000
   200.0    0.70    0.00   0.000  0.0000   0.000   0.000   1.000     0.0    0.00
  41.762 172.905  43.497 172.755    5.70    0.00    0.00    0.00      0.      0.
  152.00    0.00    0.00  152.00  0.0050  0.0050      0.      0.      0.  9806.6
     5.9   65.99     1.0      0.      0.     0.0    0.00     0.0     0.0   0.000
    0.00    0.00    0.00    0.00   0.000    0.00    0.00    0.00    0.00   0.000
   0.000   0.000   0.000      0.      0.   0.000   0.000   0.000      0.      0.
    -0.0     0.0    -0.0    -0.0     0.0    -0.0    -0.0    -0.0    -0.0    -0.1
    -0.0     0.0    -0.1     0.0     0.0    -0.0    -0.0     0.0    -0.0    -0.0
     0.0    -0.0     0.0     0.0    -0.0     0.0    -0.0    -0.0     0.0    -0.0
    -0.0    -0.0    -0.0     0.0     0.0     0.0    -0.0     0.0    -0.0    -0.0
     0.0    -0.0     0.0    -0.0    -0.0     0.0    -0.0     0.0    -0.0    -0.0
     0.0    -0.0     0.0    -0.0     0.0     0.0    -0.0     0.0    -0.0    -0.0
     0.0     0.0    -0.0    -0.0    -0.0    -0.0    -0.0    -0.0     0.0    -0.0
    -0.0    -0.0     0.0    -0.0    -0.0    -0.0    -0.0     0.0    -0.0    -0.0
    -0.0    -0.0     0.0    -0.0    -0.0    -0.0    -0.0     0.0    -0.0     0.0
    -0.0    -0.0     0.0     0.0    -0.0    -0.0    -0.0     0.0    -0.0    -0.0
    -0.0    -0.0     0.0    -0.0     0.0     0.0    -0.0     0.0    -0.0    -0.0
    -0.0    -0.0     0.0     0.0    -0.0    -0.0     0.0    -0.0     0.0     0.0
    -0.0     0.0    -0.0    -0.0     0.0    -0.0     0.0    -0.0     0.0    -0.0
    -0.0     0.0    -0.0     0.0    -0.0     0.0     0.0    -0.0     0.0     0.0
    -0.0    -0.0     0.0    -0.0     0.0     0.0    -0.0     0.0     0.0     0.0
    -0.0     0.0     0.0    -0.0     0.0    -0.0    -0.0    -0.0    -0.0     0.0
    -0.0    -0.0     0.0    -0.0     0.0    -0.0    -0.0     0.0    -0.0     0.0
    -0.0    -0.0     0.0    -0.0    -0.0    -0.0     0.0     0.0    -0.0     0.0
    -0.0    -0.0    -0.0     0.0     0.0     0.0     0.0    -0.0    -0.0    -0.0
     0.0    -0.0     0.0     0.0    -0.0     0.0    -0.0    -0.0     0.0    -0.0
     0.0     0.0    -0.0     0.0    -0.0    -0.0    -0.0    -0.0    -0.0    -0.0
     0.0    -0.0    -0.0     0.0    -0.0     0.0     0.0    -0.0     0.0    -0.0
    -0.0    -0.0    -0.0    -0.0    -0.0    -0.0    -0.0     0.0     0.0     0.0
    -0.0     0.0    -0.0    -0.0     0.0    -0.0    -0.0     0.0    -0.0     0.0
    -0.0     0.0    -0.0    -0.0     0.0    -0.0     0.0    -0.0     0.0     0.0
    -0.0     0.0    -0.0     0.0    -0.0    -0.0     0.0    -0.1     0.0    -0.0
    -0.0     0.0    -0.0     0.0    -0.0    -0.0    -0.0    -0.0     0.0    -0.0
    -0.0    -0.0    -0.0     0.0    -0.0    -0.0     0.0    -0.0    -0.0    -0.0
     0.0    -0.0     0.0     0.0    -0.0     0.0    -0.0    -0.0     0.0    -0.0
    -0.0    -0.0     0.0    -0.0    -0.0     0.0    -0.0     0.0     0.0    -0.0
     0.0    -0.0    -0.0    -0.0    -0.0     0.0     0.0    -0.0     0.0     0.0
     0.0    -0.0    -0.0    -0.0     0.0    -0.0    -0.0     0.0     0.0     0.0
    -0.0    -0.0    -0.0    -0.0    -0.0    -0.0    -0.0     0.0    -0.0     0.0
    -0.0     0.0     0.0    -0.0     0.0    -0.0    -0.0    -0.0    -0.0    -0.0
    -0.0     0.0    -0.0    -0.0    -0.0    -0.0    -0.0    -0.0     0.0     0.0
    -0.0     0.0    -0.0    -0.0    -0.0    -0.0    -0.0     0.0    -0.0    -0.0
     0.0    -0.0    -0.0     0.0    -0.0    -0.0    -0.0     0.0    -0.0    -0.0
     0.0    -0.0    -0.0     0.0     0.0    -0.0    -0.0    -0.0    -0.0     0.0
    -0.0     0.0     0.0    -0.0     0.0    -0.0    -0.0     0.0    -0.0    -0.0
     0.0    -0.1     0.0     0.0    -0.0     0.0    -0.0    -0.0    -0.0     0.0
    -0.0     0.0     0.0    -0.0     0.0    -0.0    -0.0     0.0    -0.0    -0.0
    -0.0    -0.0     0.0    -0.0     0.0     0.0     0.0     0.0    -0.0    -0.0
    -0.0    -0.0     0.0     0.0    -0.0     0.0    -0.0    -0.0     0.0    -0.0
     0.0    -0.0    -0.0     0.0    -0.0     0.0    -0.0     0.0     0.0    -0.0
     0.0    -0.0     0.0     0.0    -0.0     0.0    -0.0     0.0    -0.0     0.0
    -0.0    -0.0     0.0    -0.0     0.0     0.0    -0.0     0.0    -0.0    -0.0
     0.0    -0.0     0.0    -0.0    -0.0    -0.0    -0.0     0.0    -0.0    -0.0
     0.0    -0.0     0.0    -0.0    -0.0     0.0    -0.0     0.0     0.0    -0.0
    -0.0     0.0     0.0    -0.0    -0.0     0.0    -0.0    -0.0    -0.0    -0.0
    -0.0     0.0     0.0    -0.0    -0.0     0.0    -0.0    -0.0    -0.0    -0.0
    -0.0    -0.0     0.0     0.0    -0.0     0.0    -0.0    -0.0     0.0    -0.0
    -0.0    -0.0    -0.0    -0.0    -0.0     0.0     0.0    -0.0    -0.0     0.0
     0.0    -0.0    -0.0    -0.0    -0.0    -0.0    -0.0     0.0    -0.0    -0.0
    -0.0    -0.0     0.0    -0.0     0.0     0.0    -0.0     0.0    -0.1     0.0
     0.0    -0.0     0.0    -0.0     0.0    -0.0    -0.0    -0.0    -0.0    -0.0
    -0.0    -0.0    -0.0    -0.0    -0.0    -0.0    -0.0    -0.0    -0.0    -0.0
     0.0    -0.0    -0.0     0.0    -0.0    -0.0    -0.0    -0.0    -0.0    -0.0
    -0.0     0.0    -0.0    -0.0    -0.0    -0.0    -0.0    -0.0    -0.0     0.0
    -0.0     0.0     0.0    -0.0     0.0    -0.0    -0.0    -0.0    -0.0    -0.0
    -0.0    -0.0    -0.0     0.0    -0.0    -0.1     0.0    -0.0    -0.0     0.0
     0.0    -0.0    -0.0     0.0    -0.0     0.0    -0.0    -0.0    -0.0    -0.0
     0.0    -0.0    -0.0     0.0    -0.0    -0.0     0.0    -0.0     0.0    -0.0
    -0.0     0.0    -0.0    -0.0    -0.0     0.0    -0.0    -0.0    -0.0     0.0
     0.0    -0.0    -0.0     0.0     0.0    -0.0     0.0    -0.0    -0.0     0.0
     0.0     0.0    -0.0     0.0    -0.0    -0.0     0.0    -0.0     0.0    -0.0
    -0.0    -0.0     0.0    -0.0     0.0     0.0    -0.0    -0.0    -0.0     0.0
    -0.0    -0.0     0.0    -0.0     0.0     0.0    -0.0     0.0    -0.0    -0.0
     0.0     0.0    -0.0    -0.0    -0.0    -0.0    -0.0    -0.0     0.0     0.0
    -0.0    -0.0    -0.0    -0.0    -0.0    -0.0    -0.0    -0.0    -0.0     0.0
    -0.0    -0.0    -0.0    -0.0     0.0    -0.0    -0.0     0.0    -0.0    -0.0
     0.0    -0.0    -0.0     0.0    -0.0    -0.0     0.0     0.0     0.0    -0.0
    -0.0    -0.0    -0.0     0.0    -0.0    -0.0     0.0    -0.0    -0.0     0.0
    -0.0     0.0     0.0    -0.0    -0.0     0.0    -0.0    -0.0    -0.0    -0.0
     0.0    -0.0     0.0     0.0    -0.0     0.0    -0.0    -0.0    -0.0    -0.0
    -0.0    -0.0     0.0    -0.0     0.0     0.0    -0.0     0.0    -0.0    -0.0
     0.0    -0.0     0.0    -0.0     0.0    -0.0    -0.0     0.0     0.0     0.0
    -0.0    -0.0     0.0     0.0    -0.0    -0.0     0.0     0.0    -0.0    -0.0
    -0.0    -0.0    -0.0    -0.0     0.0    -0.0     0.0     0.0     0.0     0.0
    -0.0    -0.0    -0.0    -0.0     0.0    -0.0     0.0    -0.0    -0.0     0.0
    -0.0    -0.0     0.0     0.0    -0.0    -0.0     0.0    -0.0     0.0    -0.0
    -0.0     0.0     0.0     0.0    -0.0    -0.0     0.0    -0.0    -0.0     0.0
    -0.0    -0.0     0.0     0.0    -0.0    -0.0     0.0    -0.0     0.0     0.0
    -0.1     0.0     0.0    -0.0     0.0     0.0    -0.0     0.0    -0.0    -0.0
     0.1    -0.0    -0.0     0.0    -0.0     0.0     0.0     0.0     0.0    -0.0
    -0.0    -0.0     0.0     0.0     0.0     0.0    -0.0    -0.0     0.0    -0.0
    -0.0    -0.0    -0.0     0.0    -0.0     0.0     0.0    -0.0     0.0     0.0
    -0.0     0.0     0.0    -0.0     0.0     0.0    -0.0    -0.0     0.0    -0.0
    -0.0     0.0     0.0    -0.0    -0.0    -0.0    -0.0    -0.0     0.0     0.0
    -0.0     0.0    -0.0     0.0     0.0    -0.0     0.0    -0.0     0.0     0.0
    -0.0     0.0    -0.0     0.0    -0.0    -0.0    -0.0     0.0     0.0    -0.0
     0.0    -0.0     0.0    -0.0    -0.0     0.0    -0.1     0.0    -0.0    -0.0
     0.0    -0.0     0.0     0.0     0.0     0.0    -0.0     0.0     0.0    -0.0
    -0.0     0.0     0.0    -0.0     0.0     0.0     0.0    -0.0     0.0    -0.0
    -0.0    -0.0    -0.0     0.0     0.0     0.0     0.0     0.0    -0.0    -0.0
    -0.0    -0.0    -0.0    -0.0    -0.0     0.0    -0.0     0.0     0.0    -0.0
     0.0    -0.0     0.0     0.0    -0.0    -0.0     0.0     0.0    -0.0    -0.0
     0.0    -0.0    -0.0    -0.0    -0.0    -0.0    -0.0     0.0    -0.0    -0.0
     0.0    -0.0    -0.0    -0.0    -0.0    -0.0    -0.0    -0.0     0.0    -0.0
    -0.0    -0.0    -0.0     0.1    -0.0    -0.0     0.0    -0.0     0.0    -0.0
     0.0    -0.0    -0.0     0.0    -0.0     0.0    -0.0    -0.0     0.0    -0.0
     0.0    -0.0    -0.0     0.1    -0.0     0.0    -0.0    -0.0    -0.0    -0.0
     0.0    -0.0    -0.0     0.0    -0.0     0.0     0.0    -0.0     0.0    -0.0
    -0.0     0.0    -0.0     0.0    -0.0     0.0    -0.0    -0.0     0.0    -0.0
    -0.0     0.0    -0.0    -0.0    -0.0    -0.0    -0.0     0.0    -0.0    -0.0
     0.0    -0.0     0.0    -0.0    -0.0    -0.0    -0.0    -0.0    -0.0     0.0
    -0.0    -0.0    -0.0    -0.0     0.0    -0.0    -0.0     0.0    -0.0    -0.0
    -0.0     0.0    -0.0     0.0    -0.0    -0.0     0.0    -0.0    -0.0    -0.0
    -0.0     0.0    -0.0     0.0    -0.0    -0.0    -0.0    -0.0    -0.0    -0.0
     0.0     0.0    -0.0     0.0    -0.0    -0.0    -0.0    -0.0     0.0    -0.0
    -0.0     0.0     0.0    -0.0    -0.0     0.0    -0.0    -0.0    -0.0    -0.0
     0.0    -0.0    -0.0     0.0     0.0     0.0    -0.0    -0.0     0.0    -0.0
    -0.0    -0.0     0.0     0.0     0.0     0.0     0.0     0.0     0.0    -0.0
    -0.0     0.0    -0.0     0.0     0.0    -0.0     0.0     0.0    -0.0    -0.0
    -0.0    -0.0    -0.0     0.0    -0.0    -0.0    -0.0     0.0     0.0    -0.0
     0.0    -0.0    -0.0    -0.0    -0.0    -0.0     0.0    -0.0    -0.0     0.0
    -0.0     0.0    -0.0    -0.0     0.0    -0.0     0.0    -0.0     0.0    -0.0
    -0.0     0.1    -0.1    -0.0     0.0    -0.0     0.0    -0.0     0.0     0.0
    -0.0    -0.0    -0.0     0.0    -0.0     0.0     0.0    -0.0     0.0    -0.0
    -0.0    -0.0    -0.0    -0.0    -0.0    -0.0     0.0    -0.0    -0.0    -0.0
     0.0    -0.0    -0.0     0.0    -0.0    -0.0     0.0    -0.0    -0.0     0.0
    -0.0    -0.0    -0.0    -0.0    -0.0     0.0    -0.0    -0.0     0.1    -0.0
    -0.0     0.0    -0.0     0.0    -0.0    -0.0     0.0    -0.0     0.0    -0.0
     0.0    -0.0    -0.0     0.0    -0.0     0.0     0.0    -0.0     0.0     0.0
     0.0    -0.0     0.0     0.0    -0.0    -0.0    -0.0     0.0     0.0    -0.0
     0.0    -0.0     0.0     0.0    -0.0     0.0    -0.0     0.0    -0.0    -0.0
     0.0    -0.0    -0.0     0.0     0.0    -0.0    -0.0    -0.0    -0.0    -0.0
     0.0    -0.0     0.0    -0.0    -0.0     0.0    -0.0     0.0    -0.0    -0.0
     0.0    -0.0     0.0    -0.0    -0.0     0.0    -0.0    -0.0    -0.0    -0.0
    -0.0     0.0     0.0    -0.0    -0.0     0.0    -0.0    -0.0    -0.0    -0.0
     0.0    -0.0    -0.0     0.0    -0.0     0.0     0.0    -0.0    -0.0     0.0
    -0.0    -0.0     0.0    -0.0     0.0     0.0    -0.0     0.0    -0.0    -0.0
     0.0    -0.0    -0.0     0.0     0.0     0.0    -0.0    -0.0     0.0    -0.0
    -0.0     0.0    -0.0     0.0     0.0    -0.0    -0.0    -0.0     0.0     0.0
    -0.0    -0.0    -0.0    -0.0    -0.0     0.0    -0.0    -0.0    -0.0     0.0
    -0.0    -0.0     0.0    -0.0    -0.0    -0.0    -0.0     0.0    -0.0    -0.0
    -0.0    -0.0     0.0    -0.0     0.0    -0.0    -0.0     0.0    -0.0     0.0
    -0.0    -0.0     0.0    -0.0     0.0    -0.0    -0.0     0.0    -0.0    -0.0
     0.0     0.0     0.0    -0.0    -0.0     0.0    -0.0     0.0    -0.0    -0.0
     0.1    -0.0    -0.0     0.0    -0.0     0.0    -0.0    -0.0    -0.0    -0.0
     0.0    -0.0    -0.0     0.0    -0.0    -0.0    -0.0    -0.0    -0.0    -0.0
    -0.0     0.0     0.0    -0.0     0.0    -0.0    -0.0    -0.0    -0.0    -0.0
    -0.0    -0.0    -0.0    -0.0     0.0    -0.0    -0.0     0.0    -0.0    -0.0
    -0.0     0.0    -0.0    -0.0     0.0    -0.0     0.0     0.0    -0.0     0.0
     0.0    -0.1     0.0    -0.0    -0.0     0.0    -0.0     0.0    -0.0    -0.0
     0.0    -0.0     0.0    -0.0     0.0     0.0    -0.0     0.0    -0.0     0.0
    -0.0    -0.0     0.0    -0.0    -0.0     0.0    -0.0    -0.0     0.0     0.0
    -0.0    -0.0    -0.0    -0.0     0.0    -0.0    -0.0     0.0    -0.0    -0.0
     0.0    -0.0     0.0    -0.0    -0.0     0.0    -0.0     0.0    -0.0    -0.0
     0.0    -0.0     0.0    -0.0    -0.0     0.0    -0.0    -0.0    -0.0    -0.0
    -0.0     0.0    -0.0    -0.0    -0.0    -0.0     0.0     0.0    -0.0    -0.0
    -0.0     0.0     0.0    -0.0    -0.0     0.0    -0.0    -0.0     0.0    -0.0
     0.0     0.0    -0.0     0.0    -0.0     0.0    -0.0    -0.0     0.0    -0.0
    -0.0     0.0    -0.0    -0.0     0.0     0.0    -0.0    -0.0    -0.1     0.0
    -0.0    -0.0     0.0    -0.0    -0.0    -0.0     0.0     0.0    -0.0    -0.0
    -0.0    -0.0    -0.0     0.0    -0.0     0.0    -0.0     0.0     0.0    -0.0
     0.0    -0.0     0.0    -0.0    -0.0    -0.0    -0.0    -0.0    -0.0     0.0
    -0.0    -0.0     0.0    -0.0    -0.0    -0.0    -0.0    -0.0     0.0    -0.0
     0.0    -0.0    -0.0     0.0    -0.0    -0.0    -0.0    -0.0     0.0    -0.0
     0.0     0.0    -0.0    -0.0    -0.0    -0.0    -0.0    -0.1    -0.0    -0.0
    -0.0     0.0    -0.1    -0.0     0.0    -0.0     0.0    -0.0    -0.0    -0.0
    -0.0     0.0    -0.0     0.0     0.0    -0.0    -0.0    -0.0    -0.0    -0.0
    -0.0    -0.0     0.0     0.0     0.0    -0.0    -0.0    -0.0    -0.0     0.0
    -0.0    -0.0    -0.0     0.0     0.0    -0.0     0.0    -0.0    -0.0    -0.0
    -0.0    -0.0     0.0     0.0    -0.0     0.0    -0.0     0.0    -0.0    -0.0
     0.0    -0.0    -0.0    -0.0     0.0    -0.0    -0.0     0.0    -0.0     0.0
    -0.0    -0.0    -0.0    -0.1     0.0    -0.0     0.0    -0.0    -0.0     0.0
    -0.0    -0.0    -0.0     0.0    -0.0    -0.1     0.0    -0.0     0.0     0.0
    -0.0    -0.0     0.0    -0.0     0.0    -0.0    -0.1     0.0    -0.0    -0.0
     0.0    -0.0     0.0    -0.0    -0.0     0.0    -0.0    -0.0     0.0    -0.0
    -0.0    -0.0     0.0    -0.0    -0.0    -0.0    -0.0    -0.0     0.0    -0.0
    -0.1     0.0    -0.0    -0.0     0.0    -0.0    -0.0    -0.0     0.0    -0.0
    -0.0     0.0    -0.0     0.0    -0.0    -0.0     0.0    -0.0     0.0    -0.0
    -0.0     0.0    -0.0     0.0     0.0    -0.0     0.0     0.0    -0.0    -0.0
    -0.0    -0.0    -0.0    -0.0    -0.0    -0.0    -0.0     0.0    -0.0    -0.0
     0.0    -0.0     0.0    -0.0    -0.0    -0.0    -0.0     0.0    -0.0    -0.0
     0.0     0.0    -0.0    -0.0     0.0    -0.0    -0.0    -0.0    -0.0    -0.0
    -0.0    -0.0     0.0    -0.0    -0.0     0.0    -0.0     0.0    -0.0    -0.0
     0.0    -0.0     0.0    -0.0    -0.0     0.0    -0.0     0.0    -0.0    -0.0
     0.0    -0.0     0.0    -0.0    -0.0     0.0    -0.0    -0.0     0.0    -0.0
    -0.0     0.0    -0.0    -0.0     0.0    -0.0    -0.0     0.0    -0.1     0.0
     0.0    -0.0     0.0    -0.0    -0.0     0.0    -0.0     0.0    -0.0    -0.0
    -0.0    -0.0     0.0    -0.0    -0.0     0.0     0.0     0.0    -0.0     0.0
    -0.0    -0.0     0.0    -0.0    -0.0     0.0    -0.1    -0.0     0.0    -0.0
    -0.0    -0.0    -0.0     0.0    -0.0    -0.0    -0.0    -0.0    -0.0    -0.0
     0.0    -0.0    -0.0    -0.0    -0.0     0.0     0.0    -0.0     0.0    -0.0
    -0.0     0.0    -0.0    -0.0     0.0    -0.0     0.0     0.0    -0.0    -0.0
     0.0    -0.0    -0.0     0.0    -0.0     0.0    -0.0    -0.0     0.0    -0.0
     0.0    -0.0    -0.0     0.0    -0.0    -0.0    -0.0    -0.0    -0.0    -0.0
     0.0     0.0     0.0    -0.0    -0.0     0.0    -0.0     0.0    -0.0    -0.0
     0.0    -0.0     0.0     0.0    -0.0     0.0     0.0    -0.0    -0.0     0.0
     0.0    -0.0    -0.0    -0.0    -0.0     0.0    -0.0     0.0     0.0    -0.0
     0.0     0.0    -0.0     0.0    -0.0    -0.0     0.0    -0.0    -0.0    -0.0
     0.0     0.0    -0.0    -0.0    -0.0    -0.0    -0.0    -0.0    -0.0    -0.0
    -0.0    -0.0    -0.0    -0.0     0.0     0.0     0.0    -0.0    -0.0    -0.0
    -0.0    -0.0    -0.0     0.0    -0.0    -0.0     0.0    -0.0    -0.0    -0.0
    -0.0     0.0    -0.0    -0.0     0.0    -0.0     0.0    -0.0    -0.0     0.0
    -0.0     0.0    -0.0     0.0     0.0    -0.0     0.0    -0.0     0.0     0.0
    -0.0     0.0    -0.0    -0.0    -0.0     0.0     0.0    -0.0     0.0     0.0
    -0.0    -0.0    -0.0     0.0    -0.0    -0.0     0.0    -0.0     0.0    -0.0
    -0.0     0.0    -0.0    -0.0    -0.0    -0.0     0.0    -0.0    -0.0    -0.0
    -0.0     0.0    -0.0     0.0    -0.0    -0.0     0.0    -0.0    -0.0     0.0
    -0.0     0.0    -0.0    -0.0     0.0    -0.0     0.0    -0.0    -0.0     0.0
    -0.0    -0.0    -0.0    -0.0     0.0    -0.1     0.0     0.0    -0.1     0.0
    -0.0    -0.0     0.0    -0.0    -0.0     0.0     0.0     0.0    -0.0    -0.0
     0.0    -0.0     0.0    -0.0    -0.0     0.0    -0.0     0.0    -0.0     0.0
    -0.0    -0.0     0.0    -0.0    -0.0    -0.0     0.0     0.0    -0.0    -0.0
     0.0     0.0    -0.0     0.0    -0.0    -0.0     0.0    -0.0     0.0    -0.0
     0.0     0.0    -0.0     0.0     0.0    -0.0     0.0     0.0    -0.0     0.0
     0.0    -0.0    -0.0    -0.0     0.0     0.0    -0.0     0.0    -0.0    -0.0
    -0.0    -0.0    -0.0    -0.0     0.0    -0.0    -0.0     0.0    -0.0    -0.1
     0.0     0.0    -0.0    -0.0    -0.0     0.0    -0.0    -0.0     0.0    -0.0
    -0.0    -0.0    -0.0     0.0    -0.0    -0.0     0.0    -0.0     0.0    -0.0
    -0.0     0.0    -0.0     0.0    -0.0    -0.0     0.0    -0.0     0.0    -0.0
    -0.0     0.0    -0.0    -0.0    -0.0    -0.0    -0.0     0.0    -0.0     0.0
    -0.0     0.0     0.0    -0.0    -0.0     0.0     0.0    -0.0    -0.0     0.0
     0.0     0.0    -0.0    -0.0     0.0    -0.0    -0.0     0.0    -0.0     0.0
    -0.0     0.0     0.0    -0.0     0.0    -0.0     0.0    -0.0    -0.0     0.1
    -0.0     0.0    -0.0    -0.0    -0.0    -0.0     0.0    -0.0     0.0    -0.0
    -0.0     0.0     0.0    -0.0    -0.0     0.0    -0.0    -0.0    -0.0     0.0
    -0.0    -0.0     0.0    -0.0     0.0     0.0    -0.0     0.0    -0.0    -0.0
    -0.0    -0.0    -0.0    -0.0     0.0    -0.0    -0.0     0.0    -0.0     0.0
     0.0    -0.0    -0.0    -0.0     0.0    -0.0     0.0    -0.0    -0.0     0.0
    -0.0     0.0     0.0    -0.0     0.0    -0.0    -0.0    -0.0    -0.0     0.0
    -0.0     0.0     0.0    -0.0     0.0    -0.0     0.0    -0.0     0.0    -0.0
    -0.0     0.0    -0.0    -0.0     0.0    -0.0     0.0    -0.0    -0.0     0.0
    -0.0    -0.0    -0.0     0.0    -0.0    -0.0     0.0     0.0    -0.0    -0.0
    -0.0     0.0    -0.0     0.0     0.0    -0.0     0.0    -0.0    -0.0    -0.0
