Uncorrected accelerogram 20160214_001343_SLRC_20 GNS Science
Site SLRC      43 40 30S  172 19 03E     Cusp file:  20160214_001352_SLRC
Selwyn Lake Road
Instrument Cusp_10467
Resolution: 18-bit   Instr Period: 0.0050 s   Damping: 0.700
Accelerogram 20160214_001343_SLRC_20                 Processed 2016 February 22
11 km east of CHRISTCHURCH
2016 February 14         00:13:43 UT
Epicentre  43 29 50S 172 45 18E  Bearing N61E  Dist   40km  Depth    8km M  5.70
Number of points  26000    Duration 130.00 s
Raw readings in units of 1.00 mm/s/s  at intervals of 0.005 s
Data is unfiltered
Component S62W
Acceleration:  Peak   -229.9 mm/s/s at  18.11 s     RMS    18.39 mm/s/s
Velocity record unevaluated
Displacement record unevaluated
    2016       2      14       0      13     430       0       0    2016       2
      43      29      50     172      45      18       8       0      14       0
      43      40      30     172      19       3     242     242      61      40
   26000       0       0   26000       0       0       0       0      13   42335
   200.0    0.70    0.00   0.000  0.0000   0.000   0.000   1.000     0.0    0.00
  43.675 172.318  43.497 172.755    5.70    0.00    0.00    0.00      0.      0.
  130.00    0.00    0.00  130.00  0.0050  0.0050      0.      0.      0.  9806.6
  -229.9   18.11    18.4      0.      0.     0.0    0.00     0.0     0.0   0.000
    0.00    0.00    0.00    0.00   0.000    0.00    0.00    0.00    0.00   0.000
   0.000   0.000   0.000      0.      0.   0.000   0.000   0.000      0.      0.
     3.1    -1.9    -2.0     4.8     1.7    -1.9    -1.8     1.6     4.6    -1.7
    -3.6     1.0     4.4     0.2    -1.9     1.3     3.7     0.1    -2.2     2.0
     2.9     2.1    -5.0    -1.9     5.4    -0.4    -2.2     0.2     1.2     3.6
     1.6    -4.0     1.1     4.1    -2.0    -2.0     1.9     2.4     0.1    -2.4
     0.7     3.8    -0.1    -1.7    -2.4     1.6     4.6    -1.6    -2.8     2.3
     4.9    -1.5    -3.9     2.4     3.7    -0.6    -4.6     0.4     4.6    -1.3
    -2.3     1.8     4.9     1.7    -6.7    -1.4     8.2     1.5    -6.0    -0.0
     4.5     1.4    -0.3    -2.1     1.3     4.3    -2.8    -1.8     3.5     1.4
     0.9    -1.8    -3.8     7.0     4.3    -8.4     0.2     5.0     0.3    -2.2
    -1.8     2.7     3.8    -0.8    -2.7     2.7    -0.0    -2.3     1.2    -0.3
    -1.0    -0.0     0.3     1.4     2.8     1.3    -1.0    -3.1     1.6     5.5
    -3.1    -4.2     5.1     3.6    -2.3    -0.9     3.2     4.9    -1.1    -4.2
     3.2     3.5    -4.0     0.3     4.5     0.8     2.8     0.8    -3.7     1.2
     3.3    -1.2    -1.2     1.8     2.6     0.4    -3.5     0.2     7.2     0.1
    -6.6     1.6     3.8     1.1    -2.8    -2.8     5.3     2.6    -3.5    -1.5
     3.6     1.2    -1.9    -0.8    -0.1     3.3     0.2    -2.0     0.4     3.5
     0.3    -6.0     2.6     6.8    -0.7    -3.0    -0.7     4.1     3.5    -4.0
    -3.2     4.2     1.8    -5.4    -0.1     4.6     0.6    -1.1    -1.6     1.6
     3.5     0.3    -4.0    -0.7     5.2     0.9    -3.0    -1.3     4.6     2.9
    -4.4    -2.1     2.7     5.7    -1.6    -6.4     2.5     4.9    -0.3    -3.4
     2.5     4.6    -0.8    -2.1     0.1     6.3     0.7    -3.8     1.6     3.3
     3.2    -2.0    -3.1     1.2     4.1     0.9    -3.9     0.8     5.2     0.5
    -3.0     1.5     1.5     1.7     1.4    -3.3     2.7     2.7    -3.2    -0.8
     3.0     3.6    -1.7    -2.6     1.0     4.0     1.1    -4.5     0.9     4.3
     0.6    -3.0    -0.0     4.8    -1.4    -1.6     2.2     0.5     3.9    -0.3
    -3.1     5.6     1.8    -4.5     1.3     3.8     0.8     2.6     0.0    -3.2
     4.0     1.4    -2.1     2.9     3.7     0.5    -3.0     0.4     6.2     2.5
    -4.4     1.1     4.5     0.7     0.9    -1.7     1.5     5.4    -2.7    -3.5
     4.5     2.0     0.9    -0.7    -2.3     7.3     2.4    -7.5     1.9     7.0
    -1.8    -2.5     1.2     1.8     2.8    -0.9    -2.1     2.2     3.9    -2.0
    -2.1     4.8     2.0    -1.4    -0.1    -0.1     3.2     4.2    -5.3    -2.5
     9.4     2.6    -4.9    -1.7     3.7     5.2    -4.4    -2.5     6.5     1.9
    -0.9    -1.0     1.8     3.5    -1.5    -0.9     2.3     3.6     1.5    -0.9
    -0.3     1.1     5.0     0.6    -3.8     3.6     3.3    -0.9    -1.3     0.1
     4.6     0.6    -3.5     1.7     5.8     2.0    -3.9    -1.6     4.2     3.6
    -3.2    -3.5     2.8     2.4     0.1    -1.4     3.2     8.1    -1.7    -5.0
     2.1     3.7    -1.6    -4.0     3.3     4.8    -0.2    -1.8     0.4     4.7
     2.1    -4.8    -1.2     4.6     2.9    -0.8     0.2     3.7     2.7    -0.5
    -3.5     1.2     4.8    -1.6    -3.9    -0.2     4.0     1.1    -4.1     0.3
     5.3     1.5    -1.7     0.1     3.1     3.7    -1.2    -1.7     2.8     3.2
    -2.6    -2.2     3.6     1.3    -0.4    -1.5    -1.5     3.3     2.0    -3.2
    -1.0     2.7     0.8    -1.0    -0.0     2.9     4.0    -3.0    -4.0     5.5
     2.4    -3.3    -2.2     0.9     3.3     0.2    -0.8     0.4     3.6     1.1
    -1.0     0.2     1.1     4.3    -3.9    -3.0     6.8     1.5    -4.3     0.1
     4.2     2.4    -2.2    -5.6     4.2     8.2    -4.2    -3.0     4.3     1.5
    -1.4    -2.1     0.2     3.8    -0.6    -3.0     0.5     2.0     3.2    -2.5
    -2.8     4.8     4.2    -1.9    -4.9     1.7     5.1     1.0    -3.1    -1.2
     5.9     2.5    -5.0     0.4     5.4     1.3    -1.1    -1.2     2.6     3.1
    -2.5    -2.4     2.2     4.4     2.3    -2.6    -3.3     7.0     3.0    -6.4
     2.1     2.0     1.4     1.9    -3.5     3.8     4.5    -3.6    -1.2     3.6
     3.6    -1.5    -3.7     1.5     5.2     0.2    -4.6     0.7     4.5     1.5
    -4.2    -0.2     7.2    -2.1    -5.4     0.7     2.1     1.5    -1.7     0.1
     2.5     1.9    -2.8    -1.4     4.1     1.4     0.1    -3.6    -0.4     5.8
     0.7    -2.8     0.6     3.8     1.7    -3.2    -2.6     5.4     2.6    -5.5
    -1.1     5.2     2.8    -2.5     0.5     4.7     2.0    -1.8    -2.1     0.5
     1.6     0.2    -0.1     2.0     3.1     0.8    -1.3     0.6     4.5     2.9
    -4.2    -1.7     5.0     3.1    -0.8    -2.8     0.9     2.3    -0.6    -1.0
    -1.0     2.3     1.6    -3.5    -0.7     3.3     0.4    -1.4    -0.1     2.8
     3.2    -2.0    -2.6     3.2     5.5    -1.8    -3.7     2.7     4.3     0.8
    -4.4     1.3     5.3    -0.3    -2.2     0.7     4.9     0.3    -2.7    -0.3
     2.7     5.5    -0.9    -3.8     3.3     5.3    -2.6    -2.5     2.2     2.4
     2.2    -2.6     0.1     5.3     1.8    -3.5    -1.2     5.3     3.2    -2.2
    -3.1     2.8     4.7    -2.1    -2.3     2.5     3.4     1.4    -3.2    -1.7
     4.9     3.2    -2.9     0.9     5.5     2.1    -1.8    -3.5     5.6     5.3
    -5.5    -2.0     5.3     2.9    -2.3     0.9     3.5     0.3    -0.3     0.2
    -0.6     4.2     2.3    -3.0     1.8     4.3     1.4    -1.2     1.5     2.6
     1.9    -1.9    -3.4     4.9     4.2    -2.8    -1.8     4.4     3.7    -0.4
    -2.9    -0.9     4.9    -0.2    -2.8     1.0     2.3     1.2    -3.6    -0.5
     3.3     0.3    -0.0    -0.9     0.8     5.4     0.2    -4.5     4.1     6.2
    -2.3    -2.7     2.3     3.3     0.4    -1.9     2.1     4.8    -1.7    -1.5
     2.9     0.1     1.5     0.6    -2.7     3.1     4.9    -0.2    -1.4     1.5
     4.4     0.3    -4.6     1.5     4.9     0.1    -0.3     0.3     2.2     1.7
    -2.5    -0.0     3.2     0.2    -2.1    -0.0     1.8     3.2    -0.3    -2.0
     1.3     0.2     1.4    -1.2    -2.2     5.2     0.9    -3.3     0.1     2.7
     3.6    -4.0    -3.1     5.1     3.2    -3.5    -3.0     4.4     2.1    -1.6
    -0.1     0.3     2.2     0.8    -3.8    -0.8     6.6     2.3    -3.3     0.7
     4.1     0.7    -3.1     0.1     2.8     3.0    -2.5    -3.1     3.1     2.1
     1.2    -2.1    -0.5     3.3    -1.5    -2.4     1.7     4.2     1.1    -2.3
     0.1     4.6     2.1    -4.3    -1.6     2.5     0.6    -1.8    -1.3     4.2
     4.2    -1.7    -2.8     1.0     4.8    -1.2    -2.9     2.4     1.8     0.1
    -1.7    -1.2     2.0     1.7    -1.4     0.6     2.5     0.4    -1.5    -0.5
     1.9     2.7    -1.0    -5.0     1.6     5.1    -0.1    -3.0    -0.2     3.8
     0.8    -3.7    -0.7     6.2     2.2    -3.0    -0.0     2.0     2.6    -0.3
    -0.8     2.4     1.9    -1.0    -3.2    -0.4     4.3     2.3    -3.0    -1.3
     5.0     3.7    -3.4    -1.7     4.1     0.8    -3.4    -2.5     1.4     4.9
    -2.1    -6.4     3.3     4.1    -1.9    -2.8    -1.3     4.0     1.1    -4.8
     0.7     5.7     0.6    -3.8    -1.2     2.9     0.8    -3.4    -1.7     1.8
     4.6     1.9    -2.8     0.7     2.4    -0.9    -1.5     0.7     4.0    -0.3
    -4.7     2.6     6.0    -0.8    -4.1    -0.3    -0.2    -0.1     0.6    -3.0
     2.0     4.0    -1.1    -1.5     0.6     3.0    -1.6    -3.3     1.6     3.4
     1.6    -3.3    -1.0     4.7     0.4    -4.8    -2.2     3.0     5.8     0.1
    -5.1     2.8     5.8    -2.7    -5.1     2.5     5.5    -1.4    -4.0     0.6
     2.9     0.2    -2.6     0.7     2.7     0.6    -0.6    -1.0     2.7     3.1
    -1.5    -2.9     1.0     5.2     0.2    -5.6    -1.8     7.6     2.9    -7.2
     1.7     4.7    -1.5    -2.5    -1.7     4.1     3.3    -4.4    -3.7     3.0
     3.6    -2.0    -4.2     1.5     4.0    -0.8    -2.6    -2.0     4.1     3.9
    -5.5    -1.8     7.1     3.0    -6.5    -0.9     5.1    -1.0    -2.1    -1.4
     1.7     3.4    -1.4    -1.1     1.9     1.8    -0.4    -0.5    -0.8    -0.3
     4.5    -1.6    -5.6     4.2     3.7    -2.3    -1.7     2.9     3.6    -3.4
    -2.7     3.8     2.4    -1.8    -1.6     1.0     4.4    -0.4    -7.2     0.5
     6.3    -0.1    -3.4     0.7     1.7     0.4    -0.9    -1.9     2.9     4.4
    -2.8    -3.3     5.1     4.2    -2.6    -2.9     1.5     4.4     0.6    -4.4
    -0.4     5.2    -1.6    -5.5     1.5     3.1    -0.6    -1.8     0.9     3.0
     1.6    -0.8    -2.5     0.6     4.1    -1.5    -4.6     0.2     3.1     2.3
    -2.2    -0.4     4.5     0.5    -3.8    -1.7     3.9     0.4    -5.0    -1.2
     3.3     3.7    -2.0    -2.2     2.9     3.4    -0.8    -4.9    -1.0     1.8
    -0.8    -1.3     2.1     3.0     0.1    -1.0    -1.4     3.1     3.5    -3.9
    -2.6     3.4     2.8    -1.9    -3.4     0.6     3.0    -1.7    -2.4     1.9
     1.6     0.3    -3.1    -0.4     3.8    -1.9    -2.3     1.1     0.2    -1.2
    -1.6    -2.0     0.3     2.4    -0.5    -2.0    -1.2     1.8     3.2    -2.6
    -0.9     5.5    -0.1    -4.7     0.1     3.4    -1.1    -2.8    -0.1     3.4
     3.0    -6.7    -2.3     5.9     1.7    -1.6    -1.7     1.1     1.9    -0.3
    -2.7     0.5     3.8     0.1    -2.2    -0.9     3.3     2.2    -3.1    -2.1
     3.5     3.7    -3.5    -2.7     4.1     4.4    -2.9    -4.8     2.9     3.1
    -1.1    -0.5     1.1     1.2     1.6    -1.3    -2.8     2.8     2.6    -0.6
    -2.1    -1.2     4.1     1.6    -4.9     1.0     6.6    -2.0    -5.8     1.8
     2.9    -1.2    -2.7     0.3     4.8     1.6    -3.1    -2.0     2.7     3.7
    -3.0    -4.8     3.7     2.8    -2.4     0.6    -0.8     2.2     2.5    -5.4
    -0.9     6.0    -2.1    -6.1     1.2     1.5     1.5    -2.0    -2.3     5.8
     1.9    -4.7    -1.3     2.9     1.2    -0.5    -1.6     0.9     3.6    -1.8
    -3.2     2.2     3.1    -0.6    -2.4    -1.7     4.1     1.9    -5.4     0.8
     3.8    -0.3    -1.7    -1.3     0.5     3.0     0.4    -4.6    -0.4     4.3
     0.1    -3.1     2.5     3.3    -1.7    -1.0    -1.9     2.5     5.3    -2.1
    -2.0     2.2     1.4    -3.6    -2.5     3.4     2.3    -0.5    -1.9     1.6
     3.6    -1.8    -3.4     1.0     2.3    -0.4    -0.8     1.1     3.5     0.8
    -2.3    -0.6     2.4     1.8    -3.1     1.7     4.0    -0.4     0.5    -1.9
     0.9     4.2    -0.2    -2.8    -0.4     2.8    -0.3    -1.5     0.8     3.6
     3.4    -3.3    -1.2     4.6     2.3    -3.8    -4.0     4.9     4.2    -3.6
    -2.7     2.1     3.9     0.8    -3.8    -2.5     4.1     2.1    -4.1    -0.4
     4.3     0.9    -3.3     0.4     3.3     0.3    -3.2    -1.8     2.5     2.5
     0.8    -2.9     0.4     6.0    -1.8    -4.0     1.8     0.4     1.2    -0.8
    -3.6     4.6     3.9    -2.7    -2.1     1.2     3.6    -1.8    -4.6     2.0
     3.3    -1.7    -0.6    -0.2     1.1     1.9    -5.5    -0.4     6.0    -1.9
    -2.0     1.9     0.3     1.1    -1.0    -2.4     2.5     1.6    -2.3    -1.9
     1.9     3.2    -2.6    -3.0     0.9     1.0     1.3    -1.4    -0.5     4.0
     1.2    -3.3    -0.4     3.6    -0.2    -2.7    -0.3     2.0     1.3    -0.5
    -2.1     0.9     4.5    -2.1    -2.6     2.3     2.6    -0.2    -2.9     0.6
     3.5     1.3    -4.3    -0.8     6.5     0.9    -4.1     0.3     3.9     2.4
    -0.7    -2.6     0.8     4.2     0.3    -3.7     1.3     5.5    -0.6    -3.4
    -0.5     3.6     4.7    -4.0    -3.8     6.4     2.0    -5.8     1.0     6.6
     1.4    -0.4    -0.2    -0.5     5.0     0.2    -5.0     1.9     4.2     2.3
    -1.3    -1.3     3.0     2.6    -2.5    -3.3     4.5     4.6    -2.5     0.4
     4.1     1.6     1.9    -2.0    -1.9     5.7     1.5    -3.9     1.1     5.1
     2.9    -2.8    -4.2     5.9     4.4    -7.8    -2.2     5.7     3.3    -4.6
    -3.7     4.7     3.1     0.1    -2.2     1.2     3.7    -0.9    -0.8     0.9
     1.5     1.3     1.0    -2.4     1.7     6.6    -0.9    -2.6     4.1     4.4
    -0.8    -1.7    -0.6     4.4     2.1    -5.1     0.9     4.9     1.7    -1.9
     0.4     3.2     1.7    -1.0    -2.4     0.5     1.8    -0.1    -2.9     1.7
     6.5    -2.5    -6.0     3.4     3.0    -2.0    -2.1    -2.8     3.2     3.4
    -5.1    -1.8     3.8    -0.3    -2.2    -0.4     1.2     2.3    -0.9    -3.1
     1.1     4.6    -0.5    -5.1     0.7     7.7     1.1    -3.7     0.7     0.8
     3.6    -1.5    -4.4     5.8     1.5    -5.8     0.3     3.1    -0.7    -0.1
    -0.9    -1.6     4.1     0.3    -6.4     0.6     5.9     0.8    -2.8    -0.9
     1.8     2.0    -1.5    -3.4     3.1     2.4    -4.5     0.4     2.6     0.8
    -0.3    -2.4     0.4     4.1     0.0    -7.0    -0.2     3.8    -1.0    -1.2
     0.3     2.0     1.9    -2.8    -3.4     5.5     2.9    -3.8    -0.1     2.6
     3.7    -0.5    -2.9     1.4     2.5    -1.1    -2.0     0.3     2.4     0.3
    -3.7     3.2     5.0    -1.7     0.5     0.7     0.6     2.3    -2.2    -3.5
     1.2     5.1     0.7    -4.4     0.5     3.0     0.4    -2.9    -1.9     4.6
     2.5    -3.8    -0.3     3.1    -1.4    -2.9    -0.8     1.2     2.6    -0.2
    -4.4     1.0     5.4    -1.5    -2.6    -0.7     2.2     3.0    -3.2    -2.2
     3.4     3.3    -5.3    -3.3     4.4    -0.3    -2.9    -0.5     1.1     1.9
     0.1    -2.7     0.5     4.0     0.6    -3.7    -0.2     3.1    -1.3    -1.3
     1.0     2.4     1.9    -3.8    -2.9     4.8     2.2    -5.0    -1.1     4.1
     2.4    -0.3    -1.9     0.7     4.6    -1.1    -3.0     2.1     3.2     0.3
    -3.7     0.8     4.3     2.1    -3.1    -0.8     6.0     0.6    -3.2    -3.0
     2.2     5.7    -2.2    -2.4     3.4     2.0    -1.2    -0.5     0.4     3.0
     1.4    -5.8     0.3     4.8    -0.4    -0.9    -1.5     1.6     3.9    -1.1
    -3.2     1.1     3.8    -0.8    -2.7     1.7     3.3     0.4    -2.3    -0.9
     0.8     0.4    -0.2    -2.8     0.5     4.8    -1.5    -4.2     2.1     2.7
     1.8    -0.8    -1.6     5.5     0.5    -3.8     2.5     4.4     1.7    -2.6
    -1.9     1.7     1.5    -3.2    -1.2     3.8     1.6     0.6    -1.7    -1.1
     5.9     0.5    -4.1     2.8     2.3    -1.8    -2.2     0.9     3.2     0.1
    -3.8    -1.4     4.0     2.0    -2.3     0.4     4.2     2.8    -1.4    -3.0
     2.5     3.7    -0.4    -2.4    -1.2     3.3     1.2    -3.2     2.1     4.2
    -1.5    -3.1     0.5     2.4    -0.6    -2.0    -0.9     3.5     4.9    -2.5
    -4.5     1.1     4.6    -3.0    -4.0     4.9     1.4     0.2    -0.4    -2.9
     4.1     2.5    -2.8    -0.3     3.0     0.3    -1.8     1.0    -0.0     3.8
     1.0    -5.3     2.7     4.5    -0.7    -4.2    -1.1     4.4     1.2    -0.9
     1.3     2.3    -0.1    -0.7    -0.4     1.3     3.1    -0.9    -1.2     2.5
     2.9    -1.1    -2.9     0.4     4.0     0.7    -2.9    -0.5     1.2     1.6
    -2.6    -1.3     4.0     1.1    -4.3    -0.3     2.8    -1.1     2.0    -0.7
    -2.5     4.4     1.2    -5.3     2.2     5.5    -3.5    -2.9     0.9     3.2
     0.6    -2.8    -0.7     3.4     1.6    -5.5     1.0     4.4     0.0    -1.4
    -2.7     3.1     3.3    -2.2    -0.4     2.6     0.9    -3.0    -0.9     0.3
     2.5     2.1    -2.8     0.7    -0.2     0.1     1.9    -2.2    -0.1     2.1
    -0.9    -4.3    -0.6     2.6    -0.9    -2.0    -1.8     0.8     3.0    -2.0
    -4.1     3.3     0.7    -6.9    -0.7     1.2     1.3     1.0    -3.0     1.4
     3.5    -0.2    -2.9     1.5     2.4    -2.4    -3.7    -3.3     0.7     0.3
    -1.5    -0.5     3.2     4.9    -3.6    -2.7     3.5    -0.5    -2.0    -1.7
    -2.5     1.9     1.2    -3.7     0.8     4.8     0.8    -1.8    -1.5     3.7
     5.5    -1.1    -1.6     1.5     3.2    -0.4    -5.0     2.3     5.5    -2.2
    -2.3     2.4     2.4     1.4    -3.4    -4.7     2.7    -1.4    -8.8    -2.9
     1.4     2.3     0.0    -2.0     4.3     5.3     0.1    -1.5     1.2     4.3
    -0.1    -5.6    -0.0     4.3     0.5    -0.9     2.4     7.0     4.6    -1.1
     1.8     6.9     4.0    -1.2    -2.8     0.7     4.7    -2.4    -4.5     3.4
     2.8    -3.4    -4.9    -0.8    -0.6    -1.0    -1.9    -1.3     6.6     6.2
    -0.6     1.5     6.5     6.8     0.7    -5.4     0.7     2.7    -2.0    -2.9
    -2.5     2.3     2.1    -3.5    -0.8     6.4     2.1    -3.2    -1.9    -0.9
    -2.3    -6.6    -6.1    -1.1    -1.3    -4.4    -2.7    -1.0     2.5    -0.0
    -1.4     5.1     1.6     3.4     6.7    -0.1     1.7     2.8    -7.6    -7.1
    -0.8    -4.7    -5.9    -5.3    -3.7     3.8    -0.5    -3.7     8.7     7.4
    -0.8     1.3     2.7     3.6     0.7    -4.2     0.7     1.2    -6.6    -6.3
    -4.7    -3.1    -5.0   -10.5    -7.4    -3.7    -1.5    -2.9    -6.2    -3.4
    -0.7    -6.2    -8.7    -0.9     1.1    -0.9     0.1     2.2     4.0    -0.3
    -5.0    -4.1    -2.7    -6.1   -10.8    -8.9    -0.6     0.3    -5.2    -0.8
     2.8     1.0    -0.5    -3.0     4.4     9.0     3.0     3.4     8.3    11.5
    10.1     3.8     2.8    10.1     5.9    -2.3     1.1     4.0     5.8     3.1
    -1.4     4.3     3.5    -6.8    -9.0    -5.5    -2.1    -6.0    -9.8    -4.4
     1.8     4.8     0.9     3.4    10.7     8.0     1.8     1.4     3.7     3.6
     3.0    -1.5     1.1     6.6    -0.4    -7.8    -5.7    -2.6    -7.1    -8.2
    -6.7    -0.4     9.8     6.4     8.3    19.6    17.3    10.4     7.4     4.1
     1.2    -2.6    -9.1    -8.1     0.0    -4.2   -10.0    -7.2    -4.6    -6.2
   -10.6    -8.4    -5.0    -4.7    -6.0    -7.7    -6.5    -3.9    -6.2    -8.9
    -2.1    -0.1    -4.1    -4.7    -3.3     2.6     4.5     2.6     5.2     6.4
     1.9    -5.4    -9.9   -11.2   -14.2   -16.5   -14.3    -7.7    -0.2     3.0
     4.4     8.5    13.7    10.1     1.4     2.8     3.7    -2.2    -7.9   -12.8
    -7.5    -4.4   -14.7   -13.6    -4.6    -2.7    -3.0    -2.9     3.1    10.4
     9.7     7.1    11.8     9.9    -0.8    -9.3   -14.3   -11.7   -13.3   -17.5
    -9.8     0.1     1.8     2.0     0.9     0.9     2.1    -6.8   -15.4   -14.3
    -9.6   -11.9   -17.3   -10.6    -3.0    -3.6    -2.8     1.7    10.5    13.8
     7.6    11.1    21.4    20.0     8.6     2.8     0.7    -4.7    -9.6   -15.1
   -10.1     0.6     1.5     6.4    18.7    28.3    32.7    30.0    26.4    29.8
    23.9    11.7    11.5    13.9    11.5     3.8    -2.9    -2.8    -1.4   -10.3
   -19.9   -16.8   -14.6   -12.1    -7.4    -0.4    10.7    13.2    11.7    15.7
    15.5    14.0     7.9    -5.9    -4.3    -2.1   -11.0   -13.3    -8.9    -7.4
    -9.4    -7.5    -4.8     2.9     6.1    -1.9     0.3     7.3     4.8     2.6
