Uncorrected accelerogram 20160214_001343_CACS_20 GNS Science
Site CACS      43 28 59S  172 31 48E     Cusp file:  20160214_001348_CACS
Christchurch Canterbury Aero Club
Instrument Cusp_42278
Resolution: 18-bit   Instr Period: 0.0050 s   Damping: 0.700
Accelerogram 20160214_001343_CACS_20                 Processed 2016 February 22
11 km east of CHRISTCHURCH
2016 February 14         00:13:43 UT
Epicentre  43 29 50S 172 45 18E  Bearing S85E  Dist   18km  Depth    8km M  5.70
Number of points  36060    Duration 180.30 s
Raw readings in units of 1.00 mm/s/s  at intervals of 0.005 s
Data is unfiltered
Component N50W
Acceleration:  Peak   -378.8 mm/s/s at  46.69 s     RMS    24.84 mm/s/s
Velocity record unevaluated
Displacement record unevaluated
    2016       2      14       0      13     430       0       0    2016       2
      43      29      50     172      45      18       8       0      14       0
      43      28      59     172      31      48     310     310      95      18
   36060       0       0   36060       0       0       0       0      13    8013
   200.0    0.70    0.00   0.000  0.0000   0.000   0.000   1.000     0.0    0.00
  43.483 172.530  43.497 172.755    5.70    0.00    0.00    0.00      0.      0.
  180.30    0.00    0.00  180.30  0.0050  0.0050      0.      0.      0.  9806.6
  -378.8   46.69    24.8      0.      0.     0.0    0.00     0.0     0.0   0.000
    0.00    0.00    0.00    0.00   0.000    0.00    0.00    0.00    0.00   0.000
   0.000   0.000   0.000      0.      0.   0.000   0.000   0.000      0.      0.
    -0.1    -0.1     0.0     0.1    -0.0    -0.1     0.0     0.0    -0.3    -0.1
    -0.2    -0.0     0.1    -0.1    -0.0    -0.1     0.1     0.1    -0.0     0.1
     0.1     0.1    -0.1     0.0    -0.0    -0.3    -0.0     0.0    -0.2    -0.2
     0.0    -0.1    -0.1     0.0    -0.0     0.2     0.2    -0.0    -0.0    -0.1
    -0.1    -0.1    -0.2    -0.2     0.1    -0.1    -0.1    -0.2    -0.1     0.1
    -0.1    -0.1    -0.2    -0.1    -0.1    -0.1     0.1     0.1     0.1    -0.0
    -0.1     0.1     0.0     0.0     0.0    -0.1    -0.1    -0.2    -0.1    -0.0
     0.0     0.1    -0.1     0.0     0.1    -0.1     0.0     0.0    -0.0     0.2
     0.1     0.1     0.0    -0.1     0.0    -0.1    -0.1     0.0     0.0     0.0
    -0.1    -0.1     0.0     0.0    -0.0    -0.2    -0.1     0.1     0.1     0.0
    -0.1    -0.0     0.1    -0.1    -0.0     0.1    -0.1    -0.1    -0.1    -0.2
    -0.0     0.0     0.1     0.1    -0.0     0.0     0.0     0.0    -0.1    -0.1
     0.0    -0.2    -0.1     0.0     0.2     0.1    -0.3     0.1     0.2    -0.2
    -0.2    -0.1     0.1     0.1    -0.1    -0.0     0.0     0.0     0.0    -0.0
    -0.0    -0.1    -0.1    -0.1    -0.1    -0.2    -0.1     0.0    -0.1    -0.2
    -0.3    -0.2    -0.1    -0.0    -0.0     0.0     0.0     0.1    -0.0    -0.0
     0.1    -0.1    -0.1    -0.0    -0.0    -0.1    -0.1    -0.1    -0.1    -0.1
    -0.2    -0.3    -0.1     0.0     0.0    -0.2    -0.2    -0.1     0.0    -0.2
    -0.2     0.0    -0.1    -0.2    -0.1    -0.2    -0.1    -0.3    -0.3    -0.1
    -0.1     0.0    -0.0    -0.1     0.0     0.0     0.0    -0.0    -0.1    -0.1
     0.1     0.2    -0.1    -0.2    -0.1    -0.1    -0.1    -0.2    -0.0    -0.1
    -0.1     0.0    -0.1    -0.2    -0.0    -0.1    -0.1    -0.1     0.0     0.0
    -0.1    -0.0    -0.2    -0.2    -0.0    -0.2     0.0     0.2    -0.2    -0.2
    -0.0     0.1    -0.1    -0.0    -0.0    -0.2    -0.0    -0.2    -0.2    -0.0
    -0.1    -0.1    -0.1     0.0    -0.0    -0.1    -0.1    -0.3    -0.0     0.1
    -0.1     0.2     0.1    -0.2    -0.1    -0.0    -0.0     0.0    -0.1    -0.1
    -0.1    -0.1    -0.1    -0.1    -0.1     0.0    -0.0    -0.1     0.1     0.0
    -0.1    -0.0    -0.2    -0.2     0.1    -0.0    -0.1    -0.0    -0.1    -0.0
     0.0     0.0     0.1    -0.0     0.0    -0.1    -0.2    -0.1    -0.1    -0.1
    -0.2    -0.1     0.0    -0.1    -0.1     0.0    -0.0    -0.2    -0.1    -0.0
    -0.1    -0.1     0.0     0.1    -0.2    -0.2    -0.0    -0.2    -0.1     0.0
    -0.0    -0.1    -0.3    -0.2     0.1    -0.1    -0.1     0.0    -0.1     0.1
     0.0    -0.1     0.1     0.1    -0.1    -0.1     0.0    -0.0    -0.2    -0.2
    -0.1    -0.2    -0.1     0.0     0.1     0.0    -0.1    -0.1    -0.1    -0.1
     0.0    -0.1    -0.1    -0.0    -0.1    -0.1    -0.0     0.1    -0.0    -0.1
    -0.2    -0.2     0.1     0.1     0.1     0.1    -0.2     0.0     0.0    -0.1
     0.0    -0.1    -0.3    -0.2    -0.0    -0.1    -0.2    -0.1     0.1     0.1
    -0.1    -0.2    -0.0     0.2    -0.1    -0.3    -0.0    -0.1    -0.1    -0.1
    -0.0     0.0    -0.1    -0.1    -0.0    -0.0    -0.1    -0.1    -0.0    -0.1
    -0.1     0.1     0.0     0.1     0.3    -0.1    -0.1     0.0    -0.1    -0.0
    -0.0    -0.1     0.1    -0.1    -0.2    -0.1    -0.0     0.0    -0.1    -0.0
     0.1    -0.3    -0.1     0.1    -0.0     0.1     0.0    -0.1    -0.1    -0.1
    -0.0    -0.1     0.0     0.2     0.1     0.1    -0.1    -0.1     0.1    -0.3
    -0.1     0.1    -0.2    -0.1    -0.0    -0.2     0.0     0.2     0.1     0.1
     0.0    -0.2    -0.2    -0.0    -0.0    -0.0    -0.2    -0.2     0.1    -0.1
    -0.1    -0.0     0.0     0.0    -0.3    -0.1     0.1    -0.2    -0.2     0.0
    -0.1    -0.0    -0.1    -0.1     0.0     0.0     0.1     0.1    -0.1    -0.1
    -0.1    -0.1     0.1    -0.0    -0.2    -0.2    -0.1    -0.1    -0.2    -0.2
    -0.1    -0.1    -0.1    -0.2    -0.1    -0.1    -0.1     0.1    -0.1    -0.0
     0.1    -0.2    -0.2    -0.2    -0.0     0.0    -0.2    -0.0     0.0    -0.2
     0.1     0.1    -0.2    -0.1    -0.1    -0.0     0.2     0.0    -0.1    -0.1
    -0.2    -0.1    -0.1    -0.1    -0.1    -0.0    -0.1     0.0     0.1    -0.0
     0.0    -0.1    -0.1    -0.0    -0.1    -0.1    -0.2    -0.2    -0.0    -0.2
    -0.2    -0.2    -0.1    -0.0    -0.1     0.0    -0.0    -0.2    -0.1     0.1
    -0.1    -0.2    -0.0     0.0    -0.1    -0.0    -0.1    -0.2     0.0    -0.1
    -0.0     0.1    -0.2    -0.1    -0.0    -0.1     0.1     0.0    -0.0     0.1
    -0.1    -0.1    -0.0     0.0    -0.1    -0.1    -0.2    -0.2     0.0     0.0
    -0.2     0.1     0.1    -0.0     0.0    -0.1    -0.1     0.0    -0.1    -0.1
     0.0    -0.0    -0.0     0.0     0.0     0.0     0.0     0.0    -0.0    -0.0
     0.0    -0.0    -0.1    -0.0    -0.0    -0.0    -0.0    -0.1    -0.0    -0.1
    -0.1    -0.2    -0.3    -0.0     0.0    -0.1     0.1     0.1    -0.1    -0.1
    -0.1    -0.1    -0.1     0.1    -0.1    -0.1    -0.1    -0.2    -0.1    -0.1
     0.0    -0.1    -0.2    -0.0    -0.1    -0.2    -0.1     0.1    -0.1    -0.1
    -0.0    -0.1     0.1    -0.1    -0.1    -0.0    -0.2     0.0    -0.1    -0.2
    -0.0    -0.2    -0.0     0.0    -0.2    -0.1    -0.0    -0.0     0.1    -0.1
    -0.0    -0.0    -0.1     0.1    -0.1     0.0     0.1    -0.1    -0.0     0.0
     0.0     0.0    -0.0    -0.0    -0.0    -0.1    -0.1     0.1    -0.1    -0.1
     0.2    -0.0    -0.1     0.1    -0.2    -0.1    -0.2    -0.2    -0.1    -0.1
    -0.1    -0.2     0.0     0.0    -0.2    -0.1    -0.2    -0.2     0.1    -0.0
    -0.1    -0.1    -0.1     0.2    -0.1    -0.1     0.1    -0.2     0.1    -0.1
    -0.1     0.1    -0.1     0.2     0.0    -0.1    -0.0    -0.1     0.1    -0.1
    -0.1     0.0    -0.0    -0.0    -0.0    -0.0    -0.1    -0.0     0.1    -0.1
     0.0     0.1    -0.1     0.0     0.1     0.1     0.2     0.0    -0.1    -0.1
    -0.0     0.1     0.0    -0.1     0.1     0.1     0.0     0.0     0.2     0.2
    -0.0    -0.2    -0.1     0.1    -0.1    -0.0     0.1    -0.0    -0.0    -0.0
    -0.0     0.1     0.1    -0.0    -0.0    -0.0    -0.0    -0.0     0.0     0.0
    -0.0    -0.0     0.0    -0.0     0.0     0.1    -0.0    -0.0     0.0    -0.0
     0.1     0.0    -0.1    -0.0    -0.0     0.0     0.0     0.1     0.0    -0.2
    -0.0     0.0    -0.0     0.2    -0.0    -0.1     0.0     0.1     0.1     0.0
    -0.0    -0.1    -0.1    -0.0    -0.1     0.0     0.1     0.0    -0.1    -0.1
    -0.0    -0.0     0.1    -0.1    -0.1    -0.2    -0.1    -0.0    -0.1     0.2
     0.2    -0.0     0.1    -0.1     0.0     0.2    -0.1     0.0     0.1    -0.1
    -0.1    -0.1    -0.2    -0.1    -0.0     0.1    -0.0    -0.0    -0.1    -0.2
    -0.0     0.0    -0.1    -0.2    -0.1     0.0    -0.1    -0.1    -0.0     0.1
     0.0    -0.1    -0.0     0.1    -0.0    -0.1    -0.0    -0.0    -0.2    -0.0
    -0.1    -0.0    -0.0    -0.3    -0.2    -0.1    -0.1    -0.1    -0.1    -0.0
    -0.1     0.0     0.0    -0.1    -0.1    -0.2    -0.2    -0.1    -0.1    -0.1
    -0.1     0.0     0.1     0.0    -0.2     0.0     0.1    -0.1    -0.2    -0.2
     0.0     0.2    -0.1     0.0    -0.0     0.0     0.1    -0.1    -0.1    -0.1
    -0.0     0.0    -0.1    -0.1    -0.1    -0.0    -0.2    -0.1     0.1    -0.2
    -0.2     0.1    -0.0    -0.2     0.0    -0.0    -0.0    -0.1    -0.2     0.0
    -0.1    -0.1     0.0    -0.2    -0.0    -0.2    -0.1     0.2    -0.1    -0.0
     0.1     0.1     0.0     0.0     0.0    -0.0     0.1    -0.1    -0.2    -0.0
     0.1     0.2    -0.0    -0.0     0.2     0.0     0.0     0.2     0.1     0.0
     0.1     0.0     0.1     0.0     0.1    -0.1    -0.1     0.2    -0.2    -0.1
     0.2    -0.1    -0.1    -0.0     0.2     0.2     0.1    -0.0    -0.0     0.1
    -0.0    -0.0    -0.0    -0.1    -0.2    -0.2     0.0    -0.1    -0.1    -0.0
     0.1     0.1    -0.2    -0.1    -0.1    -0.1    -0.1    -0.2     0.0     0.0
    -0.2    -0.1    -0.0     0.1    -0.0    -0.1    -0.1    -0.1    -0.0    -0.2
    -0.2    -0.1    -0.1    -0.0    -0.0    -0.2    -0.2     0.1     0.1    -0.2
    -0.0     0.2    -0.2    -0.2    -0.0    -0.1     0.1    -0.0    -0.1     0.0
    -0.1     0.1     0.1     0.0     0.1    -0.1     0.0     0.2     0.0    -0.0
    -0.1     0.0     0.0    -0.2    -0.0     0.0    -0.1    -0.2    -0.1     0.1
    -0.0     0.0     0.1     0.1     0.1     0.1    -0.0     0.0    -0.1    -0.1
     0.2     0.2    -0.1    -0.1    -0.0    -0.1    -0.1    -0.1    -0.0     0.0
     0.0     0.1     0.1    -0.1    -0.1    -0.0    -0.0    -0.1     0.0     0.0
    -0.2    -0.2    -0.0    -0.0    -0.1    -0.0    -0.0     0.0    -0.1    -0.1
    -0.1    -0.1    -0.0    -0.0    -0.0    -0.1    -0.1    -0.1    -0.2    -0.1
    -0.0    -0.0    -0.1    -0.1     0.0    -0.1    -0.0    -0.1    -0.0    -0.0
    -0.2    -0.0    -0.2    -0.2    -0.0    -0.1    -0.1    -0.1    -0.2    -0.1
     0.0    -0.2    -0.1     0.1    -0.2    -0.2     0.1    -0.2    -0.1    -0.1
    -0.3    -0.0    -0.0    -0.0    -0.1    -0.0     0.2    -0.2    -0.3    -0.1
    -0.0    -0.0    -0.1    -0.1    -0.0     0.0    -0.2    -0.2    -0.1     0.1
     0.1    -0.2    -0.2    -0.1    -0.1    -0.0     0.0    -0.1    -0.1     0.0
    -0.0    -0.2    -0.1     0.0    -0.1    -0.1     0.0    -0.0     0.0    -0.0
    -0.1    -0.2    -0.1    -0.1    -0.2    -0.1     0.1    -0.0    -0.1    -0.2
    -0.2    -0.0    -0.0    -0.1    -0.1    -0.2    -0.2     0.0     0.0    -0.2
    -0.0     0.0    -0.3    -0.2     0.1     0.1     0.1     0.0    -0.1     0.1
     0.0    -0.1    -0.0    -0.1     0.0     0.0    -0.1    -0.0     0.0    -0.1
    -0.2    -0.1     0.1    -0.0    -0.1    -0.1     0.0    -0.1    -0.1    -0.0
    -0.1    -0.2    -0.1     0.0     0.1    -0.2    -0.0     0.1    -0.1    -0.2
    -0.2    -0.0     0.1    -0.0    -0.0    -0.1    -0.1    -0.0    -0.1    -0.2
    -0.1     0.1    -0.0    -0.1    -0.1    -0.0     0.0    -0.0    -0.1    -0.1
    -0.0     0.1    -0.1    -0.2     0.1     0.1    -0.1    -0.0    -0.0    -0.0
    -0.1    -0.1     0.1    -0.0    -0.2    -0.0     0.0     0.1     0.0    -0.1
     0.0     0.0    -0.2    -0.2    -0.0     0.1    -0.0     0.0     0.1    -0.0
     0.0     0.0    -0.1     0.1     0.0    -0.2    -0.1    -0.1    -0.1    -0.1
    -0.1     0.0     0.1    -0.0    -0.1    -0.0     0.0    -0.2    -0.1     0.0
    -0.0     0.1    -0.1    -0.1     0.1    -0.2    -0.1     0.1    -0.1    -0.2
    -0.1    -0.1    -0.1    -0.0     0.0     0.1    -0.0     0.0     0.1    -0.1
    -0.1     0.1     0.0    -0.2    -0.1     0.1     0.0    -0.1    -0.1    -0.0
    -0.1    -0.2    -0.1    -0.1    -0.3    -0.2     0.1    -0.1    -0.0     0.1
    -0.2    -0.1    -0.1    -0.3    -0.0     0.0    -0.2    -0.2    -0.2     0.1
     0.1    -0.2    -0.1     0.1     0.0    -0.2    -0.1     0.0    -0.0    -0.1
    -0.2     0.1     0.1    -0.1    -0.0    -0.1    -0.1    -0.3    -0.1     0.0
    -0.0    -0.0    -0.0    -0.1    -0.0    -0.1    -0.1    -0.1    -0.0    -0.1
    -0.2    -0.0     0.0    -0.1    -0.1     0.1     0.2     0.0    -0.0    -0.1
    -0.2    -0.0     0.1    -0.1    -0.0     0.1    -0.1    -0.0    -0.2    -0.1
     0.1    -0.1    -0.1     0.1    -0.0    -0.1    -0.2     0.0     0.1    -0.2
    -0.1     0.2     0.3     0.0    -0.2     0.1     0.1     0.0     0.0    -0.0
     0.0    -0.0     0.1     0.1     0.1     0.0    -0.1     0.0     0.0     0.0
     0.1    -0.1     0.2     0.2    -0.0    -0.1    -0.1    -0.0    -0.0    -0.0
    -0.0    -0.0     0.0    -0.1    -0.2     0.0     0.0    -0.2    -0.0    -0.1
    -0.1     0.0    -0.1     0.0     0.1    -0.0     0.0     0.1    -0.0    -0.0
     0.1    -0.0    -0.0     0.0    -0.0     0.2     0.0    -0.1     0.1     0.1
     0.2     0.0     0.1     0.0    -0.1     0.1     0.1    -0.2    -0.1     0.2
     0.1     0.0     0.1     0.1     0.1    -0.0    -0.0     0.0     0.1    -0.0
    -0.1    -0.0    -0.2    -0.2     0.1    -0.1     0.0    -0.0    -0.1    -0.0
    -0.1     0.0     0.1     0.1     0.1     0.0     0.1    -0.0    -0.0     0.1
     0.1     0.1     0.2     0.1     0.0     0.2     0.1    -0.0     0.1    -0.1
    -0.1     0.0    -0.0     0.1     0.0     0.1     0.0    -0.3     0.0     0.2
     0.1     0.2     0.0    -0.0    -0.1    -0.0     0.2    -0.0    -0.1     0.1
     0.1     0.1     0.1     0.0     0.1     0.1     0.1     0.0    -0.0     0.2
     0.0     0.0     0.0    -0.1     0.2    -0.0    -0.0     0.2    -0.1     0.0
    -0.1    -0.2     0.0    -0.0    -0.1    -0.0    -0.1    -0.2     0.1    -0.1
     0.0     0.2     0.1     0.2     0.1    -0.1    -0.1    -0.2    -0.0    -0.1
    -0.1    -0.1    -0.0     0.1    -0.1     0.0     0.1    -0.1    -0.0    -0.0
    -0.0    -0.1     0.0    -0.1    -0.2     0.1    -0.0    -0.1     0.1    -0.1
     0.2     0.0    -0.1     0.2    -0.1    -0.1    -0.0    -0.2    -0.1    -0.0
    -0.1    -0.0    -0.0    -0.2    -0.2    -0.2    -0.0    -0.1    -0.1     0.1
     0.1     0.0    -0.0    -0.1    -0.1    -0.0    -0.0    -0.2    -0.2    -0.1
    -0.3    -0.3    -0.1    -0.1    -0.1    -0.2    -0.1    -0.1    -0.2    -0.1
    -0.1    -0.2    -0.1    -0.1    -0.0     0.0    -0.1    -0.1    -0.1     0.0
    -0.2    -0.2    -0.1    -0.1     0.0     0.0    -0.1    -0.2    -0.2    -0.0
    -0.0    -0.0    -0.0    -0.1    -0.2    -0.1    -0.2    -0.2     0.2     0.0
    -0.0     0.1     0.0    -0.0    -0.0    -0.1    -0.3    -0.2     0.0    -0.1
    -0.0     0.0     0.1     0.0    -0.1     0.0     0.1    -0.0    -0.1    -0.1
    -0.1    -0.0    -0.1    -0.2     0.1     0.0    -0.2     0.0     0.1    -0.1
    -0.1    -0.2    -0.1     0.0    -0.2     0.0     0.3     0.1     0.0    -0.0
    -0.0     0.1    -0.0    -0.2    -0.2     0.0     0.1    -0.1    -0.1     0.1
     0.1     0.0     0.1    -0.0    -0.0    -0.1    -0.2    -0.0     0.1     0.1
    -0.0    -0.0     0.0     0.0    -0.1    -0.1     0.0     0.0    -0.1    -0.2
    -0.1    -0.1    -0.1     0.0     0.1     0.0    -0.1    -0.1    -0.1     0.0
     0.0    -0.1    -0.1    -0.0    -0.0     0.0    -0.1    -0.1     0.0     0.0
     0.0    -0.1    -0.1    -0.1    -0.2     0.0     0.1    -0.1    -0.2    -0.2
    -0.2    -0.2    -0.1    -0.1     0.0    -0.1    -0.1     0.1    -0.1    -0.2
    -0.1     0.0    -0.0    -0.1    -0.0     0.2     0.2     0.0    -0.0    -0.1
    -0.0     0.1     0.1    -0.0     0.0     0.0     0.1     0.0     0.0     0.1
     0.1     0.2     0.1    -0.1    -0.1    -0.1    -0.0     0.1     0.1     0.1
    -0.0    -0.1     0.0    -0.1    -0.1     0.0    -0.1    -0.2    -0.1    -0.0
    -0.1    -0.1     0.1     0.1    -0.1    -0.2     0.2     0.2     0.1    -0.1
    -0.2    -0.0    -0.0    -0.2    -0.1     0.0    -0.1    -0.1    -0.1     0.0
     0.0    -0.2     0.0     0.0    -0.0     0.2     0.1    -0.0    -0.0    -0.0
    -0.0    -0.1    -0.1     0.0     0.2     0.0    -0.1     0.3     0.2     0.0
     0.1     0.1     0.2     0.2     0.0     0.1     0.0    -0.0     0.0    -0.0
    -0.2    -0.1     0.1     0.1     0.0     0.1     0.2     0.0    -0.1     0.0
     0.2     0.1    -0.0    -0.1     0.0     0.0    -0.1     0.0     0.0    -0.0
    -0.0    -0.1     0.1     0.1     0.2     0.3    -0.0    -0.1    -0.2    -0.2
     0.0     0.0     0.1    -0.1     0.0     0.1    -0.1     0.0    -0.1    -0.0
     0.0    -0.1    -0.1     0.0     0.1     0.1    -0.1    -0.1    -0.0     0.1
     0.1    -0.2     0.0     0.1    -0.1     0.0     0.0    -0.0     0.0    -0.1
    -0.0     0.1     0.0     0.1     0.1    -0.1     0.1     0.1    -0.0    -0.0
    -0.0    -0.1    -0.3    -0.0     0.1     0.0     0.1     0.1     0.1     0.1
     0.1    -0.0    -0.0     0.1    -0.1    -0.1     0.1     0.1    -0.1    -0.0
     0.2     0.1    -0.0    -0.1    -0.0     0.1    -0.1    -0.0     0.0     0.0
     0.1    -0.0    -0.1     0.0     0.2     0.2     0.1    -0.0    -0.1     0.1
     0.1    -0.1    -0.0    -0.0    -0.0    -0.1    -0.1     0.2     0.0    -0.1
     0.1     0.0    -0.0    -0.1    -0.1     0.1    -0.1    -0.1     0.1     0.1
    -0.1    -0.1     0.1     0.2     0.0    -0.1     0.1     0.2    -0.2    -0.2
     0.2     0.1    -0.2    -0.0     0.1     0.2    -0.1    -0.2     0.0     0.0
    -0.0     0.0     0.0    -0.1    -0.1     0.0     0.0    -0.1     0.0     0.2
     0.0     0.1     0.1    -0.0     0.1    -0.0     0.0     0.1    -0.1    -0.2
     0.0     0.2    -0.1    -0.1     0.1    -0.1    -0.0     0.0    -0.1    -0.0
     0.0     0.1     0.1     0.1     0.2     0.1    -0.1    -0.1     0.0     0.2
     0.0    -0.2    -0.2    -0.0    -0.1    -0.1     0.1    -0.0    -0.0    -0.1
    -0.0     0.1    -0.0     0.1     0.1    -0.1     0.0    -0.0     0.1     0.0
    -0.2     0.2     0.2    -0.0    -0.2    -0.1     0.0    -0.1     0.0    -0.0
    -0.2    -0.1    -0.1     0.0    -0.0     0.1     0.2    -0.0    -0.0     0.0
    -0.1     0.0     0.0     0.0     0.1     0.0     0.0    -0.1    -0.0     0.1
     0.1     0.2     0.0    -0.2    -0.2     0.1     0.1    -0.2    -0.0     0.1
     0.1    -0.0    -0.1     0.2     0.1    -0.0     0.0    -0.0    -0.1    -0.1
    -0.0     0.1     0.0    -0.1    -0.2    -0.0     0.1    -0.1    -0.1    -0.0
     0.2    -0.1    -0.3     0.1     0.1     0.1    -0.0    -0.1     0.1    -0.2
    -0.1     0.2    -0.0     0.2     0.1    -0.1    -0.0    -0.1    -0.1     0.1
    -0.2    -0.1     0.1    -0.1    -0.0     0.1    -0.1    -0.1    -0.2    -0.1
     0.1    -0.1    -0.1     0.0    -0.1    -0.1     0.0     0.1     0.1     0.0
     0.1    -0.1    -0.0    -0.0    -0.1     0.2     0.0    -0.1    -0.0    -0.0
     0.1    -0.2    -0.1     0.0     0.1     0.1    -0.2    -0.0     0.2    -0.2
    -0.2    -0.1    -0.0    -0.1    -0.1    -0.0    -0.1    -0.1    -0.0    -0.1
     0.1    -0.0    -0.2     0.0    -0.2    -0.3    -0.1    -0.1    -0.1     0.1
     0.1    -0.0     0.0    -0.1    -0.1     0.0    -0.0     0.1    -0.0    -0.2
    -0.0     0.0    -0.0     0.1    -0.0     0.0     0.1    -0.1    -0.0     0.1
     0.1     0.1    -0.0    -0.0     0.0    -0.1    -0.1     0.1     0.2     0.1
    -0.1    -0.2     0.1    -0.0    -0.1     0.1    -0.1     0.1     0.2    -0.2
     0.0     0.2     0.0    -0.0    -0.1     0.1     0.1    -0.1     0.1     0.1
    -0.0     0.1     0.1     0.3     0.1    -0.2    -0.0     0.1     0.0    -0.1
     0.1     0.1     0.0     0.1    -0.0     0.0     0.1    -0.0    -0.0     0.1
