Uncorrected accelerogram 20160214_001343_NNZ_20 GNS Science
Site NNZ       41 13 02S  173 22 46E     Basalt file:  20160214_001424_NNZ
Nelson
Instrument Basalt_563
Resolution: 24-bit   Instr Period: 0.0050 s   Damping: 0.700
Accelerogram 20160214_001343_NNZ_20                  Processed 2016 February 22
11 km east of CHRISTCHURCH
2016 February 14         00:13:43 UT
Epicentre  43 29 50S 172 45 18E  Bearing S11W  Dist  259km  Depth    8km M  5.70
Number of points  34400    Duration 172.00 s
Raw readings in units of 1.00 mm/s/s  at intervals of 0.005 s
Data is unfiltered
Component S90E
Acceleration:  Peak     -2.2 mm/s/s at  92.33 s     RMS     0.41 mm/s/s
Velocity record unevaluated
Displacement record unevaluated
    2016       2      14       0      13     430       0       0    2016       2
      43      29      50     172      45      18       8       0      14       0
      41      13       2     173      22      46      90      90     191     259
   34400       0       0   34400       0       0       0       0      13   44000
   200.0    0.70    0.00   0.000  0.0000   0.000   0.000   1.000     0.0    0.00
  41.217 173.379  43.497 172.755    5.70    0.00    0.00    0.00      0.      0.
  172.00    0.00    0.00  172.00  0.0050  0.0050      0.      0.      0.  9806.6
    -2.2   92.33     0.4      0.      0.     0.0    0.00     0.0     0.0   0.000
    0.00    0.00    0.00    0.00   0.000    0.00    0.00    0.00    0.00   0.000
   0.000   0.000   0.000      0.      0.   0.000   0.000   0.000      0.      0.
     0.1     0.1     0.1     0.1    -0.1    -0.1    -0.1    -0.1    -0.2    -0.1
     0.0     0.0     0.0     0.1     0.1    -0.0    -0.1    -0.1    -0.1    -0.1
    -0.0     0.1     0.0     0.0     0.0     0.0    -0.0    -0.1    -0.0    -0.1
    -0.0     0.0     0.0     0.0    -0.0    -0.0    -0.0    -0.0    -0.0    -0.0
    -0.0     0.0     0.0    -0.0    -0.0    -0.1    -0.0    -0.0    -0.1     0.0
    -0.0    -0.0     0.0    -0.0    -0.1    -0.1     0.0    -0.0    -0.0     0.0
     0.0     0.1     0.0    -0.0    -0.0    -0.1    -0.1    -0.1    -0.0     0.1
    -0.0     0.0     0.1    -0.0    -0.1    -0.1    -0.1    -0.1    -0.1    -0.1
     0.1     0.1    -0.0     0.1     0.1     0.0    -0.0    -0.1    -0.0    -0.1
    -0.1     0.0     0.0     0.0    -0.0    -0.0     0.0    -0.1     0.0    -0.0
    -0.0     0.0    -0.0    -0.0    -0.0    -0.0    -0.1    -0.1    -0.0    -0.0
     0.0     0.0    -0.0     0.0     0.0    -0.1    -0.0     0.0    -0.1    -0.0
     0.0     0.0    -0.0    -0.0     0.1     0.0     0.0    -0.0     0.0     0.0
    -0.1    -0.1    -0.1    -0.0    -0.1    -0.1    -0.0    -0.0     0.1     0.1
     0.0    -0.0    -0.0    -0.0    -0.1    -0.0    -0.0     0.0     0.0    -0.0
     0.1    -0.0     0.0     0.0    -0.0    -0.0    -0.1    -0.0    -0.0    -0.0
    -0.0    -0.1    -0.0    -0.0    -0.0     0.0     0.0     0.0     0.1     0.0
    -0.0    -0.0    -0.1    -0.1    -0.1    -0.1    -0.0     0.0     0.1     0.1
     0.0     0.0    -0.0    -0.1    -0.0    -0.1    -0.1    -0.0    -0.0     0.0
     0.0    -0.0    -0.0    -0.0     0.0     0.0     0.0    -0.0    -0.0    -0.0
    -0.1    -0.1    -0.1     0.0     0.0     0.0     0.1     0.1     0.1    -0.0
    -0.1    -0.0    -0.0    -0.0    -0.1    -0.1     0.0    -0.0     0.0     0.0
    -0.0    -0.1     0.0     0.0    -0.0     0.0    -0.0    -0.0    -0.0    -0.1
    -0.0    -0.0     0.0     0.0     0.0     0.1    -0.0     0.0    -0.0    -0.1
    -0.0    -0.1    -0.1    -0.0     0.0     0.1     0.0     0.0    -0.0    -0.0
    -0.0    -0.1    -0.1    -0.1    -0.0    -0.0    -0.0     0.0     0.0     0.0
    -0.1    -0.0     0.0     0.0     0.0    -0.0     0.0    -0.0     0.0     0.0
    -0.1    -0.1    -0.1    -0.1    -0.0    -0.0     0.0    -0.0     0.0     0.0
    -0.1    -0.0    -0.1    -0.1    -0.0    -0.0     0.0    -0.0     0.0     0.0
     0.0     0.0    -0.0    -0.0    -0.0     0.0    -0.0    -0.1    -0.0     0.0
     0.0     0.0    -0.0     0.0     0.0    -0.0    -0.0    -0.0    -0.0    -0.0
    -0.0     0.0    -0.0    -0.1    -0.0    -0.0    -0.0    -0.0    -0.0     0.0
     0.0    -0.0     0.0    -0.0    -0.0    -0.0    -0.0    -0.0     0.0    -0.0
    -0.0     0.1    -0.0    -0.0     0.0    -0.1    -0.0    -0.0    -0.1    -0.0
    -0.1    -0.1    -0.0    -0.0    -0.0     0.0     0.1     0.0    -0.1    -0.0
     0.0    -0.1    -0.0     0.0     0.0    -0.1    -0.0     0.1     0.0    -0.0
    -0.0    -0.0    -0.0    -0.1     0.0     0.0    -0.1    -0.0     0.1    -0.0
    -0.0    -0.0     0.0    -0.0    -0.1     0.0     0.1    -0.0    -0.1    -0.0
    -0.0     0.0     0.0    -0.0     0.0     0.0    -0.0    -0.1    -0.0    -0.0
     0.0     0.1    -0.0     0.0    -0.0    -0.0    -0.0    -0.0    -0.1    -0.1
     0.0    -0.0     0.0     0.0     0.0     0.0    -0.0    -0.0    -0.1    -0.0
     0.0    -0.0    -0.0     0.0     0.0    -0.0    -0.0    -0.0    -0.0    -0.1
    -0.0     0.0     0.0     0.1    -0.0    -0.1    -0.0    -0.0    -0.0     0.0
     0.0    -0.0     0.0     0.0    -0.0     0.0    -0.0    -0.1    -0.0    -0.1
     0.0     0.0    -0.0     0.0    -0.0     0.0    -0.1    -0.0     0.1    -0.0
     0.0     0.0    -0.0    -0.0    -0.1    -0.1    -0.1    -0.1    -0.1     0.0
     0.0     0.0     0.0    -0.1    -0.1    -0.1    -0.0     0.0    -0.1     0.0
     0.1     0.0     0.0    -0.0    -0.1    -0.1    -0.1    -0.0    -0.0    -0.0
     0.0     0.0    -0.0    -0.1    -0.0    -0.1    -0.1    -0.0    -0.0    -0.0
    -0.0    -0.0     0.0     0.0    -0.1    -0.0    -0.0    -0.0    -0.0    -0.0
    -0.1    -0.0     0.0    -0.1    -0.0     0.1     0.0     0.0    -0.0     0.0
    -0.0    -0.0    -0.0    -0.1    -0.0    -0.0    -0.0     0.0    -0.0    -0.0
     0.0    -0.1    -0.1    -0.0    -0.0    -0.0     0.0     0.0     0.0    -0.0
    -0.1    -0.0     0.0    -0.1     0.0    -0.0     0.0     0.1    -0.0    -0.0
    -0.1    -0.0    -0.0    -0.1    -0.0     0.0     0.0    -0.0    -0.0     0.0
    -0.0    -0.0     0.0     0.0    -0.0    -0.0    -0.0    -0.1    -0.1     0.0
    -0.0    -0.0     0.0     0.1     0.0    -0.1     0.0    -0.0    -0.1    -0.0
    -0.0    -0.1     0.1     0.0    -0.1    -0.0     0.0     0.0    -0.0    -0.0
    -0.0    -0.1    -0.1    -0.0    -0.0    -0.1    -0.0     0.0    -0.0     0.0
     0.0    -0.0    -0.0    -0.0    -0.0    -0.1    -0.0     0.0    -0.1    -0.1
     0.0    -0.0    -0.0    -0.0     0.0    -0.0    -0.0     0.0    -0.0     0.0
     0.0    -0.1    -0.0    -0.1    -0.0     0.0    -0.0     0.0     0.0    -0.0
     0.0    -0.0    -0.0     0.0     0.0    -0.0    -0.1    -0.0    -0.1    -0.1
     0.1     0.0     0.0     0.0     0.1    -0.0    -0.1    -0.1    -0.1    -0.1
    -0.1     0.0    -0.0     0.0     0.1     0.0     0.0    -0.1    -0.1     0.0
    -0.1    -0.0     0.0    -0.0     0.0     0.0    -0.1    -0.0    -0.1    -0.1
     0.0     0.0     0.0     0.0     0.1     0.0    -0.1    -0.1    -0.1    -0.1
    -0.0     0.0     0.0     0.0     0.0     0.0     0.0    -0.1    -0.1    -0.0
    -0.1    -0.0    -0.0    -0.0    -0.0     0.0    -0.0     0.0     0.1    -0.0
     0.0    -0.0    -0.0    -0.0    -0.1    -0.0    -0.0    -0.0    -0.0     0.0
    -0.0    -0.0    -0.0    -0.0    -0.0    -0.1    -0.1    -0.0    -0.0     0.0
    -0.0     0.0     0.0     0.0     0.0    -0.0    -0.0    -0.0    -0.0    -0.0
     0.0    -0.0    -0.0    -0.1    -0.0    -0.0    -0.0    -0.0    -0.0    -0.0
     0.0    -0.0     0.0     0.0    -0.0    -0.0    -0.0    -0.1    -0.1    -0.1
    -0.0    -0.0    -0.0     0.1     0.1     0.0     0.0    -0.1    -0.1    -0.1
    -0.1    -0.1    -0.0     0.0     0.0     0.1     0.0    -0.0     0.0    -0.1
    -0.1    -0.1    -0.0    -0.1    -0.1     0.0    -0.0    -0.1    -0.0    -0.0
     0.0     0.0     0.0     0.1     0.0    -0.1    -0.0    -0.1    -0.1    -0.0
    -0.0     0.0     0.1     0.0     0.0    -0.1    -0.0    -0.0    -0.1    -0.0
    -0.1    -0.0    -0.0    -0.0     0.0    -0.0    -0.0    -0.0     0.0    -0.0
     0.0     0.1     0.0    -0.0    -0.1    -0.1    -0.1    -0.1    -0.0    -0.0
     0.1     0.1     0.1     0.0    -0.0    -0.0    -0.1    -0.2    -0.1    -0.1
    -0.1     0.0     0.0    -0.0    -0.0     0.0    -0.0    -0.0    -0.0    -0.1
     0.0     0.0    -0.0    -0.1    -0.0    -0.0    -0.0     0.0    -0.0     0.0
     0.0    -0.0    -0.0    -0.1    -0.1    -0.1    -0.1    -0.1    -0.0     0.0
    -0.0    -0.0    -0.0    -0.0    -0.0    -0.0    -0.0     0.0     0.0    -0.1
    -0.0    -0.0    -0.1    -0.1    -0.0     0.0     0.0     0.0     0.0     0.0
    -0.1    -0.0    -0.1    -0.1    -0.0    -0.1    -0.0     0.0    -0.0     0.0
    -0.0     0.0    -0.0    -0.1     0.0    -0.0     0.0    -0.0    -0.0     0.0
    -0.0    -0.0    -0.0     0.0     0.0    -0.0     0.0    -0.0    -0.1    -0.0
    -0.0    -0.1    -0.1     0.0     0.0    -0.0    -0.1     0.0     0.0    -0.1
     0.0    -0.0    -0.1    -0.0    -0.0     0.0    -0.0    -0.0     0.0    -0.0
    -0.0    -0.0     0.0     0.0    -0.0     0.0    -0.0    -0.0    -0.1    -0.1
    -0.0    -0.1    -0.0    -0.0     0.0     0.0    -0.0     0.0    -0.0    -0.0
    -0.0    -0.1    -0.0    -0.0    -0.1     0.0    -0.0    -0.1     0.0     0.0
    -0.0    -0.0     0.0     0.1    -0.0    -0.0    -0.1    -0.1    -0.0    -0.0
     0.0     0.0     0.1    -0.0     0.0    -0.1    -0.1     0.1    -0.3    -0.0
     0.3    -0.2    -0.2     0.2     0.2    -0.1     0.1    -0.2    -0.2     0.3
    -0.0    -0.2     0.0     0.2    -0.0    -0.0    -0.0    -0.2    -0.0    -0.0
    -0.0     0.0     0.0     0.1     0.0     0.0    -0.2    -0.1     0.0    -0.1
    -0.0     0.1     0.1     0.0    -0.1    -0.1     0.0    -0.1    -0.1     0.1
     0.1     0.0    -0.0    -0.0    -0.0    -0.1    -0.1    -0.0     0.0     0.0
     0.0     0.0    -0.0    -0.0    -0.1    -0.1    -0.0    -0.1     0.0    -0.0
    -0.0    -0.0    -0.0     0.0    -0.0    -0.1     0.1     0.0    -0.1    -0.0
     0.0     0.0    -0.1    -0.1     0.1     0.0    -0.0    -0.1     0.0    -0.0
    -0.1     0.0    -0.1    -0.0    -0.0    -0.1    -0.0    -0.0    -0.0    -0.0
     0.0    -0.0    -0.1    -0.0    -0.0    -0.0    -0.1    -0.0     0.0    -0.0
    -0.0     0.0    -0.0    -0.0     0.0     0.0    -0.0    -0.0    -0.0    -0.0
    -0.1    -0.0    -0.0    -0.1    -0.0    -0.0    -0.0     0.0    -0.0    -0.0
    -0.0    -0.1    -0.0    -0.0    -0.1     0.0    -0.0    -0.1     0.0     0.0
    -0.0     0.0     0.0     0.0    -0.0    -0.0    -0.0    -0.1    -0.0    -0.0
    -0.0     0.0    -0.0     0.0    -0.0    -0.0    -0.0    -0.1     0.0     0.0
    -0.0    -0.0     0.0    -0.1    -0.1    -0.0    -0.0     0.0    -0.0    -0.0
     0.0    -0.0    -0.1    -0.0    -0.0    -0.1     0.0    -0.0     0.0     0.0
    -0.0     0.0    -0.0     0.0    -0.0    -0.0    -0.0    -0.1     0.0    -0.1
    -0.0    -0.0    -0.1    -0.0     0.0    -0.0    -0.0     0.0    -0.0    -0.0
     0.0    -0.0    -0.0    -0.1    -0.0    -0.0    -0.0     0.0    -0.0    -0.0
     0.0    -0.0    -0.0    -0.0    -0.0    -0.0    -0.0    -0.0     0.0    -0.1
    -0.0    -0.0    -0.1    -0.0    -0.0    -0.0    -0.0     0.0    -0.0    -0.0
    -0.0    -0.1    -0.0    -0.0    -0.0     0.0    -0.0    -0.0     0.0     0.0
    -0.1    -0.0    -0.0    -0.0    -0.0    -0.0    -0.0    -0.0    -0.0    -0.0
    -0.0    -0.0    -0.0     0.0     0.0     0.0    -0.0    -0.0    -0.0    -0.0
    -0.0     0.0     0.0     0.0    -0.0     0.0     0.0    -0.0    -0.0    -0.0
    -0.0    -0.1    -0.0     0.0    -0.1    -0.0     0.0    -0.0     0.0     0.0
    -0.0    -0.0     0.0     0.0    -0.0    -0.0     0.0    -0.0    -0.0    -0.0
    -0.1    -0.0     0.0    -0.0     0.0    -0.0    -0.0    -0.0    -0.0    -0.0
     0.0    -0.0    -0.0    -0.0    -0.0     0.0    -0.0    -0.0    -0.0     0.0
    -0.0    -0.0     0.0    -0.1    -0.0    -0.0    -0.0    -0.0    -0.0     0.0
     0.0    -0.0     0.0    -0.0     0.0    -0.0    -0.0    -0.0    -0.0     0.0
    -0.1    -0.0    -0.0    -0.1    -0.0     0.0     0.0    -0.0    -0.0    -0.0
    -0.0     0.0    -0.1    -0.0    -0.0    -0.0     0.0    -0.0     0.0    -0.0
     0.0     0.0    -0.1     0.0    -0.0    -0.0     0.0    -0.0    -0.0    -0.0
     0.0    -0.0     0.0    -0.0    -0.0    -0.0    -0.0     0.0    -0.0    -0.1
    -0.0    -0.0    -0.0    -0.0     0.0    -0.0    -0.0     0.0    -0.0     0.0
    -0.0    -0.0    -0.0    -0.0    -0.0     0.1    -0.0    -0.0    -0.0    -0.0
     0.0    -0.0    -0.0    -0.0     0.0    -0.1    -0.1     0.0    -0.0    -0.0
     0.0     0.0     0.0    -0.0    -0.0     0.0    -0.0     0.0    -0.0    -0.0
     0.0    -0.0     0.0    -0.0    -0.1     0.0    -0.0    -0.0     0.1    -0.0
    -0.0    -0.0    -0.0    -0.0    -0.0    -0.0    -0.0    -0.0    -0.0    -0.0
    -0.0    -0.0    -0.1     0.0     0.0    -0.0     0.0    -0.0    -0.0    -0.0
    -0.0    -0.0    -0.0    -0.0     0.0    -0.0    -0.0     0.0    -0.1     0.0
     0.0    -0.1     0.0    -0.0    -0.0    -0.0    -0.0    -0.0    -0.0     0.0
    -0.0     0.0     0.0     0.0    -0.0    -0.0     0.0    -0.0     0.0    -0.0
    -0.0    -0.0    -0.0     0.0    -0.0     0.0    -0.0    -0.1     0.0    -0.0
    -0.0    -0.0    -0.0     0.0     0.0    -0.1    -0.0    -0.0    -0.0    -0.0
    -0.1     0.0    -0.0    -0.0    -0.0     0.0     0.1    -0.2     0.0     0.2
    -0.2    -0.1     0.1     0.1    -0.1     0.1    -0.0    -0.1     0.1    -0.0
    -0.1    -0.0     0.1     0.0     0.0    -0.0    -0.1    -0.0    -0.0    -0.0
    -0.1    -0.0     0.1     0.0    -0.0    -0.1    -0.0     0.1    -0.1     0.0
     0.1    -0.0    -0.0    -0.1     0.0    -0.1    -0.1     0.0    -0.0     0.0
    -0.0    -0.0    -0.0    -0.0    -0.0    -0.0     0.0    -0.0     0.0     0.0
    -0.1    -0.0    -0.0    -0.1    -0.0     0.0    -0.0    -0.0     0.0    -0.0
    -0.0    -0.0    -0.0    -0.0    -0.0     0.1    -0.0    -0.0     0.0    -0.0
    -0.0    -0.0     0.1    -0.1    -0.1     0.0    -0.0    -0.0    -0.1    -0.0
     0.0    -0.0     0.0    -0.0     0.0     0.0    -0.1     0.0     0.0    -0.1
    -0.0    -0.0     0.0    -0.0    -0.1    -0.0    -0.0    -0.0     0.0    -0.0
    -0.0    -0.0    -0.0    -0.0     0.0     0.0    -0.1    -0.0     0.0    -0.0
    -0.0    -0.0    -0.0     0.0     0.0    -0.0    -0.0    -0.0    -0.0     0.0
    -0.1    -0.1     0.1    -0.0    -0.0    -0.0    -0.0     0.0    -0.0     0.0
    -0.0    -0.0    -0.0    -0.0     0.0    -0.1    -0.0     0.0    -0.0     0.0
    -0.0     0.0     0.0    -0.1    -0.0    -0.0     0.0    -0.0    -0.0     0.0
    -0.0     0.0     0.0    -0.1     0.0    -0.1    -0.0    -0.0    -0.0     0.0
     0.0    -0.0    -0.0     0.0    -0.1     0.0     0.0    -0.0     0.1    -0.0
    -0.0     0.0    -0.0    -0.0    -0.0     0.0    -0.1    -0.0     0.0    -0.1
     0.0     0.0    -0.0    -0.0    -0.0    -0.0    -0.0     0.0    -0.0    -0.1
     0.0    -0.1    -0.1     0.1    -0.0    -0.0    -0.0    -0.0     0.0    -0.0
     0.0    -0.1    -0.0     0.0    -0.0    -0.0    -0.0     0.0     0.0    -0.0
     0.0     0.0    -0.0    -0.1     0.0     0.0    -0.0    -0.0     0.0     0.0
    -0.0    -0.0    -0.0     0.0    -0.0     0.0     0.0    -0.0     0.0     0.0
    -0.0    -0.0     0.0    -0.0    -0.0    -0.0     0.0     0.0    -0.0     0.0
    -0.0    -0.0    -0.0    -0.0     0.0    -0.1     0.0    -0.0    -0.0    -0.0
    -0.0     0.0    -0.0    -0.0    -0.0    -0.0    -0.0    -0.0    -0.0     0.0
    -0.0    -0.0    -0.0     0.0    -0.0    -0.0     0.0    -0.0     0.0    -0.0
    -0.1     0.0    -0.0     0.0     0.0    -0.1     0.0    -0.0    -0.0    -0.0
    -0.0     0.0    -0.0    -0.0    -0.0    -0.0     0.0    -0.1    -0.1     0.0
    -0.0    -0.0    -0.0    -0.0     0.0    -0.0    -0.0     0.0    -0.0     0.0
    -0.1    -0.1     0.1    -0.1    -0.1     0.0     0.1    -0.0    -0.1     0.1
    -0.0    -0.0    -0.1    -0.0    -0.0    -0.0    -0.0    -0.0    -0.1    -0.0
     0.0    -0.0    -0.1     0.0     0.1    -0.1    -0.0     0.1     0.0    -0.1
    -0.0     0.0     0.0    -0.0    -0.1    -0.0     0.1    -0.0    -0.0    -0.0
    -0.0    -0.0    -0.0    -0.0    -0.0    -0.0    -0.0     0.0    -0.0    -0.0
    -0.0    -0.0    -0.0     0.0    -0.0    -0.0     0.0    -0.0    -0.0    -0.0
    -0.0     0.0    -0.1    -0.0     0.0    -0.0     0.0    -0.0     0.0    -0.0
    -0.0    -0.0    -0.0     0.0    -0.0    -0.0    -0.0    -0.0    -0.0    -0.1
     0.0    -0.0    -0.0    -0.0    -0.0     0.0    -0.1    -0.0     0.0    -0.0
    -0.0    -0.0     0.0     0.0    -0.0     0.0    -0.0    -0.0    -0.0    -0.0
     0.0    -0.0    -0.1    -0.0    -0.0     0.0    -0.0    -0.0    -0.0    -0.0
    -0.0    -0.0     0.0    -0.0    -0.0    -0.0    -0.0    -0.0    -0.0    -0.0
     0.0    -0.0    -0.0    -0.0    -0.0    -0.0     0.0     0.0    -0.0    -0.0
     0.0    -0.0    -0.0     0.0    -0.0    -0.0    -0.0    -0.0    -0.0    -0.0
    -0.0    -0.0     0.0    -0.0    -0.1    -0.0     0.0    -0.0     0.0    -0.0
    -0.0     0.0    -0.0     0.0    -0.0    -0.1     0.0    -0.0    -0.1     0.0
     0.0    -0.1    -0.0     0.0    -0.1    -0.0     0.0    -0.1     0.0    -0.0
    -0.0    -0.0    -0.0     0.0    -0.0    -0.0    -0.0     0.0    -0.0    -0.0
     0.0    -0.0    -0.0    -0.0    -0.0    -0.0    -0.1    -0.0    -0.0    -0.0
    -0.0     0.0     0.0    -0.1    -0.0    -0.0     0.0    -0.0    -0.1     0.0
    -0.0    -0.0    -0.0    -0.0     0.0    -0.1    -0.0    -0.0    -0.0    -0.0
    -0.0     0.0    -0.0    -0.0    -0.0     0.0    -0.0    -0.0    -0.0    -0.0
    -0.0    -0.0    -0.0    -0.1    -0.0    -0.0    -0.0     0.0    -0.0    -0.0
    -0.0    -0.0     0.0     0.0    -0.0    -0.0    -0.0     0.0    -0.0    -0.0
     0.0    -0.1    -0.0     0.0    -0.0    -0.0    -0.0    -0.0    -0.0    -0.0
     0.0    -0.0    -0.0    -0.0    -0.0    -0.0    -0.0     0.1    -0.0    -0.1
     0.0    -0.0     0.0    -0.0    -0.0     0.0    -0.0     0.0     0.0    -0.0
    -0.0    -0.0    -0.0    -0.0     0.0    -0.0     0.0    -0.0    -0.0     0.0
    -0.0    -0.0    -0.0    -0.0    -0.0    -0.0     0.0    -0.0    -0.0    -0.0
    -0.0     0.0    -0.0    -0.0    -0.0    -0.0     0.0    -0.0     0.0     0.0
    -0.0     0.0    -0.0    -0.0    -0.0    -0.0    -0.0     0.0    -0.0    -0.0
    -0.0    -0.0    -0.0    -0.0    -0.0    -0.0    -0.0    -0.0    -0.0     0.0
    -0.0    -0.0    -0.0    -0.0     0.0    -0.1     0.0    -0.0    -0.0     0.0
    -0.1    -0.1     0.0     0.0    -0.1    -0.0     0.0    -0.0    -0.0    -0.0
    -0.0    -0.0    -0.0    -0.0    -0.0     0.0    -0.0    -0.0    -0.0    -0.0
     0.0    -0.0    -0.0    -0.0    -0.0     0.0    -0.0    -0.0     0.0     0.0
    -0.0     0.0    -0.0    -0.0    -0.0     0.0    -0.0    -0.0     0.0    -0.1
    -0.0     0.0     0.0    -0.1    -0.1     0.0    -0.0    -0.0     0.0    -0.0
    -0.0     0.0    -0.0    -0.0     0.0    -0.0    -0.0    -0.0    -0.0     0.0
    -0.0    -0.0    -0.0     0.1    -0.1    -0.1     0.1     0.0    -0.1    -0.1
     0.2    -0.0    -0.1     0.1    -0.0    -0.1     0.1    -0.0    -0.1     0.1
     0.0     0.0     0.0    -0.1     0.0    -0.0    -0.0     0.0    -0.0     0.1
    -0.0     0.0    -0.0    -0.1    -0.0    -0.0     0.0     0.0     0.0    -0.0
    -0.0    -0.0    -0.1    -0.0    -0.0    -0.0     0.0     0.0    -0.0    -0.1
    -0.0    -0.0    -0.1     0.0     0.0    -0.0     0.1     0.0    -0.1    -0.0
    -0.1    -0.1     0.0     0.0     0.0     0.0    -0.0    -0.0     0.0    -0.1
    -0.0     0.0    -0.0    -0.0    -0.0     0.0    -0.0    -0.0    -0.0    -0.0
     0.0    -0.0     0.0    -0.0    -0.1     0.0    -0.1    -0.0     0.0    -0.0
    -0.0    -0.0    -0.0    -0.0    -0.0    -0.0     0.0    -0.0    -0.0    -0.0
    -0.0    -0.0    -0.0    -0.0     0.0    -0.0    -0.0    -0.0    -0.0    -0.0
    -0.0    -0.0    -0.0    -0.0    -0.0     0.0    -0.0    -0.0    -0.0    -0.0
