Uncorrected accelerogram 20160214_001343_DHSS_20 GNS Science
Site DHSS      43 37 49S  172 43 38E     Basalt file:  20160214_001347_DHSS
Diamond Harbour School
Instrument Basalt_612
Resolution: 24-bit   Instr Period: 0.0050 s   Damping: 0.700
Accelerogram 20160214_001343_DHSS_20                 Processed 2016 February 22
11 km east of CHRISTCHURCH
2016 February 14         00:13:43 UT
Epicentre  43 29 50S 172 45 18E  Bearing N09E  Dist   15km  Depth    8km M  5.70
Number of points  35000    Duration 175.00 s
Raw readings in units of 1.00 mm/s/s  at intervals of 0.005 s
Data is unfiltered
Component N90W
Acceleration:  Peak   1029.1 mm/s/s at  44.91 s     RMS    59.45 mm/s/s
Velocity record unevaluated
Displacement record unevaluated
    2016       2      14       0      13     430       0       0    2016       2
      43      29      50     172      45      18       8       0      14       0
      43      37      49     172      43      38     270     270       9      15
   35000       0       0   35000       0       0       0       0      13    7000
   200.0    0.70    0.00   0.000  0.0000   0.000   0.000   1.000     0.0    0.00
  43.630 172.727  43.497 172.755    5.70    0.00    0.00    0.00      0.      0.
  175.00    0.00    0.00  175.00  0.0050  0.0050      0.      0.      0.  9806.6
  1029.1   44.91    59.4      0.      0.     0.0    0.00     0.0     0.0   0.000
    0.00    0.00    0.00    0.00   0.000    0.00    0.00    0.00    0.00   0.000
   0.000   0.000   0.000      0.      0.   0.000   0.000   0.000      0.      0.
     0.0     0.0     0.0     0.0    -0.0    -0.1    -0.1     0.0    -0.0    -0.0
     0.0    -0.0    -0.0    -0.1    -0.1     0.0    -0.0    -0.0     0.0     0.0
     0.0     0.0     0.1     0.0    -0.0    -0.0    -0.1    -0.0    -0.0    -0.1
    -0.1    -0.1    -0.0     0.0    -0.0     0.0     0.1    -0.0    -0.0    -0.0
    -0.0    -0.0    -0.1    -0.0    -0.0    -0.0    -0.0    -0.1     0.0    -0.0
     0.0     0.0    -0.0     0.1    -0.0    -0.0    -0.0    -0.0    -0.1    -0.1
    -0.0    -0.0     0.0    -0.0     0.0     0.0    -0.0    -0.0    -0.0    -0.0
     0.0    -0.0    -0.1     0.0     0.0    -0.1     0.0     0.0     0.0    -0.0
    -0.0     0.1    -0.0    -0.1    -0.0    -0.0    -0.1    -0.1    -0.1     0.0
     0.0    -0.1    -0.0     0.0     0.0    -0.0    -0.0    -0.0    -0.0    -0.0
    -0.1    -0.0    -0.0    -0.1    -0.1    -0.0     0.0    -0.0    -0.0     0.0
     0.0    -0.0    -0.0    -0.0     0.0    -0.0    -0.1    -0.0    -0.0     0.0
     0.0     0.0     0.0    -0.0    -0.0    -0.0    -0.0    -0.0    -0.1    -0.0
    -0.0    -0.0    -0.1    -0.0     0.1     0.0    -0.0     0.0     0.0     0.0
    -0.0    -0.0     0.0    -0.1    -0.1    -0.1    -0.0     0.0    -0.1    -0.0
     0.1    -0.0     0.1    -0.0    -0.0    -0.0    -0.1    -0.0    -0.0     0.0
    -0.0     0.0     0.0    -0.0    -0.1    -0.1    -0.0    -0.1    -0.1    -0.0
    -0.0     0.1     0.0     0.0     0.1     0.0     0.0    -0.0    -0.0    -0.1
    -0.1    -0.0    -0.1    -0.0    -0.0     0.0     0.1     0.0     0.0    -0.0
     0.0     0.0    -0.1     0.0    -0.1    -0.0    -0.1    -0.1     0.0    -0.1
     0.0     0.0    -0.0    -0.0    -0.0     0.0     0.0     0.0    -0.0    -0.0
     0.1     0.0    -0.1    -0.1    -0.1    -0.0    -0.1     0.0     0.0    -0.0
    -0.0    -0.1    -0.1    -0.0    -0.0    -0.0     0.0     0.0    -0.0     0.0
    -0.0     0.0     0.0    -0.0     0.0    -0.1    -0.0    -0.1    -0.0    -0.0
    -0.0     0.0     0.0     0.0     0.0    -0.1    -0.1    -0.1    -0.1    -0.0
    -0.1     0.0     0.0    -0.0     0.0    -0.0    -0.0     0.0    -0.1     0.0
     0.0    -0.0    -0.0    -0.0    -0.0     0.0    -0.0    -0.0     0.0    -0.0
    -0.0    -0.1    -0.1    -0.0     0.0     0.0     0.1     0.0     0.0     0.0
    -0.1    -0.1    -0.1    -0.1    -0.1    -0.1    -0.0    -0.0    -0.0    -0.0
    -0.0     0.0     0.0     0.0     0.0    -0.0    -0.0    -0.0    -0.1    -0.1
    -0.0    -0.1    -0.0     0.0    -0.1     0.1     0.0    -0.0    -0.0     0.0
    -0.0    -0.1    -0.0    -0.0    -0.0     0.0    -0.0    -0.0     0.0    -0.1
    -0.1     0.0     0.0    -0.0     0.0     0.1     0.0     0.0    -0.0    -0.0
    -0.0    -0.1    -0.1    -0.0    -0.0    -0.1    -0.1    -0.0     0.0    -0.0
    -0.0     0.0     0.0     0.0    -0.0     0.0     0.0    -0.1    -0.1    -0.0
    -0.0    -0.0    -0.1     0.0     0.0    -0.0    -0.0    -0.0     0.0    -0.0
    -0.1     0.1     0.0    -0.1    -0.0    -0.1    -0.0    -0.1    -0.1    -0.1
     0.0    -0.1    -0.0     0.1     0.1     0.1    -0.0     0.0     0.0    -0.1
    -0.1    -0.1    -0.1    -0.1    -0.1    -0.0     0.0     0.0    -0.1     0.0
     0.0    -0.0     0.0     0.1     0.1    -0.0    -0.1    -0.1    -0.1    -0.1
    -0.1     0.0     0.1     0.1     0.0     0.0     0.0     0.0    -0.1    -0.1
    -0.1    -0.1    -0.0    -0.0     0.1     0.0     0.0     0.1    -0.0    -0.1
    -0.1    -0.1    -0.1    -0.0     0.0     0.0     0.1     0.1    -0.0    -0.1
    -0.1    -0.1    -0.1    -0.0     0.0     0.0    -0.0    -0.1    -0.0    -0.1
    -0.1     0.0     0.0     0.1     0.1     0.0     0.0    -0.1    -0.1    -0.1
    -0.1    -0.0    -0.0    -0.0     0.0    -0.1    -0.0    -0.0    -0.0     0.1
     0.1     0.1     0.0     0.0    -0.0    -0.1    -0.1    -0.1    -0.1    -0.1
    -0.0     0.0     0.0     0.1     0.1     0.0    -0.0    -0.0    -0.0    -0.1
    -0.0     0.0    -0.0    -0.0    -0.1    -0.1     0.0    -0.0     0.0     0.0
     0.0    -0.0    -0.0     0.0    -0.0    -0.0    -0.1    -0.1    -0.1    -0.2
    -0.1    -0.1     0.0     0.1     0.1     0.1     0.1     0.0    -0.1    -0.1
    -0.2    -0.2    -0.1    -0.1     0.0     0.0     0.1     0.1     0.0     0.0
     0.0    -0.0    -0.0    -0.0    -0.0    -0.1    -0.1    -0.2    -0.2    -0.1
    -0.0    -0.0     0.0     0.1     0.1     0.0     0.1     0.0     0.0    -0.0
    -0.0    -0.1    -0.1    -0.2    -0.2    -0.1     0.1     0.0     0.1     0.2
     0.1     0.0    -0.0     0.0    -0.1    -0.2    -0.2    -0.1    -0.1    -0.1
    -0.1    -0.0     0.1    -0.0     0.0     0.1     0.1     0.1     0.1     0.0
     0.0    -0.1    -0.1    -0.1    -0.1    -0.1    -0.1    -0.1     0.0    -0.0
    -0.0     0.1     0.0     0.0    -0.1     0.0     0.0    -0.1    -0.1    -0.1
    -0.0    -0.0    -0.1    -0.0     0.1     0.0     0.0     0.1     0.0    -0.0
    -0.1    -0.1    -0.0    -0.1    -0.0    -0.0    -0.0    -0.0    -0.0     0.0
     0.0     0.1     0.0    -0.0     0.0    -0.1    -0.1    -0.1    -0.0    -0.1
    -0.1    -0.0    -0.0    -0.0    -0.0     0.0     0.0     0.0     0.0    -0.0
     0.0     0.0    -0.1    -0.0    -0.0    -0.0    -0.0    -0.1    -0.0    -0.0
    -0.0     0.0     0.0     0.0    -0.0    -0.1    -0.1    -0.1    -0.1    -0.1
     0.0     0.0     0.1     0.1    -0.0    -0.0    -0.1    -0.1    -0.1     0.0
    -0.0     0.0     0.1     0.0     0.0    -0.1    -0.0    -0.0    -0.1    -0.0
    -0.1    -0.0     0.0    -0.0     0.0     0.0     0.0    -0.0    -0.1    -0.0
    -0.1    -0.1    -0.1    -0.0    -0.0     0.0     0.1    -0.0     0.0     0.0
    -0.1    -0.0    -0.0     0.0    -0.0    -0.0    -0.0    -0.0    -0.0    -0.1
    -0.0     0.0     0.0    -0.0    -0.0     0.0    -0.0    -0.0    -0.1    -0.0
    -0.0    -0.1    -0.0     0.0     0.0    -0.0    -0.0     0.0     0.0    -0.0
    -0.0    -0.0    -0.1    -0.0    -0.1     0.0     0.0    -0.1     0.1     0.0
    -0.1    -0.0    -0.1    -0.0     0.0     0.0    -0.0    -0.0    -0.0    -0.1
    -0.0    -0.1    -0.1    -0.1    -0.0     0.0     0.0    -0.0    -0.0     0.0
     0.0    -0.0    -0.0    -0.0    -0.1    -0.0    -0.1    -0.0     0.0    -0.1
     0.0     0.0     0.0     0.0    -0.1     0.1     0.0    -0.0    -0.0    -0.0
    -0.0    -0.1    -0.1    -0.0    -0.0    -0.0    -0.0    -0.0    -0.0    -0.0
    -0.0     0.0     0.0    -0.0    -0.0     0.0     0.0    -0.0    -0.1    -0.0
    -0.1    -0.1    -0.0    -0.1     0.0    -0.0    -0.1     0.0    -0.0    -0.1
    -0.0    -0.0     0.0     0.0     0.0     0.0     0.0     0.0    -0.0    -0.0
    -0.0    -0.1    -0.1    -0.0     0.0    -0.0     0.0     0.1     0.0     0.0
    -0.0     0.0    -0.0    -0.1    -0.1    -0.1    -0.1    -0.1    -0.1    -0.0
     0.0     0.0     0.1     0.1     0.1     0.1     0.0    -0.0    -0.0    -0.1
    -0.1    -0.1    -0.1    -0.1    -0.0     0.0     0.1     0.0    -0.0     0.0
     0.0     0.0    -0.1    -0.1    -0.0    -0.1    -0.1    -0.1    -0.0    -0.0
    -0.0     0.0     0.0     0.1     0.0     0.0     0.1    -0.0    -0.1    -0.1
    -0.1    -0.0    -0.0    -0.0     0.1     0.1    -0.0    -0.0    -0.0    -0.1
    -0.1    -0.1    -0.0    -0.0     0.0    -0.0    -0.0     0.0    -0.1    -0.1
    -0.0     0.0     0.0     0.0     0.0    -0.0    -0.0    -0.1    -0.1    -0.0
    -0.1    -0.0     0.0     0.1     0.1     0.0     0.1    -0.0    -0.0    -0.1
    -0.2    -0.1    -0.1    -0.1    -0.0    -0.0    -0.0     0.0     0.0     0.0
     0.1     0.0     0.1     0.0    -0.0    -0.1    -0.2    -0.2    -0.1    -0.1
    -0.0     0.1     0.1     0.1     0.1     0.0    -0.0    -0.1    -0.0    -0.0
    -0.0    -0.0     0.0    -0.0    -0.0    -0.0    -0.1    -0.1    -0.0     0.1
    -0.0    -0.0    -0.0     0.0     0.0    -0.1    -0.0    -0.1    -0.1    -0.1
    -0.0     0.1     0.0     0.0     0.1     0.1    -0.0    -0.1    -0.1    -0.1
    -0.0     0.0     0.0     0.1     0.0    -0.0    -0.1    -0.0    -0.0    -0.1
    -0.0     0.1     0.1    -0.0    -0.1     0.0    -0.0    -0.1    -0.1    -0.0
     0.0    -0.0    -0.0     0.0     0.1    -0.0    -0.0    -0.0    -0.0    -0.1
    -0.1    -0.1     0.0    -0.0    -0.1     0.1     0.1     0.0    -0.0    -0.1
     0.0    -0.0    -0.1    -0.1    -0.0    -0.0    -0.1    -0.0     0.0    -0.0
    -0.1    -0.0     0.0    -0.0    -0.0    -0.0    -0.0     0.0     0.0     0.0
     0.1     0.0    -0.1    -0.1    -0.1    -0.1    -0.1    -0.1     0.1     0.0
    -0.0     0.0     0.1     0.0    -0.1    -0.1    -0.0    -0.0    -0.1    -0.1
    -0.0     0.0    -0.0     0.1     0.1     0.0    -0.0    -0.1    -0.1    -0.1
    -0.1    -0.0     0.0     0.0     0.1     0.0    -0.0     0.0    -0.0    -0.0
    -0.0    -0.0    -0.1    -0.1    -0.0    -0.0     0.1     0.0     0.0     0.0
    -0.1    -0.0    -0.1    -0.1    -0.1    -0.0     0.1     0.1     0.0     0.1
     0.1    -0.0    -0.1    -0.1    -0.1    -0.1    -0.1    -0.1    -0.0    -0.0
    -0.0     0.0     0.0     0.1     0.1     0.0     0.0    -0.1    -0.1    -0.1
    -0.1    -0.0    -0.0     0.0     0.1     0.0     0.1     0.0    -0.0    -0.1
    -0.2    -0.1    -0.0     0.0    -0.0     0.1     0.1     0.0     0.0    -0.0
    -0.1    -0.1    -0.1    -0.1    -0.0    -0.0     0.0     0.1     0.0     0.1
    -0.0     0.0     0.1    -0.0    -0.0    -0.1    -0.1    -0.1    -0.1    -0.0
    -0.0    -0.1    -0.0     0.0    -0.0     0.0     0.0    -0.0    -0.1    -0.1
    -0.0    -0.0     0.0     0.1     0.1     0.0     0.0    -0.0    -0.0    -0.0
    -0.1    -0.1    -0.1    -0.1     0.0    -0.0    -0.0     0.0    -0.0     0.0
     0.0     0.0     0.0    -0.0     0.0     0.0    -0.1    -0.1    -0.1    -0.1
    -0.1    -0.1    -0.0     0.1     0.0     0.0     0.1     0.0     0.0    -0.0
    -0.0     0.0    -0.1    -0.1    -0.1    -0.1    -0.1    -0.2     0.0     0.0
    -0.0     0.1    -0.0     0.1     0.1    -0.0    -0.0    -0.1    -0.0    -0.1
    -0.1    -0.0    -0.0    -0.1    -0.0     0.0     0.1     0.0     0.0     0.1
     0.1    -0.0    -0.1    -0.1    -0.0    -0.1    -0.1     0.0     0.0     0.1
    -0.0     0.0     0.0    -0.0    -0.0    -0.1    -0.1    -0.1    -0.1     0.0
     0.1     0.0    -0.0     0.0     0.0    -0.0    -0.0     0.0     0.1    -0.0
    -0.1    -0.1    -0.1    -0.1    -0.1    -0.0     0.2     0.1     0.1     0.2
     0.1     0.1    -0.0    -0.1    -0.2    -0.3    -0.3    -0.3    -0.1    -0.0
    -0.0     0.1     0.1     0.1     0.1     0.1     0.1     0.1    -0.0    -0.1
    -0.1    -0.1    -0.2    -0.2    -0.1     0.0    -0.0     0.0     0.1     0.0
     0.1     0.0     0.0     0.0    -0.0    -0.0    -0.0    -0.0    -0.0    -0.0
    -0.0    -0.0    -0.1    -0.1    -0.0     0.0     0.0    -0.0    -0.0    -0.1
    -0.1    -0.1    -0.0     0.0     0.1     0.1     0.1     0.1    -0.0    -0.0
    -0.0    -0.1    -0.1    -0.1    -0.1    -0.0     0.0     0.0     0.0     0.0
    -0.0    -0.0    -0.0    -0.1    -0.1     0.0    -0.0    -0.0     0.0     0.0
    -0.1    -0.1    -0.0    -0.1    -0.0    -0.0    -0.0     0.1     0.1     0.0
    -0.0     0.0    -0.1    -0.1    -0.0    -0.1    -0.0    -0.1    -0.1     0.0
    -0.0     0.0     0.1     0.1     0.1     0.0    -0.0    -0.1    -0.1    -0.2
    -0.2    -0.1    -0.1    -0.1    -0.0     0.1     0.1     0.1     0.1     0.1
     0.0    -0.1    -0.1    -0.1    -0.1    -0.0    -0.0     0.1     0.1     0.0
    -0.0    -0.1    -0.1    -0.1    -0.1    -0.0     0.0     0.1     0.1     0.1
     0.1    -0.1    -0.1    -0.1    -0.1    -0.1    -0.1    -0.0     0.0     0.0
     0.0     0.0     0.0    -0.0    -0.1     0.0     0.1    -0.0    -0.0    -0.0
    -0.0    -0.0    -0.1    -0.0     0.0     0.0    -0.0    -0.1    -0.0    -0.0
    -0.0     0.0     0.1     0.0    -0.1    -0.0    -0.0    -0.0    -0.1    -0.1
    -0.0    -0.0    -0.1    -0.0     0.0    -0.0    -0.0     0.0     0.0    -0.0
    -0.1    -0.1    -0.0    -0.0     0.0    -0.0     0.0     0.0    -0.1    -0.0
    -0.1    -0.1    -0.1    -0.0     0.1     0.1     0.1     0.0    -0.0    -0.1
    -0.1    -0.1    -0.1    -0.0     0.0     0.1     0.1     0.0    -0.0    -0.1
    -0.1    -0.1    -0.1    -0.1    -0.0     0.0    -0.0    -0.0     0.1     0.0
    -0.0     0.0    -0.0    -0.0    -0.1    -0.1    -0.1    -0.0    -0.0    -0.0
     0.0    -0.0     0.0     0.0    -0.0     0.0    -0.1    -0.0     0.0     0.0
    -0.0    -0.1    -0.0    -0.0    -0.0    -0.0    -0.0    -0.0    -0.1    -0.1
    -0.1    -0.0     0.1     0.1     0.1     0.1    -0.0    -0.1    -0.1    -0.1
    -0.1    -0.0    -0.0     0.0     0.1     0.0     0.1     0.0    -0.0    -0.0
    -0.1    -0.1    -0.1    -0.1    -0.0    -0.0     0.0    -0.0    -0.0    -0.1
    -0.0     0.0    -0.0     0.1     0.0     0.1     0.1    -0.0     0.0    -0.1
    -0.1    -0.1    -0.1    -0.0    -0.1    -0.0     0.0     0.0     0.1    -0.0
    -0.0     0.0    -0.0    -0.1    -0.1     0.0     0.0    -0.0     0.0    -0.1
    -0.0     0.0    -0.0    -0.0     0.0    -0.0    -0.1    -0.0    -0.0    -0.1
    -0.1    -0.0     0.0     0.0     0.0     0.1    -0.0    -0.1    -0.1    -0.0
     0.0    -0.1    -0.1    -0.1    -0.1    -0.0    -0.0    -0.0     0.0     0.0
     0.0     0.0     0.0    -0.0    -0.1     0.0    -0.0    -0.0    -0.0     0.0
    -0.0    -0.0    -0.0    -0.1     0.0    -0.0    -0.1     0.0     0.0     0.0
    -0.0    -0.0     0.0    -0.1    -0.1    -0.1    -0.0    -0.0    -0.0    -0.0
     0.0     0.1     0.0     0.0     0.1    -0.0    -0.0    -0.1    -0.1    -0.0
    -0.1    -0.0     0.0    -0.0    -0.1    -0.0    -0.0     0.0    -0.0    -0.1
    -0.1    -0.1    -0.1    -0.1     0.0     0.1     0.0     0.1     0.1     0.0
    -0.0    -0.0    -0.0    -0.1    -0.1    -0.2    -0.0    -0.1    -0.0    -0.0
     0.0     0.1    -0.0     0.0     0.0    -0.0    -0.0    -0.0    -0.1    -0.1
    -0.2    -0.2    -0.1     0.0     0.1     0.2     0.1     0.1    -0.0    -0.0
    -0.0    -0.1    -0.1    -0.1    -0.0    -0.0    -0.1    -0.1    -0.0     0.1
     0.0    -0.0     0.0    -0.0    -0.1    -0.0    -0.0     0.0     0.1    -0.0
    -0.0    -0.1    -0.1    -0.1    -0.0    -0.0     0.0    -0.1    -0.0     0.1
     0.0     0.1     0.0    -0.1    -0.1    -0.3    -0.2    -0.1     0.0     0.1
     0.1     0.1     0.0     0.1     0.0     0.0     0.0    -0.0    -0.0    -0.1
    -0.1    -0.1    -0.1    -0.1    -0.1    -0.1    -0.0     0.1     0.1     0.1
    -0.0     0.0     0.1    -0.0    -0.0    -0.0    -0.1    -0.1    -0.1    -0.1
    -0.1    -0.0     0.0     0.1     0.1    -0.0    -0.0     0.0    -0.0    -0.1
    -0.1    -0.1    -0.1     0.0    -0.0    -0.0    -0.0    -0.0     0.0    -0.0
    -0.0     0.1     0.1     0.0    -0.0    -0.1    -0.1    -0.1    -0.1    -0.0
    -0.0    -0.1    -0.1     0.0    -0.0    -0.0    -0.0     0.0     0.1    -0.0
    -0.0    -0.0    -0.0    -0.0    -0.0    -0.0     0.0    -0.0    -0.1     0.0
     0.0    -0.1    -0.0    -0.0     0.0    -0.0    -0.1     0.0     0.0    -0.0
    -0.0    -0.0     0.1    -0.0    -0.1    -0.0    -0.0    -0.0    -0.0    -0.0
    -0.0    -0.1    -0.1     0.0     0.1     0.1    -0.0    -0.0     0.1     0.0
    -0.1    -0.0    -0.0    -0.1    -0.1    -0.1    -0.0    -0.0    -0.1    -0.0
     0.1     0.1     0.1     0.0     0.0     0.0    -0.1    -0.1    -0.0    -0.0
    -0.0    -0.1     0.0    -0.0    -0.1    -0.1    -0.1     0.1     0.0     0.0
     0.1     0.1    -0.0     0.0     0.1    -0.0    -0.1    -0.2    -0.1    -0.0
    -0.1    -0.1     0.0     0.1     0.1     0.0     0.0     0.0    -0.0    -0.1
    -0.1    -0.1    -0.1    -0.1    -0.0     0.0     0.0     0.0     0.0    -0.0
     0.0    -0.0    -0.0     0.0    -0.1    -0.0    -0.1    -0.0     0.1    -0.0
     0.0    -0.0    -0.1    -0.0    -0.0     0.0    -0.0    -0.1     0.0     0.1
     0.0    -0.0    -0.0    -0.0    -0.1    -0.1    -0.1    -0.0    -0.1    -0.1
    -0.0    -0.0    -0.0     0.0     0.0     0.0     0.0     0.1     0.0    -0.0
    -0.1    -0.1    -0.1    -0.0     0.0     0.0    -0.1    -0.0    -0.0    -0.1
    -0.1    -0.1    -0.1     0.0     0.1     0.1     0.0     0.1     0.1    -0.0
    -0.0    -0.1    -0.1    -0.1    -0.1    -0.1    -0.0    -0.1    -0.1    -0.0
     0.0     0.0     0.0    -0.0     0.0     0.0    -0.1     0.0    -0.0    -0.0
    -0.1    -0.1    -0.1    -0.0     0.0     0.0     0.0     0.0     0.0     0.0
     0.1     0.0    -0.1    -0.1    -0.1    -0.1    -0.0     0.0    -0.0     0.1
     0.1     0.1     0.0    -0.0    -0.1    -0.1    -0.0    -0.1    -0.1    -0.0
    -0.0    -0.0    -0.1     0.0     0.0    -0.0     0.1     0.0     0.0     0.0
    -0.0    -0.1    -0.1    -0.1    -0.1     0.1     0.1    -0.0     0.0    -0.0
    -0.0    -0.0    -0.1    -0.1    -0.0    -0.0    -0.0    -0.1    -0.0    -0.1
    -0.0     0.1     0.1     0.1     0.0     0.0    -0.1    -0.1    -0.0    -0.1
    -0.0    -0.0    -0.1     0.0    -0.0    -0.0    -0.1    -0.1    -0.0    -0.0
    -0.0     0.0     0.1     0.0     0.0    -0.0    -0.0    -0.0    -0.1    -0.0
     0.0    -0.0    -0.0    -0.1    -0.0    -0.0    -0.0     0.0     0.1     0.0
    -0.1    -0.1    -0.1     0.0    -0.0    -0.0     0.1    -0.1    -0.0    -0.0
    -0.0     0.0    -0.1    -0.0    -0.0     0.0    -0.0    -0.1     0.0    -0.0
    -0.1    -0.0    -0.0    -0.1    -0.1    -0.0    -0.0     0.0     0.0     0.0
     0.1     0.1    -0.1    -0.1     0.0    -0.0    -0.0    -0.1    -0.0    -0.0
    -0.1    -0.0    -0.0     0.1     0.0    -0.0    -0.0    -0.0    -0.1    -0.1
    -0.0     0.0     0.1     0.0     0.0     0.1    -0.1    -0.1    -0.1    -0.1
    -0.1    -0.1    -0.0     0.1     0.1     0.0     0.0     0.0    -0.1    -0.1
    -0.2    -0.1     0.0    -0.0     0.0     0.0     0.1     0.1    -0.0     0.0
    -0.1    -0.1    -0.0    -0.1    -0.0    -0.1    -0.0    -0.0     0.0     0.0
    -0.0     0.0     0.0    -0.0    -0.1    -0.0    -0.1    -0.1     0.0     0.0
     0.0     0.0    -0.0    -0.0     0.0     0.0     0.0    -0.0     0.0    -0.0
    -0.1    -0.0    -0.1    -0.0    -0.0    -0.1     0.1     0.0    -0.0    -0.0
    -0.0     0.0     0.0     0.0     0.0     0.0    -0.1    -0.1    -0.1    -0.1
     0.0    -0.0     0.0     0.1     0.1     0.1    -0.0     0.0    -0.1    -0.1
    -0.1    -0.1     0.0    -0.1    -0.1     0.0     0.0     0.1    -0.1     0.0
     0.1     0.0    -0.0    -0.1     0.0    -0.1    -0.1    -0.1    -0.0    -0.0
    -0.0     0.1     0.1     0.1     0.0    -0.1    -0.1    -0.1    -0.1    -0.1
