Uncorrected accelerogram 20160214_001343_TWAS_20 GNS Science
Site TWAS      44 15 17S  170 05 54E     Basalt file:  20160214_001430_TWAS
Twizel Area School
Instrument Basalt_491
Resolution: 24-bit   Instr Period: 0.0050 s   Damping: 0.700
Accelerogram 20160214_001343_TWAS_20                 Processed 2016 February 22
11 km east of CHRISTCHURCH
2016 February 14         00:13:43 UT
Epicentre  43 29 50S 172 45 18E  Bearing N69E  Dist  230km  Depth    8km M  5.70
Number of points  30800    Duration 154.00 s
Raw readings in units of 1.00 mm/s/s  at intervals of 0.005 s
Data is unfiltered
Component N23E
Acceleration:  Peak     10.0 mm/s/s at  73.28 s     RMS     1.35 mm/s/s
Velocity record unevaluated
Displacement record unevaluated
    2016       2      14       0      13     430       0       0    2016       2
      43      29      50     172      45      18       8       0      14       0
      44      15      17     170       5      54      23      23      69     230
   30800       0       0   30800       0       0       0       0      13   50000
   200.0    0.70    0.00   0.000  0.0000   0.000   0.000   1.000     0.0    0.00
  44.255 170.098  43.497 172.755    5.70    0.00    0.00    0.00      0.      0.
  154.00    0.00    0.00  154.00  0.0050  0.0050      0.      0.      0.  9806.6
    10.0   73.28     1.3      0.      0.     0.0    0.00     0.0     0.0   0.000
    0.00    0.00    0.00    0.00   0.000    0.00    0.00    0.00    0.00   0.000
   0.000   0.000   0.000      0.      0.   0.000   0.000   0.000      0.      0.
    -0.0    -0.0    -0.0    -0.0    -0.0    -0.1    -0.0     0.0    -0.0    -0.0
    -0.0    -0.0    -0.0    -0.0    -0.0    -0.0    -0.0    -0.0    -0.0    -0.0
    -0.0    -0.0    -0.0    -0.0    -0.0    -0.0    -0.0    -0.0    -0.0    -0.1
    -0.0    -0.0    -0.0    -0.0    -0.1     0.0    -0.0    -0.0    -0.0    -0.0
     0.0    -0.0    -0.1     0.0    -0.0    -0.1    -0.1     0.0     0.0    -0.0
    -0.0     0.0    -0.0    -0.1     0.0    -0.0    -0.1     0.0    -0.0    -0.1
    -0.0    -0.1    -0.0    -0.0    -0.1    -0.0    -0.0     0.0    -0.0    -0.1
    -0.0    -0.0    -0.0     0.0    -0.0    -0.0    -0.0    -0.0    -0.0    -0.0
    -0.0    -0.0    -0.0    -0.0    -0.0     0.0    -0.0    -0.0     0.0    -0.0
    -0.0    -0.0     0.0    -0.1    -0.1    -0.0    -0.0    -0.0    -0.0    -0.0
    -0.0    -0.0    -0.0    -0.0    -0.0    -0.0    -0.0    -0.0    -0.1    -0.0
    -0.0    -0.0    -0.0    -0.0    -0.0    -0.0    -0.0    -0.0    -0.0    -0.0
    -0.0     0.0    -0.0    -0.0     0.0    -0.0    -0.0    -0.0    -0.0     0.0
    -0.0    -0.1    -0.0    -0.0    -0.0    -0.0    -0.0     0.0    -0.0    -0.0
    -0.0    -0.0    -0.0    -0.0     0.0    -0.0    -0.0    -0.0    -0.1    -0.0
    -0.0    -0.0    -0.0    -0.0    -0.0    -0.0    -0.0    -0.0    -0.0    -0.0
    -0.0    -0.0     0.0    -0.0    -0.1    -0.0    -0.0     0.0    -0.1    -0.0
    -0.0    -0.0    -0.0    -0.0     0.0    -0.0    -0.0     0.0    -0.0    -0.0
    -0.0    -0.0    -0.0    -0.0    -0.0    -0.0     0.0    -0.0    -0.0    -0.0
    -0.0    -0.0    -0.0     0.0    -0.1    -0.0    -0.0    -0.0    -0.0    -0.1
     0.0    -0.0    -0.0     0.0    -0.0    -0.0    -0.0    -0.0    -0.0    -0.0
    -0.0     0.0    -0.0    -0.0    -0.0    -0.0    -0.0    -0.1     0.0    -0.0
    -0.0     0.0    -0.1    -0.1     0.0    -0.0    -0.1     0.0    -0.0    -0.1
     0.0    -0.1    -0.0     0.0    -0.0     0.0    -0.0    -0.0    -0.0    -0.0
     0.0    -0.0     0.0    -0.0    -0.1    -0.0    -0.0    -0.0    -0.1    -0.0
    -0.0    -0.0    -0.0    -0.1     0.0     0.0    -0.0    -0.0    -0.0    -0.0
    -0.1    -0.0     0.0    -0.1     0.0    -0.0    -0.1    -0.0    -0.0     0.0
    -0.0    -0.0     0.0    -0.0    -0.0    -0.0    -0.0     0.0    -0.0    -0.0
    -0.0    -0.0     0.0    -0.1    -0.0     0.0    -0.1     0.0    -0.0    -0.0
     0.0    -0.1    -0.0    -0.0    -0.0    -0.0    -0.0    -0.0    -0.0    -0.0
    -0.0    -0.0    -0.0    -0.0    -0.0    -0.0    -0.0    -0.0     0.0    -0.0
    -0.1     0.0    -0.0    -0.0     0.0    -0.0    -0.0    -0.0    -0.0     0.0
    -0.0    -0.0    -0.0    -0.0    -0.0     0.0    -0.0    -0.0    -0.0    -0.0
    -0.0    -0.0    -0.0    -0.0    -0.0    -0.0    -0.0    -0.0    -0.0    -0.0
     0.0    -0.0    -0.0    -0.0    -0.0    -0.0    -0.0    -0.0    -0.0     0.0
    -0.0    -0.0    -0.0    -0.0    -0.0    -0.0     0.0    -0.0    -0.0    -0.0
    -0.1     0.0    -0.0    -0.0     0.0    -0.0    -0.0    -0.0    -0.0    -0.0
    -0.0     0.0    -0.0    -0.1     0.0    -0.0     0.0    -0.0    -0.1     0.1
    -0.0    -0.1     0.0    -0.0    -0.0     0.0    -0.1    -0.0     0.0    -0.1
    -0.0    -0.0    -0.0     0.0    -0.0    -0.0    -0.0    -0.0    -0.0    -0.0
    -0.0    -0.0    -0.0    -0.0     0.0    -0.0    -0.0     0.0    -0.0    -0.0
     0.0    -0.0    -0.0    -0.0    -0.0     0.0     0.0    -0.1    -0.1    -0.0
    -0.0    -0.0    -0.0    -0.0     0.0    -0.0    -0.0    -0.0    -0.1    -0.0
    -0.0     0.0     0.0    -0.0     0.0    -0.1    -0.0     0.0    -0.1    -0.0
     0.0    -0.0    -0.0    -0.0    -0.0    -0.0    -0.0    -0.0    -0.0    -0.0
    -0.0    -0.0    -0.0    -0.0    -0.0    -0.0    -0.0     0.0    -0.0     0.0
    -0.0    -0.0    -0.0    -0.0     0.0    -0.1    -0.0     0.0    -0.1     0.0
    -0.0    -0.0     0.0    -0.1    -0.0    -0.0    -0.0    -0.0    -0.0    -0.0
    -0.0     0.0    -0.0     0.0    -0.0    -0.1    -0.0    -0.0     0.1    -0.1
    -0.1    -0.0    -0.1     0.1     0.0    -0.1    -0.0    -0.1     0.0    -0.0
     0.0    -0.0    -0.1    -0.0    -0.0     0.0     0.0    -0.1    -0.1    -0.0
     0.0    -0.0    -0.0    -0.0    -0.0    -0.0     0.0    -0.0    -0.1    -0.0
    -0.0     0.0     0.0    -0.1    -0.1    -0.0     0.0     0.0    -0.0    -0.0
    -0.0    -0.0    -0.0    -0.0     0.0    -0.1    -0.0    -0.0    -0.1     0.0
    -0.0    -0.0    -0.0    -0.1     0.0     0.0    -0.0    -0.1    -0.0     0.0
    -0.1    -0.1    -0.1     0.1     0.1    -0.0    -0.0    -0.1    -0.1    -0.0
     0.1     0.0    -0.2    -0.1     0.1     0.0    -0.1    -0.1     0.0     0.0
    -0.1    -0.0    -0.1    -0.1     0.1     0.1    -0.1    -0.0     0.1    -0.1
    -0.1     0.0     0.1    -0.0    -0.1    -0.0    -0.0    -0.0     0.0    -0.0
    -0.0    -0.1    -0.1    -0.0    -0.0    -0.1    -0.1     0.0     0.0    -0.1
    -0.1     0.0    -0.0    -0.0    -0.0    -0.0    -0.0    -0.0    -0.0     0.0
    -0.0    -0.0    -0.0    -0.1    -0.0     0.0    -0.0    -0.0    -0.0    -0.1
    -0.0    -0.0    -0.0    -0.0    -0.0    -0.0    -0.1     0.0    -0.1     0.0
    -0.0    -0.1     0.1    -0.0    -0.0    -0.0    -0.1     0.0    -0.1    -0.0
    -0.1    -0.1     0.0    -0.0    -0.0    -0.0    -0.0    -0.0    -0.0    -0.0
    -0.0    -0.0     0.0    -0.0    -0.0    -0.0    -0.0    -0.0    -0.0    -0.1
    -0.0    -0.0    -0.0    -0.0    -0.0    -0.0    -0.1     0.0    -0.0    -0.0
    -0.0    -0.0     0.0    -0.0    -0.0    -0.0    -0.0     0.0    -0.1    -0.0
    -0.0     0.0    -0.0    -0.0    -0.0    -0.1    -0.0    -0.0    -0.0     0.0
    -0.0    -0.0    -0.0    -0.0    -0.0    -0.0    -0.0    -0.0    -0.0    -0.0
    -0.0    -0.0    -0.0    -0.0    -0.0    -0.0    -0.1    -0.0    -0.0    -0.0
    -0.0    -0.1    -0.0     0.0    -0.0    -0.1    -0.0    -0.0    -0.0    -0.0
    -0.0    -0.0    -0.0    -0.0    -0.0    -0.0    -0.0    -0.1    -0.0     0.0
    -0.0    -0.0    -0.1    -0.0    -0.0    -0.1    -0.0    -0.0    -0.0    -0.0
    -0.0    -0.0    -0.0     0.0    -0.1    -0.0     0.0    -0.1    -0.0    -0.0
    -0.0    -0.0    -0.0    -0.0    -0.0    -0.0    -0.0    -0.0    -0.1     0.0
    -0.0    -0.1     0.0    -0.0    -0.0    -0.0    -0.0    -0.0    -0.0     0.0
    -0.0    -0.0    -0.1    -0.0    -0.0    -0.0    -0.0    -0.0    -0.0     0.0
    -0.1    -0.0    -0.0    -0.0     0.0    -0.0    -0.1     0.0    -0.0    -0.0
    -0.0    -0.1     0.0    -0.1    -0.0     0.0    -0.0    -0.0    -0.0    -0.0
    -0.0     0.0    -0.1     0.0    -0.0    -0.1     0.0    -0.0    -0.0    -0.0
    -0.1     0.0    -0.1    -0.0    -0.0    -0.0    -0.0    -0.0    -0.0    -0.0
    -0.0    -0.0    -0.0    -0.0    -0.0    -0.0    -0.0     0.0    -0.0    -0.0
    -0.0    -0.0    -0.0    -0.0    -0.0    -0.0    -0.0    -0.0    -0.0    -0.0
    -0.0    -0.0    -0.0    -0.0     0.0    -0.0    -0.1    -0.0    -0.0    -0.0
    -0.0     0.0    -0.0    -0.1     0.0    -0.1     0.0    -0.0    -0.0     0.0
    -0.0     0.0    -0.1     0.0    -0.1    -0.1     0.0    -0.1     0.0    -0.0
    -0.0     0.0    -0.0    -0.0    -0.0     0.0    -0.0    -0.0    -0.0    -0.1
     0.0    -0.0    -0.0    -0.0    -0.0     0.0    -0.1    -0.0    -0.0    -0.0
    -0.0    -0.0    -0.0    -0.0    -0.1    -0.0    -0.0    -0.0     0.0    -0.0
    -0.0     0.0    -0.0    -0.0    -0.1    -0.0     0.0    -0.1    -0.0    -0.0
    -0.0     0.0    -0.1     0.0    -0.0    -0.0    -0.0    -0.1     0.0    -0.0
    -0.0    -0.0    -0.0    -0.0    -0.0     0.0    -0.0    -0.0    -0.0    -0.0
    -0.0    -0.0     0.0    -0.0    -0.0     0.0    -0.0    -0.0     0.0    -0.0
    -0.0    -0.0    -0.1     0.0    -0.0    -0.1     0.0    -0.0    -0.0    -0.0
    -0.0     0.0    -0.0    -0.0    -0.0    -0.0    -0.0    -0.0    -0.0    -0.0
    -0.0    -0.0    -0.0    -0.0    -0.0    -0.0    -0.0    -0.0    -0.0     0.0
    -0.0     0.0    -0.0    -0.0    -0.0    -0.0     0.0    -0.1    -0.0    -0.0
    -0.1     0.0    -0.0    -0.0     0.0    -0.1    -0.0     0.0    -0.0    -0.0
    -0.0    -0.0    -0.0    -0.0    -0.0    -0.0    -0.0    -0.0    -0.0    -0.0
     0.0    -0.1     0.0    -0.0    -0.1     0.0    -0.1    -0.0    -0.0    -0.1
     0.0    -0.1    -0.0    -0.0    -0.0     0.0    -0.0    -0.0    -0.0    -0.1
    -0.0    -0.0    -0.0    -0.0    -0.0    -0.0    -0.0    -0.0    -0.0     0.0
    -0.1    -0.0     0.0    -0.1    -0.0     0.0    -0.1    -0.0    -0.0    -0.0
    -0.0    -0.0    -0.0    -0.0    -0.1    -0.0     0.0    -0.1    -0.0     0.0
    -0.1    -0.0    -0.0    -0.1     0.0    -0.1    -0.0     0.0    -0.0    -0.0
    -0.0     0.0     0.0    -0.1    -0.0     0.0    -0.0    -0.1    -0.0    -0.0
    -0.0    -0.0    -0.0     0.0    -0.1     0.0    -0.0    -0.1     0.0    -0.0
    -0.0    -0.0    -0.0     0.0    -0.1    -0.0    -0.0    -0.0    -0.0    -0.0
    -0.0    -0.1    -0.0    -0.0    -0.0    -0.0    -0.0    -0.0    -0.0    -0.0
    -0.1     0.0     0.0    -0.1    -0.0    -0.1    -0.0    -0.0    -0.1    -0.0
    -0.0    -0.0    -0.0    -0.0    -0.0    -0.0    -0.0    -0.0    -0.0    -0.1
    -0.0    -0.1    -0.0    -0.0    -0.1    -0.0    -0.1    -0.0    -0.0    -0.0
     0.0    -0.1     0.0    -0.0    -0.0    -0.0    -0.0    -0.0    -0.0    -0.0
    -0.0     0.0    -0.1    -0.0     0.0    -0.1     0.0    -0.0    -0.0    -0.0
    -0.0     0.0    -0.0    -0.0    -0.0    -0.0    -0.0    -0.0    -0.0    -0.0
    -0.0    -0.0    -0.0    -0.0     0.0    -0.0    -0.1    -0.0    -0.0    -0.1
    -0.0     0.0    -0.0    -0.0    -0.0    -0.0     0.0    -0.0    -0.0    -0.0
    -0.0    -0.0    -0.0    -0.0    -0.1    -0.0    -0.0    -0.0    -0.0    -0.0
    -0.0    -0.0     0.1    -0.0    -0.1     0.0    -0.1     0.0    -0.0    -0.0
     0.0    -0.0    -0.0    -0.1    -0.0    -0.0    -0.1     0.0    -0.0    -0.0
     0.0    -0.0    -0.0    -0.0    -0.0    -0.0    -0.0    -0.0    -0.0    -0.0
     0.0    -0.0    -0.0    -0.0    -0.1    -0.0    -0.0    -0.0    -0.0    -0.0
    -0.0    -0.0    -0.0    -0.0     0.0    -0.0    -0.0    -0.0    -0.0    -0.1
    -0.0    -0.0    -0.0    -0.0    -0.0    -0.0    -0.1    -0.0     0.0    -0.1
     0.0    -0.0    -0.0     0.0    -0.0    -0.0    -0.0    -0.0    -0.0    -0.0
    -0.0     0.0    -0.0    -0.1    -0.0    -0.0    -0.0    -0.0    -0.0    -0.0
    -0.0    -0.0    -0.0    -0.0    -0.0    -0.0    -0.0     0.0    -0.0    -0.0
     0.0    -0.0    -0.0    -0.0    -0.0    -0.0    -0.0    -0.0    -0.1    -0.0
    -0.0    -0.0    -0.0    -0.0    -0.0    -0.0    -0.0    -0.0    -0.0    -0.0
    -0.0    -0.0    -0.0    -0.0    -0.0    -0.0    -0.0    -0.0    -0.0    -0.0
    -0.0    -0.0    -0.0    -0.0    -0.0    -0.1     0.0    -0.0    -0.0    -0.0
    -0.0     0.0    -0.1    -0.0    -0.0    -0.1    -0.0    -0.0    -0.0    -0.0
    -0.1    -0.0    -0.0    -0.0    -0.0    -0.0    -0.1    -0.1    -0.0    -0.0
    -0.0    -0.0    -0.0    -0.0    -0.0    -0.0    -0.0    -0.0    -0.0    -0.0
    -0.0    -0.0    -0.0     0.0    -0.0    -0.0    -0.0    -0.0    -0.0    -0.0
    -0.0    -0.0    -0.0    -0.0    -0.0     0.0    -0.1    -0.0     0.0    -0.1
    -0.0    -0.0    -0.0    -0.1    -0.0     0.0    -0.1     0.0    -0.0    -0.0
    -0.0    -0.0     0.0    -0.1    -0.0    -0.0    -0.0    -0.0    -0.1    -0.0
    -0.1    -0.0     0.0    -0.1    -0.0    -0.0    -0.0    -0.0    -0.0    -0.0
    -0.0    -0.0    -0.0    -0.0    -0.0    -0.0    -0.0    -0.1    -0.0     0.0
    -0.0    -0.1    -0.0     0.0    -0.0     0.0    -0.0    -0.0    -0.0    -0.0
    -0.0    -0.0    -0.0    -0.0    -0.0    -0.0    -0.0     0.0    -0.0    -0.0
    -0.0    -0.1    -0.0    -0.0    -0.0    -0.0     0.0    -0.0    -0.1    -0.0
    -0.0    -0.0    -0.0    -0.0    -0.0    -0.0    -0.0    -0.0    -0.0    -0.0
    -0.0    -0.0    -0.0    -0.0    -0.0     0.0    -0.0    -0.0     0.0    -0.1
    -0.0    -0.0    -0.0    -0.0    -0.1     0.0    -0.0    -0.1     0.0     0.0
    -0.0    -0.0    -0.0    -0.0    -0.0    -0.0    -0.0    -0.0    -0.0    -0.0
    -0.0    -0.0    -0.1    -0.0    -0.0    -0.1    -0.0    -0.1    -0.0     0.0
    -0.0    -0.0    -0.0    -0.0    -0.0    -0.0    -0.0    -0.0    -0.0    -0.0
    -0.0    -0.0    -0.0    -0.0    -0.0    -0.0    -0.0    -0.0    -0.0    -0.0
    -0.0    -0.0    -0.0    -0.0    -0.0    -0.0    -0.0    -0.0    -0.0     0.0
    -0.0    -0.0    -0.0    -0.1     0.0    -0.0    -0.1     0.0    -0.1    -0.0
     0.0    -0.1     0.0    -0.0    -0.1     0.0    -0.0    -0.0    -0.0    -0.0
     0.0    -0.1    -0.1     0.0     0.0    -0.0    -0.0    -0.0    -0.0     0.0
    -0.0    -0.0    -0.0    -0.0    -0.0    -0.1     0.0    -0.1     0.0    -0.0
    -0.1    -0.0    -0.0    -0.0    -0.0    -0.0    -0.0    -0.0    -0.1    -0.1
     0.0     0.0    -0.0    -0.0    -0.0    -0.0    -0.0     0.0    -0.0    -0.0
    -0.0    -0.0    -0.0    -0.0    -0.0    -0.0    -0.0    -0.0    -0.0    -0.1
    -0.0    -0.0    -0.0    -0.0    -0.0     0.0    -0.0    -0.0    -0.0    -0.0
    -0.0    -0.0    -0.0    -0.0    -0.0    -0.0    -0.0    -0.0     0.0    -0.0
    -0.0    -0.1     0.0     0.0    -0.1     0.0    -0.0    -0.0    -0.0    -0.0
    -0.0    -0.0    -0.0    -0.0    -0.0    -0.0    -0.0    -0.0    -0.0    -0.0
    -0.1    -0.0    -0.0     0.0    -0.0    -0.1     0.0    -0.0     0.0    -0.0
    -0.1    -0.0    -0.0     0.0    -0.0    -0.1     0.0    -0.0    -0.0     0.0
    -0.1    -0.0    -0.0    -0.0    -0.0    -0.1    -0.0    -0.0    -0.0    -0.1
    -0.0     0.0    -0.0     0.0    -0.0    -0.1     0.0    -0.1    -0.0    -0.0
    -0.0    -0.0     0.0    -0.0    -0.1    -0.0    -0.0    -0.0    -0.0    -0.0
    -0.1    -0.0    -0.0    -0.0    -0.0    -0.0    -0.0    -0.0    -0.0    -0.0
     0.0    -0.0    -0.1     0.0    -0.0    -0.1     0.0    -0.0    -0.0    -0.0
    -0.0     0.0    -0.0    -0.0    -0.0    -0.0    -0.0    -0.0    -0.1    -0.0
     0.0    -0.0    -0.0    -0.0    -0.0    -0.0    -0.0    -0.0    -0.0     0.0
    -0.1    -0.1     0.0    -0.1    -0.0    -0.0    -0.0     0.0    -0.0     0.0
    -0.0    -0.1    -0.0    -0.0     0.0    -0.1    -0.0    -0.0    -0.1     0.0
    -0.0     0.0    -0.0    -0.0     0.0    -0.0    -0.0    -0.0    -0.0    -0.0
    -0.0    -0.0    -0.0    -0.0    -0.0    -0.1    -0.0    -0.0    -0.0     0.0
    -0.0    -0.0    -0.0    -0.1    -0.0     0.0    -0.0    -0.1     0.0    -0.0
    -0.1     0.0    -0.1    -0.0    -0.0    -0.1     0.0    -0.0    -0.0     0.0
    -0.0    -0.1    -0.0    -0.0    -0.1    -0.0     0.0    -0.0    -0.0    -0.0
    -0.1    -0.1    -0.0    -0.1    -0.0    -0.0    -0.0    -0.0    -0.0    -0.0
    -0.0    -0.0    -0.0    -0.0    -0.0    -0.0     0.0    -0.0    -0.0    -0.0
    -0.0    -0.0    -0.1    -0.0    -0.0    -0.0    -0.0    -0.0    -0.0    -0.0
    -0.0    -0.0    -0.0    -0.0    -0.0    -0.0    -0.1    -0.0    -0.0    -0.0
    -0.0    -0.0    -0.0    -0.0    -0.0     0.0    -0.0    -0.0    -0.0    -0.1
    -0.0    -0.0    -0.1     0.0    -0.0    -0.1    -0.0    -0.0    -0.0    -0.0
    -0.0    -0.0    -0.0    -0.1    -0.0    -0.0    -0.1     0.0    -0.0    -0.0
     0.0    -0.0     0.0    -0.0    -0.0     0.0    -0.1     0.0    -0.0    -0.1
    -0.0    -0.0    -0.0    -0.0    -0.0    -0.0    -0.0     0.0    -0.0    -0.0
     0.0    -0.1    -0.0    -0.0    -0.0    -0.0    -0.0     0.0    -0.1    -0.0
     0.0    -0.1    -0.0    -0.0    -0.0    -0.0    -0.0    -0.0    -0.1    -0.0
     0.0    -0.0    -0.0    -0.0    -0.0    -0.0    -0.0    -0.1    -0.0    -0.0
    -0.0    -0.0    -0.1    -0.0    -0.0    -0.0    -0.0    -0.0    -0.0     0.0
    -0.0    -0.0     0.0    -0.0    -0.0    -0.0    -0.0    -0.1     0.0    -0.0
    -0.0     0.0    -0.1     0.0    -0.0    -0.1     0.0    -0.0     0.0    -0.1
    -0.0    -0.0    -0.1     0.0    -0.0    -0.0    -0.0    -0.0    -0.0    -0.0
    -0.0    -0.0    -0.0    -0.0    -0.0    -0.0    -0.1     0.0    -0.0    -0.1
    -0.0    -0.0    -0.0    -0.0    -0.0    -0.0     0.0    -0.1    -0.0     0.0
    -0.1    -0.0    -0.0    -0.0    -0.0    -0.0     0.0    -0.1    -0.0    -0.0
    -0.0    -0.0    -0.1     0.0    -0.0    -0.1     0.0    -0.1    -0.0    -0.0
    -0.0    -0.0    -0.0    -0.0    -0.0     0.0    -0.0     0.0    -0.0    -0.1
    -0.0    -0.0    -0.0    -0.0    -0.0    -0.0    -0.0    -0.0    -0.1    -0.0
    -0.0    -0.0    -0.0    -0.0    -0.0    -0.0    -0.1     0.0    -0.0    -0.0
    -0.0    -0.1    -0.0    -0.0    -0.0    -0.0    -0.1     0.0    -0.1    -0.0
     0.0    -0.1    -0.0    -0.0    -0.0    -0.0    -0.0    -0.0     0.0    -0.1
    -0.0    -0.0    -0.0    -0.0    -0.0    -0.0    -0.0    -0.0    -0.0    -0.1
    -0.0    -0.0    -0.0    -0.0    -0.0    -0.0    -0.0    -0.0     0.0    -0.0
    -0.0     0.0    -0.0    -0.0     0.0    -0.1    -0.0    -0.0    -0.0    -0.0
    -0.0    -0.0    -0.0    -0.0    -0.1    -0.0    -0.0    -0.0    -0.1    -0.0
    -0.0    -0.0    -0.1    -0.0    -0.0    -0.0     0.0    -0.1    -0.0    -0.0
    -0.0    -0.0    -0.0     0.0    -0.1    -0.0    -0.0    -0.1     0.0    -0.0
    -0.0    -0.0    -0.0     0.0    -0.0    -0.1    -0.0    -0.0    -0.0    -0.0
    -0.0    -0.0    -0.0    -0.0    -0.0    -0.0    -0.0    -0.0    -0.0     0.0
    -0.0    -0.0    -0.0    -0.1    -0.0    -0.0    -0.0    -0.0    -0.0    -0.0
    -0.0    -0.0    -0.0    -0.0    -0.0    -0.1    -0.0    -0.0    -0.0    -0.1
     0.0     0.0    -0.1    -0.0    -0.0    -0.0    -0.0    -0.1    -0.0    -0.0
    -0.0     0.0    -0.0    -0.1    -0.0     0.0    -0.0     0.0    -0.0    -0.0
     0.0    -0.1    -0.0     0.0    -0.0    -0.1    -0.0     0.0    -0.0    -0.0
    -0.0    -0.0    -0.0    -0.0     0.0    -0.0    -0.0    -0.0    -0.0    -0.0
    -0.0    -0.0    -0.0    -0.0     0.0    -0.1    -0.0    -0.0    -0.1     0.0
    -0.0    -0.0    -0.0    -0.0    -0.0    -0.0    -0.0    -0.0    -0.0    -0.0
     0.0    -0.0    -0.1     0.0    -0.1    -0.0     0.0    -0.1    -0.0    -0.0
    -0.0    -0.0    -0.0    -0.0    -0.0    -0.0    -0.0    -0.0    -0.0    -0.0
    -0.0    -0.1     0.0    -0.1     0.0    -0.0    -0.1     0.0    -0.0     0.0
    -0.0    -0.0    -0.0    -0.0    -0.0    -0.0    -0.0    -0.0    -0.0    -0.0
    -0.0    -0.0    -0.0    -0.0     0.0    -0.0    -0.0     0.0    -0.0     0.0
    -0.0    -0.0    -0.0    -0.0    -0.0    -0.0     0.0    -0.0    -0.1    -0.0
    -0.0    -0.0    -0.0    -0.0    -0.0     0.0    -0.0    -0.0    -0.0    -0.0
