Uncorrected accelerogram 20160214_001343_GODS_21 GNS Science
Site GODS      43 34 42S  172 46 09E     Cusp file:  20160214_001346_GODS
Godley Drive
Instrument Cusp_42283
Resolution: 18-bit   Instr Period: 0.0050 s   Damping: 0.700
Accelerogram 20160214_001343_GODS_21                 Processed 2016 February 22
11 km east of CHRISTCHURCH
2016 February 14         00:13:43 UT
Epicentre  43 29 50S 172 45 18E  Bearing N07W  Dist    9km  Depth    8km M  5.70
Number of points  35779    Duration 178.89 s
Raw readings in units of 1.00 mm/s/s  at intervals of 0.005 s
Data is unfiltered
Component S28E
Acceleration:  Peak  -1177.4 mm/s/s at  43.95 s     RMS    61.45 mm/s/s
Velocity record unevaluated
Displacement record unevaluated
    2016       2      14       0      13     430       0       0    2016       2
      43      29      50     172      45      18       8       0      14       0
      43      34      42     172      46       9     152     152     353       9
   35779       0       0   35779       0       0       0       0      13    6869
   200.0    0.70    0.00   0.000  0.0000   0.000   0.000   1.000     0.0    0.00
  43.578 172.769  43.497 172.755    5.70    0.00    0.00    0.00      0.      0.
  178.89    0.00    0.00  178.89  0.0050  0.0050      0.      0.      0.  9806.6
 -1177.4   43.95    61.4      0.      0.     0.0    0.00     0.0     0.0   0.000
    0.00    0.00    0.00    0.00   0.000    0.00    0.00    0.00    0.00   0.000
   0.000   0.000   0.000      0.      0.   0.000   0.000   0.000      0.      0.
     0.1     0.0    -0.0     0.1     0.0     0.0     0.1     0.0     0.1     0.1
    -0.1     0.1     0.1     0.0     0.1     0.1     0.2     0.1     0.1     0.1
    -0.0     0.1     0.1     0.0     0.0     0.1     0.2     0.1     0.1     0.2
    -0.0    -0.1     0.2     0.2     0.1     0.1    -0.0     0.1     0.0    -0.1
    -0.0    -0.0     0.1     0.0     0.0     0.0    -0.0     0.1     0.1    -0.0
     0.1    -0.0    -0.1     0.0     0.2     0.2    -0.0     0.0     0.1    -0.0
    -0.1     0.0     0.1     0.1    -0.0    -0.0     0.1    -0.0    -0.0     0.1
     0.0    -0.1    -0.0     0.1     0.2     0.2     0.1     0.1     0.1     0.2
     0.2     0.0     0.1     0.2    -0.0     0.0     0.1     0.0     0.1    -0.1
    -0.0     0.2    -0.0     0.1    -0.0    -0.0     0.0     0.1     0.2     0.0
    -0.0     0.0    -0.0     0.0     0.1    -0.0     0.0     0.1    -0.0     0.0
     0.1    -0.2    -0.0     0.2     0.1     0.1     0.0     0.0     0.0     0.0
     0.0    -0.0     0.2     0.2     0.1     0.0     0.1     0.1    -0.0     0.1
     0.1     0.0     0.1    -0.1    -0.1     0.1     0.1     0.0     0.1     0.1
     0.1     0.1     0.1    -0.0     0.0     0.1     0.1     0.0     0.1     0.2
     0.1    -0.1     0.0     0.0     0.0     0.1     0.2     0.1    -0.0    -0.1
    -0.0     0.0     0.0     0.1     0.2     0.1     0.1     0.2     0.2     0.1
    -0.0    -0.0    -0.0     0.2    -0.0    -0.0     0.3    -0.0     0.1     0.2
    -0.1     0.1    -0.1    -0.0     0.2     0.1     0.1    -0.1     0.0     0.0
    -0.1    -0.0     0.1     0.1    -0.1    -0.1     0.0     0.2     0.2     0.1
     0.1     0.1     0.1     0.1    -0.0     0.1     0.1     0.0     0.1     0.1
     0.1    -0.0    -0.0     0.0    -0.1    -0.0     0.1    -0.1    -0.0     0.1
     0.1     0.1     0.0     0.2     0.2    -0.0     0.0    -0.0     0.1     0.0
    -0.1     0.1     0.0    -0.1    -0.0     0.2     0.1    -0.1     0.1     0.1
     0.0     0.1     0.1     0.0     0.0     0.2     0.0    -0.0     0.1    -0.0
     0.0     0.0     0.1     0.1    -0.1     0.0    -0.1    -0.1    -0.0    -0.1
     0.0    -0.0    -0.1     0.1    -0.1     0.0     0.1    -0.0     0.1     0.1
    -0.0     0.0    -0.0    -0.1    -0.1     0.0     0.1    -0.0     0.1     0.2
     0.1     0.1    -0.0     0.2     0.3     0.1     0.0     0.0     0.1     0.2
    -0.0    -0.0     0.2     0.0    -0.0    -0.0     0.1     0.1     0.1     0.1
     0.0     0.1    -0.0    -0.1     0.0     0.0     0.0     0.0     0.1    -0.1
    -0.1     0.1     0.2     0.1    -0.0     0.1     0.1     0.1     0.1     0.1
     0.1    -0.0     0.0     0.1    -0.0     0.2     0.3    -0.0     0.1     0.1
    -0.0     0.1     0.1     0.1     0.1     0.1     0.2     0.2    -0.1    -0.1
     0.0     0.1     0.2     0.1     0.1     0.2    -0.0     0.2     0.2    -0.1
    -0.1    -0.0    -0.0     0.0     0.1    -0.1    -0.1     0.0    -0.1    -0.0
     0.1     0.0    -0.0     0.1     0.1    -0.1    -0.0    -0.1    -0.1     0.1
     0.2     0.2    -0.1     0.1     0.2     0.1     0.0     0.0     0.1     0.0
    -0.0     0.2     0.1     0.1     0.2    -0.1    -0.1     0.1    -0.0    -0.1
    -0.1    -0.0     0.0     0.1     0.1     0.1     0.1     0.1     0.0    -0.1
    -0.0    -0.0    -0.0     0.0     0.1     0.1    -0.0     0.0     0.0    -0.0
     0.2     0.2    -0.0    -0.0     0.1     0.1     0.1    -0.0    -0.1    -0.1
    -0.1     0.1     0.1    -0.1     0.0    -0.1    -0.1     0.0     0.1    -0.1
    -0.2     0.1     0.1    -0.0     0.2     0.1     0.0    -0.0     0.1     0.1
    -0.1     0.2     0.1    -0.0    -0.0    -0.1    -0.1    -0.0     0.1     0.0
     0.1     0.2    -0.0     0.0     0.1     0.1     0.2     0.0     0.1     0.2
     0.0     0.1     0.0    -0.1     0.0     0.0     0.1     0.0    -0.1    -0.0
     0.1     0.0     0.1     0.2     0.1     0.0     0.1     0.1     0.0     0.1
     0.0    -0.0     0.1    -0.1     0.0     0.1     0.0     0.2     0.2     0.3
     0.2     0.0     0.1     0.0     0.1     0.1     0.0     0.0     0.0     0.1
     0.1     0.1     0.1     0.1     0.0    -0.1     0.1     0.2     0.2     0.1
     0.0    -0.0     0.1     0.2     0.1     0.2     0.1     0.1     0.1    -0.1
     0.1     0.2     0.1     0.1    -0.0     0.1     0.1     0.1     0.1     0.0
     0.2     0.1    -0.0     0.1    -0.1    -0.0     0.1     0.0     0.0    -0.2
    -0.1     0.1     0.1    -0.1     0.1     0.2     0.0     0.0    -0.1     0.1
     0.1    -0.0    -0.0    -0.1     0.1     0.0    -0.1    -0.0    -0.0     0.1
    -0.0    -0.1     0.0    -0.0     0.1     0.1     0.1     0.0    -0.1     0.0
     0.1     0.1    -0.0    -0.0     0.1     0.0    -0.0    -0.1     0.0     0.1
     0.0     0.2     0.1     0.0     0.2     0.1    -0.1     0.1     0.1    -0.0
    -0.0    -0.1    -0.1    -0.1    -0.2    -0.0     0.0    -0.1    -0.0     0.0
     0.0    -0.0    -0.1    -0.0     0.0     0.1    -0.0     0.1    -0.0    -0.2
     0.0     0.1     0.2     0.1    -0.1     0.0    -0.0     0.0    -0.1    -0.2
     0.0    -0.1    -0.0     0.0     0.0     0.1     0.0     0.0     0.0     0.0
    -0.0    -0.1     0.2     0.1     0.0     0.2    -0.0     0.0     0.2    -0.0
     0.1     0.0    -0.1     0.1     0.1     0.1     0.0     0.0    -0.1     0.1
     0.3     0.1     0.1    -0.0     0.0     0.2    -0.0     0.1    -0.0    -0.2
    -0.0     0.0    -0.0    -0.0     0.0     0.1     0.1     0.1    -0.0     0.0
     0.0    -0.0     0.1     0.0    -0.0     0.0    -0.1     0.0     0.1     0.1
     0.2     0.1    -0.0    -0.1    -0.1     0.1     0.2     0.1     0.1    -0.1
    -0.1     0.1    -0.1     0.0     0.3     0.0    -0.2    -0.0     0.1     0.1
     0.0     0.0    -0.1    -0.0     0.1    -0.0     0.0     0.1    -0.1    -0.1
     0.1     0.0    -0.1    -0.1     0.1     0.1    -0.0     0.1     0.1     0.1
     0.1     0.1     0.0    -0.0     0.1    -0.1    -0.1     0.1    -0.0    -0.0
    -0.0     0.1     0.2    -0.1    -0.1     0.1     0.0     0.1     0.0    -0.0
    -0.0     0.0     0.0    -0.1    -0.1    -0.1    -0.0     0.1     0.1    -0.0
    -0.1     0.0    -0.0    -0.1    -0.1    -0.1     0.1    -0.0     0.0     0.1
    -0.1    -0.0     0.2     0.1    -0.1    -0.1     0.0    -0.1    -0.1    -0.1
    -0.1     0.0     0.0    -0.1     0.0    -0.0    -0.2    -0.1    -0.1    -0.1
    -0.0    -0.1     0.1     0.2     0.1     0.1    -0.0    -0.1    -0.1     0.1
     0.1     0.1     0.1    -0.0     0.1     0.1     0.0     0.1     0.0     0.1
     0.0    -0.1    -0.0     0.1     0.2     0.2     0.1     0.1     0.1    -0.0
    -0.0     0.0     0.0    -0.0    -0.0     0.0    -0.1    -0.1    -0.0    -0.1
    -0.1     0.1     0.1    -0.1    -0.1    -0.1    -0.1     0.0     0.0    -0.1
    -0.0     0.1     0.1    -0.1    -0.1    -0.0    -0.1     0.0    -0.0     0.0
     0.1     0.1    -0.0    -0.0    -0.0    -0.0     0.2     0.1     0.0     0.1
    -0.1    -0.0    -0.0    -0.1     0.0    -0.0    -0.1    -0.0    -0.1    -0.1
    -0.2    -0.0     0.1    -0.1    -0.1    -0.0    -0.1    -0.0     0.0    -0.1
    -0.0     0.0    -0.1    -0.0    -0.0     0.1     0.2    -0.1    -0.0     0.0
    -0.2    -0.1     0.1    -0.0    -0.1    -0.1    -0.1    -0.1    -0.0     0.1
     0.0    -0.1    -0.1    -0.0    -0.0     0.1     0.0    -0.0     0.0     0.1
     0.1    -0.0     0.1    -0.0    -0.0     0.1    -0.2    -0.1    -0.1    -0.2
    -0.2    -0.1     0.0    -0.2    -0.1     0.0    -0.2     0.0     0.0    -0.0
    -0.0    -0.0     0.0    -0.1    -0.0    -0.1    -0.0     0.0    -0.1    -0.0
     0.0    -0.0    -0.0    -0.1     0.0    -0.1     0.1     0.1    -0.1    -0.1
    -0.1     0.0    -0.0     0.0     0.0    -0.2     0.1     0.0    -0.1    -0.0
    -0.1    -0.1    -0.0     0.0     0.0     0.0     0.1     0.0    -0.0    -0.0
     0.2     0.1    -0.1    -0.0    -0.0    -0.0    -0.1    -0.0    -0.0    -0.0
     0.1     0.2    -0.0    -0.1    -0.1    -0.0    -0.1     0.0     0.1    -0.0
    -0.0    -0.1    -0.2    -0.1    -0.0    -0.1    -0.1    -0.0    -0.1    -0.1
    -0.0    -0.0    -0.2    -0.0     0.0    -0.2    -0.1    -0.0    -0.1    -0.1
    -0.2    -0.1    -0.2    -0.2     0.1    -0.1    -0.3     0.0     0.0    -0.2
    -0.2    -0.1    -0.2    -0.1    -0.1    -0.2    -0.1    -0.0    -0.1    -0.0
     0.0    -0.0    -0.2    -0.1     0.1    -0.0    -0.1    -0.2    -0.1    -0.0
    -0.2    -0.0    -0.2    -0.1    -0.0    -0.3    -0.1    -0.1    -0.1     0.0
    -0.0     0.1    -0.1    -0.1    -0.1    -0.0    -0.1    -0.3     0.0    -0.1
    -0.1     0.1    -0.1    -0.1    -0.2    -0.1    -0.0     0.0     0.2    -0.1
    -0.1     0.0    -0.1    -0.0    -0.1     0.0     0.2     0.0    -0.1    -0.1
     0.0    -0.1    -0.1    -0.1    -0.1     0.0     0.0    -0.2    -0.0     0.0
    -0.0     0.1     0.1     0.0     0.1    -0.0    -0.1    -0.2    -0.1    -0.2
    -0.1     0.0    -0.0     0.1    -0.0    -0.1     0.0     0.1     0.0    -0.0
     0.0     0.0    -0.0    -0.0    -0.1    -0.1    -0.0    -0.1     0.1     0.1
    -0.1     0.1     0.0     0.1     0.1    -0.0     0.0    -0.1    -0.0     0.2
     0.2     0.1    -0.1    -0.1     0.0    -0.0    -0.0    -0.1     0.1     0.0
    -0.1     0.2     0.0    -0.1     0.0     0.0     0.1     0.0    -0.0     0.0
    -0.0    -0.1    -0.2    -0.0    -0.1    -0.1     0.1     0.1    -0.0     0.0
     0.1    -0.0    -0.1     0.0     0.0     0.0     0.0     0.1     0.1    -0.1
    -0.1     0.1     0.1    -0.1     0.1     0.3     0.1    -0.0    -0.0     0.0
     0.2     0.1    -0.1    -0.1     0.2     0.1     0.0     0.1     0.1     0.1
    -0.0    -0.1    -0.1    -0.0     0.0    -0.1     0.1     0.1    -0.0     0.0
    -0.1    -0.1    -0.0     0.1     0.1    -0.2    -0.1    -0.0    -0.1    -0.0
    -0.1    -0.1     0.0    -0.0     0.0     0.0     0.0     0.1    -0.1    -0.0
     0.1     0.1     0.0     0.1     0.2     0.1     0.1     0.1    -0.1     0.0
     0.1     0.2     0.2     0.3     0.2     0.0     0.1     0.1    -0.1    -0.1
    -0.0    -0.1    -0.0     0.1     0.1     0.1     0.2     0.1    -0.0    -0.0
     0.1     0.1     0.0     0.1     0.0     0.0     0.1     0.2     0.2     0.3
     0.2     0.1     0.2     0.2    -0.0     0.0     0.1     0.0    -0.0     0.0
    -0.0     0.0     0.1     0.0     0.1     0.2    -0.0    -0.2     0.1     0.1
    -0.0     0.0     0.1     0.1     0.0     0.1     0.1     0.1     0.1     0.1
    -0.0    -0.0    -0.0    -0.1    -0.1     0.1     0.2     0.0     0.1     0.2
     0.0     0.2     0.2    -0.1     0.1     0.1    -0.0     0.1     0.1    -0.0
     0.0     0.1     0.1    -0.1     0.0    -0.0     0.1     0.1    -0.0     0.2
     0.1     0.0     0.2     0.1     0.1     0.1     0.2     0.2     0.1     0.1
     0.1     0.2     0.1     0.0     0.2     0.1     0.1     0.1     0.1     0.0
     0.1     0.1    -0.1    -0.0     0.2     0.2     0.1     0.2     0.2     0.2
     0.1     0.2     0.2    -0.0    -0.0    -0.2    -0.2    -0.0    -0.1     0.1
     0.1    -0.0     0.1     0.0     0.1     0.2     0.1     0.1     0.2     0.1
     0.1     0.1    -0.0     0.1    -0.0    -0.1    -0.0    -0.1     0.0     0.2
     0.0    -0.0    -0.0    -0.1     0.1     0.1     0.1     0.0    -0.0     0.1
     0.1     0.1     0.1     0.3     0.2     0.0     0.2     0.1     0.0     0.1
     0.1     0.1     0.1     0.2     0.1     0.1     0.2     0.0     0.2     0.2
    -0.1     0.1     0.2    -0.0     0.1     0.2     0.1     0.0     0.1     0.1
    -0.0     0.2     0.0    -0.1     0.1    -0.1     0.1     0.2    -0.0     0.1
     0.1     0.1     0.0    -0.1     0.2     0.1    -0.1    -0.1    -0.1     0.1
     0.0    -0.0     0.0    -0.1    -0.0    -0.1     0.0     0.1    -0.1    -0.1
     0.0     0.1     0.2     0.0    -0.1     0.0    -0.1     0.1     0.1    -0.1
    -0.0     0.0     0.2     0.2    -0.0    -0.2    -0.1     0.0    -0.1    -0.1
     0.0     0.0     0.1     0.0    -0.0     0.1    -0.1    -0.1     0.0     0.1
    -0.0    -0.0    -0.0     0.0     0.1     0.1    -0.1    -0.0     0.1     0.0
    -0.0     0.1     0.1    -0.1    -0.0     0.1     0.0    -0.1    -0.1     0.1
     0.0    -0.1    -0.1     0.0     0.2    -0.1     0.0     0.3     0.1     0.1
     0.2    -0.0     0.0    -0.1     0.0     0.2     0.1     0.1     0.0    -0.1
    -0.0    -0.0     0.0     0.0     0.0     0.2     0.2     0.2     0.2     0.0
     0.1     0.1     0.0     0.1    -0.1    -0.0     0.1    -0.0     0.1     0.1
     0.1     0.2    -0.1    -0.1    -0.1    -0.0     0.1    -0.1    -0.1    -0.0
    -0.1     0.1    -0.1    -0.0     0.2    -0.1     0.1     0.2    -0.2    -0.2
    -0.1     0.0     0.2    -0.0    -0.1    -0.1    -0.1     0.1     0.0    -0.1
    -0.0    -0.0    -0.0     0.2     0.1    -0.1    -0.0     0.0     0.1     0.1
     0.0     0.1     0.1    -0.0     0.1     0.2    -0.0    -0.1     0.1    -0.1
     0.0    -0.0    -0.2     0.1     0.1     0.0     0.2     0.1     0.2    -0.0
    -0.1     0.1     0.2     0.2     0.1    -0.1    -0.1     0.1     0.1     0.0
     0.0    -0.1    -0.2    -0.0     0.1    -0.1    -0.1     0.1     0.1     0.2
     0.1    -0.1    -0.0     0.1     0.2     0.0     0.1     0.2     0.1    -0.0
    -0.1     0.2     0.1    -0.0     0.2     0.0     0.0     0.1    -0.1     0.2
     0.2    -0.1    -0.0     0.1    -0.0     0.0     0.2    -0.1    -0.1     0.1
     0.1    -0.0    -0.1    -0.1     0.0     0.0     0.0     0.0    -0.0     0.0
     0.2     0.0    -0.1     0.1     0.1     0.0     0.0    -0.0     0.1     0.1
     0.1     0.0    -0.0     0.1    -0.0    -0.1     0.1    -0.0    -0.1     0.1
     0.0     0.0     0.1     0.0    -0.0     0.0     0.2    -0.1     0.1     0.2
     0.0     0.2     0.1     0.1    -0.0    -0.1     0.2     0.1     0.0     0.2
     0.1     0.1     0.1    -0.1    -0.1    -0.1     0.1     0.2     0.1     0.0
     0.1     0.0    -0.0     0.2     0.1     0.0     0.1    -0.1     0.2     0.1
    -0.2     0.0     0.1     0.1    -0.1    -0.2    -0.0     0.2     0.2    -0.0
    -0.0     0.1    -0.0     0.1     0.1     0.0     0.2     0.1    -0.0    -0.1
    -0.0     0.1    -0.1    -0.0     0.2     0.1    -0.1    -0.0     0.1    -0.1
     0.0     0.1    -0.0     0.1     0.2     0.2     0.1    -0.0    -0.0    -0.0
     0.0    -0.0    -0.0     0.1     0.1     0.0     0.0     0.0     0.0    -0.1
     0.1     0.1    -0.1    -0.1    -0.1     0.0     0.1     0.0     0.1    -0.0
     0.1     0.2     0.0     0.0     0.0     0.2     0.1     0.0     0.1     0.1
     0.2     0.1     0.1     0.0    -0.0     0.1     0.0     0.1    -0.0    -0.2
     0.0     0.1     0.2     0.2    -0.1     0.0     0.2     0.0     0.1    -0.0
    -0.1     0.0     0.1     0.1    -0.1    -0.1    -0.1    -0.0     0.2     0.0
    -0.0    -0.0    -0.0     0.1     0.0    -0.1    -0.0    -0.1     0.0     0.1
    -0.0     0.2     0.2    -0.0     0.1     0.0     0.0     0.1     0.0    -0.1
     0.0    -0.0     0.0     0.2     0.1     0.1    -0.1    -0.2     0.0     0.0
    -0.0     0.0     0.1     0.1    -0.0    -0.0    -0.1     0.1     0.2    -0.1
    -0.1     0.0    -0.0     0.1     0.0     0.1     0.3     0.2     0.2     0.1
    -0.1     0.2     0.1     0.1     0.2     0.0    -0.1     0.2     0.2    -0.0
    -0.1    -0.1    -0.1    -0.1    -0.0     0.0     0.0     0.1     0.0    -0.1
     0.0     0.0    -0.0     0.0     0.1    -0.0    -0.0     0.1     0.1     0.1
    -0.1     0.0     0.2    -0.0     0.0     0.2     0.0    -0.1     0.0     0.0
    -0.1     0.1    -0.0    -0.1     0.0     0.0     0.0    -0.1     0.0     0.2
     0.1     0.0    -0.0     0.0    -0.1     0.0     0.2     0.1     0.3     0.1
    -0.0     0.2    -0.1     0.0     0.3     0.0     0.0    -0.0     0.1     0.2
    -0.0    -0.1    -0.0     0.1    -0.0    -0.1     0.0     0.1     0.0    -0.1
    -0.0     0.0     0.0     0.1     0.1     0.1     0.0     0.0    -0.1    -0.1
    -0.0     0.0     0.0    -0.1    -0.1     0.0     0.1     0.0     0.0     0.1
     0.1     0.1     0.2     0.0     0.1     0.0    -0.0     0.1    -0.1    -0.0
     0.1     0.1     0.1     0.1     0.0    -0.0    -0.1    -0.1    -0.0     0.1
     0.0     0.1     0.0     0.0    -0.0    -0.1     0.1     0.0    -0.0     0.1
    -0.0    -0.1    -0.1     0.0    -0.0    -0.0     0.1    -0.1    -0.0     0.1
     0.0    -0.1    -0.0     0.2    -0.0    -0.0    -0.1    -0.1     0.1     0.0
     0.1     0.0     0.0     0.1    -0.0    -0.0    -0.1    -0.1    -0.0    -0.2
    -0.1    -0.0    -0.1     0.0     0.1    -0.1    -0.1     0.0     0.1     0.0
     0.0     0.0    -0.1    -0.1     0.1     0.1    -0.2    -0.1     0.1    -0.0
     0.0    -0.0    -0.1     0.0    -0.0     0.0     0.1     0.1     0.1     0.2
     0.1     0.1     0.0     0.0     0.1    -0.0     0.0     0.1    -0.0    -0.0
     0.1     0.1     0.0     0.2     0.2     0.1     0.1    -0.0     0.0     0.1
     0.0     0.1     0.1     0.1    -0.0     0.1     0.1     0.0     0.1     0.1
     0.1     0.1     0.1     0.0     0.0     0.0    -0.1     0.1    -0.1    -0.1
     0.2     0.0     0.2     0.2    -0.0     0.2     0.0     0.1     0.1    -0.1
     0.2    -0.0     0.2     0.2    -0.1     0.2    -0.0     0.3     0.3    -0.0
     0.2    -0.0     0.1     0.2    -0.0     0.0    -0.1     0.1     0.0     0.1
     0.1    -0.0     0.1    -0.0    -0.0     0.2     0.1     0.1     0.0     0.1
     0.2     0.1     0.1     0.2     0.1     0.1     0.1     0.0     0.1     0.1
     0.1     0.0     0.1     0.1     0.0     0.0    -0.0     0.1     0.1    -0.0
     0.1     0.0     0.1     0.2     0.0     0.2     0.2    -0.1     0.1     0.1
     0.1     0.1     0.1     0.0     0.1     0.0    -0.0     0.1     0.1     0.1
     0.1     0.0    -0.0    -0.2    -0.1     0.0     0.0     0.2     0.1     0.0
    -0.1    -0.1     0.0     0.1    -0.0     0.0     0.1     0.1     0.0    -0.1
    -0.0    -0.1    -0.1     0.1    -0.0     0.1     0.1     0.1    -0.0     0.0
     0.1     0.2     0.2     0.1     0.1     0.1    -0.0     0.0     0.2     0.2
     0.2     0.2     0.1     0.1     0.1     0.0     0.0     0.0    -0.0     0.0
     0.0    -0.0    -0.0    -0.1    -0.0    -0.1    -0.1     0.0     0.1     0.1
     0.2     0.3     0.2    -0.0    -0.0    -0.1     0.1     0.2    -0.1     0.0
     0.1     0.1     0.0    -0.2    -0.2     0.1     0.1    -0.1    -0.2    -0.1
    -0.1    -0.0    -0.0    -0.1    -0.0     0.0    -0.0     0.1     0.0     0.0
     0.1    -0.0     0.0    -0.1    -0.1     0.3     0.2    -0.1     0.0     0.1
