Uncorrected accelerogram 20160214_001343_ROLC_20 GNS Science
Site ROLC      43 35 34S  172 22 52E     Cusp file:  20160214_001350_ROLC
Rolleston School
Instrument Cusp_42042
Resolution: 18-bit   Instr Period: 0.0050 s   Damping: 0.700
Accelerogram 20160214_001343_ROLC_20                 Processed 2016 February 22
11 km east of CHRISTCHURCH
2016 February 14         00:13:43 UT
Epicentre  43 29 50S 172 45 18E  Bearing N71E  Dist   32km  Depth    8km M  5.70
Number of points  36365    Duration 181.82 s
Raw readings in units of 1.00 mm/s/s  at intervals of 0.005 s
Data is unfiltered
Component S61W
Acceleration:  Peak    194.3 mm/s/s at  47.30 s     RMS    11.96 mm/s/s
Velocity record unevaluated
Displacement record unevaluated
    2016       2      14       0      13     430       0       0    2016       2
      43      29      50     172      45      18       8       0      14       0
      43      35      34     172      22      52     241     241      71      32
   36365       0       0   36365       0       0       0       0      13   10356
   200.0    0.70    0.00   0.000  0.0000   0.000   0.000   1.000     0.0    0.00
  43.593 172.381  43.497 172.755    5.70    0.00    0.00    0.00      0.      0.
  181.82    0.00    0.00  181.82  0.0050  0.0050      0.      0.      0.  9806.6
   194.3   47.30    12.0      0.      0.     0.0    0.00     0.0     0.0   0.000
    0.00    0.00    0.00    0.00   0.000    0.00    0.00    0.00    0.00   0.000
   0.000   0.000   0.000      0.      0.   0.000   0.000   0.000      0.      0.
    -0.0    -0.2     0.1     0.2    -0.0    -0.4    -0.2     0.4     0.1    -0.4
    -0.2     0.3     0.2    -0.4    -0.2     0.3     0.2    -0.3    -0.4     0.3
     0.3    -0.3    -0.2     0.3     0.2    -0.3    -0.3     0.1     0.3    -0.2
    -0.4     0.3     0.4    -0.1    -0.3     0.0     0.2    -0.1    -0.3     0.1
     0.4     0.1    -0.3    -0.0     0.3    -0.1    -0.3    -0.0     0.4     0.1
    -0.4     0.0     0.4     0.0    -0.3    -0.1     0.4     0.2    -0.2    -0.1
     0.2     0.2    -0.2    -0.2     0.4     0.4    -0.2    -0.2     0.3     0.3
    -0.1    -0.2     0.2     0.3    -0.2    -0.3     0.1     0.4    -0.1    -0.3
     0.3     0.3    -0.2    -0.3     0.1     0.4     0.1    -0.3     0.1     0.3
    -0.1    -0.3    -0.0     0.2    -0.1    -0.3     0.0     0.3     0.1    -0.3
    -0.2     0.5     0.2    -0.2    -0.1     0.1     0.1    -0.4    -0.4     0.3
     0.2    -0.2    -0.3     0.1     0.3    -0.3    -0.2     0.2     0.2     0.1
    -0.2     0.0     0.4    -0.1    -0.3     0.2     0.3    -0.0    -0.3    -0.0
     0.3     0.0    -0.3     0.0     0.5     0.2    -0.4    -0.1     0.4     0.0
    -0.2    -0.1     0.2     0.2    -0.3    -0.2     0.3     0.2    -0.3    -0.2
     0.4     0.4    -0.2    -0.2     0.3     0.2    -0.2    -0.2     0.3     0.3
    -0.1    -0.2     0.1     0.4    -0.1    -0.3     0.2     0.3    -0.1    -0.2
    -0.0     0.3     0.0    -0.3     0.2     0.3    -0.1    -0.3    -0.1     0.4
     0.2    -0.3    -0.0     0.2     0.1    -0.3    -0.2     0.5     0.2    -0.3
    -0.1     0.3     0.2    -0.3    -0.2     0.4     0.4    -0.2    -0.3     0.2
     0.2    -0.2    -0.3     0.2     0.3    -0.1    -0.2     0.2     0.4    -0.1
    -0.2     0.2     0.4    -0.1    -0.4     0.1     0.3    -0.0    -0.3    -0.1
     0.3    -0.0    -0.4    -0.0     0.4     0.1    -0.3    -0.1     0.3     0.1
    -0.3    -0.1     0.3     0.2    -0.4    -0.3     0.3     0.2    -0.3    -0.3
     0.2     0.3    -0.2    -0.2     0.3     0.3    -0.2    -0.4     0.1     0.3
    -0.2    -0.3     0.1     0.3    -0.1    -0.4     0.1     0.4    -0.1    -0.3
    -0.0     0.2    -0.1    -0.3     0.1     0.5     0.1    -0.3    -0.1     0.1
     0.0    -0.3    -0.2     0.4     0.3    -0.3    -0.2     0.1     0.1    -0.4
    -0.2     0.3     0.3    -0.2    -0.3     0.2     0.3    -0.2    -0.2     0.1
     0.4    -0.1    -0.3     0.3     0.2    -0.1    -0.2     0.1     0.4    -0.0
    -0.3     0.0     0.3     0.1    -0.3     0.1     0.4    -0.1    -0.5    -0.2
     0.4     0.2    -0.4    -0.1     0.4     0.1    -0.5    -0.4     0.1     0.1
    -0.3    -0.1     0.3     0.2    -0.3    -0.2     0.3     0.3    -0.2    -0.2
     0.2     0.2    -0.1    -0.4     0.1     0.4    -0.2    -0.3     0.2     0.2
    -0.2    -0.4     0.1     0.4    -0.1    -0.2    -0.0     0.3    -0.0    -0.4
    -0.0     0.4     0.2    -0.4    -0.2     0.4     0.1    -0.3     0.0     0.5
     0.2    -0.3    -0.2     0.3     0.2    -0.3    -0.3     0.2     0.3    -0.2
    -0.2     0.2     0.2    -0.2    -0.2     0.2     0.4    -0.1    -0.3     0.2
     0.4    -0.1    -0.2     0.3     0.5    -0.1    -0.4     0.1     0.4     0.1
    -0.2     0.1     0.2    -0.0    -0.2     0.0     0.4     0.1    -0.3    -0.1
     0.4     0.2    -0.3    -0.2     0.3     0.2    -0.3    -0.2     0.4     0.3
    -0.2    -0.3     0.3     0.3    -0.2    -0.1     0.0     0.1    -0.2    -0.3
     0.3     0.3    -0.0    -0.1     0.1     0.5     0.1    -0.4    -0.0     0.3
    -0.0    -0.3     0.0     0.3     0.0    -0.4    -0.2     0.3    -0.0    -0.4
    -0.1     0.4     0.1    -0.4    -0.2     0.3     0.3    -0.2    -0.2     0.3
     0.2    -0.3    -0.2     0.3     0.2    -0.2    -0.2     0.3     0.4    -0.2
    -0.2     0.3     0.4    -0.1    -0.3     0.1     0.4    -0.1    -0.3     0.2
     0.4    -0.1    -0.4     0.0     0.3     0.1    -0.3    -0.0     0.4     0.1
    -0.4    -0.2     0.4     0.1    -0.4    -0.0     0.3     0.2    -0.3    -0.3
     0.3     0.2    -0.2    -0.0     0.3     0.3    -0.2    -0.3     0.3     0.2
    -0.2    -0.3     0.1     0.3    -0.2    -0.4     0.1     0.4    -0.1    -0.4
     0.2     0.5    -0.1    -0.2     0.2     0.5     0.0    -0.5    -0.1     0.3
    -0.1    -0.2     0.1     0.3     0.1    -0.3    -0.1     0.4     0.2    -0.2
    -0.1     0.4     0.2    -0.4    -0.2     0.2     0.2    -0.2    -0.4     0.1
     0.3    -0.1    -0.2     0.2     0.3    -0.2    -0.5     0.2     0.3    -0.2
    -0.4    -0.0     0.4    -0.0    -0.4     0.2     0.2    -0.1    -0.2    -0.0
     0.4     0.1    -0.4     0.0     0.4     0.1    -0.5    -0.2     0.4     0.1
    -0.3    -0.1     0.3     0.2    -0.4    -0.1     0.3    -0.0    -0.3    -0.3
     0.2     0.3    -0.3    -0.2     0.3     0.3    -0.2    -0.3     0.1     0.2
    -0.3    -0.4     0.0     0.3    -0.2    -0.4     0.0     0.3    -0.1    -0.4
     0.0     0.4     0.0    -0.4    -0.0     0.4     0.1    -0.3    -0.0     0.4
     0.2    -0.2    -0.1     0.3     0.2    -0.2    -0.1     0.4     0.2    -0.4
    -0.3     0.1     0.1    -0.3    -0.3     0.3     0.2    -0.3    -0.2     0.3
     0.5    -0.1    -0.2     0.3     0.3    -0.0    -0.2    -0.1     0.2    -0.2
    -0.4     0.1     0.3     0.0    -0.3    -0.0     0.5     0.2    -0.3     0.1
     0.4    -0.0    -0.3    -0.1     0.3     0.1    -0.2    -0.1     0.3     0.2
    -0.2    -0.1     0.3     0.3    -0.2    -0.2     0.4     0.4    -0.2    -0.3
     0.2     0.4    -0.1    -0.4     0.0     0.3    -0.2    -0.2     0.2     0.5
    -0.1    -0.4     0.1     0.3     0.0    -0.2    -0.0     0.5     0.2    -0.4
    -0.1     0.4     0.1    -0.4    -0.3     0.2     0.1    -0.4    -0.1     0.4
     0.2    -0.2    -0.1     0.5     0.3    -0.4    -0.2     0.3     0.2    -0.2
    -0.3     0.1     0.2    -0.2    -0.4     0.2     0.5    -0.0    -0.1     0.3
     0.2    -0.2    -0.3     0.1     0.1    -0.2    -0.3    -0.0     0.3    -0.0
    -0.4     0.1     0.4     0.0    -0.3    -0.1     0.2     0.0    -0.5    -0.2
     0.3     0.1    -0.4    -0.3     0.2     0.2    -0.4    -0.1     0.4     0.4
    -0.1    -0.3     0.2     0.2    -0.2    -0.3     0.2     0.4    -0.2    -0.3
     0.1     0.3     0.0    -0.3     0.1     0.4    -0.1    -0.3     0.1     0.3
     0.1    -0.3     0.0     0.3    -0.1    -0.5    -0.1     0.3     0.0    -0.3
    -0.1     0.4     0.2    -0.2     0.0     0.4     0.3    -0.3    -0.2     0.2
     0.2    -0.2    -0.3     0.3     0.4    -0.2    -0.2     0.3     0.3    -0.2
    -0.3     0.1     0.3    -0.1    -0.3     0.1     0.2    -0.1    -0.3     0.0
     0.4     0.0    -0.3    -0.0     0.3     0.1    -0.2    -0.1     0.4     0.2
    -0.3    -0.1     0.3     0.0    -0.5    -0.1     0.4     0.2    -0.2    -0.2
     0.3     0.2    -0.3    -0.2     0.3     0.3    -0.2    -0.3     0.1     0.1
    -0.2    -0.4     0.3     0.4    -0.3    -0.4     0.1     0.3    -0.1    -0.2
     0.2     0.3    -0.2    -0.3    -0.0     0.2    -0.0    -0.4    -0.1     0.3
     0.0    -0.3    -0.2     0.4     0.2    -0.4    -0.0     0.2     0.0    -0.2
    -0.3     0.3     0.2    -0.3    -0.2     0.3     0.3    -0.2    -0.3     0.3
     0.3    -0.2    -0.3     0.2     0.4    -0.1    -0.4     0.1     0.2    -0.2
    -0.3    -0.0     0.3    -0.1    -0.5     0.0     0.3    -0.1    -0.3    -0.1
     0.3     0.1    -0.3     0.0     0.3     0.1    -0.4    -0.2     0.4     0.1
    -0.4    -0.0     0.2     0.1    -0.3    -0.4     0.2     0.3    -0.2    -0.2
     0.3     0.3    -0.3    -0.3     0.1     0.2    -0.2    -0.5     0.3     0.5
    -0.2    -0.3     0.1     0.4     0.0    -0.3     0.1     0.3    -0.1    -0.4
    -0.1     0.4     0.1    -0.4     0.1     0.3    -0.0    -0.4    -0.2     0.4
     0.2    -0.4    -0.2     0.3     0.1    -0.4    -0.3     0.4     0.2    -0.3
    -0.1     0.2     0.2    -0.3    -0.3     0.2     0.1    -0.3    -0.3     0.0
     0.2    -0.2    -0.3     0.2     0.4    -0.0    -0.4    -0.2     0.2    -0.2
    -0.4     0.1     0.4     0.0    -0.4    -0.0     0.4     0.1    -0.2     0.1
     0.5     0.1    -0.5    -0.1     0.1     0.0    -0.2    -0.2     0.4     0.3
    -0.3    -0.3     0.2     0.3    -0.2    -0.3     0.2     0.2    -0.3    -0.4
    -0.0     0.3     0.1    -0.2     0.1     0.4    -0.0    -0.3     0.1     0.3
    -0.0    -0.3     0.1     0.4     0.1    -0.2    -0.0     0.3     0.0    -0.4
    -0.0     0.4     0.1    -0.3    -0.2     0.3     0.1    -0.4    -0.2     0.1
    -0.1    -0.4    -0.3     0.2     0.2    -0.2    -0.3     0.2     0.3    -0.4
    -0.3     0.1     0.2    -0.1    -0.3     0.1     0.4     0.0    -0.3     0.1
     0.4    -0.1    -0.4    -0.1     0.3    -0.0    -0.3    -0.0     0.3     0.1
    -0.4    -0.2     0.3     0.1    -0.2    -0.1     0.3     0.1    -0.3    -0.1
     0.2     0.1    -0.3    -0.3     0.3     0.2    -0.3    -0.3     0.2     0.2
    -0.3    -0.3     0.4     0.5    -0.2    -0.4     0.1     0.2    -0.0    -0.2
     0.2     0.3    -0.2    -0.3     0.2     0.4    -0.1    -0.4     0.1     0.4
    -0.2    -0.5    -0.0     0.4     0.1    -0.3    -0.1     0.3     0.2    -0.3
    -0.2     0.3     0.1    -0.3    -0.1     0.3     0.3    -0.2    -0.2     0.3
     0.2    -0.3    -0.3     0.2     0.2    -0.2    -0.2     0.1     0.2    -0.2
    -0.3     0.0     0.3    -0.1    -0.4     0.1     0.4    -0.1    -0.4    -0.0
     0.4     0.0    -0.2     0.2     0.3     0.1    -0.2    -0.2     0.3     0.1
    -0.4    -0.1     0.4     0.0    -0.4    -0.1     0.4     0.3    -0.3    -0.2
     0.3     0.3    -0.2    -0.3     0.2     0.4    -0.1    -0.4     0.1     0.2
    -0.2    -0.4     0.1     0.5     0.0    -0.3     0.1     0.3    -0.0    -0.4
     0.1     0.4    -0.0    -0.2     0.1     0.3     0.1    -0.3    -0.0     0.3
     0.1    -0.2    -0.1     0.5     0.1    -0.5    -0.1     0.4     0.1    -0.2
    -0.0     0.3     0.3    -0.1    -0.2     0.3     0.3    -0.3    -0.3     0.3
     0.4    -0.1    -0.4     0.1     0.4    -0.1    -0.3     0.0     0.2    -0.1
    -0.3     0.1     0.5     0.1    -0.3    -0.1     0.2    -0.0    -0.4     0.0
     0.5     0.0    -0.4    -0.1     0.3     0.2    -0.3    -0.2     0.3     0.1
    -0.3    -0.1     0.3     0.2    -0.2    -0.1     0.3     0.2    -0.3    -0.4
     0.1     0.3    -0.3    -0.4     0.3     0.3    -0.3    -0.4     0.1     0.3
    -0.1    -0.3     0.1     0.3    -0.1    -0.4     0.0     0.4     0.1    -0.2
     0.0     0.3     0.0    -0.3    -0.0     0.4     0.1    -0.4    -0.1     0.3
     0.1    -0.3    -0.2     0.3     0.3    -0.4    -0.2     0.3     0.2    -0.2
    -0.2     0.3     0.4    -0.3    -0.4     0.2     0.1    -0.3    -0.4     0.1
     0.3    -0.2    -0.4     0.1     0.4     0.0    -0.3     0.1     0.4    -0.0
    -0.4     0.0     0.3     0.0    -0.4    -0.2     0.3     0.1    -0.3    -0.1
     0.3     0.1    -0.4    -0.0     0.3     0.1    -0.3    -0.3     0.2     0.2
    -0.4    -0.2     0.3     0.2    -0.3    -0.3     0.1     0.3    -0.1    -0.3
     0.1     0.3    -0.1    -0.5     0.0     0.3    -0.2    -0.2     0.1     0.2
     0.1    -0.4     0.0     0.4    -0.0    -0.4    -0.2     0.2    -0.0    -0.5
    -0.1     0.3     0.1    -0.3    -0.3     0.3     0.2    -0.2    -0.1     0.3
     0.3    -0.3    -0.2     0.3     0.1    -0.3    -0.3     0.3     0.3    -0.5
    -0.4     0.2     0.3    -0.2    -0.2     0.3     0.5    -0.1    -0.4     0.1
     0.3    -0.1    -0.4    -0.1     0.4    -0.0    -0.5    -0.2     0.2     0.1
    -0.3    -0.0     0.4     0.1    -0.4    -0.3     0.2     0.1    -0.6    -0.3
     0.3     0.2    -0.2    -0.2     0.4     0.4    -0.3    -0.2     0.2     0.1
    -0.3    -0.4     0.2     0.2    -0.2    -0.3     0.1     0.3    -0.1    -0.3
     0.1     0.4    -0.0    -0.4     0.0     0.4    -0.2    -0.6    -0.1     0.4
     0.1    -0.2     0.0     0.3     0.1    -0.4    -0.2     0.3     0.2    -0.2
    -0.2     0.2     0.1    -0.2    -0.1     0.3     0.3    -0.4    -0.3     0.3
     0.2    -0.2    -0.1     0.4     0.4    -0.2    -0.4     0.0     0.2    -0.4
    -0.6    -0.1     0.2    -0.1    -0.2     0.2     0.6     0.2    -0.2     0.2
     0.4    -0.2    -0.6    -0.3     0.1    -0.2    -0.7    -0.2     0.3     0.1
    -0.2    -0.2     0.5     0.4    -0.2    -0.2     0.1    -0.0    -0.6    -0.5
     0.1     0.1    -0.2    -0.0     0.3     0.4    -0.0    -0.2     0.4     0.4
    -0.2    -0.4    -0.1     0.2    -0.3    -0.4     0.2     0.4    -0.1    -0.2
     0.2     0.4    -0.0    -0.3     0.0     0.3    -0.0    -0.4    -0.1     0.3
     0.0    -0.3    -0.2     0.3     0.2    -0.3    -0.1     0.4     0.1    -0.3
    -0.3     0.2     0.2    -0.3    -0.3     0.1     0.1    -0.2    -0.3     0.3
     0.3    -0.4    -0.4     0.2     0.4    -0.0    -0.3     0.3     0.5    -0.2
    -0.4    -0.0     0.2    -0.2    -0.5     0.0     0.4     0.1    -0.2    -0.0
     0.3     0.1    -0.2     0.0     0.4     0.1    -0.5    -0.4     0.2     0.1
    -0.3     0.0     0.4     0.3    -0.2    -0.2     0.3     0.3    -0.3    -0.4
     0.1     0.1    -0.3    -0.3     0.1     0.2    -0.2    -0.3     0.1     0.3
    -0.1    -0.4     0.1     0.2    -0.1    -0.3    -0.1     0.2    -0.1    -0.4
    -0.1     0.4     0.1    -0.4    -0.1     0.3     0.0    -0.3    -0.1     0.3
     0.1    -0.4    -0.2     0.2     0.0    -0.4    -0.4     0.2     0.3    -0.3
    -0.3     0.2     0.2    -0.1    -0.3     0.2     0.4    -0.2    -0.4    -0.0
     0.3    -0.3    -0.5     0.1     0.2    -0.3    -0.2     0.1     0.3    -0.0
    -0.3     0.0     0.3    -0.0    -0.4    -0.2     0.1    -0.1    -0.3     0.0
     0.3     0.1    -0.4    -0.2     0.3     0.1    -0.4    -0.2     0.2     0.0
    -0.3    -0.3    -0.0     0.2    -0.2    -0.2     0.3     0.3    -0.2    -0.4
     0.2     0.4    -0.2    -0.3     0.0     0.2    -0.1    -0.3     0.1     0.3
     0.1    -0.3    -0.1     0.3     0.0    -0.4    -0.1     0.2     0.0    -0.4
    -0.2     0.3     0.1    -0.3    -0.2     0.3     0.1    -0.4    -0.2     0.2
     0.1    -0.3    -0.3     0.2     0.4    -0.3    -0.3     0.3     0.2    -0.2
    -0.3     0.0     0.3    -0.1    -0.3     0.1     0.3    -0.1    -0.4     0.2
     0.6     0.0    -0.3    -0.0     0.4     0.1    -0.4     0.1     0.4    -0.1
    -0.4    -0.2     0.2     0.2    -0.2     0.0     0.4     0.0    -0.3    -0.2
     0.3     0.2    -0.3    -0.2     0.3     0.1    -0.3    -0.2     0.2     0.4
     0.0    -0.2     0.1     0.2    -0.3    -0.4     0.2     0.4    -0.0    -0.3
     0.1     0.3    -0.0    -0.3     0.2     0.4    -0.1    -0.4     0.1     0.4
    -0.0    -0.3     0.1     0.4     0.2    -0.2    -0.1     0.4     0.1    -0.3
    -0.0     0.3     0.1    -0.4    -0.3     0.1     0.1    -0.2    -0.3     0.2
     0.3    -0.3    -0.3     0.3     0.3    -0.2    -0.4     0.0     0.3    -0.2
    -0.3     0.0     0.2    -0.2    -0.3     0.2     0.3    -0.2    -0.5     0.1
     0.5    -0.1    -0.4     0.0     0.4     0.1    -0.4    -0.1     0.4     0.1
    -0.4    -0.2     0.3     0.2    -0.4    -0.3     0.3     0.3    -0.2    -0.3
     0.3     0.2    -0.5    -0.3     0.2     0.3    -0.2    -0.3     0.3     0.3
    -0.4    -0.4     0.1     0.3    -0.1    -0.4     0.1     0.4     0.0    -0.4
     0.1     0.6     0.1    -0.5    -0.1     0.3    -0.1    -0.4    -0.1     0.4
     0.1    -0.3    -0.2     0.2     0.0    -0.4    -0.2     0.3     0.3    -0.3
    -0.3     0.3     0.2    -0.2    -0.3     0.1     0.3    -0.4    -0.4     0.2
     0.2    -0.3    -0.4     0.1     0.3    -0.1    -0.5    -0.1     0.2    -0.1
    -0.3     0.0     0.4    -0.0    -0.5    -0.1     0.3    -0.1    -0.3    -0.1
     0.2     0.0    -0.3    -0.0     0.3     0.2    -0.2    -0.1     0.2     0.1
    -0.4    -0.3     0.2     0.1    -0.3    -0.3     0.2     0.4    -0.2    -0.2
     0.3     0.3    -0.2    -0.3     0.2     0.2    -0.3    -0.3     0.1     0.3
    -0.1    -0.4     0.0     0.3    -0.0    -0.3     0.0     0.2    -0.1    -0.3
    -0.1     0.2    -0.1    -0.5    -0.0     0.3    -0.0    -0.2     0.0     0.3
     0.2    -0.1    -0.1     0.1     0.2    -0.2    -0.3    -0.0    -0.0    -0.3
    -0.3     0.2     0.4     0.1    -0.2     0.0     0.3    -0.1    -0.3     0.0
     0.2     0.1    -0.2     0.0     0.1    -0.4    -0.5    -0.2     0.2     0.1
    -0.2     0.1     0.4     0.1    -0.2    -0.1     0.3    -0.1    -0.6    -0.2
     0.1    -0.1    -0.4    -0.2     0.4     0.1    -0.5    -0.1     0.4     0.3
    -0.3    -0.3     0.3     0.1    -0.4    -0.3     0.2     0.2    -0.3    -0.2
     0.3     0.4    -0.2    -0.2     0.4     0.4    -0.2    -0.5     0.0     0.2
    -0.5    -0.4     0.1     0.2     0.0    -0.3    -0.1     0.4    -0.0    -0.4
     0.0     0.5     0.1    -0.4    -0.3     0.2     0.0    -0.6    -0.1     0.6
     0.3    -0.3    -0.2     0.3     0.2    -0.3    -0.4     0.1     0.4    -0.1
    -0.4     0.1     0.4    -0.2    -0.4     0.2     0.6    -0.0    -0.5    -0.0
     0.3    -0.2    -0.4    -0.0     0.4    -0.1    -0.5     0.0     0.3     0.1
    -0.2    -0.2     0.4     0.2    -0.4    -0.2     0.3     0.1    -0.3    -0.2
     0.3     0.1    -0.3    -0.2     0.3     0.2    -0.3    -0.2     0.2     0.1
    -0.3    -0.3     0.2     0.3    -0.3    -0.3     0.2     0.3    -0.2    -0.5
    -0.0     0.2    -0.1    -0.3    -0.1     0.3     0.2    -0.3    -0.1     0.4
     0.2    -0.3    -0.1     0.3     0.1    -0.5    -0.2     0.4     0.2    -0.3
    -0.2     0.2     0.0    -0.4    -0.2     0.2     0.3    -0.2    -0.4     0.1
     0.2    -0.2    -0.3     0.2     0.4    -0.2    -0.4     0.2     0.4    -0.0
    -0.3     0.0     0.3    -0.2    -0.5     0.1     0.3    -0.2    -0.3     0.1
     0.3    -0.0    -0.4    -0.1     0.3     0.0    -0.4    -0.1     0.4     0.2
    -0.4    -0.2     0.2     0.1    -0.2    -0.0     0.3    -0.0    -0.4    -0.2
     0.1     0.1    -0.3    -0.3     0.2     0.1    -0.4    -0.4     0.1     0.3
    -0.2    -0.2     0.1     0.2    -0.2    -0.5    -0.1     0.4     0.0    -0.4
     0.2     0.3    -0.2    -0.5    -0.1     0.4    -0.1    -0.5     0.0     0.4
     0.1    -0.4    -0.1     0.3     0.1    -0.3    -0.3     0.2     0.2    -0.3
    -0.2     0.4     0.2    -0.2    -0.3     0.0     0.2    -0.3    -0.3     0.2
     0.3    -0.0    -0.3    -0.1     0.2    -0.1    -0.3     0.1     0.2     0.2
    -0.1    -0.1     0.1    -0.1    -0.1     0.1    -0.0    -0.2    -0.2     0.1
     0.1    -0.2    -0.1     0.1     0.4    -0.0    -0.4     0.1     0.3    -0.0
