Uncorrected accelerogram 20160214_001343_HAVS_20 GNS Science
Site HAVS      41 16 20S  173 47 05E     Basalt file:  20160214_001423_HAVS
Havelock
Instrument Basalt_1678
Resolution: 24-bit   Instr Period: 0.0050 s   Damping: 0.700
Accelerogram 20160214_001343_HAVS_20                 Processed 2016 February 22
11 km east of CHRISTCHURCH
2016 February 14         00:13:43 UT
Epicentre  43 29 50S 172 45 18E  Bearing S19W  Dist  261km  Depth    8km M  5.70
Number of points  31800    Duration 159.00 s
Raw readings in units of 1.00 mm/s/s  at intervals of 0.005 s
Data is unfiltered
Component S74E
Acceleration:  Peak      7.1 mm/s/s at  71.21 s     RMS     0.92 mm/s/s
Velocity record unevaluated
Displacement record unevaluated
    2016       2      14       0      13     430       0       0    2016       2
      43      29      50     172      45      18       8       0      14       0
      41      16      20     173      47       5     106     106     199     261
   31800       0       0   31800       0       0       0       0      13   43000
   200.0    0.70    0.00   0.000  0.0000   0.000   0.000   1.000     0.0    0.00
  41.272 173.785  43.497 172.755    5.70    0.00    0.00    0.00      0.      0.
  159.00    0.00    0.00  159.00  0.0050  0.0050      0.      0.      0.  9806.6
     7.1   71.21     0.9      0.      0.     0.0    0.00     0.0     0.0   0.000
    0.00    0.00    0.00    0.00   0.000    0.00    0.00    0.00    0.00   0.000
   0.000   0.000   0.000      0.      0.   0.000   0.000   0.000      0.      0.
    -1.2    -0.1     0.9    -0.2    -1.3    -0.1     0.9    -0.3    -1.2    -0.1
     0.9    -0.3    -1.2    -0.1     0.9    -0.3    -1.2    -0.1     0.8    -0.3
    -1.2    -0.1     0.9    -0.3    -1.2    -0.1     0.9    -0.3    -1.2    -0.1
     0.9    -0.3    -1.2    -0.1     0.8    -0.3    -1.2    -0.1     0.8    -0.3
    -1.2    -0.1     0.8    -0.3    -1.1    -0.1     0.8    -0.3    -1.2    -0.0
     0.8    -0.3    -1.1    -0.0     0.8    -0.3    -1.2    -0.1     0.8    -0.3
    -1.2     0.0     0.8    -0.3    -1.2    -0.0     0.8    -0.4    -1.2    -0.0
     0.8    -0.3    -1.2     0.0     0.9    -0.4    -1.2     0.0     0.8    -0.4
    -1.2     0.0     0.8    -0.4    -1.2     0.0     0.9    -0.4    -1.2     0.1
     0.9    -0.5    -1.2     0.1     0.9    -0.4    -1.2     0.1     0.8    -0.5
    -1.2     0.1     0.8    -0.5    -1.2     0.2     0.9    -0.5    -1.2     0.1
     0.8    -0.5    -1.2     0.1     0.9    -0.5    -1.2     0.2     0.9    -0.5
    -1.2     0.2     0.9    -0.5    -1.2     0.2     0.9    -0.6    -1.2     0.1
     0.8    -0.5    -1.2     0.2     0.9    -0.5    -1.2     0.1     0.8    -0.5
    -1.2     0.2     0.9    -0.4    -1.2     0.1     0.8    -0.5    -1.2     0.2
     0.8    -0.4    -1.2     0.1     0.8    -0.5    -1.1     0.2     0.8    -0.5
    -1.2     0.1     0.8    -0.5    -1.1     0.2     0.8    -0.5    -1.2     0.1
     0.8    -0.5    -1.1     0.2     0.8    -0.5    -1.1     0.2     0.8    -0.5
    -1.1     0.2     0.8    -0.6    -1.1     0.2     0.8    -0.6    -1.1     0.2
     0.8    -0.5    -1.1     0.2     0.7    -0.6    -1.1     0.3     0.8    -0.6
    -1.1     0.3     0.7    -0.6    -1.1     0.3     0.8    -0.6    -1.2     0.3
     0.8    -0.6    -1.1     0.2     0.8    -0.6    -1.1     0.3     0.8    -0.6
    -1.1     0.3     0.8    -0.6    -1.1     0.3     0.8    -0.6    -1.1     0.3
     0.8    -0.7    -1.1     0.3     0.8    -0.7    -1.2     0.3     0.7    -0.7
    -1.1     0.3     0.8    -0.7    -1.1     0.3     0.8    -0.7    -1.1     0.4
     0.8    -0.7    -1.1     0.3     0.8    -0.7    -1.1     0.3     0.8    -0.7
    -1.1     0.3     0.8    -0.7    -1.0     0.4     0.7    -0.7    -1.1     0.4
     0.7    -0.7    -1.1     0.4     0.7    -0.7    -1.0     0.4     0.7    -0.7
    -1.1     0.4     0.7    -0.7    -1.1     0.4     0.7    -0.7    -1.0     0.4
     0.7    -0.7    -1.1     0.4     0.7    -0.7    -1.1     0.3     0.7    -0.7
    -1.0     0.4     0.7    -0.7    -1.0     0.4     0.6    -0.8    -1.0     0.5
     0.7    -0.8    -1.0     0.4     0.6    -0.7    -1.0     0.4     0.7    -0.8
    -1.0     0.4     0.6    -0.7    -1.0     0.4     0.7    -0.8    -1.0     0.4
     0.7    -0.8    -1.0     0.4     0.7    -0.8    -1.0     0.4     0.6    -0.8
    -0.9     0.4     0.6    -0.8    -1.0     0.5     0.6    -0.9    -1.0     0.5
     0.6    -0.8    -1.0     0.5     0.6    -0.9    -0.9     0.5     0.7    -0.9
    -1.0     0.5     0.6    -0.9    -1.0     0.5     0.6    -0.9    -0.9     0.6
     0.6    -0.9    -1.0     0.6     0.6    -0.9    -0.9     0.5     0.6    -0.9
    -0.9     0.5     0.6    -0.9    -1.0     0.6     0.6    -0.9    -0.9     0.5
     0.6    -0.9    -0.9     0.6     0.6    -0.9    -0.9     0.6     0.6    -0.9
    -0.9     0.5     0.5    -0.9    -0.9     0.5     0.6    -0.9    -0.9     0.6
     0.5    -0.9    -0.9     0.6     0.5    -0.9    -0.8     0.6     0.5    -0.9
    -0.8     0.6     0.5    -0.9    -0.9     0.6     0.5    -0.9    -0.8     0.6
     0.5    -0.9    -0.8     0.6     0.5    -0.9    -0.8     0.6     0.5    -0.9
    -0.8     0.6     0.5    -1.0    -0.8     0.6     0.4    -1.0    -0.8     0.6
     0.5    -1.0    -0.8     0.6     0.5    -1.0    -0.8     0.7     0.5    -1.0
    -0.8     0.7     0.5    -1.0    -0.8     0.6     0.5    -1.0    -0.9     0.7
     0.5    -1.0    -0.9     0.7     0.5    -1.0    -0.8     0.7     0.5    -1.0
    -0.8     0.7     0.5    -1.1    -0.8     0.7     0.5    -1.0    -0.8     0.7
     0.4    -1.0    -0.8     0.7     0.4    -1.0    -0.8     0.7     0.4    -1.0
    -0.7     0.7     0.4    -1.1    -0.7     0.7     0.4    -1.1    -0.7     0.8
     0.4    -1.1    -0.7     0.7     0.4    -1.1    -0.7     0.7     0.4    -1.0
    -0.7     0.7     0.4    -1.1    -0.8     0.8     0.4    -1.0    -0.7     0.7
     0.4    -1.1    -0.7     0.7     0.3    -1.0    -0.7     0.7     0.3    -1.0
    -0.6     0.7     0.3    -1.0    -0.7     0.7     0.3    -1.0    -0.7     0.7
     0.4    -1.0    -0.6     0.7     0.3    -1.1    -0.7     0.7     0.3    -1.1
    -0.6     0.8     0.3    -1.1    -0.6     0.7     0.3    -1.1    -0.6     0.8
     0.3    -1.1    -0.7     0.7     0.3    -1.1    -0.6     0.7     0.3    -1.1
    -0.6     0.8     0.3    -1.1    -0.6     0.8     0.3    -1.2    -0.6     0.8
     0.3    -1.1    -0.7     0.8     0.3    -1.1    -0.6     0.8     0.3    -1.1
    -0.7     0.8     0.3    -1.2    -0.6     0.8     0.3    -1.2    -0.6     0.9
     0.3    -1.2    -0.6     0.8     0.3    -1.1    -0.6     0.8     0.2    -1.2
    -0.5     0.8     0.2    -1.2    -0.5     0.8     0.2    -1.1    -0.6     0.8
     0.2    -1.2    -0.5     0.8     0.1    -1.1    -0.5     0.8     0.1    -1.2
    -0.5     0.8     0.2    -1.1    -0.5     0.8     0.1    -1.1    -0.4     0.8
     0.1    -1.1    -0.5     0.8     0.1    -1.1    -0.5     0.8     0.1    -1.1
    -0.4     0.8     0.1    -1.1    -0.5     0.8     0.1    -1.2    -0.5     0.8
     0.1    -1.2    -0.4     0.9     0.1    -1.2    -0.4     0.8     0.0    -1.2
    -0.5     0.9     0.1    -1.2    -0.3     0.8     0.0    -1.2    -0.4     0.9
     0.1    -1.2    -0.4     0.9     0.0    -1.2    -0.4     0.9    -0.0    -1.2
    -0.3     0.9     0.1    -1.2    -0.4     0.9     0.1    -1.2    -0.4     0.9
     0.0    -1.2    -0.4     0.9     0.0    -1.2    -0.3     0.9    -0.0    -1.2
    -0.3     0.9     0.0    -1.2    -0.4     0.8    -0.0    -1.1    -0.3     0.8
    -0.0    -1.2    -0.3     0.9     0.0    -1.2    -0.3     0.8    -0.1    -1.2
    -0.3     0.8    -0.0    -1.1    -0.3     0.9    -0.0    -1.2    -0.3     0.8
    -0.1    -1.2    -0.3     0.9    -0.1    -1.1    -0.3     0.8    -0.0    -1.2
    -0.2     0.8    -0.1    -1.2    -0.3     0.9    -0.1    -1.2    -0.2     0.8
    -0.1    -1.2    -0.3     0.9    -0.1    -1.2    -0.2     0.9    -0.1    -1.2
    -0.2     0.9    -0.1    -1.2    -0.2     0.9    -0.1    -1.3    -0.2     0.9
    -0.2    -1.2    -0.2     0.9    -0.1    -1.2    -0.2     0.8    -0.2    -1.2
    -0.2     0.9    -0.2    -1.2    -0.2     0.9    -0.2    -1.2    -0.2     0.9
    -0.2    -1.3    -0.1     0.9    -0.2    -1.2    -0.2     1.0    -0.2    -1.3
    -0.1     0.8    -0.2    -1.3    -0.1     0.9    -0.2    -1.2    -0.1     0.9
    -0.2    -1.3    -0.1     0.9    -0.2    -1.2    -0.1     0.9    -0.3    -1.3
    -0.1     0.9    -0.2    -1.3    -0.1     0.9    -0.3    -1.2    -0.1     0.9
    -0.2    -1.3    -0.1     0.9    -0.3    -1.2    -0.1     0.9    -0.2    -1.2
    -0.1     0.9    -0.3    -1.2    -0.1     0.9    -0.2    -1.2    -0.1     0.9
    -0.3    -1.2    -0.1     0.8    -0.3    -1.2    -0.1     0.8    -0.3    -1.2
    -0.0     0.9    -0.3    -1.2    -0.0     0.9    -0.3    -1.2    -0.0     0.9
    -0.3    -1.2    -0.0     0.8    -0.3    -1.2     0.0     0.9    -0.3    -1.2
    -0.0     0.8    -0.3    -1.2    -0.0     0.9    -0.3    -1.2    -0.0     0.8
    -0.3    -1.2     0.0     0.8    -0.4    -1.2     0.0     0.9    -0.4    -1.2
     0.0     0.9    -0.3    -1.2     0.0     0.9    -0.4    -1.2     0.0     0.9
    -0.4    -1.2     0.1     0.9    -0.4    -1.2     0.0     0.9    -0.4    -1.2
     0.1     0.9    -0.4    -1.3     0.1     0.9    -0.4    -1.2     0.0     0.9
    -0.4    -1.2     0.1     0.8    -0.4    -1.2     0.1     0.9    -0.4    -1.2
     0.1     0.9    -0.4    -1.2     0.1     0.8    -0.4    -1.2     0.1     0.9
    -0.4    -1.2     0.1     0.9    -0.4    -1.2     0.1     0.8    -0.4    -1.2
     0.0     0.9    -0.5    -1.2     0.2     0.8    -0.4    -1.1     0.1     0.8
    -0.5    -1.2     0.2     0.8    -0.4    -1.2     0.2     0.8    -0.5    -1.1
     0.1     0.8    -0.5    -1.1     0.2     0.8    -0.5    -1.2     0.2     0.8
    -0.5    -1.1     0.2     0.8    -0.5    -1.1     0.2     0.8    -0.5    -1.1
     0.2     0.9    -0.5    -1.2     0.2     0.8    -0.5    -1.2     0.2     0.8
    -0.5    -1.2     0.2     0.9    -0.5    -1.1     0.2     0.8    -0.6    -1.2
     0.2     0.9    -0.5    -1.1     0.2     0.8    -0.6    -1.2     0.2     0.8
    -0.5    -1.2     0.3     0.8    -0.5    -1.2     0.2     0.8    -0.6    -1.1
     0.2     0.8    -0.5    -1.1     0.3     0.8    -0.5    -1.1     0.2     0.8
    -0.6    -1.1     0.2     0.8    -0.6    -1.1     0.3     0.8    -0.6    -1.1
     0.2     0.8    -0.6    -1.1     0.3     0.8    -0.6    -1.1     0.3     0.8
    -0.6    -1.1     0.3     0.8    -0.6    -1.2     0.3     0.8    -0.6    -1.1
     0.3     0.8    -0.7    -1.1     0.3     0.8    -0.6    -1.1     0.3     0.8
    -0.6    -1.1     0.3     0.8    -0.6    -1.2     0.3     0.8    -0.6    -1.1
     0.3     0.8    -0.7    -1.1     0.3     0.8    -0.6    -1.1     0.3     0.8
    -0.7    -1.1     0.4     0.8    -0.7    -1.1     0.4     0.8    -0.7    -1.1
     0.3     0.8    -0.6    -1.1     0.3     0.8    -0.7    -1.1     0.3     0.8
    -0.6    -1.1     0.3     0.7    -0.7    -1.1     0.3     0.8    -0.7    -1.1
     0.3     0.8    -0.6    -1.1     0.3     0.8    -0.7    -1.1     0.3     0.8
    -0.6    -1.1     0.3     0.8    -0.7    -1.0     0.3     0.7    -0.6    -1.1
     0.3     0.7    -0.6    -1.1     0.3     0.8    -0.7    -1.1     0.3     0.8
    -0.6    -1.0     0.3     0.7    -0.7    -1.1     0.4     0.8    -0.7    -1.1
     0.4     0.8    -0.7    -1.1     0.4     0.8    -0.7    -1.1     0.4     0.8
    -0.7    -1.1     0.4     0.8    -0.7    -1.1     0.4     0.8    -0.7    -1.1
     0.4     0.8    -0.7    -1.1     0.4     0.7    -0.7    -1.1     0.4     0.8
    -0.7    -1.1     0.4     0.8    -0.7    -1.1     0.4     0.7    -0.7    -1.1
     0.4     0.8    -0.7    -1.1     0.4     0.7    -0.8    -1.1     0.5     0.7
    -0.7    -1.1     0.5     0.8    -0.8    -1.1     0.5     0.7    -0.8    -1.1
     0.4     0.7    -0.8    -1.1     0.4     0.8    -0.8    -1.1     0.4     0.8
    -0.8    -1.1     0.4     0.7    -0.7    -1.1     0.4     0.8    -0.7    -1.1
     0.5     0.8    -0.8    -1.1     0.4     0.7    -0.7    -1.0     0.4     0.7
    -0.7    -1.0     0.4     0.7    -0.7    -1.0     0.4     0.7    -0.7    -1.0
     0.4     0.7    -0.7    -1.0     0.4     0.7    -0.8    -1.0     0.5     0.7
    -0.7    -1.0     0.4     0.7    -0.8    -1.0     0.4     0.8    -0.7    -1.1
     0.4     0.7    -0.7    -1.0     0.4     0.7    -0.8    -1.0     0.4     0.7
    -0.7    -1.0     0.4     0.7    -0.7    -1.1     0.4     0.7    -0.7    -1.0
     0.5     0.7    -0.8    -1.0     0.5     0.8    -0.8    -1.0     0.5     0.7
    -0.8    -1.1     0.4     0.7    -0.8    -1.0     0.4     0.7    -0.8    -1.1
     0.5     0.8    -0.8    -1.0     0.5     0.7    -0.8    -1.0     0.5     0.7
    -0.8    -1.1     0.5     0.7    -0.8    -1.1     0.5     0.8    -0.8    -1.0
     0.5     0.7    -0.8    -1.1     0.5     0.7    -0.8    -1.0     0.5     0.7
    -0.8    -1.1     0.5     0.7    -0.8    -1.0     0.5     0.7    -0.7    -1.0
     0.4     0.7    -0.8    -1.0     0.4     0.7    -0.7    -1.0     0.4     0.7
    -0.8    -1.0     0.4     0.7    -0.7    -1.1     0.4     0.7    -0.8    -1.0
     0.4     0.7    -0.7    -1.0     0.5     0.7    -0.8    -1.0     0.5     0.7
    -0.8    -1.0     0.5     0.7    -0.8    -1.0     0.5     0.7    -0.8    -1.1
     0.5     0.7    -0.8    -1.0     0.5     0.7    -0.8    -1.1     0.5     0.7
    -0.8    -1.0     0.4     0.7    -0.8    -1.0     0.5     0.6    -0.7    -1.0
     0.4     0.7    -0.8    -1.0     0.5     0.7    -0.8    -1.0     0.4     0.7
    -0.7    -1.1     0.5     0.8    -0.8    -1.0     0.4     0.7    -0.8    -1.0
     0.5     0.7    -0.8    -1.1     0.5     0.7    -0.8    -1.1     0.5     0.7
    -0.9    -1.1     0.5     0.8    -0.8    -1.1     0.5     0.7    -0.8    -1.1
     0.4     0.7    -0.8    -1.1     0.5     0.8    -0.8    -1.1     0.5     0.7
    -0.8    -1.1     0.5     0.8    -0.8    -1.1     0.5     0.8    -0.8    -1.1
     0.5     0.7    -0.8    -1.1     0.5     0.7    -0.8    -1.0     0.4     0.8
    -0.8    -1.0     0.5     0.7    -0.8    -1.1     0.5     0.8    -0.8    -1.1
     0.4     0.7    -0.7    -1.0     0.4     0.7    -0.7    -1.1     0.4     0.8
    -0.7    -1.1     0.4     0.7    -0.7    -1.0     0.4     0.7    -0.7    -1.1
     0.4     0.8    -0.7    -1.1     0.4     0.7    -0.8    -1.1     0.4     0.7
    -0.6    -1.0     0.4     0.7    -0.8    -1.1     0.4     0.7    -0.7    -1.0
     0.4     0.8    -0.7    -1.0     0.4     0.7    -0.7    -1.1     0.4     0.7
    -0.7    -1.0     0.4     0.8    -0.7    -1.1     0.4     0.8    -0.8    -1.1
     0.4     0.8    -0.7    -1.1     0.4     0.8    -0.7    -1.1     0.4     0.8
    -0.7    -1.0     0.4     0.8    -0.7    -1.1     0.4     0.8    -0.7    -1.1
     0.4     0.8    -0.7    -1.1     0.4     0.8    -0.7    -1.1     0.4     0.8
    -0.7    -1.1     0.4     0.7    -0.8    -1.1     0.4     0.8    -0.8    -1.1
     0.4     0.7    -0.7    -1.1     0.4     0.8    -0.7    -1.1     0.4     0.8
    -0.7    -1.1     0.4     0.7    -0.7    -1.1     0.4     0.8    -0.8    -1.1
     0.4     0.8    -0.7    -1.1     0.4     0.7    -0.7    -1.1     0.3     0.7
    -0.7    -1.1     0.4     0.7    -0.7    -1.1     0.4     0.8    -0.7    -1.1
     0.4     0.8    -0.7    -1.1     0.4     0.8    -0.6    -1.1     0.3     0.8
    -0.7    -1.1     0.3     0.8    -0.7    -1.1     0.3     0.8    -0.6    -1.1
     0.3     0.8    -0.6    -1.2     0.3     0.9    -0.7    -1.2     0.3     0.9
    -0.6    -1.1     0.3     0.8    -0.6    -1.2     0.3     0.8    -0.6    -1.2
     0.2     0.9    -0.6    -1.1     0.3     0.8    -0.6    -1.1     0.3     0.9
    -0.6    -1.2     0.3     0.8    -0.6    -1.1     0.3     0.8    -0.6    -1.1
     0.3     0.8    -0.6    -1.1     0.3     0.8    -0.6    -1.1     0.3     0.8
    -0.6    -1.1     0.3     0.8    -0.7    -1.1     0.3     0.8    -0.6    -1.1
     0.3     0.8    -0.6    -1.1     0.3     0.8    -0.6    -1.1     0.3     0.8
    -0.6    -1.1     0.3     0.8    -0.6    -1.1     0.3     0.9    -0.6    -1.1
     0.3     0.8    -0.6    -1.1     0.3     0.8    -0.6    -1.1     0.2     0.8
    -0.5    -1.2     0.3     0.9    -0.6    -1.2     0.2     0.9    -0.6    -1.2
     0.2     0.9    -0.5    -1.2     0.3     0.8    -0.5    -1.1     0.2     0.9
    -0.5    -1.2     0.3     0.9    -0.6    -1.2     0.2     0.9    -0.5    -1.2
     0.2     0.9    -0.5    -1.2     0.2     0.9    -0.5    -1.2     0.2     0.9
    -0.5    -1.2     0.2     0.9    -0.5    -1.2     0.2     0.9    -0.5    -1.2
     0.2     0.9    -0.5    -1.2     0.2     1.0    -0.5    -1.3     0.2     0.9
    -0.5    -1.3     0.1     0.9    -0.5    -1.2     0.2     0.9    -0.5    -1.2
     0.2     0.9    -0.5    -1.2     0.2     0.9    -0.5    -1.3     0.2     0.9
    -0.5    -1.2     0.2     0.9    -0.5    -1.2     0.2     0.9    -0.4    -1.2
     0.1     1.0    -0.4    -1.2     0.1     0.8    -0.4    -1.2     0.1     0.9
    -0.4    -1.2     0.1     0.9    -0.4    -1.2     0.1     0.9    -0.4    -1.2
     0.1     0.9    -0.4    -1.2     0.1     0.9    -0.4    -1.2     0.1     0.9
    -0.3    -1.2     0.1     0.9    -0.4    -1.2     0.1     0.9    -0.4    -1.2
     0.1     0.9    -0.4    -1.2     0.1     0.9    -0.3    -1.2     0.0     0.9
    -0.3    -1.2     0.1     0.9    -0.4    -1.2     0.1     0.9    -0.3    -1.3
     0.1     0.9    -0.4    -1.2     0.1     0.9    -0.4    -1.2     0.1     0.9
    -0.4    -1.2     0.1     0.9    -0.4    -1.2     0.1     1.0    -0.4    -1.2
     0.0     0.9    -0.3    -1.3     0.1     0.9    -0.4    -1.2     0.0     1.0
    -0.4    -1.3     0.1     0.9    -0.3    -1.2     0.0     1.0    -0.4    -1.2
     0.0     0.9    -0.3    -1.2     0.0     1.0    -0.3    -1.2    -0.0     0.9
    -0.3    -1.2    -0.0     1.0    -0.3    -1.3    -0.0     1.0    -0.3    -1.2
    -0.1     1.0    -0.2    -1.3    -0.1     1.0    -0.3    -1.2    -0.0     0.9
    -0.2    -1.2    -0.1     0.9    -0.2    -1.2    -0.1     1.0    -0.2    -1.3
    -0.1     1.0    -0.2    -1.2    -0.1     0.9    -0.2    -1.2    -0.1     0.9
    -0.2    -1.2    -0.1     0.9    -0.2    -1.2    -0.1     0.9    -0.2    -1.3
    -0.1     0.9    -0.2    -1.2    -0.1     0.9    -0.2    -1.2    -0.1     0.9
    -0.2    -1.2    -0.1     1.0    -0.2    -1.3    -0.1     1.0    -0.2    -1.2
    -0.1     1.0    -0.1    -1.3    -0.1     1.0    -0.2    -1.3    -0.1     1.0
    -0.2    -1.3    -0.1     1.0    -0.1    -1.3    -0.2     1.0    -0.1    -1.3
    -0.2     1.0    -0.1    -1.3    -0.2     1.0    -0.1    -1.3    -0.2     0.9
    -0.1    -1.3    -0.2     1.0    -0.1    -1.3    -0.2     1.0    -0.1    -1.3
    -0.2     1.0    -0.1    -1.2    -0.2     1.0    -0.1    -1.2    -0.2     0.9
    -0.1    -1.2    -0.3     1.0    -0.1    -1.3    -0.2     0.9    -0.0    -1.2
    -0.3     0.9    -0.0    -1.2    -0.3     0.9    -0.0    -1.2    -0.3     0.9
    -0.0    -1.3    -0.3     1.0    -0.0    -1.2    -0.3     0.9     0.0    -1.2
    -0.3     1.0     0.0    -1.2    -0.3     0.9     0.1    -1.2    -0.3     1.0
     0.0    -1.3    -0.3     1.0     0.1    -1.3    -0.3     1.0     0.0    -1.2
    -0.4     1.0     0.1    -1.2    -0.3     0.9    -0.0    -1.3    -0.3     1.0
     0.1    -1.3    -0.3     1.0     0.0    -1.2    -0.4     1.0     0.1    -1.3
    -0.3     0.9     0.1    -1.2    -0.4     0.9     0.0    -1.3    -0.4     1.0
     0.1    -1.3    -0.4     0.9     0.1    -1.2    -0.4     1.0     0.1    -1.3
    -0.4     0.9     0.2    -1.2    -0.4     0.9     0.1    -1.3    -0.4     0.9
     0.1    -1.2    -0.4     0.9     0.2    -1.2    -0.5     0.9     0.2    -1.2
    -0.4     0.9     0.2    -1.2    -0.5     0.9     0.2    -1.1    -0.5     0.8
     0.2    -1.2    -0.5     0.9     0.2    -1.2    -0.5     0.9     0.2    -1.2
    -0.5     0.9     0.2    -1.2    -0.5     0.9     0.2    -1.2    -0.5     0.9
     0.2    -1.1    -0.5     0.9     0.2    -1.2    -0.5     0.9     0.3    -1.2
    -0.5     0.9     0.2    -1.2    -0.5     0.9     0.2    -1.2    -0.6     0.9
