Uncorrected accelerogram 20160214_001343_MNZS_20 GNS Science
Site MNZS      43 38 15S  172 58 26E     Basalt file:  20160214_001349_MNZS
Menzies Bay Banks Peninsula
Instrument Basalt_2030
Resolution: 24-bit   Instr Period: 0.0050 s   Damping: 0.700
Accelerogram 20160214_001343_MNZS_20                 Processed 2016 February 22
11 km east of CHRISTCHURCH
2016 February 14         00:13:43 UT
Epicentre  43 29 50S 172 45 18E  Bearing N49W  Dist   24km  Depth    8km M  5.70
Number of points  24800    Duration 124.00 s
Raw readings in units of 1.00 mm/s/s  at intervals of 0.005 s
Data is unfiltered
Component S52E
Acceleration:  Peak   -398.9 mm/s/s at  44.70 s     RMS    33.25 mm/s/s
Velocity record unevaluated
Displacement record unevaluated
    2016       2      14       0      13     430       0       0    2016       2
      43      29      50     172      45      18       8       0      14       0
      43      38      15     172      58      26     128     128     311      24
   24800       0       0   24800       0       0       0       0      13    9000
   200.0    0.70    0.00   0.000  0.0000   0.000   0.000   1.000     0.0    0.00
  43.637 172.974  43.497 172.755    5.70    0.00    0.00    0.00      0.      0.
  124.00    0.00    0.00  124.00  0.0050  0.0050      0.      0.      0.  9806.6
  -398.9   44.70    33.3      0.      0.     0.0    0.00     0.0     0.0   0.000
    0.00    0.00    0.00    0.00   0.000    0.00    0.00    0.00    0.00   0.000
   0.000   0.000   0.000      0.      0.   0.000   0.000   0.000      0.      0.
    -0.1     0.1     0.2    -0.0    -0.2     0.1     0.2     0.0    -0.1     0.0
     0.2    -0.0    -0.1     0.0     0.2     0.0    -0.2     0.0     0.2     0.0
    -0.1    -0.0     0.2     0.0    -0.1     0.0     0.2     0.1    -0.1    -0.1
     0.2     0.1    -0.1    -0.0     0.2     0.1    -0.2    -0.0     0.1     0.1
    -0.1    -0.1     0.2     0.1    -0.1    -0.1     0.1     0.1    -0.1    -0.1
     0.1     0.1    -0.1    -0.1     0.1     0.1    -0.0    -0.1     0.1     0.2
    -0.0    -0.1     0.1     0.2    -0.0    -0.2     0.1     0.2    -0.0    -0.1
     0.0     0.2     0.0    -0.1     0.1     0.2     0.0    -0.1     0.0     0.2
     0.0    -0.1    -0.0     0.2     0.0    -0.1     0.0     0.1     0.1    -0.1
    -0.1     0.2     0.1    -0.1    -0.0     0.2     0.1    -0.1    -0.1     0.1
     0.1    -0.1    -0.0     0.1     0.1    -0.1    -0.1     0.2     0.1    -0.1
    -0.1     0.1     0.2    -0.1    -0.1     0.1     0.1    -0.0    -0.1     0.1
     0.1    -0.0    -0.1     0.1     0.2    -0.1    -0.1     0.1     0.1    -0.0
    -0.1     0.1     0.1    -0.0    -0.1     0.1     0.2     0.0    -0.1     0.0
     0.2     0.0    -0.1     0.0     0.2     0.1    -0.2     0.0     0.1     0.0
    -0.1    -0.1     0.2     0.1    -0.1     0.0     0.1     0.1    -0.1    -0.0
     0.2     0.1    -0.1    -0.1     0.1     0.1    -0.1    -0.0     0.1     0.1
    -0.0    -0.1     0.1     0.1    -0.0    -0.1     0.1     0.2    -0.1    -0.1
     0.1     0.1    -0.0    -0.1     0.1     0.2    -0.0    -0.1     0.1     0.2
    -0.0    -0.1     0.1     0.1    -0.0    -0.1     0.0     0.2    -0.0    -0.1
     0.0     0.2     0.0    -0.1     0.0     0.1     0.0    -0.1    -0.0     0.2
     0.0    -0.2    -0.0     0.2     0.1    -0.1    -0.0     0.1     0.1    -0.1
    -0.1     0.2     0.1    -0.1    -0.1     0.1     0.1    -0.1    -0.1     0.2
     0.1    -0.1    -0.1     0.1     0.1    -0.1    -0.1     0.1     0.2    -0.0
    -0.1     0.1     0.2    -0.1    -0.1     0.1     0.2    -0.1    -0.1     0.1
     0.1     0.0    -0.1     0.1     0.2     0.0    -0.2     0.0     0.2    -0.0
    -0.1     0.0     0.2     0.0    -0.2     0.0     0.2     0.1    -0.2    -0.0
     0.2     0.0    -0.1    -0.0     0.2     0.1    -0.1    -0.0     0.2     0.1
    -0.1    -0.1     0.2     0.1    -0.1    -0.0     0.1     0.1    -0.1    -0.1
     0.1     0.1    -0.1    -0.1     0.1     0.1    -0.1    -0.1     0.2     0.1
    -0.1    -0.1     0.1     0.2    -0.1    -0.1     0.1     0.1    -0.0    -0.1
     0.1     0.2    -0.1    -0.1     0.1     0.2    -0.0    -0.1     0.0     0.2
     0.0    -0.2     0.0     0.2     0.0    -0.1     0.0     0.2     0.0    -0.1
     0.0     0.2     0.0    -0.1     0.0     0.2     0.0    -0.1    -0.0     0.2
     0.0    -0.1    -0.0     0.1     0.1    -0.1    -0.0     0.1     0.1    -0.1
    -0.1     0.2     0.1    -0.1    -0.0     0.1     0.1    -0.1    -0.1     0.1
     0.1    -0.1    -0.1     0.1     0.1    -0.1    -0.1     0.1     0.1    -0.0
    -0.1     0.1     0.1    -0.1    -0.1     0.1     0.2    -0.0    -0.1     0.0
     0.2    -0.0    -0.1     0.1     0.2     0.0    -0.1    -0.0     0.2     0.0
    -0.1     0.0     0.2     0.0    -0.1    -0.0     0.1     0.1    -0.1    -0.0
     0.2     0.1    -0.1    -0.1     0.2     0.1    -0.1    -0.0     0.1     0.1
    -0.1    -0.1     0.1     0.1    -0.1    -0.1     0.1     0.1    -0.1    -0.1
     0.1     0.2    -0.1    -0.1     0.1     0.1    -0.1    -0.1     0.1     0.2
    -0.0    -0.1     0.0     0.2    -0.0    -0.1     0.0     0.1    -0.0    -0.1
     0.0     0.2     0.0    -0.2     0.0     0.2     0.0    -0.1    -0.0     0.2
     0.1    -0.1    -0.0     0.2     0.1    -0.1    -0.0     0.2     0.1    -0.1
    -0.1     0.2     0.1    -0.1    -0.1     0.1     0.1    -0.1    -0.0     0.2
     0.1    -0.1    -0.1     0.2     0.1    -0.1    -0.1     0.1     0.2    -0.1
    -0.1     0.2     0.1    -0.1    -0.1     0.1     0.2    -0.1    -0.1     0.1
     0.1     0.0    -0.1     0.1     0.2    -0.1    -0.1     0.1     0.2    -0.0
    -0.1     0.0     0.2     0.0    -0.2     0.0     0.2    -0.0    -0.1     0.1
     0.2     0.0    -0.1    -0.0     0.2     0.0    -0.1    -0.0     0.2     0.1
    -0.1    -0.1     0.2     0.1    -0.1    -0.1     0.2     0.1    -0.1    -0.1
     0.2     0.1    -0.1    -0.1     0.2     0.1    -0.1    -0.1     0.1     0.1
    -0.1    -0.1     0.1     0.1    -0.1    -0.1     0.1     0.2    -0.1    -0.1
     0.1     0.1    -0.0    -0.1     0.1     0.2    -0.0    -0.1     0.1     0.2
    -0.0    -0.1     0.0     0.2     0.0    -0.1     0.0     0.2     0.0    -0.2
     0.0     0.1     0.0    -0.1    -0.0     0.2     0.0    -0.1    -0.0     0.2
     0.1    -0.1    -0.0     0.2     0.1    -0.1    -0.1     0.2     0.1    -0.1
    -0.1     0.1     0.1    -0.1    -0.1     0.1     0.1    -0.1    -0.1     0.1
     0.1    -0.1    -0.1     0.1     0.1    -0.1    -0.1     0.1     0.1    -0.0
    -0.1     0.1     0.2    -0.0    -0.1     0.1     0.2    -0.0    -0.1     0.1
     0.1    -0.0    -0.1     0.1     0.1     0.0    -0.1    -0.0     0.2     0.0
    -0.1     0.0     0.2     0.1    -0.1    -0.0     0.2     0.0    -0.1    -0.0
     0.1     0.1    -0.1    -0.0     0.2     0.1    -0.1    -0.0     0.1     0.1
    -0.1    -0.1     0.2     0.1    -0.1    -0.1     0.1     0.2    -0.1    -0.1
     0.1     0.1    -0.0    -0.1     0.1     0.2    -0.0    -0.1     0.1     0.2
    -0.1    -0.1     0.0     0.2    -0.0    -0.1     0.1     0.1     0.0    -0.1
     0.0     0.2    -0.0    -0.1     0.0     0.2     0.0    -0.2     0.0     0.1
     0.0    -0.1    -0.0     0.2     0.1    -0.1    -0.0     0.1     0.1    -0.1
    -0.1     0.2     0.1    -0.1    -0.1     0.1     0.2    -0.2    -0.1     0.2
     0.1    -0.0    -0.1     0.1     0.2    -0.1    -0.1     0.1     0.1    -0.0
    -0.1     0.1     0.2    -0.1    -0.1     0.1     0.2    -0.0    -0.1     0.1
     0.2    -0.1    -0.1     0.1     0.2    -0.0    -0.1     0.1     0.2    -0.0
    -0.1     0.0     0.2     0.0    -0.1     0.0     0.2     0.0    -0.2     0.0
     0.2     0.0    -0.2    -0.0     0.2     0.1    -0.1    -0.1     0.2     0.1
    -0.1    -0.1     0.2     0.1    -0.1    -0.1     0.2     0.1    -0.1    -0.1
     0.1     0.1    -0.1    -0.1     0.1     0.1    -0.1    -0.1     0.1     0.2
    -0.1    -0.1     0.1     0.1    -0.1    -0.1     0.1     0.2    -0.0    -0.2
     0.1     0.2    -0.1    -0.1     0.1     0.1     0.0    -0.2     0.1     0.2
    -0.1    -0.1     0.0     0.2     0.0    -0.2     0.1     0.1     0.1    -0.1
    -0.0     0.2     0.0    -0.1    -0.0     0.2     0.1    -0.1    -0.0     0.2
     0.1    -0.1    -0.0     0.1     0.1    -0.1    -0.1     0.2     0.1    -0.1
    -0.1     0.2     0.1    -0.1    -0.1     0.1     0.1    -0.1    -0.1     0.1
     0.1    -0.0    -0.1     0.1     0.2    -0.0    -0.1     0.1     0.2    -0.1
    -0.1     0.1     0.1    -0.0    -0.2     0.0     0.2    -0.0    -0.1     0.0
     0.2     0.0    -0.1     0.0     0.2     0.0    -0.1     0.0     0.2     0.0
    -0.1    -0.0     0.1     0.0    -0.1     0.0     0.1     0.1    -0.1    -0.1
     0.2     0.1    -0.1    -0.1     0.1     0.1    -0.1    -0.1     0.2     0.1
    -0.1    -0.1     0.1     0.1    -0.1    -0.1     0.1     0.1    -0.1    -0.1
     0.1     0.1     0.0    -0.2     0.1     0.2    -0.1    -0.1     0.0     0.2
     0.0    -0.1     0.0     0.2    -0.0    -0.1     0.0     0.2     0.1    -0.1
    -0.0     0.2     0.0    -0.1     0.0     0.1     0.1    -0.1    -0.0     0.2
     0.1    -0.1    -0.0     0.2     0.1    -0.1    -0.0     0.2     0.1    -0.1
    -0.1     0.2     0.1    -0.1    -0.1     0.1     0.1    -0.1    -0.1     0.2
     0.1    -0.1    -0.1     0.1     0.1    -0.1    -0.1     0.1     0.2    -0.1
    -0.2     0.1     0.2    -0.1    -0.1     0.1     0.2    -0.1    -0.1     0.0
     0.2     0.0    -0.1     0.0     0.2     0.0    -0.1     0.0     0.2     0.0
    -0.1     0.0     0.2     0.1    -0.2     0.0     0.2     0.0    -0.1    -0.1
     0.2     0.1    -0.1    -0.0     0.2     0.1    -0.2    -0.1     0.2     0.1
    -0.1    -0.1     0.2     0.1    -0.1    -0.1     0.1     0.2    -0.1    -0.1
     0.1     0.1    -0.1    -0.1     0.1     0.2    -0.1    -0.1     0.1     0.2
    -0.1    -0.1     0.1     0.1    -0.0    -0.1     0.1     0.2    -0.1    -0.1
     0.1     0.2    -0.0    -0.2     0.1     0.2    -0.0    -0.1     0.0     0.2
     0.0    -0.1    -0.0     0.2     0.1    -0.2     0.0     0.2     0.0    -0.1
    -0.1     0.2     0.1    -0.1    -0.0     0.1     0.1    -0.1    -0.1     0.2
     0.1    -0.1    -0.1     0.2     0.1    -0.1    -0.1     0.1     0.1    -0.1
    -0.1     0.1     0.1    -0.1    -0.1     0.1     0.1    -0.0    -0.1     0.1
     0.2    -0.1    -0.1     0.0     0.2    -0.0    -0.1     0.1     0.2    -0.1
    -0.1     0.0     0.1     0.0    -0.2     0.0     0.2     0.0    -0.1    -0.0
     0.2     0.0    -0.1     0.0     0.2     0.1    -0.1     0.0     0.1     0.1
    -0.1    -0.1     0.2     0.1    -0.1    -0.1     0.1     0.1    -0.1    -0.1
     0.2     0.1    -0.1    -0.1     0.1     0.1    -0.1    -0.1     0.1     0.1
    -0.1    -0.1     0.1     0.1    -0.0    -0.1     0.1     0.2    -0.1    -0.1
     0.1     0.1     0.0    -0.1     0.0     0.2    -0.0    -0.1     0.0     0.2
     0.0    -0.2     0.1     0.2     0.0    -0.1    -0.0     0.2     0.0    -0.1
    -0.0     0.1     0.1    -0.1    -0.1     0.2     0.1    -0.2    -0.1     0.2
     0.1    -0.1    -0.1     0.2     0.1    -0.1    -0.1     0.1     0.1    -0.1
    -0.1     0.1     0.1    -0.1    -0.1     0.1     0.1    -0.1    -0.1     0.1
     0.1    -0.1    -0.1     0.1     0.2    -0.0    -0.1     0.1     0.2    -0.0
    -0.1     0.1     0.1     0.0    -0.1     0.0     0.2     0.0    -0.2     0.0
     0.2     0.0    -0.1    -0.0     0.2     0.0    -0.2     0.0     0.2     0.1
    -0.1    -0.0     0.2     0.1    -0.1    -0.0     0.2     0.1    -0.1    -0.1
     0.2     0.1    -0.2    -0.1     0.2     0.1    -0.1    -0.1     0.2     0.1
    -0.1    -0.1     0.1     0.2    -0.1    -0.1     0.1     0.1    -0.1    -0.1
     0.1     0.1    -0.1    -0.1     0.1     0.2    -0.0    -0.1     0.1     0.2
    -0.0    -0.1     0.1     0.2    -0.0    -0.1     0.1     0.1     0.0    -0.1
     0.0     0.2     0.0    -0.1    -0.0     0.2     0.0    -0.2     0.0     0.2
     0.1    -0.1    -0.0     0.2     0.1    -0.1    -0.0     0.2     0.1    -0.2
    -0.0     0.1     0.1    -0.1    -0.1     0.2     0.1    -0.1    -0.1     0.1
     0.2    -0.1    -0.1     0.1     0.1    -0.1    -0.1     0.1     0.1    -0.1
    -0.1     0.1     0.1    -0.0    -0.1     0.1     0.2    -0.0    -0.1     0.1
     0.2    -0.0    -0.1     0.1     0.2    -0.0    -0.1     0.0     0.2     0.0
    -0.1     0.1     0.1     0.0    -0.1    -0.0     0.2     0.1    -0.2     0.0
     0.2     0.0    -0.1    -0.0     0.2     0.1    -0.1    -0.1     0.2     0.1
    -0.1    -0.0     0.1     0.1    -0.0    -0.1     0.1     0.1    -0.1    -0.1
     0.1     0.1    -0.1    -0.1     0.1     0.1    -0.1    -0.1     0.1     0.1
    -0.1    -0.1     0.1     0.2    -0.0    -0.1     0.1     0.1    -0.0    -0.1
     0.0     0.2    -0.0    -0.1     0.1     0.1     0.0    -0.1    -0.0     0.2
     0.0    -0.1    -0.0     0.2     0.1    -0.2    -0.0     0.1     0.1    -0.1
    -0.1     0.2     0.1    -0.1    -0.1     0.1     0.1    -0.1    -0.0     0.1
     0.1    -0.1    -0.1     0.1     0.1    -0.1    -0.1     0.1     0.1    -0.1
    -0.1     0.1     0.2    -0.0    -0.1     0.1     0.2    -0.0    -0.1     0.1
     0.2    -0.0    -0.1     0.1     0.2    -0.0    -0.1     0.0     0.2     0.0
    -0.1     0.0     0.2     0.0    -0.1     0.0     0.2     0.0    -0.2     0.0
     0.2     0.0    -0.1    -0.0     0.2     0.0    -0.1    -0.0     0.2     0.1
    -0.1    -0.0     0.2     0.1    -0.1    -0.0     0.2     0.1    -0.1    -0.1
     0.2     0.1    -0.1    -0.1     0.2     0.1    -0.1    -0.1     0.1     0.2
    -0.1    -0.1     0.1     0.2    -0.1    -0.1     0.1     0.2    -0.0    -0.2
     0.1     0.2    -0.1    -0.1     0.1     0.2    -0.0    -0.2     0.1     0.2
    -0.0    -0.2     0.0     0.2    -0.0    -0.1    -0.0     0.2     0.0    -0.2
     0.0     0.2     0.1    -0.2    -0.0     0.2     0.0    -0.1    -0.1     0.2
     0.1    -0.1    -0.0     0.1     0.1    -0.1    -0.1     0.2     0.1    -0.1
    -0.1     0.2     0.1    -0.1    -0.1     0.1     0.1    -0.1    -0.1     0.1
     0.2    -0.1    -0.1     0.1     0.1    -0.1    -0.1     0.1     0.1    -0.0
    -0.1     0.1     0.2    -0.0    -0.1     0.1     0.2    -0.0    -0.1     0.1
     0.2     0.0    -0.1     0.0     0.2     0.1    -0.1     0.0     0.1     0.0
    -0.1    -0.0     0.2     0.1    -0.2    -0.0     0.2     0.1    -0.1    -0.0
     0.2     0.1    -0.1    -0.0     0.1     0.1    -0.1    -0.1     0.2     0.1
    -0.1    -0.1     0.1     0.1    -0.0    -0.1     0.1     0.1    -0.1    -0.1
     0.1     0.2    -0.1    -0.1     0.1     0.1    -0.0    -0.1     0.1     0.2
    -0.0    -0.1     0.0     0.1    -0.0    -0.1     0.0     0.2    -0.0    -0.1
     0.0     0.1     0.1    -0.2     0.0     0.2    -0.0    -0.1    -0.0     0.2
     0.1    -0.1    -0.0     0.2     0.1    -0.1    -0.0     0.2     0.1    -0.1
    -0.1     0.2     0.1    -0.1    -0.1     0.1     0.1    -0.1    -0.1     0.1
     0.1    -0.1    -0.1     0.2     0.1    -0.1    -0.1     0.1     0.2    -0.0
    -0.1     0.1     0.1    -0.0    -0.2     0.1     0.2    -0.1    -0.1     0.0
     0.2    -0.0    -0.1     0.0     0.2     0.0    -0.1     0.0     0.1     0.0
    -0.1    -0.0     0.2     0.0    -0.1     0.0     0.2     0.1    -0.1     0.0
     0.2     0.1    -0.1    -0.0     0.2     0.1    -0.1    -0.1     0.2     0.1
    -0.1    -0.1     0.1     0.1    -0.1    -0.1     0.1     0.1    -0.1    -0.1
     0.1     0.1    -0.1    -0.1     0.1     0.2    -0.1    -0.1     0.1     0.2
    -0.0    -0.2     0.1     0.2    -0.0    -0.1     0.1     0.2    -0.1    -0.1
     0.0     0.2     0.0    -0.2     0.1     0.2     0.0    -0.2     0.0     0.2
     0.0    -0.2     0.0     0.2    -0.0    -0.2    -0.0     0.2     0.0    -0.1
    -0.0     0.1     0.1    -0.1    -0.1     0.2     0.1    -0.1    -0.0     0.2
     0.1    -0.1    -0.1     0.2     0.1    -0.1    -0.1     0.2     0.1    -0.1
    -0.1     0.1     0.1    -0.0    -0.1     0.1     0.2    -0.1    -0.1     0.1
     0.1    -0.1    -0.1     0.1     0.2    -0.0    -0.1     0.1     0.2    -0.0
    -0.1     0.1     0.2    -0.0    -0.1     0.0     0.2    -0.0    -0.1     0.0
     0.2     0.0    -0.1     0.0     0.2     0.0    -0.1     0.0     0.1     0.0
    -0.1    -0.1     0.2     0.1    -0.1     0.0     0.1     0.1    -0.1    -0.1
     0.2     0.1    -0.1    -0.1     0.1     0.1    -0.1    -0.1     0.1     0.1
    -0.1    -0.1     0.1     0.1    -0.1    -0.1     0.1     0.2    -0.1    -0.1
     0.1     0.1    -0.0    -0.1     0.0     0.2    -0.1    -0.1     0.1     0.1
     0.0    -0.2     0.0     0.2    -0.0    -0.1     0.0     0.2     0.0    -0.1
     0.0     0.2     0.0    -0.1    -0.0     0.1     0.1    -0.1    -0.0     0.2
     0.0    -0.1    -0.0     0.1     0.1    -0.1    -0.0     0.1     0.1    -0.1
    -0.1     0.1     0.1    -0.1    -0.1     0.1     0.1    -0.1    -0.1     0.1
     0.2    -0.1    -0.1     0.1     0.2    -0.0    -0.1     0.1     0.2    -0.1
    -0.1     0.1     0.1    -0.0    -0.1     0.1     0.2    -0.0    -0.1     0.0
     0.2    -0.0    -0.1     0.0     0.2     0.0    -0.1     0.0     0.2     0.1
    -0.1    -0.0     0.2     0.0    -0.1    -0.0     0.2     0.1    -0.1    -0.1
     0.2     0.1    -0.1    -0.1     0.1     0.1    -0.1    -0.1     0.2     0.1
    -0.1    -0.1     0.1     0.1    -0.1    -0.1     0.1     0.1    -0.0    -0.1
     0.1     0.2    -0.1    -0.1     0.1     0.2    -0.0    -0.1     0.0     0.2
    -0.1    -0.1     0.1     0.1    -0.0    -0.1     0.0     0.2    -0.0    -0.2
     0.0     0.2    -0.0    -0.1     0.0     0.2     0.0    -0.2     0.0     0.2
     0.0    -0.1    -0.0     0.2     0.1    -0.1    -0.0     0.2     0.1    -0.1
    -0.0     0.2     0.1    -0.1    -0.0     0.2     0.1    -0.1    -0.1     0.1
     0.1    -0.1    -0.1     0.2     0.1    -0.1    -0.1     0.1     0.1    -0.1
    -0.1     0.1     0.1    -0.1    -0.1     0.1     0.1    -0.1    -0.1     0.1
     0.2    -0.1    -0.1     0.1     0.2    -0.0    -0.1     0.1     0.2    -0.0
    -0.1     0.0     0.1     0.0    -0.1     0.0     0.2     0.0    -0.1     0.0
     0.2     0.0    -0.2     0.0     0.2     0.0    -0.1    -0.0     0.2     0.1
    -0.2    -0.0     0.2     0.1    -0.1    -0.1     0.2     0.1    -0.1    -0.0
     0.1     0.1    -0.1    -0.1     0.2     0.1    -0.1    -0.1     0.1     0.1
    -0.1    -0.1     0.1     0.2    -0.0    -0.1     0.1     0.1    -0.0    -0.1
     0.1     0.2    -0.1    -0.1     0.1     0.2     0.0    -0.1     0.0     0.2
     0.0    -0.1     0.0     0.1     0.0    -0.1    -0.0     0.2     0.0    -0.1
    -0.0     0.1     0.1    -0.1    -0.0     0.2     0.1    -0.1    -0.1     0.1
     0.1    -0.1    -0.0     0.1     0.1    -0.1    -0.1     0.1     0.1    -0.1
    -0.1     0.1     0.2    -0.1    -0.1     0.1     0.1    -0.1    -0.1     0.1
     0.2    -0.0    -0.1     0.1     0.2    -0.1    -0.1     0.0     0.2     0.0
    -0.1     0.0     0.1     0.0    -0.1     0.0     0.2     0.0    -0.1     0.0
     0.2     0.0    -0.1     0.0     0.2     0.0    -0.1    -0.0     0.2     0.1
    -0.1    -0.1     0.2     0.1    -0.2    -0.0     0.2     0.1    -0.1    -0.1
     0.2     0.1    -0.1    -0.0     0.1     0.1    -0.1    -0.1     0.2     0.1
    -0.1    -0.1     0.1     0.2    -0.1    -0.1     0.1     0.2    -0.1    -0.1
     0.1     0.1    -0.0    -0.1     0.1     0.2    -0.0    -0.2     0.1     0.2
    -0.1    -0.1     0.1     0.2     0.0    -0.2     0.1     0.1     0.0    -0.1
    -0.0     0.2     0.0    -0.1     0.0     0.2     0.1    -0.1    -0.0     0.2
     0.1    -0.1    -0.1     0.2     0.0    -0.2    -0.0     0.2     0.1    -0.1
    -0.0     0.2     0.1    -0.1    -0.1     0.2     0.1    -0.1    -0.1     0.1
     0.1    -0.1    -0.1     0.1     0.1    -0.1    -0.1     0.1     0.1    -0.1
    -0.1     0.1     0.1    -0.0    -0.1     0.1     0.1    -0.1    -0.1     0.0
     0.2    -0.0    -0.2     0.1     0.2    -0.0    -0.2     0.1     0.2    -0.0
