Uncorrected accelerogram 20160214_001343_HUNS_20 GNS Science
Site HUNS      43 34 46S  172 39 26E     Basalt file:  20160214_001347_HUNS
Huntsbury
Instrument Basalt_2412
Resolution: 24-bit   Instr Period: 0.0050 s   Damping: 0.700
Accelerogram 20160214_001343_HUNS_20                 Processed 2016 February 22
11 km east of CHRISTCHURCH
2016 February 14         00:13:43 UT
Epicentre  43 29 50S 172 45 18E  Bearing N41E  Dist   12km  Depth    8km M  5.70
Number of points  34800    Duration 174.00 s
Raw readings in units of 1.00 mm/s/s  at intervals of 0.005 s
Data is unfiltered
Component N25W
Acceleration:  Peak    554.0 mm/s/s at  43.76 s     RMS    36.27 mm/s/s
Velocity record unevaluated
Displacement record unevaluated
    2016       2      14       0      13     430       0       0    2016       2
      43      29      50     172      45      18       8       0      14       0
      43      34      46     172      39      26     335     335      41      12
   34800       0       0   34800       0       0       0       0      13    7000
   200.0    0.70    0.00   0.000  0.0000   0.000   0.000   1.000     0.0    0.00
  43.579 172.657  43.497 172.755    5.70    0.00    0.00    0.00      0.      0.
  174.00    0.00    0.00  174.00  0.0050  0.0050      0.      0.      0.  9806.6
   554.0   43.76    36.3      0.      0.     0.0    0.00     0.0     0.0   0.000
    0.00    0.00    0.00    0.00   0.000    0.00    0.00    0.00    0.00   0.000
   0.000   0.000   0.000      0.      0.   0.000   0.000   0.000      0.      0.
     0.1    -0.0     0.0     0.1    -0.0     0.0     0.0     0.0     0.0    -0.0
     0.0     0.0     0.0     0.0    -0.0     0.1    -0.0    -0.0     0.1     0.0
     0.0     0.0     0.0     0.0    -0.0     0.0     0.0     0.0     0.0    -0.0
     0.0     0.0    -0.0     0.0    -0.0     0.0     0.0    -0.0     0.0     0.0
    -0.0     0.0     0.0    -0.0     0.0     0.0    -0.0     0.0    -0.0     0.0
     0.0     0.0     0.0    -0.0     0.0     0.0    -0.0     0.0    -0.0     0.0
     0.0    -0.0     0.0    -0.0     0.0     0.0     0.0     0.1    -0.0     0.0
     0.0     0.0     0.0    -0.0     0.0     0.1    -0.0    -0.0     0.1    -0.0
    -0.0     0.0     0.0     0.0     0.0    -0.0     0.0     0.0     0.0     0.0
    -0.0     0.0     0.0     0.0     0.0     0.0     0.1    -0.0     0.0     0.0
     0.0     0.0    -0.0     0.0     0.0     0.0     0.0     0.0     0.0     0.0
     0.0    -0.0     0.1     0.0    -0.0     0.1     0.0     0.0    -0.0     0.0
     0.0    -0.0     0.0     0.0     0.0     0.0     0.0     0.0     0.0    -0.0
     0.0     0.0     0.0     0.0    -0.0     0.0     0.0     0.0     0.0    -0.0
     0.0    -0.0     0.0     0.0    -0.0     0.0     0.0    -0.0     0.0     0.0
     0.0    -0.0     0.0     0.0     0.0     0.1    -0.0     0.0     0.0     0.0
     0.0    -0.0     0.0    -0.0     0.0     0.0     0.0     0.0    -0.0     0.1
    -0.0     0.0     0.0    -0.0     0.0    -0.0     0.0     0.0     0.0     0.0
    -0.0    -0.0     0.1     0.0     0.0     0.0    -0.0     0.0     0.0    -0.0
     0.1     0.0     0.0    -0.0    -0.0     0.0     0.0    -0.0     0.1     0.0
     0.0     0.1    -0.0    -0.0     0.0     0.0     0.0     0.0     0.0    -0.0
     0.0     0.0     0.0     0.0     0.0     0.1    -0.0    -0.0     0.1    -0.0
     0.0     0.0     0.0    -0.0     0.0     0.1    -0.0     0.0     0.1    -0.1
     0.0     0.0    -0.0     0.0    -0.0     0.0     0.1    -0.0     0.0     0.0
     0.0    -0.0     0.0     0.0    -0.0     0.0     0.0    -0.0     0.0     0.1
    -0.0    -0.0     0.0     0.0    -0.0     0.0     0.0     0.0    -0.0     0.1
     0.0    -0.0     0.0    -0.0     0.0    -0.0     0.0     0.0    -0.0     0.0
     0.0     0.0     0.0     0.0     0.0     0.0     0.0    -0.0     0.1     0.0
    -0.0     0.0    -0.0     0.1     0.0    -0.0     0.0     0.0     0.0     0.1
     0.0    -0.0     0.0    -0.0     0.0     0.0    -0.0     0.0     0.0     0.1
     0.0     0.0     0.0    -0.0     0.0     0.0    -0.0     0.0     0.0     0.0
     0.0     0.0     0.0     0.0     0.0     0.0     0.0     0.0    -0.0     0.0
    -0.0    -0.0     0.1    -0.0     0.0     0.1    -0.0     0.1    -0.0    -0.0
     0.0     0.0     0.0    -0.0     0.0     0.0    -0.0     0.0     0.0    -0.0
     0.0     0.0     0.0     0.0     0.0     0.0    -0.0     0.0     0.0     0.0
     0.0    -0.0     0.1    -0.0     0.0     0.0    -0.0     0.0     0.0     0.0
    -0.0     0.0     0.0     0.0     0.0    -0.0     0.0     0.0     0.0     0.0
     0.0     0.0     0.0     0.0    -0.0     0.0     0.1    -0.0    -0.0     0.0
     0.0     0.0     0.0     0.0     0.0     0.0    -0.0     0.0    -0.0     0.0
     0.0    -0.0     0.0    -0.0     0.0     0.0    -0.0     0.0     0.0     0.0
     0.0     0.0     0.0     0.0     0.0     0.0    -0.0     0.0     0.0     0.0
     0.0    -0.0    -0.0     0.0     0.0     0.0     0.0    -0.0     0.0     0.0
     0.0     0.0     0.0     0.0     0.0     0.0     0.0    -0.0     0.0     0.0
     0.0     0.0     0.0     0.0     0.0    -0.0     0.0     0.0     0.0     0.1
    -0.0     0.0     0.0    -0.0     0.1     0.0    -0.0     0.1     0.0     0.0
    -0.0     0.0     0.0     0.0     0.0    -0.0     0.0     0.0     0.0     0.0
    -0.0     0.0     0.0    -0.0     0.0    -0.0     0.0     0.0     0.0     0.0
    -0.0     0.0    -0.0     0.0     0.0    -0.0     0.0     0.0     0.0    -0.0
    -0.0     0.0     0.0     0.0     0.0     0.0     0.0     0.0     0.0    -0.0
     0.0     0.0    -0.0     0.0     0.0    -0.0     0.1    -0.0    -0.0     0.1
    -0.0    -0.0     0.0    -0.0     0.0     0.0    -0.0     0.0     0.0     0.0
     0.0     0.0     0.0     0.0     0.0     0.0    -0.0     0.1     0.0    -0.0
     0.1    -0.0     0.0     0.0     0.0     0.0    -0.0     0.0     0.0    -0.0
     0.1    -0.0    -0.0     0.0     0.0     0.0    -0.0     0.0     0.1     0.0
    -0.0     0.0    -0.0     0.0    -0.0    -0.0     0.1    -0.0     0.0     0.0
     0.0     0.1    -0.0    -0.0     0.0     0.0     0.0     0.0    -0.0     0.0
     0.0    -0.0     0.0     0.0    -0.0     0.0     0.0     0.0     0.0     0.0
    -0.0     0.0     0.0    -0.0     0.0     0.0     0.0     0.0    -0.0     0.0
     0.0     0.0    -0.0     0.0    -0.0     0.0     0.0     0.0     0.0    -0.0
     0.1     0.0     0.0     0.1    -0.0     0.0     0.0    -0.0     0.1     0.0
    -0.0     0.1     0.0    -0.0     0.0     0.0     0.0     0.0     0.0     0.0
    -0.0     0.0     0.0     0.0     0.1     0.0     0.0     0.0     0.0     0.0
     0.0    -0.0     0.0    -0.0     0.0     0.0     0.0     0.0    -0.0     0.0
     0.0     0.0     0.0     0.0     0.0     0.0    -0.0     0.0     0.0     0.0
     0.0    -0.0     0.0     0.0    -0.0     0.0    -0.0     0.1     0.0    -0.0
     0.1    -0.0     0.0     0.1    -0.0     0.0     0.0     0.0     0.0     0.0
     0.0     0.0    -0.0     0.0     0.0    -0.0     0.0     0.0     0.0     0.0
    -0.0     0.0    -0.0     0.0     0.0    -0.0     0.0     0.0     0.0     0.0
     0.0    -0.0     0.0     0.0     0.0    -0.0     0.0     0.0    -0.0     0.0
     0.0    -0.0     0.0    -0.0     0.0     0.1    -0.0     0.0    -0.0    -0.0
     0.0    -0.0     0.0     0.0     0.0     0.1     0.0     0.0     0.0     0.0
     0.1    -0.0     0.0     0.0    -0.0     0.0    -0.0    -0.0     0.1    -0.0
     0.0     0.0    -0.0     0.1    -0.0     0.0     0.0    -0.0     0.0     0.0
     0.0     0.0    -0.0     0.0     0.0     0.0     0.0    -0.0     0.1     0.0
    -0.0     0.0     0.0    -0.0     0.0    -0.0    -0.0     0.0    -0.0     0.0
     0.0     0.0     0.0    -0.1     0.1     0.0    -0.0     0.0    -0.0     0.1
     0.0    -0.0     0.0    -0.0     0.0     0.0     0.0     0.0    -0.0     0.0
     0.0    -0.0     0.1    -0.0    -0.0     0.0    -0.0     0.0     0.0    -0.0
     0.1    -0.0     0.0     0.1    -0.1     0.1     0.0    -0.0     0.1    -0.0
     0.0    -0.0    -0.0     0.1    -0.1     0.0     0.1    -0.1     0.0     0.0
    -0.0     0.1    -0.0     0.1     0.0    -0.1     0.1    -0.1     0.0     0.0
    -0.0     0.1    -0.1     0.0     0.1    -0.0     0.0    -0.0    -0.0     0.1
    -0.0     0.0     0.0    -0.0     0.0     0.0    -0.0     0.0     0.0     0.0
     0.0     0.0     0.0     0.0     0.0     0.0    -0.0     0.1    -0.0    -0.0
     0.1    -0.0     0.0     0.0    -0.0     0.1    -0.0    -0.0     0.0     0.0
    -0.0     0.0     0.0     0.0     0.0     0.0     0.0    -0.0     0.1     0.0
    -0.0     0.1     0.0     0.0     0.0    -0.0     0.1     0.0     0.0     0.0
    -0.0     0.0     0.0     0.0     0.0    -0.0     0.1    -0.0    -0.0     0.0
     0.0     0.0     0.0     0.0     0.0     0.0     0.0     0.0     0.0     0.0
    -0.0    -0.0     0.1     0.0     0.0     0.0    -0.0     0.0    -0.0     0.0
     0.0    -0.0     0.1    -0.0     0.0     0.1    -0.0     0.1    -0.0    -0.0
     0.1    -0.1     0.0     0.1    -0.1     0.1     0.0     0.0     0.0    -0.0
     0.0     0.0     0.0     0.0     0.0     0.0     0.0     0.0     0.0     0.0
     0.0     0.0    -0.0     0.0    -0.0     0.0     0.0    -0.0     0.1    -0.0
     0.0     0.0    -0.0     0.0     0.0    -0.0     0.0     0.0     0.0     0.0
    -0.0     0.0     0.0    -0.0     0.0     0.0    -0.0     0.0     0.0     0.0
     0.0     0.0     0.0     0.0     0.1     0.0     0.0     0.0     0.0     0.0
     0.0     0.0    -0.0     0.0    -0.0     0.0     0.0    -0.0     0.0     0.0
     0.0     0.0     0.0     0.0     0.0     0.0    -0.0     0.0     0.0     0.0
     0.0    -0.0     0.0     0.0     0.0     0.0     0.0     0.0    -0.0     0.0
     0.0    -0.0     0.0     0.0    -0.0     0.0     0.0     0.0     0.0     0.0
     0.0     0.0     0.0     0.0     0.0     0.0     0.0     0.1    -0.0     0.0
     0.0     0.0     0.0     0.0     0.0     0.0     0.0    -0.0     0.0    -0.0
    -0.0     0.0    -0.0     0.1     0.0     0.0     0.0    -0.0     0.1    -0.0
     0.0     0.1    -0.0    -0.0     0.0     0.0    -0.0     0.0     0.0     0.0
    -0.0    -0.0     0.1     0.0     0.0     0.0    -0.0     0.0     0.0     0.0
     0.0     0.0    -0.0     0.0     0.0     0.0    -0.0     0.0     0.0     0.0
     0.0     0.0     0.0    -0.0    -0.0     0.1    -0.0     0.0     0.0    -0.0
     0.0     0.0    -0.0     0.0     0.0     0.0    -0.0     0.0     0.0     0.0
     0.0     0.0     0.0     0.0     0.0    -0.0     0.0    -0.0     0.0    -0.0
    -0.0     0.1    -0.0     0.0     0.0     0.0     0.0    -0.0     0.0     0.0
     0.0     0.0     0.0    -0.0     0.0     0.0     0.0     0.0    -0.0     0.0
    -0.0     0.0     0.1    -0.0     0.0     0.0     0.0     0.0     0.0     0.0
     0.0     0.0     0.0    -0.0     0.0     0.0     0.0     0.0     0.0    -0.0
     0.0    -0.0     0.0     0.0     0.0     0.1    -0.0     0.0     0.1     0.0
     0.0     0.0     0.0     0.0     0.0     0.0     0.0     0.0    -0.0     0.0
     0.0    -0.0    -0.0     0.0     0.0    -0.0     0.0     0.0    -0.0     0.0
    -0.0     0.0     0.0     0.0     0.0    -0.0     0.0     0.0    -0.0     0.0
     0.0    -0.0     0.1     0.0    -0.0     0.0    -0.0     0.0     0.0    -0.0
     0.0    -0.0     0.0     0.0    -0.0     0.1    -0.0    -0.0     0.0    -0.0
     0.0    -0.0     0.0     0.0    -0.0    -0.0    -0.0     0.0     0.0     0.0
     0.0     0.0     0.0     0.0     0.0    -0.0     0.0     0.0    -0.0     0.0
     0.1     0.0    -0.0     0.0     0.1     0.0     0.0    -0.0    -0.0     0.0
     0.0     0.0     0.0    -0.0     0.0     0.1    -0.0     0.0     0.0    -0.0
     0.1     0.0    -0.0     0.1    -0.0     0.0     0.0     0.0     0.0    -0.0
     0.0     0.0    -0.0     0.0    -0.0     0.0     0.0     0.0    -0.0    -0.0
     0.0     0.0    -0.0     0.0     0.0    -0.0     0.0    -0.0     0.0     0.0
    -0.0     0.0     0.1     0.0     0.0     0.0     0.0     0.0     0.0     0.0
    -0.0     0.0     0.0    -0.0     0.0     0.0     0.0     0.0    -0.0     0.0
     0.0    -0.0     0.0     0.0     0.0    -0.0     0.0     0.1    -0.0     0.0
     0.0    -0.0     0.1     0.0    -0.0     0.0    -0.0     0.0     0.0     0.0
     0.0    -0.0     0.0     0.0    -0.0     0.0    -0.0     0.0     0.1    -0.1
     0.0     0.0     0.0     0.1    -0.0     0.0     0.1    -0.0     0.0     0.0
    -0.0     0.0    -0.0     0.0     0.0    -0.0     0.0     0.0    -0.0     0.0
     0.0    -0.0     0.0     0.0    -0.0     0.0     0.0     0.0     0.0    -0.0
     0.0     0.0     0.0     0.0    -0.0     0.0     0.0    -0.0     0.0     0.0
     0.0     0.0     0.0     0.0    -0.0     0.0     0.0    -0.0     0.0     0.0
    -0.0     0.1    -0.0     0.0     0.0     0.0     0.0    -0.0     0.0     0.0
    -0.0     0.0     0.1    -0.0     0.0     0.0    -0.0     0.0     0.0     0.0
     0.0     0.0     0.0     0.0     0.0     0.0     0.0    -0.0     0.0     0.0
    -0.0     0.1     0.0     0.0    -0.0     0.0     0.0    -0.0     0.0    -0.0
     0.0     0.0    -0.0     0.0    -0.0     0.0     0.0     0.0     0.0     0.0
     0.0     0.0     0.0    -0.0     0.1     0.0    -0.0     0.0    -0.0     0.0
     0.0    -0.0     0.0     0.0     0.0     0.0     0.0     0.0     0.0     0.0
     0.0     0.0     0.0     0.0     0.0     0.0     0.0     0.0     0.0     0.0
     0.0     0.0     0.0     0.0    -0.0     0.0     0.0    -0.0     0.0     0.0
    -0.0     0.0    -0.0    -0.0     0.1     0.0     0.0     0.0    -0.0     0.0
    -0.0     0.0     0.0    -0.0     0.0    -0.0     0.0     0.0     0.0     0.1
     0.0    -0.0     0.0     0.0     0.0    -0.0     0.1     0.0     0.0    -0.0
     0.0     0.0     0.0     0.1     0.0     0.0     0.0     0.0     0.0     0.0
     0.0    -0.0     0.0     0.0    -0.0     0.1    -0.0     0.0    -0.0     0.0
     0.0    -0.0     0.0     0.0     0.0     0.0    -0.0     0.1     0.0     0.1
     0.0    -0.0     0.0     0.0     0.0     0.0    -0.0     0.0     0.1    -0.0
     0.0     0.0     0.0     0.0    -0.0     0.0    -0.0     0.0     0.0    -0.0
     0.0     0.0     0.0     0.0     0.1     0.0    -0.0     0.0    -0.0     0.0
     0.0    -0.1     0.1     0.0    -0.0     0.1     0.0     0.0     0.0     0.0
     0.1    -0.0     0.0     0.0     0.0     0.0     0.0     0.0    -0.0     0.0
     0.0    -0.0     0.0     0.0     0.0     0.0    -0.0     0.0     0.0    -0.0
     0.0     0.0    -0.0    -0.0     0.0    -0.0     0.0     0.0    -0.0     0.1
     0.0     0.0     0.0     0.0     0.0     0.0     0.0    -0.0     0.0     0.0
     0.0     0.0     0.0     0.1    -0.0     0.0     0.0    -0.0     0.0     0.0
     0.0     0.0     0.0     0.0    -0.0     0.0     0.0     0.0     0.0    -0.0
     0.0     0.0     0.0     0.0     0.0    -0.0     0.0     0.0    -0.0     0.0
     0.1    -0.0    -0.0     0.1    -0.0     0.0     0.0    -0.0     0.0    -0.0
     0.0     0.0     0.0     0.0     0.0     0.0     0.0     0.0    -0.0     0.0
     0.0     0.0     0.0     0.0     0.0     0.0     0.0     0.0     0.0     0.0
    -0.0     0.0     0.0    -0.0     0.0     0.0    -0.0     0.0     0.0    -0.0
     0.0     0.0     0.0     0.0     0.0     0.0     0.0     0.0     0.0     0.0
     0.0     0.0     0.0     0.0     0.0     0.0    -0.0     0.0     0.0    -0.0
     0.1    -0.0    -0.0     0.1     0.0    -0.0     0.0     0.0     0.0     0.1
    -0.0     0.0     0.0     0.0    -0.0     0.0     0.0    -0.0     0.0     0.0
    -0.0     0.0     0.0    -0.0     0.1    -0.0     0.0     0.1    -0.0     0.0
     0.0    -0.0    -0.0     0.0     0.0    -0.0     0.0     0.0    -0.0     0.0
     0.0     0.0     0.0    -0.0     0.0     0.0    -0.0     0.0     0.0     0.0
    -0.0     0.0     0.0    -0.0    -0.0     0.0     0.0     0.0     0.0     0.0
     0.0    -0.0     0.0     0.0     0.0     0.0    -0.0     0.0    -0.0     0.0
    -0.0     0.0     0.0    -0.0     0.1    -0.0     0.0     0.0    -0.0     0.1
     0.0     0.0     0.1     0.0     0.0     0.0     0.0     0.0    -0.0     0.0
     0.0     0.0    -0.0     0.0    -0.0    -0.0     0.1    -0.0     0.0     0.0
    -0.0     0.0    -0.0     0.0     0.0    -0.0     0.0    -0.0     0.0     0.0
     0.0    -0.0     0.0    -0.0     0.0     0.0    -0.0     0.0    -0.0     0.0
     0.0    -0.0     0.0     0.0     0.0     0.0     0.0    -0.0     0.0     0.0
     0.0    -0.0     0.0     0.0    -0.0     0.0     0.0     0.0     0.0     0.0
     0.0     0.0     0.0    -0.0     0.1     0.0     0.0     0.0    -0.0     0.0
     0.0    -0.0     0.0     0.0     0.1    -0.0     0.0     0.0    -0.0     0.0
     0.0    -0.0     0.0     0.0    -0.0    -0.0     0.0     0.0     0.0    -0.0
     0.0     0.0    -0.0     0.0    -0.0     0.0     0.0     0.0     0.0     0.0
     0.0    -0.0     0.0     0.0     0.0     0.0     0.0     0.0     0.0     0.0
     0.0     0.0     0.0     0.0     0.0    -0.0     0.0     0.0     0.0     0.0
    -0.0     0.1    -0.0    -0.0     0.0    -0.0     0.0     0.0    -0.0     0.0
     0.0     0.0     0.0     0.0     0.0    -0.0     0.0     0.0    -0.0     0.0
    -0.0     0.0     0.0     0.0     0.0    -0.0     0.0    -0.0     0.0     0.0
    -0.0     0.0    -0.0     0.0     0.0    -0.0     0.0     0.0     0.0     0.0
     0.0     0.0     0.0     0.0     0.0    -0.0     0.0     0.1    -0.0     0.1
     0.0    -0.0     0.1    -0.0     0.0     0.0    -0.0     0.0     0.0     0.0
     0.0     0.0     0.0    -0.0     0.0    -0.0    -0.0     0.0     0.0    -0.0
     0.0     0.0     0.0    -0.0     0.0     0.0    -0.0     0.0     0.0     0.0
     0.0    -0.0    -0.0     0.1     0.0     0.0     0.0     0.0     0.0     0.0
     0.0    -0.0     0.0     0.0     0.0     0.0    -0.0     0.0     0.0     0.0
     0.0    -0.0     0.1     0.0     0.0     0.0     0.0    -0.0     0.0     0.1
    -0.0     0.0     0.0     0.0     0.0     0.0     0.0     0.0     0.0     0.0
    -0.0     0.0     0.0     0.0     0.0     0.0     0.0    -0.0     0.0    -0.0
     0.0     0.0    -0.0     0.0     0.0     0.0     0.0     0.0     0.0     0.0
     0.0    -0.0     0.0     0.0     0.0     0.0     0.0     0.0     0.0    -0.0
     0.0     0.0     0.0     0.0     0.0     0.0     0.0    -0.0     0.0     0.0
    -0.0     0.0     0.0     0.0     0.0     0.0    -0.0     0.0     0.0    -0.0
     0.1     0.0    -0.0     0.1    -0.0     0.1     0.0    -0.0     0.1    -0.0
     0.0     0.0     0.0     0.0    -0.0     0.0     0.0     0.0     0.0     0.0
     0.0     0.0     0.0     0.0     0.0     0.0     0.0     0.0    -0.0     0.0
     0.0     0.0     0.0     0.0     0.0    -0.0     0.0     0.1    -0.0     0.0
     0.0    -0.0     0.0     0.0     0.0     0.0     0.0     0.0    -0.0     0.0
     0.0     0.0     0.0     0.0     0.0     0.0     0.0     0.0    -0.0     0.1
     0.0     0.0     0.0    -0.0     0.0     0.0     0.0     0.0     0.0     0.0
     0.0     0.0    -0.0     0.0     0.0     0.0     0.0     0.0     0.0     0.0
    -0.0     0.0     0.0     0.0     0.0     0.0     0.0     0.0    -0.0     0.0
     0.0    -0.0     0.0     0.0     0.1    -0.0    -0.0     0.1    -0.0     0.0
     0.0    -0.0     0.1    -0.0     0.0     0.0     0.0     0.0    -0.0     0.1
    -0.0     0.0     0.0    -0.0     0.0     0.1     0.0    -0.0     0.1     0.0
    -0.0     0.0     0.0     0.0    -0.0    -0.0     0.1     0.0     0.0     0.0
     0.0    -0.0     0.0     0.0     0.0     0.1    -0.0    -0.0     0.1    -0.0
     0.0    -0.0     0.0     0.0     0.0     0.0     0.0     0.0     0.0     0.0
     0.0     0.0     0.0    -0.0     0.0     0.0     0.0    -0.0     0.0     0.0
     0.0     0.0     0.0     0.0     0.0     0.1     0.0    -0.0     0.1    -0.0
     0.0     0.0    -0.0     0.0    -0.0     0.0     0.0    -0.0     0.0     0.0
     0.0     0.0     0.0     0.0     0.0     0.0     0.0     0.0    -0.0     0.0
     0.0     0.0     0.0    -0.0     0.0     0.0     0.0     0.0     0.0     0.0
    -0.0     0.0     0.0     0.0     0.0     0.0     0.0     0.0     0.0     0.0
