Uncorrected accelerogram 20160214_001343_KPOC_20 GNS Science
Site KPOC      43 22 35S  172 39 50E     Cusp file:  20160214_001347_KPOC
Kaiapoi North School
Instrument Cusp_42060
Resolution: 18-bit   Instr Period: 0.0050 s   Damping: 0.700
Accelerogram 20160214_001343_KPOC_20                 Processed 2016 February 22
11 km east of CHRISTCHURCH
2016 February 14         00:13:43 UT
Epicentre  43 29 50S 172 45 18E  Bearing S29E  Dist   15km  Depth    8km M  5.70
Number of points  38700    Duration 193.50 s
Raw readings in units of 1.00 mm/s/s  at intervals of 0.005 s
Data is unfiltered
Component S75E
Acceleration:  Peak   1629.1 mm/s/s at  43.76 s     RMS   102.78 mm/s/s
Velocity record unevaluated
Displacement record unevaluated
    2016       2      14       0      13     430       0       0    2016       2
      43      29      50     172      45      18       8       0      14       0
      43      22      35     172      39      50     105     105     151      15
   38700       0       0   38700       0       0       0       0      13    7804
   200.0    0.70    0.00   0.000  0.0000   0.000   0.000   1.000     0.0    0.00
  43.376 172.664  43.497 172.755    5.70    0.00    0.00    0.00      0.      0.
  193.50    0.00    0.00  193.50  0.0050  0.0050      0.      0.      0.  9806.6
  1629.1   43.76   102.8      0.      0.     0.0    0.00     0.0     0.0   0.000
    0.00    0.00    0.00    0.00   0.000    0.00    0.00    0.00    0.00   0.000
   0.000   0.000   0.000      0.      0.   0.000   0.000   0.000      0.      0.
     0.2    -0.1    -0.2     0.0     0.0    -0.0    -0.0    -0.1    -0.0     0.0
    -0.1    -0.1    -0.0     0.0    -0.0    -0.0     0.1     0.0     0.0     0.1
    -0.0     0.0    -0.0    -0.1     0.1     0.1     0.1     0.1     0.1     0.2
     0.1    -0.1     0.0    -0.0    -0.0     0.0     0.0    -0.1    -0.0    -0.0
    -0.0     0.1     0.0    -0.0     0.1     0.1     0.1    -0.0    -0.1    -0.1
    -0.1    -0.0     0.0     0.0    -0.1    -0.0     0.1     0.1     0.1     0.0
     0.1    -0.0    -0.2    -0.0    -0.0    -0.1     0.1     0.0     0.0     0.1
     0.1    -0.0    -0.0     0.0    -0.1    -0.1    -0.2    -0.1    -0.0     0.1
     0.2     0.1     0.0     0.0    -0.0     0.0     0.1    -0.1    -0.1    -0.1
    -0.2    -0.2    -0.1     0.1     0.1    -0.0    -0.0    -0.1    -0.2    -0.1
    -0.1    -0.0     0.1     0.1     0.1     0.1     0.1     0.0    -0.1    -0.1
    -0.1    -0.2    -0.0    -0.0    -0.1     0.1     0.2     0.2     0.0    -0.1
     0.0    -0.0    -0.1     0.1     0.0    -0.0    -0.0    -0.0    -0.0    -0.1
    -0.0    -0.1    -0.2    -0.0     0.0     0.0     0.1    -0.0    -0.0    -0.0
    -0.2    -0.2    -0.0     0.0    -0.0     0.1     0.1     0.1    -0.1    -0.1
    -0.1    -0.2    -0.3    -0.1    -0.1    -0.2    -0.1    -0.1     0.0     0.1
    -0.1    -0.1     0.0    -0.1    -0.0    -0.1    -0.1    -0.1    -0.1    -0.0
     0.0    -0.0     0.0    -0.0    -0.1     0.0    -0.0    -0.0    -0.2    -0.2
    -0.0    -0.1     0.1     0.2    -0.1    -0.1    -0.3    -0.3     0.0    -0.0
    -0.2    -0.1    -0.1    -0.2    -0.1    -0.1    -0.2    -0.2     0.1     0.0
     0.1     0.1     0.1    -0.0    -0.1    -0.1    -0.1     0.0    -0.1    -0.1
     0.0     0.0     0.1     0.1    -0.1     0.0    -0.1    -0.2    -0.1    -0.1
    -0.1     0.0     0.1     0.1     0.1     0.2     0.1     0.0     0.1     0.0
    -0.1    -0.1    -0.0     0.0    -0.1    -0.1     0.0     0.1    -0.1    -0.2
    -0.0    -0.1    -0.1    -0.2    -0.2    -0.1    -0.1    -0.1    -0.1    -0.1
     0.1     0.1     0.1     0.1     0.0     0.0    -0.0    -0.1    -0.1     0.1
     0.1    -0.2    -0.1    -0.1    -0.1     0.0    -0.1    -0.0    -0.1    -0.0
    -0.1    -0.1     0.1     0.1     0.0     0.0    -0.1    -0.1    -0.1    -0.2
     0.0     0.0    -0.1    -0.0     0.0     0.0    -0.1    -0.0     0.1     0.1
     0.0     0.0     0.1     0.0     0.0    -0.0    -0.2    -0.1     0.0    -0.0
    -0.0    -0.0    -0.0    -0.0    -0.0     0.1     0.1    -0.1    -0.0     0.0
    -0.1     0.1     0.1     0.0     0.1    -0.0    -0.0     0.0    -0.1    -0.2
    -0.1    -0.1    -0.1    -0.1    -0.0    -0.1    -0.1     0.1     0.0     0.0
    -0.0     0.0     0.0    -0.0    -0.0    -0.0    -0.0    -0.1    -0.1     0.1
     0.0    -0.1    -0.0    -0.0    -0.1    -0.2    -0.2    -0.2    -0.1    -0.0
     0.1     0.1     0.0     0.0    -0.1    -0.1     0.0     0.0     0.0     0.1
    -0.0    -0.1     0.0     0.0    -0.1    -0.2    -0.2    -0.1    -0.0    -0.1
    -0.0     0.0    -0.1    -0.1     0.1     0.0    -0.0    -0.0    -0.2    -0.0
    -0.0    -0.1    -0.0     0.0     0.1    -0.0     0.0     0.1     0.0     0.1
     0.0     0.1     0.0    -0.1    -0.1    -0.0     0.0    -0.0     0.1     0.1
     0.1     0.2     0.1     0.2     0.2     0.0    -0.0    -0.0     0.1     0.1
    -0.1     0.1     0.3     0.1     0.1     0.0    -0.1    -0.0    -0.0    -0.0
    -0.0    -0.1    -0.0     0.1     0.1     0.1     0.1     0.2     0.2     0.2
     0.2     0.2     0.1    -0.1    -0.2    -0.1    -0.1    -0.1    -0.2    -0.2
     0.1     0.1     0.1     0.1     0.1     0.2     0.0    -0.0     0.1     0.1
     0.0     0.0     0.1     0.0     0.1     0.1     0.0     0.0    -0.1    -0.1
    -0.2    -0.2    -0.1    -0.1     0.0     0.1    -0.1    -0.1    -0.1     0.1
     0.2     0.1    -0.0    -0.1    -0.1    -0.1    -0.0    -0.1    -0.1    -0.1
    -0.1     0.0    -0.0     0.0     0.2     0.2     0.3     0.2     0.1     0.1
     0.0    -0.1    -0.1    -0.1    -0.2    -0.2    -0.1    -0.0     0.1     0.0
    -0.1    -0.0    -0.1    -0.1    -0.1     0.0     0.1    -0.1    -0.0    -0.1
    -0.2     0.0     0.0    -0.0     0.0    -0.1    -0.0     0.1     0.0    -0.1
    -0.2    -0.2    -0.2    -0.1    -0.2    -0.2    -0.1     0.0     0.1     0.0
     0.0    -0.1    -0.1     0.1    -0.0    -0.0    -0.0    -0.2    -0.2    -0.2
    -0.0     0.1     0.1     0.1     0.0    -0.1     0.0    -0.1    -0.2    -0.1
     0.0     0.1     0.0    -0.0     0.0     0.0    -0.1     0.0    -0.0    -0.2
    -0.1     0.1     0.1    -0.0    -0.2    -0.2     0.0     0.0    -0.2    -0.1
     0.0     0.0     0.1     0.1    -0.0     0.1     0.1    -0.1     0.0    -0.1
    -0.2    -0.1    -0.1    -0.1    -0.0     0.0    -0.0     0.0     0.0    -0.0
    -0.0    -0.1    -0.1    -0.0    -0.0    -0.0    -0.1    -0.1     0.0     0.0
    -0.0     0.0     0.1     0.1    -0.0    -0.0     0.1     0.1    -0.1    -0.1
    -0.1    -0.0     0.0    -0.1     0.1     0.1    -0.1    -0.0     0.0     0.0
    -0.1    -0.1    -0.2    -0.2    -0.1    -0.1    -0.1    -0.0    -0.0     0.1
     0.2     0.1    -0.1    -0.1    -0.1    -0.1     0.0    -0.1    -0.0    -0.0
    -0.1     0.0    -0.0    -0.1     0.1     0.0    -0.1    -0.1    -0.1    -0.1
    -0.1     0.1    -0.1    -0.2    -0.0     0.1    -0.1    -0.1    -0.0    -0.0
     0.0     0.0     0.0     0.0    -0.2    -0.1    -0.1    -0.1     0.1     0.1
     0.1    -0.0     0.0     0.1    -0.1     0.1     0.1     0.1     0.1    -0.1
     0.1     0.1    -0.0     0.1     0.0    -0.1    -0.0    -0.0    -0.1    -0.1
    -0.0    -0.0     0.0    -0.1    -0.0     0.1     0.0     0.1     0.2     0.2
     0.1    -0.1     0.0     0.1    -0.1     0.0     0.0     0.0     0.0     0.1
     0.1     0.0     0.0    -0.0     0.0    -0.1    -0.0     0.0    -0.0     0.1
    -0.0    -0.0     0.1    -0.1     0.1     0.1    -0.1    -0.2    -0.2    -0.1
    -0.1    -0.2    -0.1    -0.2    -0.1    -0.0    -0.1    -0.0     0.0     0.1
     0.1     0.1     0.1    -0.0    -0.0    -0.0    -0.1     0.0     0.0    -0.1
     0.0    -0.0    -0.1     0.1     0.0    -0.1    -0.1     0.1     0.1    -0.1
    -0.0    -0.1    -0.1    -0.0    -0.1     0.0     0.1     0.0    -0.0    -0.1
    -0.1     0.1     0.1     0.0     0.0     0.0    -0.0     0.0     0.2     0.1
     0.0    -0.0    -0.1    -0.0    -0.1    -0.1    -0.1    -0.0    -0.0     0.0
    -0.0    -0.2    -0.0     0.0    -0.1    -0.1    -0.2    -0.2    -0.2    -0.1
     0.1     0.0     0.1     0.1    -0.0     0.0     0.0     0.0    -0.0    -0.0
    -0.1    -0.1    -0.1    -0.1    -0.1    -0.1     0.0    -0.1    -0.1     0.1
     0.1    -0.0     0.0     0.1     0.0     0.0    -0.1     0.0     0.1    -0.1
     0.1     0.1    -0.0     0.0    -0.0    -0.0    -0.1    -0.1    -0.1    -0.1
    -0.1    -0.1    -0.0    -0.1     0.0     0.1    -0.0    -0.0    -0.0    -0.1
    -0.0    -0.1    -0.1    -0.1    -0.1    -0.1    -0.1    -0.0     0.1     0.2
     0.2     0.0     0.0     0.0    -0.1     0.0     0.2    -0.0    -0.3    -0.2
    -0.1    -0.2    -0.1    -0.1    -0.0     0.0     0.1     0.1    -0.0     0.1
    -0.0    -0.2    -0.1    -0.1    -0.2    -0.1    -0.0    -0.0    -0.1    -0.0
     0.1    -0.0     0.1    -0.0    -0.1    -0.0     0.0    -0.0    -0.2    -0.1
    -0.0    -0.1     0.0    -0.0    -0.1    -0.1    -0.0    -0.1    -0.1     0.1
    -0.0    -0.2    -0.1    -0.1    -0.1    -0.0     0.1    -0.1    -0.2    -0.0
     0.1    -0.0     0.1    -0.1    -0.1     0.1     0.0     0.1     0.1     0.1
     0.1     0.1    -0.1    -0.1     0.1     0.1     0.0    -0.0    -0.0    -0.1
    -0.2    -0.2    -0.2    -0.1     0.0     0.1     0.0    -0.0    -0.0    -0.0
    -0.0    -0.1    -0.2    -0.1    -0.1    -0.0     0.0     0.0     0.1     0.1
    -0.1    -0.1    -0.1    -0.1    -0.1    -0.1    -0.1    -0.2    -0.1     0.0
    -0.1     0.1     0.1     0.0     0.0    -0.1    -0.1     0.0    -0.1    -0.0
     0.0    -0.0     0.0    -0.1    -0.1    -0.1    -0.1    -0.1    -0.0    -0.0
    -0.0     0.1     0.0    -0.0     0.1     0.0    -0.0    -0.1    -0.2    -0.1
    -0.1    -0.1    -0.2    -0.2     0.0     0.0     0.1     0.2     0.1    -0.0
    -0.1    -0.1    -0.2    -0.1    -0.1    -0.3    -0.2    -0.0     0.1     0.1
     0.0     0.0    -0.0    -0.1    -0.1    -0.2    -0.1    -0.1    -0.0     0.0
    -0.1    -0.1    -0.0    -0.2    -0.2    -0.2    -0.1    -0.3    -0.1     0.0
    -0.0     0.2     0.0    -0.0     0.2    -0.0     0.0     0.0    -0.2    -0.3
    -0.3    -0.2    -0.2    -0.1     0.0     0.1     0.2     0.1     0.0    -0.0
     0.0    -0.1    -0.2    -0.2    -0.3    -0.2    -0.1     0.0     0.2     0.2
     0.2     0.1    -0.0    -0.1    -0.3    -0.2    -0.3    -0.2    -0.1    -0.0
     0.1     0.1     0.1     0.0    -0.1    -0.2    -0.2    -0.4    -0.3    -0.1
    -0.2    -0.1     0.0     0.2     0.2     0.2     0.2     0.1    -0.1    -0.2
    -0.3    -0.3    -0.3    -0.2    -0.1    -0.1    -0.1     0.1     0.2     0.1
     0.1     0.1     0.1     0.0    -0.2    -0.2    -0.0    -0.1    -0.1     0.1
     0.1     0.1     0.2     0.1    -0.0     0.1    -0.1    -0.1    -0.1    -0.2
    -0.1    -0.0    -0.0    -0.0     0.0     0.0    -0.2    -0.2    -0.2    -0.2
    -0.0    -0.2    -0.1    -0.0    -0.0    -0.1    -0.1    -0.1    -0.1    -0.1
    -0.1    -0.1    -0.1    -0.2    -0.1     0.1     0.2     0.2     0.1     0.1
     0.0    -0.1    -0.0     0.0    -0.1    -0.1    -0.1    -0.2    -0.1    -0.2
    -0.0     0.1    -0.0     0.1     0.0     0.1    -0.0    -0.2     0.0    -0.1
    -0.2    -0.0    -0.1    -0.0    -0.0    -0.0     0.1    -0.1    -0.1     0.1
     0.1    -0.0    -0.1    -0.1     0.0    -0.0    -0.0    -0.0    -0.1     0.1
     0.2     0.1    -0.0    -0.1     0.0     0.0    -0.1    -0.1    -0.1    -0.2
    -0.1    -0.1    -0.2    -0.1    -0.2    -0.3    -0.1    -0.1    -0.0    -0.1
    -0.2    -0.0     0.1    -0.0     0.0     0.0    -0.0     0.1     0.1    -0.1
    -0.2    -0.1    -0.2    -0.1    -0.0    -0.1    -0.0     0.1     0.0     0.0
     0.1     0.0     0.0     0.0    -0.0    -0.0    -0.1    -0.1    -0.1    -0.1
    -0.1     0.0    -0.0    -0.1     0.0     0.1     0.1     0.1     0.0    -0.1
    -0.1     0.0     0.1    -0.1     0.0     0.1    -0.0     0.2     0.2    -0.0
    -0.0     0.1     0.0    -0.0     0.0     0.1     0.1     0.0    -0.1    -0.1
     0.0     0.1    -0.0    -0.2    -0.1    -0.1    -0.1     0.0     0.0     0.0
    -0.1    -0.0     0.1    -0.0    -0.0     0.1     0.0    -0.0     0.1    -0.1
    -0.2     0.0    -0.0    -0.0     0.1    -0.1    -0.1    -0.1    -0.1    -0.1
    -0.1    -0.1    -0.0    -0.1    -0.0     0.0    -0.1     0.1     0.1     0.1
     0.1    -0.0    -0.0    -0.0    -0.1    -0.1    -0.2    -0.1    -0.0    -0.0
    -0.0     0.0    -0.0    -0.0     0.0    -0.0    -0.0    -0.1    -0.1    -0.0
    -0.2    -0.2     0.0     0.1     0.0    -0.1    -0.0    -0.0    -0.1     0.0
    -0.1    -0.2    -0.1    -0.1    -0.1    -0.0    -0.0     0.1     0.1     0.0
    -0.0    -0.0    -0.1    -0.2    -0.2    -0.1    -0.0    -0.1    -0.2    -0.1
     0.0    -0.0    -0.2    -0.1    -0.0    -0.1    -0.1    -0.0     0.1     0.0
    -0.2    -0.1    -0.1    -0.1    -0.0     0.1     0.0    -0.0    -0.1    -0.1
    -0.1    -0.0    -0.1    -0.1    -0.1    -0.1    -0.0    -0.0    -0.1     0.0
    -0.1    -0.1     0.0    -0.1    -0.0     0.1    -0.1    -0.1    -0.0    -0.2
    -0.1     0.1     0.1     0.0    -0.0    -0.0    -0.1    -0.2    -0.1    -0.1
    -0.1    -0.1    -0.1    -0.0    -0.0     0.0    -0.0    -0.0     0.0    -0.1
    -0.1    -0.1    -0.1    -0.2    -0.2    -0.0     0.0    -0.1    -0.2    -0.1
     0.0    -0.1    -0.1    -0.1    -0.1    -0.1    -0.1    -0.1    -0.1    -0.1
    -0.1    -0.1    -0.1    -0.1    -0.1    -0.1    -0.0     0.0     0.1     0.1
    -0.0    -0.1    -0.0    -0.0    -0.1    -0.2    -0.2    -0.1    -0.2    -0.2
    -0.1    -0.2    -0.1     0.0    -0.0    -0.1    -0.2    -0.2    -0.2    -0.2
    -0.2    -0.1    -0.0    -0.1     0.0     0.1    -0.0     0.1    -0.2    -0.1
    -0.0    -0.2    -0.2    -0.1    -0.0     0.1    -0.0    -0.1    -0.0    -0.1
    -0.1    -0.1    -0.1    -0.0    -0.0     0.0     0.0    -0.1    -0.0    -0.1
    -0.0     0.0    -0.1    -0.1    -0.1    -0.1    -0.1    -0.2    -0.1     0.0
    -0.1     0.0     0.2     0.1     0.0    -0.0    -0.1    -0.1    -0.1    -0.2
    -0.2    -0.1    -0.0    -0.1    -0.0    -0.0    -0.1    -0.1    -0.0     0.1
     0.0     0.1     0.1    -0.0    -0.1    -0.1    -0.1     0.0     0.1     0.0
    -0.1    -0.0     0.1    -0.0     0.1     0.2     0.0    -0.0    -0.1    -0.0
    -0.2    -0.3    -0.1    -0.0    -0.1    -0.0     0.1     0.1     0.1     0.1
     0.0    -0.0    -0.1    -0.2    -0.2    -0.2    -0.2    -0.2    -0.1     0.0
    -0.0    -0.1    -0.0     0.0     0.0    -0.0     0.0     0.1     0.1     0.1
     0.0    -0.2    -0.3    -0.2    -0.2    -0.1     0.1     0.0    -0.0     0.1
     0.1    -0.0    -0.1     0.0     0.0    -0.1     0.0     0.1     0.1     0.2
     0.0    -0.1    -0.1     0.0     0.0    -0.0     0.1     0.1    -0.0    -0.1
    -0.1    -0.1    -0.1    -0.1    -0.1    -0.0    -0.0     0.1     0.1     0.0
     0.1    -0.0    -0.1    -0.1    -0.1    -0.0     0.0     0.1    -0.1    -0.2
    -0.1    -0.1    -0.1    -0.1    -0.1    -0.0    -0.1    -0.1    -0.0    -0.2
    -0.1    -0.0    -0.2    -0.2    -0.1     0.0     0.2     0.0     0.1     0.2
     0.0     0.0     0.0    -0.0    -0.1    -0.1    -0.2    -0.2    -0.1     0.0
     0.0     0.1     0.2     0.3     0.3     0.1     0.1     0.0    -0.1    -0.2
    -0.1    -0.1    -0.2    -0.0     0.1     0.2     0.2     0.0     0.0    -0.0
    -0.0     0.1    -0.0     0.0    -0.0    -0.1     0.1     0.1     0.1     0.0
     0.1     0.1     0.0    -0.0    -0.1    -0.0    -0.0    -0.2    -0.1    -0.1
    -0.1    -0.2    -0.1     0.0     0.0     0.2     0.0    -0.0     0.2     0.1
     0.0     0.0    -0.0    -0.1     0.0     0.1    -0.1    -0.0    -0.1    -0.1
     0.0    -0.0     0.0     0.0    -0.1     0.1     0.1    -0.0     0.1     0.1
    -0.0    -0.0     0.0    -0.2    -0.2     0.1     0.0    -0.0    -0.1    -0.2
     0.1     0.2    -0.2    -0.1     0.1    -0.1    -0.2    -0.1     0.0     0.1
     0.1     0.1     0.1    -0.0     0.0    -0.1    -0.1    -0.1    -0.1    -0.1
    -0.2    -0.1    -0.1    -0.2    -0.1     0.0     0.0    -0.1    -0.1    -0.1
     0.1     0.1    -0.0    -0.1     0.0    -0.1    -0.2    -0.1    -0.2    -0.2
    -0.2    -0.1    -0.0     0.0     0.1     0.2     0.1     0.1     0.1     0.0
    -0.0    -0.0     0.0    -0.1     0.0    -0.1    -0.1    -0.0     0.0     0.1
    -0.1     0.0     0.1    -0.1    -0.0     0.1     0.0    -0.1    -0.2    -0.1
    -0.1    -0.1    -0.1    -0.1    -0.0     0.0     0.1     0.1     0.2     0.0
    -0.1     0.0     0.0     0.0     0.0    -0.1    -0.1    -0.1    -0.1     0.2
     0.2     0.1     0.0     0.1     0.1    -0.1     0.0    -0.0    -0.0     0.0
    -0.1     0.0     0.0    -0.1    -0.1    -0.2    -0.1     0.1     0.2     0.1
     0.1     0.1     0.1     0.1     0.0     0.0    -0.1    -0.1     0.1    -0.0
     0.1     0.0     0.0     0.2    -0.0    -0.0     0.1    -0.0     0.1     0.1
     0.0    -0.0     0.1     0.1    -0.0     0.1     0.1    -0.0    -0.1    -0.2
    -0.1     0.1     0.0     0.1     0.1    -0.1     0.0     0.0    -0.1    -0.3
    -0.2    -0.0     0.0    -0.1     0.0     0.1     0.0    -0.1     0.0    -0.1
    -0.1     0.1     0.2     0.1     0.0    -0.1    -0.1    -0.1    -0.1    -0.0
     0.1    -0.0    -0.1     0.0    -0.0     0.1     0.1    -0.1     0.0     0.1
     0.1    -0.0    -0.0    -0.1    -0.3    -0.3    -0.2    -0.1     0.1     0.1
    -0.0    -0.0     0.0    -0.1    -0.2    -0.2    -0.0     0.1     0.1    -0.1
    -0.2    -0.2    -0.2    -0.1    -0.0    -0.1    -0.0     0.0     0.1     0.2
    -0.0     0.0     0.1    -0.1    -0.0    -0.0    -0.1     0.0    -0.1    -0.2
    -0.1    -0.1    -0.0     0.1     0.1     0.1    -0.1    -0.2    -0.1     0.0
    -0.2    -0.2    -0.1     0.0    -0.1    -0.2    -0.2    -0.2    -0.2    -0.0
     0.1     0.1    -0.0     0.0     0.1    -0.0    -0.1    -0.1    -0.1    -0.1
    -0.3    -0.3    -0.3    -0.2    -0.3    -0.3    -0.2    -0.1     0.1     0.1
     0.1     0.2     0.1     0.0     0.0    -0.1    -0.3    -0.3    -0.1    -0.2
    -0.2    -0.1    -0.1    -0.0     0.0     0.1     0.1     0.0     0.1     0.0
    -0.1    -0.1    -0.0    -0.2    -0.2    -0.1    -0.2    -0.2    -0.2    -0.1
    -0.0    -0.1    -0.0     0.1    -0.1    -0.1    -0.0    -0.1    -0.1     0.1
     0.1    -0.1    -0.1    -0.1    -0.1    -0.2    -0.2    -0.2    -0.1    -0.1
    -0.0     0.1     0.1    -0.0     0.0    -0.0    -0.1    -0.0    -0.1    -0.2
    -0.2    -0.2    -0.1    -0.1    -0.2    -0.1     0.0    -0.2    -0.2     0.0
     0.0    -0.0    -0.0     0.0    -0.0    -0.0    -0.0     0.0     0.0    -0.1
    -0.1    -0.1    -0.1     0.0     0.0    -0.0     0.1     0.1    -0.0    -0.0
    -0.2    -0.1    -0.1    -0.1    -0.0    -0.0    -0.1    -0.1    -0.0    -0.1
    -0.1     0.0     0.0     0.1    -0.0     0.0     0.1    -0.0    -0.0    -0.1
    -0.0     0.0    -0.1     0.0     0.2     0.1     0.1    -0.0    -0.1     0.1
     0.1    -0.1    -0.1     0.0     0.1     0.1    -0.0    -0.1    -0.0    -0.0
     0.0    -0.1    -0.1    -0.0     0.0    -0.0     0.0     0.1    -0.1    -0.1
    -0.0    -0.0    -0.0    -0.1    -0.1    -0.1    -0.1     0.0     0.0    -0.1
     0.1     0.1     0.0    -0.0    -0.0     0.1     0.1    -0.0    -0.1     0.0
     0.1     0.0     0.1     0.1     0.1     0.1    -0.0    -0.1    -0.1    -0.1
    -0.0    -0.1    -0.1     0.0     0.0     0.2     0.2     0.1     0.0    -0.0
    -0.2    -0.2    -0.2    -0.1     0.0     0.0     0.1    -0.0    -0.1    -0.0
    -0.0    -0.2    -0.2     0.0     0.1     0.1     0.2     0.0    -0.1    -0.0
    -0.1    -0.1    -0.2    -0.1    -0.1    -0.2    -0.1     0.1     0.0     0.2
     0.3     0.3     0.2     0.0    -0.1    -0.1    -0.3    -0.3    -0.2    -0.2
    -0.1    -0.1     0.1     0.2     0.0     0.1     0.0    -0.1    -0.1    -0.1
    -0.1     0.1    -0.0    -0.0     0.1     0.1     0.0    -0.1    -0.1    -0.2
    -0.2    -0.2    -0.1     0.1     0.1     0.2     0.3     0.2     0.2     0.1
    -0.1    -0.2    -0.2    -0.3    -0.4    -0.2    -0.2     0.0     0.1     0.1
