Uncorrected accelerogram 20160214_001343_CCCC_20 GNS Science
Site CCCC      43 32 17S  172 38 51E     Cusp file:  20160214_001347_CCCC
Christchurch Cathedral College
Instrument Cusp_331
Resolution: 18-bit   Instr Period: 0.0050 s   Damping: 0.700
Accelerogram 20160214_001343_CCCC_20                 Processed 2016 February 22
11 km east of CHRISTCHURCH
2016 February 14         00:13:43 UT
Epicentre  43 29 50S 172 45 18E  Bearing N63E  Dist   10km  Depth    8km M  5.70
Number of points  14444    Duration  72.22 s
Raw readings in units of 1.00 mm/s/s  at intervals of 0.005 s
Data is unfiltered
Component N64E
Acceleration:  Peak  -1124.0 mm/s/s at  42.15 s     RMS   123.17 mm/s/s
Velocity record unevaluated
Displacement record unevaluated
    2016       2      14       0      13     430       0       0    2016       2
      43      29      50     172      45      18       8       0      14       0
      43      32      17     172      38      51      64      64      63      10
   14444       0       0   14444       0       0       0       0      13    8404
   200.0    0.70    0.00   0.000  0.0000   0.000   0.000   1.000     0.0    0.00
  43.538 172.647  43.497 172.755    5.70    0.00    0.00    0.00      0.      0.
   72.22    0.00    0.00   72.22  0.0050  0.0050      0.      0.      0.  9806.6
 -1124.0   42.15   123.2      0.      0.     0.0    0.00     0.0     0.0   0.000
    0.00    0.00    0.00    0.00   0.000    0.00    0.00    0.00    0.00   0.000
   0.000   0.000   0.000      0.      0.   0.000   0.000   0.000      0.      0.
   -10.2    -2.3    10.0    -2.5    -5.6     3.7     5.0     0.3   -10.3    -4.6
     5.7    -6.0   -10.0    -6.3     1.5    -4.9   -19.7    -3.2     8.6     7.6
    -0.8     2.5    15.3     0.5     4.7    13.2     1.0    -0.8    -9.3   -11.5
     1.7    -4.4    -7.6     5.7     7.4     9.0     0.5   -11.2    -2.5    -1.2
    -4.9    -5.0     1.3     9.4     5.3     6.4     9.5     0.9    -5.5    -5.2
    -5.4    -0.5     3.9     2.5     3.2    -5.1    -9.8     4.7    13.3     1.9
    -1.9    12.2     2.1    -5.2    11.6     2.4    -1.7     1.0    -8.3    -1.4
    -0.8     6.9    14.0     2.8     2.0    -8.0   -10.4     2.1     0.9     2.6
    -2.9    -5.9     6.1     0.1    -4.0     4.6    10.1     8.3    -5.1     7.9
    10.5   -10.4     5.5     6.7    -2.4     5.6     3.8     2.3    -6.2     1.4
    10.4     2.2    -1.6     2.1    14.7     2.4   -11.7    -8.2     2.2    14.1
     7.4    -2.8   -11.7     2.8    12.6     5.5     5.4    -5.4     0.1     0.4
    -3.6    -3.6    -7.5     9.8     2.2    -9.0     2.7    -0.9     3.4    16.4
    10.5     2.7     5.6     1.1     0.2     4.0    -1.8    -2.8    -3.7    -8.1
   -13.4    -9.3    -2.8    -9.7    -1.3     4.6     5.4     4.0   -17.3    -8.2
     4.7    -2.6     5.6     0.2   -11.9    -0.6     5.0    -6.0    -0.4    -0.0
    -8.8     3.6     4.1    -4.7    -7.6    -3.5     2.6    -1.4     1.6    -4.7
    -6.3     9.1     1.2   -14.3    -2.9     0.2   -11.6     2.0     2.3     5.6
    10.2   -11.3    -5.3    -3.1    -1.1    -2.0   -15.6    -1.9    -3.8    -4.2
    -1.6    -2.0    12.3    -5.5    -8.4     5.0    -0.5     5.6    -4.3    -8.6
    -6.3    -9.5     7.4     6.3     5.4     9.2     2.3     5.8     3.3     7.7
     3.5    -6.4     8.6    11.9     9.1     7.0     4.3     8.1     2.8    -0.5
    -2.7    -4.0    -6.5    -3.1     2.6    -5.1     2.8     6.0     2.9     9.4
     4.6     5.0     8.9     8.5     0.4   -10.8    -4.1     5.0     2.8     3.4
     1.5    -8.4     4.4    15.8    -2.8    -1.9     5.9    -6.7    -7.1     6.1
     2.9    -8.6     1.5     2.7     2.2    15.4    -0.2   -10.6    -0.9     4.0
     3.0    -1.8     6.8     5.0    -1.2     5.4     3.3    -2.2    -3.8     3.3
     8.7    13.2    12.4    -1.4    -1.9    -7.1    -8.3     1.9    -3.1    -0.6
    -0.0    -6.8     0.5     3.9    -1.8     2.8     3.7    -2.9    -5.3   -12.4
    -8.2    -3.6    -1.2    11.2     5.6    -3.0     1.1    -2.4    -8.3    -1.9
    -2.7    -3.1     8.8    -0.0    -8.7    -3.0     3.2     2.1    -7.0     7.3
    14.2     1.5    -0.9     2.5     9.5    11.4    13.4     1.4    -6.4    10.5
     4.5    -1.0     5.8     9.0    11.7     3.2     5.6     1.7    -9.4    -4.8
    -4.7    -0.5     8.1     6.6     0.6    -2.9    -4.3    -2.5     6.2     8.2
    -1.0     0.3     5.4    -2.8    -0.5     4.8    -2.7    -2.5    -0.4     1.4
    -1.1    -6.1    -0.3     0.4     0.1     5.3    10.2     8.1    -0.3    -2.0
    -6.1     1.7    13.5     4.2     1.3     7.3     3.1     2.9    12.2     4.0
     0.9     8.7     0.4     6.8     3.3   -12.7    -3.7     6.1     1.2    -9.2
     3.2     8.8    -4.6     1.8    -3.6    -9.6     4.3    10.6     7.8     0.5
     1.0    -0.5    -0.5     9.0     6.1    -0.4    -2.8     2.6    -1.1    -0.4
    16.5     9.6     7.8     8.8    -1.5     1.7     1.9    -1.1    -0.7     6.9
     2.6   -11.4     1.6     9.3    -2.4    -1.8     2.2     3.3     1.8    -6.1
    -3.5     4.7     5.3     7.1    -0.4   -10.4     0.8     3.9    -3.6    -1.7
    -2.5     2.7    -2.0    -8.6     0.3    -0.0     4.7     8.6    10.3     2.0
    -6.9     5.0    -6.2    -2.9     2.0   -15.1    -2.3     1.5    -5.0    -0.3
     8.5     3.1    -7.3    -0.6     5.5    11.7    -2.8    -6.6    -2.9    -9.2
     2.4     0.5     8.3    -1.4   -10.7    15.5    -1.8    -7.6     5.8    -0.4
     5.5     1.1    -2.9     3.9     7.5     8.6     3.0     3.6     3.3    -1.2
     5.4    -3.3   -15.1     1.8     9.9     5.5     4.9     0.9    -3.3    -7.3
    -3.0     2.4     3.0    -1.1    -0.8     5.0    -2.7     5.6    11.7     5.4
     3.1   -16.0    -7.7     6.0     2.5     7.9     2.6     5.4     4.3    -5.2
     1.4     2.5    -4.0    -1.5     1.8     0.7    -3.5    -2.3     8.2     2.1
    -3.1     4.9     5.8    13.4    16.7     1.6    -6.1     6.6     4.9   -10.5
    -1.1    -0.5   -11.0    -2.1     0.1     1.6     6.9    -2.5    -9.5    -2.0
     3.4    -2.9     0.1     5.0     2.2     0.6    -1.8     5.0    -3.1    -4.5
     9.8    -2.6    -6.2   -10.1    -6.4     9.7    -6.3    -4.4     1.7    -8.3
    -5.6    -0.9    14.5     9.5     0.3     6.5    -6.0    -4.6     2.3    -0.5
     0.9    -3.0    -0.7    -3.3    -6.3     7.9    11.2     3.9     1.9    -1.6
     6.7    12.4    -1.2    -4.5    -4.5    -2.2     4.8    -0.1    -3.0    -5.9
    -4.6    -3.7    -1.5    11.6     7.7     6.1     2.4    -8.5     3.5    -0.4
    -9.4     3.9     5.4    -4.4    -5.7     3.6     2.3    -8.5   -10.4    -5.8
     7.9    12.8     2.7    -4.2    -4.8     4.6     6.9    -6.6    -7.2    -4.3
   -14.1    -4.3     8.5     2.4     2.7     1.9     6.0     9.7    -3.6    -3.2
     0.1    -0.8    10.0     2.9   -11.8    -9.5     0.6    -0.0    -9.7     2.1
     5.3    -0.6     3.9    -3.6     3.5     6.6    -0.7    -1.3    -5.6     9.3
    11.2     2.8     3.1    -0.8    10.5     5.9    -0.4     7.5     3.4    -2.6
    -5.9     7.6     3.7    -6.7     1.9    -3.1    -0.4   -11.9   -15.6     7.9
     5.0     4.1     1.7    -4.5    -0.5    -1.6     0.4    -0.8    -0.5    -2.5
    -1.3     3.0    -7.7    -2.5     9.0     1.0     2.9    12.1     5.5    -0.7
     1.7    -6.3    -7.9     3.3    -0.1     0.5    -0.6    -3.2     9.2    -0.1
    -7.3     2.6     5.7     5.3    -3.8    -8.7    -8.9    -0.3     8.5     5.6
     6.0    -0.1     0.2     4.1     3.2     0.5   -11.8    -7.7    -2.9    -4.1
     6.8    -0.9   -14.5    -3.1     6.6    -1.7    -3.9     3.9     4.8     6.7
    10.4     6.1     5.8     5.9     3.9     5.8    -4.1    -9.2     3.6     7.2
     2.2     1.2     8.4    16.6     7.8    -1.9     3.1     2.0    -9.8    -3.5
     4.2    -5.8     6.9     9.7    -8.3     1.2     7.8     5.1     1.2    -6.8
     0.0     2.9    -1.4     7.8     8.4    -1.8    -2.0     4.1     9.4    -1.9
     1.2    17.3     2.8     4.5    12.2    -7.3    -6.2     4.5     6.2    13.6
    12.0     5.1     2.7    -0.0    -4.4    -8.7     6.1    13.8   -12.0    -9.4
    11.0    -0.9    -6.0    -6.5    -5.2     3.7    -1.7     6.8    13.0     3.4
     5.1     4.0    -0.1     3.1     8.7    -0.4    -9.6     6.6     9.7     1.8
     8.9    -0.6    -0.6     6.6    -9.0    -4.5     3.3     1.4     5.6     4.8
     6.5    -3.1    -6.7     1.3    -5.1    -6.2    -7.5    -4.2     0.2    -5.1
     2.1     3.5     5.1     3.2    -8.6    -4.6    -4.6    -2.5     4.1     1.4
    -5.4   -15.2   -13.8     0.8    11.2    12.6     8.1    -6.0    -6.6    -3.1
    -1.5     3.4   -13.2   -11.2    -0.7    -1.2     3.0    -2.7    -3.5    -5.9
    -7.7    -0.8     4.0     6.5     4.0    -5.0    -9.4    -1.5     0.6    -1.5
    -5.5    -3.1     5.9     5.2     0.8    -0.6     2.9    -5.7    -3.3    10.9
     5.4    -1.7    -7.2    -5.8     2.4     3.3     2.1     2.4    -0.1     2.1
     5.0    -7.9    -4.7     3.1    -8.9     1.8     0.5   -16.6     2.9    10.3
     5.2     6.2     0.4     4.8    -0.5    -2.8     1.2    -3.7    -4.9    -4.3
    -6.6    -8.4     4.6     2.3    -6.8    -3.5    -8.0     1.4     2.2    -5.6
     1.6     3.2     2.1     1.9     2.3     7.4     3.4    -8.6    -1.1     4.9
     1.3     2.1    -5.6    -0.1     0.6   -10.2     3.6     4.2   -15.6   -13.2
    -7.4    -5.9    -0.5    -7.1    -1.6     8.5     5.7     6.6     6.5     5.4
     5.6    -5.2   -21.8    -5.3     7.8    -7.4    -9.0    -7.7    -1.8    -4.1
    -6.4     0.9    -1.8     2.8     0.2     2.4     1.5   -10.6    -3.6     5.2
     5.1   -11.1    -1.0    18.5     2.1    -1.0    -0.7     1.2    -1.1    -9.0
     2.4     3.3    -0.4    -4.3     2.4     7.4    -7.9     4.8    16.3     0.2
    -3.4     2.6     4.6     1.6    -6.7   -14.3    -6.6     5.5     2.8    -4.6
    -2.7     4.5     2.5     1.9     3.5     1.5     6.5     3.6     0.3     4.8
    -2.1    -1.9    10.0     2.6    -3.3    -7.6   -18.0     3.9     5.7    -2.2
    13.6    -5.0    -5.1     4.0    -4.0     4.9    -0.0     1.2    -2.8    -6.0
    11.6     5.8    -8.0    -7.2     1.5     2.7    -6.2     4.2    17.6    -2.5
    -9.1     0.5    -9.1    -5.0    -1.2     0.8    -5.0   -20.3    -0.5     4.3
    -6.3     2.1    -0.6    -3.2    -3.9    -2.8     0.6    -4.2    -1.1     5.8
     0.9    -4.4     3.5    -6.8   -16.5     6.0     9.2     3.8     2.3   -10.0
    -1.5     4.4    -5.2    -0.2    -6.5   -12.5     2.8     0.8    -0.4    -6.6
   -12.6     6.8     1.2    -7.7     0.7     3.7     1.7     0.3     3.9    -3.5
    -0.9    11.2     6.3    -0.2    -3.8    -8.7    -8.3    -3.3     1.6    -2.1
    -4.4     0.9    -1.2     0.7     2.2    -3.7    -3.2    -3.9     2.5     6.3
    -1.6     4.0     4.7    -2.4    -1.2    -1.8     5.1     5.8     3.5     4.6
    -1.4     5.6     1.4    -9.5    -0.6     8.3     8.5     2.5     6.7    10.1
     4.0     0.8    -0.3    -1.7    -6.5     3.3    12.1     2.8    -3.9    -1.2
     3.4     0.9    -2.4     3.5     7.6   -10.3   -11.3     6.0     0.5     3.1
     2.0    -2.1    -1.7   -11.7     0.4    -0.2     0.2    13.6    -7.7   -10.0
    -2.1    -5.8     2.8     2.1     2.2     5.2    -2.9    -8.9    -3.6     1.5
     1.4     3.9     5.2    -4.2    -6.4    -0.0    -5.5     4.9    10.5    -5.2
    -3.8     4.5     1.4    -4.8     4.4     2.4    -9.0     2.6     2.1    -4.7
     9.8     8.5    -7.1    -2.0     2.9    -3.6    -6.0    -2.4     2.1     4.5
     4.1     4.1     3.5    -6.1    -6.4    -0.4     2.5     6.1     4.5     3.3
    -4.0    -0.3     5.0    -5.3    -0.9     0.4    -7.6    -0.8     4.6     4.3
    -1.1   -10.7    -4.0     5.8    -1.3    -9.0     4.8     9.1    -7.2    -6.8
    -0.2     3.9    -1.6    -5.4    -1.8    -7.2    -6.5   -11.7    -7.4    -3.0
   -10.7    -0.0     4.1    -0.1    -4.3     1.8    13.8     3.6    -2.0    -2.5
    -3.9    -3.0    -8.7    -5.3    -0.3     0.5     3.8    12.9    11.9    -4.2
     1.1     4.3    -3.5     0.6    -4.3     1.9     5.4    -1.4     5.2     1.1
     5.7    11.4     5.9     4.3    -7.1    -1.7     5.9    -5.1    -2.8     6.0
     2.4     0.7     5.8     2.6     4.4     9.3     3.9    -0.8     0.6     1.5
    -0.0     1.5     1.4    -5.9   -10.0     4.6     4.7    -3.0     8.5    -3.6
   -12.3    -3.9    -6.1    -7.0     2.9    15.7     3.8     0.8     8.6    -9.1
    -6.8     5.9    -4.6    -1.0     4.7     2.7     3.5    -2.4     1.9     0.1
     2.9    14.7     9.4     7.7    -1.0    -4.3     5.4    -2.5   -12.3   -13.0
    -4.1     7.2     6.0     5.3     8.7     2.1     2.4     6.7     0.9     0.2
    -3.7    -8.5    -9.9    -5.8     2.9     1.0    -0.5    -0.7     2.7    -3.4
    -8.9     3.6    -1.8    -9.6     0.3     2.7    -3.2    -2.1    -7.2    -9.9
     5.4     4.2    -3.5    -5.1    -6.3    -6.8   -10.8    -0.5     1.1    -3.9
     4.8     3.1     0.4     5.3     4.5    -0.2    -1.6     1.8     2.6    -1.2
     1.3     3.9    -3.5    -9.2    -4.8     4.0    -2.4    -5.6     1.1    -5.8
    -2.5     5.4     1.6    -0.5     7.9     6.5    -8.1     4.5     5.9    -6.7
     3.7     2.5    -0.2     0.7     3.5     5.5    -1.0     6.3     3.3     4.7
    10.2    -2.5     5.0     8.2     0.2     2.3     1.4    -4.9    -8.5    -3.2
    -5.0    -6.0    -8.8   -10.6     1.6    -0.1    -5.9    -2.0     4.9    11.2
     3.8    -3.4     5.7     3.4    -2.7     6.3    -4.4    -2.1    15.0    -1.8
   -10.9     0.3     5.9     8.4    11.0     2.7    -0.6     4.2    -5.9    -2.2
    -2.8    -5.1     9.8    -1.5    -3.9     4.5     1.5     0.5    -6.2     6.7
    10.1    -1.7     7.7     7.4    -6.6    -7.8    -0.7    -3.8    -3.8     0.7
    -1.1    -1.9   -10.0    -7.6     5.8     2.3     5.3    12.4     3.7    -1.0
    -4.7    -4.5     0.8    -0.6    -4.2     2.4    13.2    -1.8    -3.0     5.5
    -1.4    16.7    11.9    -4.5     8.5    -4.9   -10.1     2.3    -7.4     2.0
     4.0    -7.4     8.5     6.8    -4.6     2.2     2.1     1.3     6.3     4.7
    -3.5    -5.5     1.9     2.4    -0.2    -1.4    -5.9    -6.8    -1.9     4.7
     0.0    -7.4    -8.9     0.9     6.6   -12.0    -4.4     4.9   -13.0    -1.1
     1.8   -12.5     5.8     5.4    -6.8     3.6    -6.5    -3.5     6.3    -9.3
     0.5     4.8    -7.4    -0.1    -2.1    -6.2     6.5     9.7    -2.1    -5.2
   -11.2   -19.6    -4.1     3.1    -6.0    -5.4     2.1     5.5     1.9     0.6
    -0.2     1.4     4.9     6.4     0.5   -14.2   -10.3     0.1    -5.5    -6.8
    -1.9     6.3     5.9    -4.8     3.8     6.5     2.0     7.6    -1.9    -3.0
     5.0     2.5    -8.4   -11.0     4.2     1.9     0.7     2.0    -6.5     8.1
     8.5    -8.3    -5.1    -4.5    -3.2   -13.0   -22.0     2.0     3.6    -3.4
     7.8    -0.7    -6.7     5.1     3.8    -6.7     4.0    17.0    11.6     0.1
     6.3    15.1    -0.8    -2.3     0.9    -1.9     5.7     6.3     3.8    -3.4
    -2.9     0.1    -2.1     3.8    -1.8    -7.8    -2.0    -1.3     0.4    -4.0
    -7.0     0.4    -5.9    -1.2     5.8    -8.0   -10.6    -4.9     5.4     5.3
    -3.8     2.8     6.6     4.4     4.5    -2.6   -10.6    -4.4     0.4    -2.0
     0.9    -3.8   -11.5    -1.9     4.4    -1.5     6.5     8.8    -5.9    -6.3
     1.8    -3.1    -0.6     2.3    -9.0    -2.1    -3.1   -10.8     4.9     2.1
    -6.0    -5.0    -4.9    -0.9    -9.8    -4.2     6.0     1.4    10.0     1.2
   -11.2    -2.0     0.6    -1.0   -10.5   -14.3    -3.0     5.1     8.2     7.0
     3.0    -2.9     9.1    16.5    -3.8   -10.8    -2.4     7.0     0.9   -10.2
     0.2     6.0     0.4    -0.3     9.7     1.9    -9.5     6.6     0.3    -7.3
     7.7     3.4     3.8     4.9    -3.6     9.8     5.7   -11.4    -5.1    -9.5
    -7.3     1.0    -0.0     6.5    -2.9    -5.5    -1.7    -8.0     4.8     9.5
     7.6     8.9    -0.8    -1.5     1.5    -2.4    -4.0     2.2     0.6    -5.9
     6.2    15.9     9.5    -0.1    -8.4    -8.3     2.5     4.3    -6.6    -5.2
     0.1     0.9    11.5    11.5     2.6     0.4    -4.1     2.7     3.4    -5.3
     0.1    -3.0    -6.8     0.5     1.8     7.9     8.1     0.2    13.7    11.5
    -3.1     6.2     2.2     0.1     3.3    -3.6     5.8     2.6    -4.1     2.4
    -2.8    -1.3    -1.0     1.7    -0.7    -6.1    12.5     4.7    -1.3     0.3
   -15.8    -2.7    -0.5    -9.0     5.6     5.0    -8.7    -2.8     3.4    -4.4
    -4.5     0.3     6.0     1.3    -8.2    -6.3     1.5    12.5     5.1    -8.9
    -4.3    -0.2    -0.3     2.3    -3.1    -9.8    -6.2    -1.3    -7.3    -7.8
     3.9     5.0     4.7     2.6    -2.4    -3.0    -4.5     1.9    -4.9    -7.1
     8.6     5.8     3.8    -0.4    -7.0    -0.1    -7.5    -1.1    12.8    -4.1
    -3.5     2.7    -8.6    -6.5    -9.9    -8.3     7.8     6.4     2.0     4.8
     7.6     8.5     0.9    -0.6     5.3     4.3    -4.5    -4.3     6.5     2.4
    -4.1     2.3     4.8    -1.8    -3.1     3.2     7.9     5.8    -8.9    -9.0
     2.4     2.8     3.4    -3.4    -6.4    -2.3     3.4    12.0     1.6    -4.8
    -0.0    -1.9     0.3     5.1    11.3    12.7     9.1    -0.4    -4.8     4.0
     7.8     9.4     0.4    -0.5    -2.6   -21.5    -6.2    -1.0    -5.2    11.6
     5.3     9.2     4.8    -9.1     3.7     0.3    -5.1     6.5    12.8     3.5
    -2.2    -5.9    -7.7     5.2    -0.6    -0.8     9.0     0.7    -4.3    -3.0
    -0.3     3.7    12.8     8.1    -4.8     9.3    16.4    -1.2     2.9     9.5
     0.3    12.9    10.1    -4.5    -0.4    -9.4   -10.3    -1.8    -5.5    -4.4
    -2.2    -6.5    -1.6     5.4     0.7     2.8     1.9    -8.1    -3.9     5.4
    -0.6   -12.2    -3.7     5.7     1.3     8.3     5.8    -6.5     0.7     1.5
    -0.4     5.6    -3.0    -9.2    -4.7     8.6    13.0    -7.0    -3.7     6.1
    -5.0    -4.8    -3.9    -1.6     1.7     1.3     7.9     5.8    -1.4    -7.5
    -7.2    -1.4    -4.1     0.5     5.6    -4.1    -5.7    -0.2     1.2    -2.4
    -6.8    10.3     6.3    -8.3    10.2    -1.7    -3.1     8.6    -1.5     8.8
    -0.8    -0.1     2.2    -4.8     5.7    -4.5     6.3     6.0     1.6    11.9
    -4.6     4.2     9.0     3.1    -1.4   -15.7    -5.4     2.3    -0.5    -2.5
     1.3     6.3     2.7     4.1    -3.0    -4.1     3.4    -3.8    -4.5     1.1
     2.6     5.1     3.8     2.5     4.3     0.8    -0.4     8.4     8.1    -0.9
     3.7     7.4     0.4     0.6    -1.6    -5.9     3.2    -1.6   -16.5   -10.9
    -5.9    -9.2    -1.5     1.8   -13.5    -7.5     9.4    -6.1    -0.6    11.0
    -4.0     3.6    -1.0    -6.3     7.7    -4.1     0.8    11.3    -1.8    -6.7
    -9.5    -2.2    -1.5   -12.6    -7.9    -7.1    -0.3    12.4     8.1     1.2
    -1.5     3.3     9.0     6.9     7.7     7.2    -1.4    -4.6     2.6     4.1
    -4.7    -7.0    -7.9   -12.0     0.8     4.4    -2.4     5.3    -1.1    -6.7
    -2.6     0.9     4.4    -4.0     2.5     5.8     1.5     4.1    -9.4    -7.9
    -1.8     1.0     7.0    -2.1     4.5     1.6   -10.8     0.4     1.5    -6.5
    -4.0     4.1    -0.8    -9.5    -0.7     5.4     6.1     3.3    -2.2     7.8
     9.9    -0.3    -3.1    -3.8     2.5    -4.6    -9.7     1.7    -0.1     1.3
     2.3    -3.0    -6.2    -2.2     4.3    -2.8    -5.5     0.3     7.0     2.5
     0.3    10.2     2.5    -2.7     4.7     5.9     3.0     5.5     6.9    -1.0
     4.0     0.2   -13.5    -2.0     1.8    -2.6    -3.2    -5.2    -2.2    -6.0
    -2.3    -3.8   -11.8     4.1    19.9    11.7   -11.2   -16.3    -5.2    -0.5
    -0.3    -5.7     0.9     7.4     8.1    12.5    -1.4    -1.2     7.9    -0.1
    -0.8    -3.5     3.2     4.9    -8.2     6.5     5.9    -7.7     3.6     2.4
    -0.5    -1.3    -1.3     4.1    -3.0     1.1     4.9    -4.5    -4.6     0.9
     0.8    -2.0     2.3     9.4     7.8    -3.0    -0.8     5.2     8.3     6.8
    -4.0    10.2     7.4   -10.0     1.1     4.7     7.3     7.8     2.4     0.7
    -5.1     1.4    11.5    -0.4   -10.4     0.5    -4.3   -12.4     0.0     0.8
    -7.8    -5.6     2.7     5.6     5.7     8.6     1.7    -6.7     0.1    -5.8
   -10.5     8.3    -1.7    -8.5     5.5    -7.6    -3.5     6.1     2.7     3.3
    -6.8     1.8    -0.8   -10.7     8.5     5.1    -1.5     4.5    -8.4    -4.8
