Uncorrected accelerogram 20160214_001343_ASHS_20 GNS Science
Site ASHS      43 16 28S  172 35 45E     Cusp file:  20160214_001349_ASHS
Ashley School
Instrument Cusp_42220
Resolution: 18-bit   Instr Period: 0.0050 s   Damping: 0.700
Accelerogram 20160214_001343_ASHS_20                 Processed 2016 February 22
11 km east of CHRISTCHURCH
2016 February 14         00:13:43 UT
Epicentre  43 29 50S 172 45 18E  Bearing S27E  Dist   28km  Depth    8km M  5.70
Number of points  34470    Duration 172.34 s
Raw readings in units of 1.00 mm/s/s  at intervals of 0.005 s
Data is unfiltered
Component S85E
Acceleration:  Peak    239.3 mm/s/s at  44.88 s     RMS    17.22 mm/s/s
Velocity record unevaluated
Displacement record unevaluated
    2016       2      14       0      13     430       0       0    2016       2
      43      29      50     172      45      18       8       0      14       0
      43      16      28     172      35      45      95      95     153      28
   34470       0       0   34470       0       0       0       0      13    9610
   200.0    0.70    0.00   0.000  0.0000   0.000   0.000   1.000     0.0    0.00
  43.274 172.596  43.497 172.755    5.70    0.00    0.00    0.00      0.      0.
  172.34    0.00    0.00  172.34  0.0050  0.0050      0.      0.      0.  9806.6
   239.3   44.88    17.2      0.      0.     0.0    0.00     0.0     0.0   0.000
    0.00    0.00    0.00    0.00   0.000    0.00    0.00    0.00    0.00   0.000
   0.000   0.000   0.000      0.      0.   0.000   0.000   0.000      0.      0.
     0.1    -0.0     0.1    -0.0     0.0     0.1    -0.0     0.1     0.1    -0.1
    -0.1     0.1    -0.1    -0.0     0.2    -0.0    -0.1    -0.0     0.0     0.2
     0.0    -0.1     0.0     0.0     0.1     0.1    -0.2    -0.0    -0.0    -0.0
     0.1     0.0     0.1    -0.0    -0.0     0.1    -0.0     0.0    -0.1    -0.2
    -0.0     0.0    -0.0     0.1     0.0    -0.1     0.0     0.1    -0.0     0.0
     0.1    -0.0     0.0    -0.0    -0.0     0.1    -0.1    -0.1    -0.0    -0.2
    -0.2     0.0    -0.0    -0.1    -0.0     0.1    -0.0     0.1     0.2    -0.0
     0.0     0.1    -0.0     0.1     0.1     0.0     0.0    -0.2    -0.1     0.0
    -0.0    -0.1    -0.2    -0.1     0.1    -0.1    -0.1     0.1    -0.1    -0.2
     0.0    -0.0    -0.2    -0.1     0.1    -0.1    -0.2     0.0    -0.0    -0.2
    -0.0     0.0    -0.1    -0.1    -0.1    -0.1    -0.1    -0.1     0.1     0.0
    -0.1    -0.0    -0.0     0.0    -0.0    -0.1    -0.1    -0.2    -0.3    -0.0
    -0.1    -0.1     0.2     0.0    -0.1     0.0    -0.1    -0.3     0.0     0.1
    -0.1    -0.0    -0.1     0.0     0.1    -0.1    -0.2     0.1     0.1     0.1
     0.1    -0.1    -0.2    -0.2    -0.1    -0.0    -0.1     0.1     0.2     0.1
     0.1     0.1     0.0    -0.0     0.0     0.1     0.0    -0.0     0.0    -0.1
    -0.1     0.1     0.0     0.1    -0.0    -0.1     0.1     0.1     0.1    -0.1
    -0.2    -0.1    -0.1    -0.1     0.0     0.1     0.0    -0.1     0.1     0.2
     0.0    -0.2    -0.0     0.0    -0.0     0.0     0.1     0.0    -0.0    -0.2
    -0.1    -0.0    -0.2    -0.3    -0.0     0.1    -0.0     0.0    -0.0    -0.1
    -0.0    -0.1    -0.2    -0.2    -0.1     0.1    -0.0     0.1     0.0    -0.2
     0.1    -0.1    -0.1     0.2     0.0    -0.0     0.2     0.1    -0.1     0.1
     0.1    -0.1     0.1    -0.1    -0.1     0.2    -0.0    -0.0     0.1     0.1
     0.0    -0.0     0.1     0.2     0.1    -0.1    -0.1    -0.1    -0.0     0.0
    -0.1    -0.3    -0.0    -0.1    -0.1     0.1     0.1    -0.0    -0.1     0.0
     0.1     0.0    -0.0    -0.0     0.0     0.0     0.2     0.1    -0.2     0.1
     0.0    -0.0     0.2     0.1    -0.0     0.0     0.0    -0.0    -0.2    -0.2
    -0.0    -0.0    -0.0    -0.0    -0.0    -0.1    -0.2    -0.1     0.1    -0.0
    -0.0    -0.1    -0.1     0.0    -0.2    -0.3     0.1    -0.0    -0.2    -0.1
    -0.2    -0.1    -0.0     0.0    -0.0    -0.1     0.1    -0.1    -0.3    -0.0
     0.1    -0.0    -0.2    -0.0    -0.1    -0.1    -0.0    -0.2    -0.1    -0.2
    -0.2     0.1    -0.0    -0.2    -0.1    -0.1    -0.1    -0.1     0.0     0.0
     0.0    -0.0    -0.1    -0.2    -0.1    -0.1    -0.1    -0.1    -0.1    -0.1
    -0.1    -0.1    -0.1    -0.0    -0.1    -0.1     0.1    -0.0    -0.2    -0.2
    -0.0    -0.0    -0.2    -0.0    -0.1    -0.1     0.1    -0.1    -0.2     0.1
    -0.1    -0.2     0.1    -0.1    -0.0     0.0    -0.2    -0.1    -0.1    -0.1
    -0.0    -0.1    -0.1    -0.1    -0.1     0.0    -0.2    -0.2    -0.2    -0.1
    -0.1    -0.1    -0.2    -0.2    -0.1    -0.0    -0.2    -0.2    -0.1    -0.0
    -0.0    -0.2    -0.0    -0.1    -0.2    -0.1    -0.2     0.0     0.0    -0.2
    -0.1    -0.1     0.0    -0.1    -0.2    -0.1    -0.2    -0.2    -0.1    -0.3
    -0.2    -0.2    -0.2    -0.1    -0.2    -0.1    -0.1    -0.1    -0.0    -0.1
    -0.0    -0.1    -0.2    -0.1    -0.1    -0.0    -0.0    -0.1    -0.0    -0.1
    -0.3    -0.2    -0.0     0.1    -0.2    -0.3     0.1    -0.1    -0.1     0.2
    -0.0    -0.2     0.0     0.1    -0.1    -0.1    -0.0    -0.1    -0.3    -0.3
    -0.0     0.1    -0.1    -0.2    -0.2    -0.1     0.1    -0.2    -0.2    -0.0
    -0.1    -0.1    -0.1     0.0     0.1    -0.1    -0.1    -0.1    -0.2    -0.3
    -0.2    -0.0    -0.0    -0.0    -0.0    -0.2    -0.0     0.1    -0.1    -0.2
    -0.1    -0.1    -0.3    -0.1     0.0    -0.2    -0.1     0.0    -0.1    -0.0
    -0.1    -0.1     0.1     0.0     0.1     0.0    -0.2    -0.0     0.1    -0.2
    -0.1     0.1     0.1     0.1    -0.0     0.0    -0.0    -0.0     0.2     0.0
    -0.1    -0.1    -0.2     0.0    -0.1    -0.1     0.0    -0.1    -0.0     0.0
    -0.1     0.0     0.1    -0.0    -0.0     0.1     0.0    -0.1    -0.2    -0.1
     0.0     0.0     0.0    -0.0    -0.0     0.1    -0.1    -0.1     0.0    -0.0
     0.0    -0.1    -0.1     0.1     0.1     0.1    -0.0    -0.0     0.0    -0.1
    -0.1     0.1    -0.1    -0.2    -0.2    -0.0    -0.0    -0.1    -0.0    -0.1
    -0.2    -0.0    -0.0    -0.0     0.0    -0.1    -0.1    -0.1    -0.2    -0.1
    -0.1    -0.2    -0.2     0.0    -0.0    -0.1     0.0    -0.0    -0.0    -0.2
    -0.3    -0.1    -0.1    -0.2    -0.1    -0.2    -0.2    -0.1    -0.0    -0.1
    -0.1    -0.2    -0.2    -0.1    -0.2    -0.0    -0.1    -0.3    -0.1    -0.0
    -0.2    -0.1     0.1    -0.0    -0.1    -0.2    -0.1     0.0    -0.3    -0.3
    -0.0    -0.1    -0.1    -0.0    -0.1    -0.1    -0.1    -0.1    -0.1     0.1
     0.1     0.1     0.2     0.0    -0.1    -0.1    -0.1    -0.1    -0.1     0.0
    -0.0     0.1     0.1     0.1    -0.0    -0.1    -0.1    -0.0    -0.1    -0.1
    -0.1    -0.2    -0.2    -0.2    -0.1     0.1    -0.1    -0.1    -0.1    -0.1
     0.1    -0.0    -0.1     0.0     0.1    -0.0    -0.1    -0.1    -0.0     0.0
    -0.1    -0.1    -0.0    -0.1     0.1     0.0    -0.1     0.1    -0.1    -0.1
     0.0    -0.1     0.0     0.1     0.0    -0.0    -0.1    -0.1    -0.0    -0.0
    -0.0    -0.1    -0.0    -0.0    -0.2     0.0     0.1    -0.2    -0.1    -0.1
    -0.1    -0.0    -0.1    -0.1    -0.2    -0.1     0.0     0.1    -0.1    -0.0
     0.0    -0.3    -0.2    -0.0    -0.2    -0.0     0.0    -0.2    -0.2    -0.2
    -0.2    -0.2    -0.0     0.0     0.0    -0.1    -0.2    -0.1    -0.1    -0.2
    -0.0     0.0     0.0     0.1     0.1    -0.0     0.1     0.2     0.1     0.0
     0.1    -0.0    -0.2    -0.3    -0.3     0.1     0.1    -0.0    -0.1     0.1
    -0.0    -0.2     0.0    -0.0    -0.2    -0.0     0.1     0.0    -0.0    -0.1
    -0.2    -0.1    -0.1    -0.2    -0.2     0.1     0.1    -0.1    -0.1    -0.1
    -0.1    -0.0    -0.1    -0.1     0.0     0.1     0.1    -0.0     0.1     0.1
    -0.1     0.0     0.0     0.1     0.2     0.1    -0.0    -0.2    -0.3    -0.2
    -0.1    -0.1    -0.1    -0.1     0.0     0.0    -0.2    -0.3    -0.2     0.0
    -0.0    -0.1     0.1    -0.1    -0.1    -0.1    -0.2    -0.1    -0.1    -0.0
     0.1     0.1    -0.0    -0.1    -0.2    -0.0    -0.1    -0.3     0.0    -0.1
    -0.2     0.2     0.1    -0.1    -0.2    -0.2     0.1    -0.1    -0.1     0.0
     0.0    -0.0    -0.2    -0.1     0.0     0.0     0.1    -0.2    -0.2    -0.0
    -0.3    -0.1     0.0    -0.0     0.0    -0.1    -0.1     0.0     0.1     0.2
     0.1    -0.0     0.1    -0.1    -0.1     0.1     0.3    -0.0    -0.3    -0.0
    -0.1    -0.2     0.0     0.0    -0.1    -0.1    -0.1     0.1     0.1    -0.2
     0.0     0.1    -0.2    -0.1    -0.2    -0.3     0.0    -0.2    -0.1     0.1
    -0.2    -0.2     0.0     0.1    -0.2    -0.3    -0.1    -0.0    -0.0    -0.0
     0.0     0.0    -0.0     0.0     0.1     0.1    -0.1    -0.0     0.1    -0.2
    -0.0     0.0     0.1     0.1    -0.3    -0.1     0.1     0.0    -0.0     0.0
     0.1    -0.1    -0.1     0.1    -0.0    -0.1    -0.0     0.0     0.0    -0.1
     0.0     0.2     0.0     0.1    -0.0    -0.2     0.0     0.1    -0.1     0.1
     0.2     0.0    -0.1     0.0     0.0    -0.0     0.1    -0.0    -0.1    -0.1
    -0.2    -0.1    -0.1     0.0     0.0    -0.0     0.1     0.0    -0.0     0.1
     0.0     0.0    -0.2    -0.1     0.2    -0.1    -0.3     0.0     0.1    -0.0
    -0.1    -0.0     0.1     0.1     0.1    -0.0    -0.1     0.1     0.0    -0.1
     0.0    -0.1     0.0     0.2     0.1     0.1    -0.2     0.1     0.3    -0.0
    -0.1    -0.0     0.1     0.1     0.1     0.1    -0.0    -0.0     0.0     0.1
     0.1     0.0     0.1    -0.0     0.1     0.1    -0.1    -0.0     0.0     0.1
    -0.1    -0.3    -0.1    -0.1     0.0     0.1    -0.1     0.0     0.2     0.1
    -0.1    -0.1    -0.1    -0.1    -0.2    -0.2    -0.0    -0.2    -0.1     0.0
    -0.1     0.1     0.2     0.1    -0.1    -0.0     0.2     0.1     0.0     0.1
     0.1     0.0     0.0     0.0     0.0     0.1     0.1    -0.1    -0.1    -0.0
    -0.2    -0.1     0.0    -0.0     0.2     0.2    -0.1    -0.1    -0.0    -0.0
    -0.0    -0.1     0.1    -0.1    -0.2     0.0    -0.1    -0.1    -0.0    -0.0
     0.0    -0.3    -0.4    -0.2     0.0     0.0     0.0     0.1     0.1     0.1
     0.0    -0.1     0.1    -0.1    -0.2     0.0     0.1     0.1    -0.2    -0.1
     0.1     0.0    -0.1    -0.1     0.0     0.2    -0.1    -0.2    -0.1    -0.2
    -0.2    -0.1    -0.1    -0.0     0.1     0.2     0.1    -0.1     0.1    -0.1
    -0.2    -0.0    -0.0     0.1    -0.1    -0.1    -0.1    -0.3    -0.2    -0.1
    -0.1     0.0    -0.0    -0.0     0.1    -0.1    -0.0     0.2    -0.1    -0.1
    -0.1    -0.1    -0.0    -0.1    -0.0     0.1    -0.2    -0.1     0.2    -0.1
    -0.0    -0.1    -0.2     0.1    -0.0    -0.0     0.2    -0.1     0.0     0.1
     0.0    -0.1    -0.1    -0.0     0.1     0.1    -0.1    -0.2    -0.2    -0.1
     0.0    -0.0    -0.1    -0.1    -0.1    -0.2    -0.1     0.0    -0.1    -0.3
    -0.2     0.0     0.0    -0.1    -0.1    -0.2    -0.1     0.3    -0.0    -0.2
    -0.0    -0.1    -0.2    -0.1    -0.0    -0.1    -0.0    -0.1    -0.1    -0.2
    -0.3    -0.2     0.1     0.1    -0.2    -0.1    -0.0    -0.2    -0.1     0.0
    -0.1     0.0     0.1    -0.1    -0.1    -0.1    -0.2    -0.2    -0.1    -0.1
     0.0     0.2    -0.0    -0.2     0.0    -0.0    -0.0     0.1    -0.1    -0.2
    -0.2     0.0    -0.1    -0.2     0.1     0.1    -0.0     0.0     0.1     0.1
     0.0    -0.0    -0.1    -0.1     0.0    -0.1    -0.2    -0.2    -0.1    -0.0
    -0.2    -0.2    -0.1    -0.1    -0.1    -0.1     0.1     0.1    -0.2     0.0
     0.0     0.0     0.1    -0.1    -0.0     0.1    -0.1    -0.1    -0.1    -0.0
    -0.1    -0.1     0.1    -0.1    -0.1     0.1    -0.0    -0.2    -0.1    -0.2
    -0.1     0.1     0.0     0.0    -0.0    -0.0     0.0    -0.1    -0.1    -0.1
    -0.0    -0.1    -0.1    -0.0    -0.2    -0.0     0.1    -0.2    -0.3    -0.2
    -0.0    -0.0    -0.1    -0.2    -0.1    -0.1    -0.3    -0.3    -0.1    -0.2
    -0.1    -0.1    -0.1     0.1    -0.1    -0.1    -0.1    -0.3    -0.2    -0.2
     0.1     0.2    -0.0    -0.1    -0.1    -0.1    -0.2    -0.3     0.0     0.2
     0.1     0.1     0.1     0.1    -0.2    -0.3    -0.0    -0.1     0.1     0.2
     0.2     0.0    -0.2    -0.2    -0.2     0.0     0.1    -0.2     0.1     0.1
    -0.1     0.0    -0.1    -0.0     0.1     0.1     0.1     0.1     0.1    -0.1
    -0.2     0.0    -0.0     0.1     0.2    -0.0    -0.0    -0.1    -0.1    -0.1
    -0.2    -0.1    -0.1    -0.1     0.1    -0.1    -0.4    -0.0     0.2    -0.1
    -0.0     0.1    -0.1    -0.1    -0.1    -0.1    -0.2    -0.3     0.0     0.0
    -0.1    -0.0    -0.0     0.0    -0.1    -0.3    -0.4    -0.1     0.1    -0.0
    -0.1    -0.2    -0.0     0.0    -0.1    -0.0    -0.2    -0.3     0.1     0.2
     0.2     0.1    -0.1     0.0    -0.2    -0.2     0.0     0.0    -0.1    -0.1
     0.1    -0.1    -0.2    -0.2    -0.2     0.1    -0.1    -0.1     0.0    -0.3
    -0.4    -0.2    -0.1    -0.2    -0.2    -0.1    -0.0    -0.0    -0.0    -0.2
    -0.1    -0.1    -0.1     0.1     0.0    -0.2    -0.2    -0.0     0.1    -0.1
     0.1     0.1     0.1    -0.0    -0.2    -0.1    -0.0    -0.2    -0.0     0.1
     0.2     0.2     0.1    -0.1    -0.1    -0.1    -0.2    -0.2    -0.1     0.0
    -0.0    -0.2    -0.0     0.2    -0.1    -0.1    -0.0    -0.2    -0.2    -0.3
    -0.1     0.1    -0.2    -0.1     0.0    -0.2    -0.2    -0.2    -0.2    -0.2
    -0.2    -0.1     0.0    -0.0    -0.0    -0.2    -0.3    -0.1    -0.1    -0.1
     0.1    -0.0    -0.1    -0.1    -0.1    -0.0    -0.0    -0.1    -0.2     0.0
     0.1    -0.0     0.1     0.0    -0.3    -0.2    -0.0     0.0    -0.1     0.0
     0.2    -0.0    -0.2    -0.1    -0.0    -0.0     0.0    -0.2    -0.1     0.1
    -0.2    -0.0     0.0    -0.1    -0.0     0.0     0.2     0.1    -0.3     0.1
     0.2    -0.0    -0.1    -0.1     0.1    -0.2    -0.4    -0.2     0.0     0.1
     0.0     0.0     0.1    -0.0    -0.4    -0.1     0.1    -0.2     0.1     0.1
    -0.1    -0.1    -0.2    -0.1     0.2    -0.1    -0.1    -0.2    -0.0     0.3
    -0.0    -0.2    -0.0    -0.1    -0.1     0.0    -0.1    -0.3    -0.1     0.0
    -0.2    -0.0    -0.0    -0.2    -0.0     0.1     0.1     0.2    -0.0    -0.1
     0.1     0.1    -0.2    -0.3    -0.0    -0.0     0.0     0.0    -0.1     0.1
    -0.1    -0.2    -0.1    -0.1     0.0    -0.1    -0.2    -0.0    -0.1    -0.1
     0.1    -0.0    -0.1    -0.2    -0.1    -0.0    -0.2    -0.2    -0.2    -0.1
    -0.0    -0.2    -0.1    -0.2    -0.3    -0.2    -0.2     0.1     0.2     0.1
    -0.1    -0.1     0.0    -0.1    -0.2    -0.2     0.0     0.0    -0.0     0.0
    -0.1    -0.1    -0.2    -0.1     0.1    -0.2    -0.1     0.2    -0.1    -0.0
     0.0    -0.1    -0.1    -0.0    -0.1    -0.1     0.1    -0.0    -0.1     0.1
    -0.0     0.1     0.1    -0.1    -0.1    -0.0    -0.1    -0.1     0.0    -0.0
    -0.1    -0.0    -0.0    -0.0    -0.1    -0.2    -0.1     0.1     0.1    -0.1
    -0.2    -0.1    -0.1    -0.2    -0.1     0.1     0.0     0.1     0.1    -0.1
    -0.2    -0.2    -0.2    -0.1    -0.1     0.2     0.3    -0.2    -0.2    -0.2
    -0.4    -0.1     0.0     0.1     0.2     0.1     0.1    -0.1    -0.1     0.1
     0.2     0.1     0.0     0.1     0.0    -0.1    -0.0    -0.2    -0.1    -0.0
    -0.0    -0.1    -0.2    -0.1    -0.2    -0.2     0.1     0.0    -0.2    -0.3
    -0.3    -0.1     0.0     0.1    -0.1    -0.2     0.1    -0.2    -0.3    -0.1
    -0.1     0.1     0.1     0.0     0.0    -0.0    -0.0     0.0    -0.1    -0.4
    -0.2    -0.0     0.0     0.1    -0.1    -0.1     0.1    -0.1    -0.3    -0.2
     0.0     0.2     0.1    -0.0    -0.1    -0.1    -0.0    -0.1    -0.1    -0.0
     0.1    -0.1    -0.2    -0.0    -0.2    -0.1     0.0     0.2     0.2    -0.2
    -0.1     0.0    -0.2    -0.2    -0.2     0.1     0.3    -0.1    -0.3    -0.1
    -0.1    -0.2    -0.0    -0.1     0.0    -0.0    -0.3    -0.0     0.2    -0.0
    -0.3    -0.1    -0.1    -0.2    -0.2    -0.2    -0.1     0.0     0.0    -0.0
    -0.3    -0.3    -0.0    -0.2    -0.2     0.0     0.1    -0.1     0.0     0.1
    -0.1    -0.0    -0.1    -0.2     0.1     0.1     0.0     0.2    -0.0    -0.1
    -0.1    -0.1     0.1    -0.1    -0.2    -0.1    -0.1     0.0     0.1    -0.1
    -0.2     0.0    -0.0    -0.2     0.1    -0.1    -0.2    -0.1    -0.0     0.0
    -0.1    -0.2     0.0    -0.0    -0.2    -0.1     0.0    -0.1    -0.0    -0.1
    -0.1    -0.1    -0.1     0.0    -0.1    -0.1     0.1    -0.1    -0.1    -0.2
    -0.1    -0.0    -0.1    -0.2    -0.0    -0.1    -0.1     0.1     0.1     0.1
     0.1     0.2    -0.1    -0.3    -0.1     0.1    -0.1    -0.1     0.0    -0.0
    -0.2    -0.1    -0.0     0.0     0.0    -0.1     0.0    -0.1    -0.3     0.0
    -0.0     0.1     0.3     0.1    -0.1    -0.1    -0.0    -0.0    -0.0    -0.1
     0.1     0.2     0.1     0.1     0.0    -0.0     0.0     0.1    -0.1    -0.1
    -0.1    -0.1    -0.1    -0.2     0.0     0.0    -0.1     0.0     0.0     0.2
    -0.0    -0.1     0.2    -0.1    -0.0     0.1    -0.1    -0.1    -0.1     0.1
     0.0    -0.2     0.0    -0.0    -0.1    -0.0    -0.1    -0.2     0.0     0.0
     0.0     0.2     0.1     0.1     0.0    -0.2    -0.1     0.1     0.1     0.1
     0.0    -0.1    -0.1    -0.2    -0.3     0.1     0.2     0.0     0.1     0.0
     0.0    -0.1    -0.1     0.1     0.0     0.1     0.1    -0.3    -0.2    -0.3
    -0.3     0.0     0.1    -0.1    -0.2    -0.3    -0.1     0.2     0.2     0.1
     0.1    -0.1    -0.2    -0.0    -0.0    -0.1     0.1     0.2     0.0    -0.1
    -0.0    -0.0    -0.0    -0.0    -0.2    -0.2     0.1    -0.1    -0.3    -0.0
    -0.0    -0.1     0.2     0.1    -0.1    -0.1    -0.2    -0.1    -0.1    -0.0
     0.0    -0.2    -0.1    -0.0    -0.0     0.0    -0.1    -0.1     0.0    -0.1
    -0.1    -0.2    -0.3    -0.1     0.0    -0.1    -0.3    -0.1    -0.1    -0.1
    -0.0    -0.1    -0.0     0.2     0.1    -0.1    -0.1    -0.1    -0.0     0.1
    -0.1    -0.0     0.2    -0.1    -0.3    -0.0     0.2     0.1     0.0     0.0
     0.1     0.1     0.0    -0.0    -0.0     0.1     0.1    -0.1     0.1     0.0
    -0.2     0.1     0.3     0.1     0.1     0.1     0.1     0.1    -0.1    -0.2
    -0.1     0.2     0.0    -0.2    -0.2     0.1     0.1    -0.1    -0.2    -0.3
    -0.1     0.1     0.0     0.0     0.0     0.0    -0.0    -0.0     0.0    -0.2
    -0.0     0.2    -0.0    -0.0    -0.1    -0.1    -0.2    -0.2    -0.1    -0.0
     0.1    -0.0    -0.2    -0.1    -0.2     0.0     0.1    -0.1    -0.0    -0.1
    -0.2    -0.1    -0.1    -0.1     0.1    -0.1     0.1     0.3    -0.2    -0.2
     0.0    -0.1    -0.1    -0.0     0.0    -0.1    -0.2    -0.1    -0.1    -0.0
    -0.2    -0.1    -0.1    -0.3     0.0    -0.0    -0.1     0.0    -0.1    -0.1
    -0.1    -0.0     0.0    -0.2    -0.0    -0.0    -0.0    -0.0    -0.1     0.1
     0.1    -0.0    -0.1    -0.2    -0.2    -0.1    -0.0    -0.0     0.1    -0.1
    -0.2    -0.1    -0.2    -0.2    -0.0     0.0     0.1    -0.0    -0.1    -0.0
    -0.1    -0.1    -0.1    -0.1    -0.0    -0.0    -0.2    -0.3    -0.2    -0.0
    -0.1    -0.3     0.0     0.2    -0.0    -0.2    -0.3    -0.2    -0.0     0.0
     0.0    -0.0    -0.0     0.1    -0.0    -0.0     0.0    -0.0     0.1    -0.0
    -0.0    -0.1    -0.1     0.0    -0.0     0.1     0.1    -0.1    -0.0    -0.1
    -0.1     0.2     0.0    -0.2    -0.2    -0.0     0.1     0.2     0.0    -0.3
    -0.1    -0.0    -0.3    -0.1     0.0     0.1     0.1    -0.1    -0.1     0.0
     0.1    -0.0    -0.0     0.1     0.1     0.1    -0.0    -0.0     0.1     0.1
    -0.1    -0.1     0.1    -0.1    -0.1    -0.1     0.1     0.2    -0.0    -0.1
    -0.1    -0.2    -0.1    -0.1    -0.1    -0.1     0.1     0.1     0.0     0.0
     0.0    -0.1    -0.0     0.0     0.0     0.0     0.1     0.3     0.1    -0.3
    -0.2    -0.3    -0.3    -0.1     0.2     0.1     0.0     0.1    -0.2    -0.1
     0.1    -0.2    -0.0    -0.2    -0.2     0.1     0.1     0.1    -0.3    -0.3
    -0.0    -0.1    -0.1    -0.1    -0.0     0.2    -0.2    -0.3    -0.1    -0.0
