Uncorrected accelerogram 20160214_001343_NLMS_20 GNS Science
Site NLMS      41 15 59S  173 16 37E     Cusp file:  20160214_001424_NLMS
Nelson Nelmac
Instrument Cusp_42041
Resolution: 18-bit   Instr Period: 0.0050 s   Damping: 0.700
Accelerogram 20160214_001343_NLMS_20                 Processed 2016 February 22
11 km east of CHRISTCHURCH
2016 February 14         00:13:43 UT
Epicentre  43 29 50S 172 45 18E  Bearing S10W  Dist  252km  Depth    8km M  5.70
Number of points  34777    Duration 173.88 s
Raw readings in units of 1.00 mm/s/s  at intervals of 0.005 s
Data is unfiltered
Component S27W
Acceleration:  Peak     -7.5 mm/s/s at  72.20 s     RMS     1.07 mm/s/s
Velocity record unevaluated
Displacement record unevaluated
    2016       2      14       0      13     430       0       0    2016       2
      43      29      50     172      45      18       8       0      14       0
      41      15      59     173      16      37     207     207     190     252
   34777       0       0   34777       0       0       0       0      13   44355
   200.0    0.70    0.00   0.000  0.0000   0.000   0.000   1.000     0.0    0.00
  41.267 173.277  43.497 172.755    5.70    0.00    0.00    0.00      0.      0.
  173.88    0.00    0.00  173.88  0.0050  0.0050      0.      0.      0.  9806.6
    -7.5   72.20     1.1      0.      0.     0.0    0.00     0.0     0.0   0.000
    0.00    0.00    0.00    0.00   0.000    0.00    0.00    0.00    0.00   0.000
   0.000   0.000   0.000      0.      0.   0.000   0.000   0.000      0.      0.
    -0.1     0.1    -0.0    -0.0    -0.0    -0.2    -0.2    -0.3    -0.1    -0.1
    -0.1     0.1    -0.0     0.1     0.2    -0.1    -0.1     0.1     0.2     0.0
    -0.0     0.1    -0.1    -0.0     0.1    -0.2    -0.2    -0.2    -0.3    -0.2
    -0.0    -0.2    -0.2    -0.2    -0.2    -0.2    -0.1    -0.1     0.0     0.1
    -0.0     0.0     0.1     0.0    -0.1    -0.1    -0.1    -0.2    -0.3    -0.2
    -0.3    -0.3    -0.2    -0.2    -0.3    -0.3    -0.1    -0.1    -0.1     0.0
    -0.2     0.0    -0.1    -0.3    -0.1     0.0    -0.2    -0.1    -0.2    -0.2
    -0.1    -0.2    -0.3    -0.2    -0.2    -0.1     0.0     0.1     0.0    -0.0
    -0.2    -0.3    -0.2    -0.2    -0.2     0.0    -0.0    -0.0    -0.0    -0.1
    -0.1    -0.1    -0.1    -0.0    -0.1     0.0     0.1     0.1     0.1     0.0
    -0.0    -0.1    -0.2    -0.1    -0.1    -0.2    -0.1    -0.1     0.0    -0.1
    -0.2     0.0     0.1     0.1    -0.1    -0.2     0.1    -0.1    -0.1     0.1
    -0.0    -0.0    -0.1    -0.1    -0.0    -0.1     0.1     0.1     0.1     0.0
    -0.1     0.1    -0.0    -0.1    -0.1    -0.2    -0.0     0.0    -0.0     0.1
     0.1     0.0     0.1     0.0     0.0    -0.1    -0.2    -0.1    -0.4    -0.3
     0.0     0.1     0.2     0.3     0.2     0.0    -0.1    -0.2    -0.2    -0.3
    -0.2    -0.1    -0.1    -0.0     0.2     0.2     0.1     0.0     0.0    -0.1
    -0.2    -0.1    -0.1    -0.1     0.0    -0.1    -0.1     0.1     0.2     0.1
     0.1     0.2     0.2     0.2     0.2     0.0    -0.0    -0.1    -0.3    -0.2
    -0.3    -0.4    -0.2    -0.1     0.1     0.1     0.0     0.1     0.1     0.1
     0.1     0.0     0.0    -0.0    -0.1    -0.1    -0.2    -0.2    -0.2    -0.3
    -0.1    -0.1    -0.2    -0.0    -0.0     0.0     0.2     0.1     0.1     0.2
     0.1    -0.1    -0.1    -0.1    -0.1    -0.2    -0.1    -0.0    -0.0    -0.0
    -0.1    -0.0    -0.1     0.0     0.1    -0.1    -0.1    -0.1    -0.1    -0.0
    -0.2    -0.2    -0.1    -0.2    -0.2    -0.2    -0.2    -0.1    -0.1    -0.1
    -0.0    -0.1     0.0     0.2     0.1     0.0     0.1     0.0    -0.0    -0.1
    -0.1    -0.1    -0.2    -0.0     0.1     0.0     0.1     0.1     0.2     0.1
    -0.1    -0.1    -0.2    -0.2    -0.1    -0.1    -0.1     0.0    -0.1    -0.1
    -0.0    -0.1    -0.1     0.0    -0.0    -0.1    -0.1     0.0     0.1     0.1
     0.2     0.2     0.1    -0.0    -0.0    -0.1    -0.3    -0.2    -0.2    -0.3
    -0.1     0.0    -0.1     0.1     0.1     0.0     0.1    -0.0    -0.1    -0.1
    -0.2    -0.1    -0.1    -0.1     0.0    -0.1    -0.0     0.0    -0.1    -0.2
    -0.2    -0.2    -0.2    -0.1    -0.0    -0.1     0.0    -0.0    -0.1     0.1
     0.2     0.0    -0.1    -0.2    -0.1     0.1     0.1    -0.1    -0.0     0.0
    -0.0    -0.0     0.0    -0.0    -0.1    -0.1    -0.2    -0.1    -0.0    -0.2
    -0.0     0.0    -0.0    -0.0    -0.2    -0.2    -0.2    -0.2    -0.3    -0.2
    -0.2    -0.2     0.1     0.2     0.1     0.1    -0.2    -0.2     0.0    -0.0
    -0.2    -0.1    -0.0    -0.1    -0.0    -0.0    -0.0     0.1    -0.1    -0.1
    -0.1    -0.1     0.0    -0.1    -0.2    -0.1    -0.1    -0.0    -0.1    -0.0
    -0.0    -0.0     0.1     0.0    -0.1    -0.1    -0.2    -0.1    -0.1    -0.2
    -0.1    -0.1    -0.0     0.1    -0.1    -0.1    -0.0    -0.0     0.0    -0.0
    -0.0    -0.2    -0.1    -0.0    -0.1    -0.1    -0.0     0.1     0.1    -0.0
     0.1     0.1    -0.0     0.1     0.1     0.0     0.2     0.1     0.1     0.2
     0.1     0.1     0.1     0.1    -0.0    -0.1    -0.0     0.1    -0.0    -0.0
     0.0    -0.1    -0.1    -0.1    -0.0     0.0    -0.2    -0.2    -0.1    -0.1
    -0.0    -0.0    -0.0     0.1     0.1     0.0     0.0    -0.0     0.1     0.2
     0.1     0.0    -0.0    -0.0     0.1     0.0     0.0     0.0     0.0     0.1
     0.1     0.2     0.1     0.0     0.0    -0.1    -0.0     0.0    -0.0     0.1
     0.0    -0.1    -0.1    -0.3    -0.3    -0.2    -0.3    -0.2    -0.0    -0.1
    -0.1     0.0    -0.0    -0.0    -0.0    -0.1    -0.1     0.0     0.0     0.1
     0.1     0.1     0.1     0.1     0.2     0.1    -0.0     0.0    -0.1    -0.1
    -0.1    -0.1    -0.0     0.0    -0.1    -0.0     0.0    -0.0     0.0    -0.0
    -0.1    -0.0     0.1    -0.0    -0.2    -0.1    -0.1    -0.1    -0.0    -0.1
    -0.0     0.0    -0.0    -0.1    -0.1    -0.2    -0.2    -0.2    -0.1     0.0
     0.0    -0.0     0.1     0.1     0.1     0.1    -0.1     0.1     0.0    -0.0
    -0.0     0.1     0.1    -0.2    -0.1    -0.0    -0.0     0.1     0.0    -0.1
    -0.1    -0.1    -0.1    -0.1     0.0     0.0    -0.0    -0.0    -0.1    -0.0
    -0.1    -0.1    -0.2    -0.2    -0.1    -0.0    -0.0     0.1     0.1     0.0
     0.0     0.0     0.0    -0.0    -0.1    -0.1    -0.0    -0.1    -0.0    -0.1
    -0.1    -0.0    -0.1     0.0     0.0    -0.1     0.1     0.0     0.1     0.2
     0.0     0.1     0.0     0.0     0.2     0.1    -0.0     0.1    -0.1    -0.1
     0.0    -0.0     0.0     0.0     0.0     0.0    -0.1    -0.0    -0.1    -0.2
    -0.1    -0.1    -0.1    -0.0    -0.0     0.0    -0.0    -0.0     0.1     0.1
     0.1     0.2     0.2     0.1     0.1     0.1     0.0    -0.1    -0.1    -0.2
    -0.1    -0.0    -0.2    -0.2    -0.1    -0.1    -0.1    -0.1    -0.1     0.0
     0.1     0.1     0.1    -0.1    -0.1    -0.1    -0.0     0.1     0.0     0.0
     0.1     0.0    -0.0    -0.0    -0.0    -0.1    -0.1     0.2     0.0    -0.0
     0.1    -0.1    -0.0    -0.1    -0.2    -0.0    -0.0    -0.1    -0.2    -0.2
    -0.2    -0.2     0.0    -0.1    -0.1     0.1    -0.1    -0.1    -0.0    -0.1
    -0.0    -0.0    -0.0     0.0     0.2     0.1    -0.1     0.0    -0.0    -0.0
     0.0     0.1     0.2     0.1     0.1    -0.1    -0.2    -0.2    -0.4    -0.3
    -0.4    -0.3    -0.0    -0.0     0.0     0.1     0.1     0.0    -0.0     0.0
    -0.0    -0.1    -0.1    -0.2    -0.1    -0.1     0.0     0.1    -0.1     0.1
     0.1    -0.0    -0.0    -0.0     0.1    -0.0    -0.1     0.0    -0.0     0.0
     0.0    -0.1    -0.1    -0.1     0.0     0.0    -0.1    -0.2    -0.1     0.0
    -0.1    -0.2     0.0     0.1    -0.1    -0.1    -0.2    -0.1    -0.1    -0.2
     0.0     0.1     0.0     0.2     0.0     0.1     0.2     0.0    -0.1    -0.2
    -0.1     0.0     0.0     0.1     0.1    -0.0    -0.1    -0.1    -0.1    -0.2
    -0.1    -0.0     0.0     0.0    -0.1    -0.0     0.1     0.1    -0.0    -0.1
    -0.0    -0.1    -0.3    -0.3    -0.3    -0.2     0.0     0.0    -0.1     0.0
     0.1     0.0     0.1     0.1     0.1     0.1     0.0     0.1     0.2     0.0
     0.0     0.2     0.1    -0.0    -0.0    -0.1     0.0    -0.1    -0.1     0.0
    -0.0    -0.0     0.0    -0.1    -0.2    -0.0     0.1    -0.1    -0.2    -0.0
    -0.1    -0.1     0.0     0.0     0.0    -0.0    -0.1    -0.1    -0.0    -0.1
    -0.1    -0.1    -0.1     0.0    -0.0     0.0    -0.0    -0.2    -0.1    -0.1
     0.0     0.1     0.1     0.1    -0.1    -0.2    -0.0    -0.1    -0.2    -0.2
    -0.2    -0.2    -0.0     0.1     0.1     0.1     0.0    -0.1    -0.1    -0.0
    -0.0    -0.0     0.0     0.1     0.2     0.1     0.2     0.1    -0.1     0.1
    -0.0    -0.1    -0.2    -0.3    -0.2    -0.3    -0.3    -0.1    -0.0     0.1
    -0.0     0.0     0.0    -0.2    -0.2    -0.1    -0.0    -0.1     0.0     0.1
     0.1     0.0    -0.1    -0.0    -0.1    -0.0     0.2     0.1     0.1     0.0
    -0.1    -0.1    -0.1    -0.1     0.0    -0.1    -0.0     0.0    -0.1    -0.1
    -0.1    -0.2    -0.0     0.1    -0.1    -0.1    -0.1    -0.3    -0.0    -0.1
    -0.1     0.1     0.0    -0.0     0.0     0.0    -0.0     0.0    -0.0    -0.0
     0.1     0.1     0.1     0.0    -0.1    -0.1    -0.1    -0.1    -0.2    -0.1
    -0.1    -0.2    -0.1    -0.1    -0.1     0.0     0.0     0.0    -0.0     0.0
    -0.0    -0.2    -0.1     0.0    -0.0    -0.1     0.0    -0.1    -0.2     0.0
    -0.0    -0.0    -0.0    -0.0     0.1    -0.0    -0.0    -0.1    -0.1     0.1
    -0.0     0.0     0.1    -0.0     0.1    -0.0    -0.1    -0.1    -0.1    -0.0
    -0.1    -0.1    -0.1    -0.2    -0.1    -0.1    -0.2    -0.1    -0.1    -0.1
    -0.1    -0.1    -0.1    -0.1    -0.1    -0.1     0.0    -0.1    -0.1    -0.0
    -0.2    -0.1    -0.0    -0.0    -0.0    -0.2    -0.2    -0.1    -0.1    -0.1
    -0.2    -0.0    -0.1    -0.3    -0.1    -0.0    -0.1    -0.1    -0.1     0.1
    -0.0    -0.1    -0.1    -0.1    -0.1    -0.1    -0.1    -0.2     0.0    -0.1
    -0.3    -0.1    -0.1    -0.2    -0.1    -0.3    -0.3    -0.2    -0.1    -0.1
    -0.2    -0.0    -0.1    -0.2     0.0    -0.1     0.1     0.0     0.0     0.2
     0.0     0.1    -0.0    -0.1     0.0    -0.2    -0.1    -0.0    -0.3    -0.1
    -0.0    -0.0    -0.1    -0.3    -0.2    -0.2    -0.2    -0.2    -0.1     0.0
    -0.1     0.1     0.1    -0.1     0.1    -0.0    -0.1    -0.0    -0.2    -0.2
    -0.1    -0.0     0.1     0.0     0.0     0.0    -0.1    -0.2     0.0     0.1
    -0.2    -0.0    -0.0    -0.1    -0.1    -0.1    -0.0     0.0     0.0     0.1
     0.0     0.1     0.1     0.0    -0.1    -0.1    -0.0    -0.0    -0.1    -0.1
    -0.2    -0.0     0.1     0.0     0.1    -0.1    -0.1     0.0    -0.2    -0.2
    -0.2    -0.0     0.1    -0.1    -0.1     0.2     0.1     0.0    -0.0    -0.2
    -0.1    -0.2    -0.3    -0.1     0.1     0.0     0.1     0.0    -0.0     0.0
    -0.1    -0.0    -0.0     0.1    -0.0    -0.3    -0.1    -0.0    -0.2     0.0
     0.0     0.1     0.0    -0.1    -0.1    -0.1    -0.1    -0.1    -0.2    -0.2
    -0.1    -0.1    -0.2    -0.2    -0.1     0.1     0.1    -0.2    -0.1    -0.1
    -0.1    -0.0    -0.1     0.0     0.0    -0.1    -0.0    -0.0     0.1     0.2
     0.1     0.0     0.0     0.2     0.0    -0.1    -0.0    -0.1    -0.1    -0.0
    -0.1    -0.2    -0.2     0.0    -0.0    -0.1    -0.1     0.0    -0.0    -0.1
    -0.1    -0.0    -0.1    -0.1     0.1    -0.1    -0.1    -0.0    -0.1    -0.1
    -0.1    -0.1    -0.1    -0.3    -0.1    -0.0    -0.1    -0.0    -0.0    -0.2
    -0.1    -0.1    -0.1     0.0     0.1     0.2     0.1    -0.1     0.0    -0.1
    -0.0    -0.0    -0.2    -0.2    -0.1     0.1    -0.0     0.0     0.0    -0.1
     0.0    -0.0    -0.1    -0.1    -0.1    -0.0    -0.1    -0.1     0.1    -0.0
    -0.2    -0.1    -0.1    -0.1    -0.2    -0.0    -0.1    -0.2    -0.2    -0.3
    -0.2    -0.1    -0.0     0.1     0.0     0.1     0.0    -0.0    -0.1    -0.2
    -0.1    -0.1    -0.0     0.0    -0.0    -0.0    -0.1     0.1     0.1     0.0
    -0.0    -0.1     0.0     0.0    -0.1    -0.1    -0.1    -0.2    -0.1    -0.1
    -0.2    -0.0     0.1    -0.0     0.1     0.0    -0.2    -0.2    -0.3    -0.3
    -0.2    -0.2     0.0    -0.0    -0.3    -0.2    -0.2    -0.1    -0.1    -0.1
     0.1     0.0    -0.1    -0.2    -0.3    -0.1     0.0     0.1     0.0    -0.1
     0.1     0.1    -0.0    -0.0    -0.1     0.0    -0.0    -0.1     0.1    -0.1
    -0.1    -0.1    -0.2    -0.0    -0.1    -0.2    -0.1    -0.2    -0.0    -0.0
     0.0     0.1    -0.0    -0.0     0.1    -0.1    -0.1    -0.0    -0.1    -0.2
    -0.2    -0.1    -0.0    -0.0    -0.0    -0.2    -0.2    -0.1    -0.0    -0.1
    -0.1    -0.2    -0.1    -0.0    -0.0     0.0     0.0     0.1     0.1     0.0
     0.1    -0.0    -0.0    -0.1    -0.1    -0.0    -0.1    -0.2    -0.1    -0.1
    -0.1    -0.1     0.0    -0.1    -0.2    -0.1    -0.1    -0.2    -0.1     0.0
    -0.1    -0.0     0.1     0.0     0.0    -0.1    -0.4    -0.2    -0.2    -0.2
    -0.1    -0.1     0.0    -0.0    -0.1     0.1    -0.2    -0.2    -0.0    -0.2
    -0.1    -0.1    -0.1     0.0     0.0     0.0    -0.0    -0.1    -0.1    -0.2
    -0.2    -0.1    -0.1    -0.0    -0.0     0.0     0.1    -0.1    -0.2    -0.1
    -0.1    -0.1    -0.1    -0.1    -0.1    -0.1    -0.0    -0.1    -0.1    -0.1
    -0.1    -0.2    -0.2     0.0    -0.1    -0.1     0.1    -0.0    -0.0     0.1
     0.0    -0.1    -0.2     0.0    -0.1    -0.0     0.0    -0.1     0.0    -0.1
    -0.2    -0.1    -0.0    -0.1    -0.2    -0.1    -0.2    -0.2    -0.2    -0.2
    -0.1    -0.1    -0.2    -0.0    -0.0    -0.0     0.0    -0.1    -0.2    -0.1
    -0.1    -0.1    -0.0     0.1     0.1    -0.0    -0.1    -0.1    -0.2    -0.2
    -0.1    -0.2    -0.2    -0.1    -0.1     0.0     0.0     0.1     0.2     0.2
     0.2     0.1     0.1    -0.0    -0.1    -0.1    -0.2    -0.3    -0.3    -0.3
    -0.3    -0.3     0.0     0.1    -0.0    -0.0    -0.0    -0.1    -0.1    -0.2
    -0.3    -0.3    -0.3    -0.1    -0.0    -0.0     0.1     0.1     0.1     0.1
     0.1     0.2     0.2     0.0    -0.1    -0.1    -0.2    -0.2    -0.2    -0.2
    -0.2    -0.1    -0.1    -0.1    -0.0     0.1    -0.0    -0.1    -0.1     0.0
    -0.0    -0.1     0.0     0.1    -0.0    -0.0    -0.0     0.1    -0.0    -0.1
    -0.1    -0.2    -0.2    -0.2    -0.1     0.1     0.1     0.2     0.2     0.2
     0.2     0.0     0.0    -0.0    -0.2    -0.1     0.0    -0.0    -0.0     0.0
     0.0    -0.1    -0.2    -0.0    -0.1    -0.1     0.0    -0.1    -0.2    -0.2
    -0.1     0.0     0.1     0.1     0.0    -0.1    -0.1    -0.0    -0.1    -0.3
    -0.1    -0.1     0.0     0.1    -0.1    -0.0     0.0     0.1     0.0    -0.1
     0.1    -0.0    -0.2    -0.1    -0.2    -0.2    -0.2    -0.2     0.0    -0.0
    -0.1    -0.0    -0.1    -0.2    -0.1    -0.1    -0.1    -0.1    -0.1     0.0
     0.0    -0.0     0.0    -0.0    -0.0     0.0    -0.0     0.0     0.1    -0.0
    -0.1    -0.1    -0.1     0.0     0.0     0.1     0.1     0.1     0.1    -0.0
    -0.0    -0.0    -0.1    -0.1    -0.2    -0.1    -0.2    -0.2    -0.0    -0.1
    -0.2    -0.1    -0.2    -0.1    -0.1    -0.2     0.0    -0.0    -0.0    -0.0
    -0.0     0.1     0.0    -0.1     0.0     0.1     0.1     0.0     0.1     0.1
    -0.1     0.1     0.1    -0.1    -0.0    -0.0    -0.1    -0.1    -0.1    -0.1
    -0.1    -0.0    -0.1    -0.2    -0.1    -0.0     0.0    -0.0    -0.1    -0.1
    -0.1    -0.0    -0.0    -0.0     0.0    -0.2    -0.2    -0.2    -0.2    -0.0
     0.1     0.1     0.1    -0.1    -0.0     0.1    -0.0     0.0    -0.1    -0.2
    -0.1    -0.2    -0.2    -0.1    -0.1    -0.2    -0.3    -0.1    -0.1    -0.1
    -0.0    -0.0    -0.0     0.1     0.1     0.0    -0.0    -0.1    -0.0    -0.1
    -0.0     0.1     0.1     0.1     0.0     0.0     0.2    -0.0    -0.1    -0.1
    -0.2    -0.2    -0.2    -0.2    -0.2    -0.3    -0.1    -0.1    -0.3    -0.2
    -0.0    -0.0    -0.2    -0.1    -0.1    -0.2    -0.1     0.1     0.1     0.0
     0.0     0.0    -0.1    -0.1    -0.1    -0.1    -0.0    -0.0    -0.0    -0.1
     0.0    -0.0    -0.2    -0.0    -0.0     0.1     0.1    -0.1    -0.1    -0.1
    -0.2    -0.1    -0.1    -0.0    -0.1    -0.0     0.2    -0.1    -0.0     0.1
    -0.0    -0.0    -0.1    -0.1    -0.0    -0.1    -0.1    -0.2    -0.2    -0.1
    -0.2    -0.3    -0.2    -0.1    -0.1    -0.0     0.0     0.1     0.1    -0.1
    -0.0     0.0    -0.1     0.1     0.2     0.1    -0.1    -0.2    -0.2    -0.1
    -0.1    -0.1    -0.1    -0.1    -0.2    -0.1    -0.1    -0.1    -0.0     0.0
     0.1    -0.1    -0.2    -0.1    -0.1    -0.1     0.0     0.0     0.0     0.1
     0.0    -0.0     0.0     0.0    -0.1    -0.2    -0.1    -0.1    -0.2    -0.2
    -0.2    -0.1    -0.1    -0.1    -0.1    -0.1     0.1     0.1    -0.1    -0.1
    -0.2    -0.0    -0.0    -0.2    -0.0    -0.0     0.1     0.2     0.2     0.0
    -0.1    -0.3    -0.2    -0.1    -0.2    -0.1    -0.2    -0.1    -0.0    -0.2
    -0.1    -0.0    -0.0     0.1    -0.0    -0.0     0.0    -0.1    -0.0    -0.0
    -0.2    -0.3    -0.2    -0.0    -0.2    -0.2    -0.1     0.0    -0.0    -0.0
     0.1    -0.0    -0.2    -0.1    -0.1    -0.1    -0.3    -0.4    -0.3    -0.4
    -0.3    -0.0     0.2     0.4     0.3     0.2    -0.0    -0.2    -0.1    -0.1
    -0.1    -0.0    -0.0    -0.0     0.1    -0.0     0.0    -0.1    -0.2    -0.2
    -0.3    -0.4    -0.2    -0.1     0.0    -0.0    -0.1    -0.0    -0.0    -0.0
    -0.1    -0.0     0.0     0.1     0.2     0.1    -0.0    -0.1     0.1     0.2
     0.1     0.1     0.1     0.0    -0.1    -0.1    -0.1    -0.3    -0.1    -0.0
    -0.1     0.1     0.1     0.2     0.0    -0.3    -0.1    -0.0    -0.2     0.1
     0.0    -0.0     0.2     0.1    -0.0     0.0    -0.1     0.0    -0.0    -0.2
    -0.1     0.1     0.2     0.1    -0.1    -0.0    -0.2    -0.4    -0.2     0.1
     0.1     0.1     0.0     0.2    -0.0    -0.1     0.2     0.1     0.1     0.1
    -0.1     0.1     0.1    -0.0    -0.1    -0.1    -0.1    -0.0    -0.1    -0.2
    -0.1    -0.1    -0.2    -0.1    -0.1    -0.1    -0.1    -0.2    -0.0     0.1
     0.0    -0.1    -0.0    -0.1    -0.1    -0.1     0.0     0.2     0.2     0.2
     0.2     0.1     0.1     0.0     0.0     0.1    -0.1    -0.1    -0.1    -0.3
    -0.3    -0.2    -0.2    -0.1     0.0     0.1     0.1     0.1     0.1     0.0
     0.1     0.0    -0.1     0.1    -0.1    -0.2    -0.0    -0.0    -0.0    -0.0
     0.0     0.1    -0.0     0.0    -0.1    -0.2    -0.2    -0.2    -0.0    -0.0
    -0.0     0.1     0.0     0.0    -0.0     0.0     0.2     0.1     0.1     0.2
     0.2     0.2     0.1     0.2     0.2    -0.0     0.1    -0.1    -0.2    -0.1
    -0.3    -0.3    -0.2    -0.3    -0.2     0.1     0.1    -0.1     0.0     0.3
     0.3     0.2     0.1     0.0     0.1    -0.0    -0.0    -0.1    -0.3    -0.2
    -0.3    -0.3    -0.2    -0.4    -0.2     0.1    -0.1     0.2     0.2    -0.0
     0.1    -0.1     0.0     0.1    -0.0     0.1     0.1     0.1     0.1    -0.1
    -0.2    -0.3    -0.4    -0.2    -0.2    -0.3    -0.1     0.1     0.1     0.1
     0.2     0.2     0.2     0.2     0.1     0.0    -0.0    -0.1    -0.2    -0.1
    -0.2    -0.2    -0.2    -0.1     0.1     0.2    -0.0    -0.1    -0.0    -0.1
     0.1     0.0    -0.1     0.0    -0.1    -0.0     0.0    -0.1    -0.0    -0.2
    -0.1    -0.1    -0.0     0.1     0.0     0.0     0.0    -0.2    -0.1    -0.1
    -0.1     0.2     0.0     0.1     0.1    -0.1     0.0     0.0     0.1     0.1
    -0.1     0.1     0.1     0.0     0.2    -0.1    -0.1    -0.1    -0.3    -0.1
    -0.2    -0.3    -0.1    -0.2     0.0    -0.0    -0.1     0.0    -0.2    -0.1
    -0.1    -0.1     0.2    -0.0    -0.0     0.1    -0.1     0.1     0.1    -0.1
    -0.2    -0.2     0.0    -0.0     0.0     0.0    -0.2    -0.0    -0.1    -0.1
    -0.2    -0.2     0.1     0.2     0.1     0.0     0.0     0.1    -0.0     0.0
     0.1     0.0    -0.0    -0.1    -0.1    -0.2    -0.2    -0.1    -0.2    -0.0
