Uncorrected accelerogram 20160214_001343_TPLC_20 GNS Science
Site TPLC      43 32 60S  172 28 19E     Cusp file:  20160214_001349_TPLC
Templeton School
Instrument Cusp_42008
Resolution: 18-bit   Instr Period: 0.0050 s   Damping: 0.700
Accelerogram 20160214_001343_TPLC_20                 Processed 2016 February 22
11 km east of CHRISTCHURCH
2016 February 14         00:13:43 UT
Epicentre  43 29 50S 172 45 18E  Bearing N76E  Dist   24km  Depth    8km M  5.70
Number of points  24765    Duration 123.82 s
Raw readings in units of 1.00 mm/s/s  at intervals of 0.005 s
Data is unfiltered
Component N27W
Acceleration:  Peak    282.7 mm/s/s at  46.54 s     RMS    21.49 mm/s/s
Velocity record unevaluated
Displacement record unevaluated
    2016       2      14       0      13     430       0       0    2016       2
      43      29      50     172      45      18       8       0      14       0
      43      32      60     172      28      19     333     333      76      24
   24765       0       0   24765       0       0       0       0      13    9099
   200.0    0.70    0.00   0.000  0.0000   0.000   0.000   1.000     0.0    0.00
  43.550 172.472  43.497 172.755    5.70    0.00    0.00    0.00      0.      0.
  123.82    0.00    0.00  123.82  0.0050  0.0050      0.      0.      0.  9806.6
   282.7   46.54    21.5      0.      0.     0.0    0.00     0.0     0.0   0.000
    0.00    0.00    0.00    0.00   0.000    0.00    0.00    0.00    0.00   0.000
   0.000   0.000   0.000      0.      0.   0.000   0.000   0.000      0.      0.
     0.1    -0.1    -0.2    -0.2     0.0     0.3     0.2     0.2     0.1     0.1
     0.1    -0.1    -0.1    -0.1    -0.0     0.1     0.1     0.2     0.1     0.2
     0.3     0.0    -0.2    -0.1    -0.1     0.1     0.0    -0.1     0.0     0.2
     0.2     0.0    -0.1    -0.0    -0.1    -0.1    -0.0     0.0     0.1     0.1
     0.1    -0.1    -0.1     0.1    -0.1    -0.1    -0.0     0.2     0.3     0.0
     0.1     0.1    -0.0    -0.2    -0.4    -0.2    -0.1     0.1     0.2     0.1
     0.2     0.2     0.2     0.2     0.0     0.1     0.1     0.0    -0.1    -0.2
    -0.1    -0.1     0.1     0.2     0.1    -0.1    -0.1     0.2     0.1     0.0
     0.1     0.1     0.1    -0.1    -0.2    -0.2    -0.1     0.1     0.1     0.2
     0.2     0.1     0.2    -0.0    -0.3    -0.3    -0.1     0.2     0.2     0.0
    -0.0    -0.2    -0.3    -0.1    -0.0     0.1     0.1     0.2     0.1     0.1
     0.1    -0.1    -0.3    -0.2    -0.2     0.1     0.2     0.1     0.1     0.1
     0.1    -0.0    -0.0     0.1    -0.1    -0.2    -0.1    -0.1     0.1     0.2
     0.1    -0.0    -0.1    -0.1    -0.0     0.1     0.1     0.1     0.2    -0.1
    -0.1    -0.1    -0.0     0.0    -0.1    -0.1    -0.1     0.0     0.1     0.1
     0.1    -0.1    -0.0     0.0    -0.1    -0.1    -0.0    -0.1    -0.1     0.1
     0.2     0.3     0.2     0.0    -0.0    -0.0    -0.1    -0.1     0.2     0.3
     0.0    -0.2    -0.2     0.1     0.2    -0.0    -0.1     0.1     0.1     0.1
     0.4     0.4     0.0    -0.1    -0.1     0.0    -0.1    -0.2     0.0     0.1
     0.0     0.0     0.2     0.3     0.0    -0.1    -0.0    -0.0    -0.1    -0.1
     0.1     0.1     0.0     0.1     0.1     0.0    -0.1     0.1     0.1    -0.1
    -0.1     0.1     0.4     0.2     0.1     0.0    -0.2    -0.1    -0.0    -0.1
     0.0     0.0     0.0     0.2     0.1     0.1     0.1    -0.1    -0.1    -0.0
     0.0     0.0    -0.1    -0.2    -0.0     0.1    -0.2    -0.1     0.0    -0.0
    -0.0     0.1     0.2     0.1     0.0    -0.0     0.0    -0.0    -0.2    -0.2
     0.1     0.2     0.1    -0.1    -0.1    -0.0     0.0     0.1     0.1     0.2
     0.2    -0.0    -0.1    -0.0    -0.1    -0.1     0.0     0.1     0.2    -0.1
    -0.2    -0.0    -0.2    -0.0     0.2     0.1     0.2     0.1    -0.1    -0.0
    -0.2    -0.2     0.0     0.1     0.1    -0.0     0.0     0.1    -0.0    -0.1
     0.0     0.1     0.3     0.1    -0.0    -0.0    -0.2    -0.2     0.1     0.1
    -0.0     0.0     0.2     0.0    -0.2    -0.1    -0.1    -0.1     0.1     0.1
    -0.1    -0.1     0.1     0.0     0.0    -0.0     0.1     0.2     0.1     0.0
    -0.0    -0.0     0.1     0.0     0.1     0.2     0.0    -0.1    -0.1    -0.1
    -0.1     0.1     0.1    -0.0    -0.1    -0.0     0.2     0.2    -0.0    -0.1
     0.0     0.2     0.1    -0.1    -0.1    -0.1    -0.0     0.2     0.2     0.1
    -0.0    -0.0     0.1     0.2    -0.0    -0.2     0.0     0.2     0.1     0.0
     0.0     0.1    -0.0     0.1     0.1     0.0    -0.0    -0.1     0.1     0.2
    -0.1    -0.1    -0.0    -0.1    -0.1     0.1    -0.1    -0.2    -0.0     0.3
     0.5     0.1    -0.2    -0.0     0.1    -0.0    -0.1    -0.1     0.0     0.0
     0.1     0.1     0.1    -0.1    -0.0     0.0     0.2     0.2     0.1     0.1
     0.2     0.3    -0.0    -0.2    -0.1    -0.1     0.0     0.0     0.0     0.2
     0.2     0.1     0.2     0.0    -0.1     0.1     0.2     0.1    -0.0    -0.1
     0.1     0.3     0.0     0.0     0.1    -0.1    -0.1    -0.1    -0.0    -0.0
     0.0     0.2     0.2     0.0    -0.1    -0.1     0.2     0.1    -0.1     0.0
     0.1     0.0    -0.0     0.1     0.2    -0.1    -0.2    -0.1     0.1     0.1
    -0.0    -0.1     0.1     0.1     0.1     0.1    -0.0    -0.1    -0.1     0.0
    -0.1    -0.2     0.1     0.2     0.1    -0.0    -0.1     0.0     0.1     0.1
     0.1    -0.1    -0.1    -0.1    -0.1     0.1     0.3     0.2     0.0    -0.0
    -0.0    -0.1    -0.0     0.0     0.1     0.1    -0.0    -0.2    -0.0     0.0
    -0.2    -0.4    -0.2     0.2     0.2    -0.0    -0.0     0.0     0.0     0.0
     0.0    -0.0     0.0     0.2     0.0    -0.1    -0.0     0.0    -0.0    -0.1
     0.1     0.2     0.1     0.1     0.1    -0.0    -0.1    -0.0     0.1     0.1
     0.1    -0.1     0.0     0.2    -0.0    -0.1    -0.1     0.0     0.1     0.1
     0.1     0.0    -0.1     0.2     0.1     0.1     0.0    -0.1    -0.1    -0.2
    -0.2     0.1     0.1     0.0    -0.0    -0.0    -0.1    -0.1     0.0     0.0
    -0.0    -0.0     0.0     0.1     0.2    -0.1    -0.3    -0.1     0.0    -0.1
    -0.1    -0.0     0.0     0.0    -0.2    -0.1     0.1    -0.1     0.0     0.1
    -0.2    -0.2    -0.0     0.0     0.1     0.1    -0.2    -0.2    -0.0     0.0
    -0.0     0.1     0.0    -0.1     0.2     0.1    -0.1    -0.0    -0.2    -0.2
    -0.0    -0.1     0.3     0.2    -0.3    -0.3    -0.0     0.2     0.1    -0.2
    -0.2    -0.1    -0.1    -0.1     0.2     0.3     0.1    -0.1    -0.2    -0.1
     0.1     0.1    -0.0    -0.2    -0.2    -0.2     0.1     0.4     0.3     0.2
    -0.2    -0.2     0.1     0.2    -0.0    -0.3    -0.2     0.2     0.3     0.2
     0.0    -0.2    -0.2    -0.4    -0.2     0.1     0.3     0.4     0.1    -0.3
    -0.2     0.2     0.4     0.0    -0.3    -0.5    -0.4     0.1     0.2     0.2
     0.3    -0.1    -0.4    -0.0     0.2     0.0    -0.1    -0.1    -0.1     0.0
     0.1    -0.1    -0.1    -0.1    -0.1    -0.1    -0.1     0.2     0.2    -0.1
    -0.1    -0.1     0.1     0.1    -0.1    -0.1    -0.0     0.1     0.1    -0.1
    -0.2    -0.2    -0.1     0.2     0.1     0.0     0.1     0.0     0.0     0.1
    -0.0    -0.1    -0.1    -0.2    -0.1     0.0     0.2     0.1    -0.2    -0.1
    -0.0    -0.0    -0.0    -0.1    -0.0    -0.0    -0.1     0.0     0.2     0.1
    -0.2    -0.1    -0.1    -0.2    -0.3    -0.1     0.4     0.3    -0.1    -0.1
    -0.0    -0.1    -0.2    -0.1     0.0    -0.0    -0.1     0.0     0.1    -0.1
    -0.1     0.0    -0.1    -0.1    -0.1    -0.2    -0.1     0.1     0.2     0.1
     0.1     0.1    -0.1    -0.1    -0.1    -0.1    -0.0     0.1     0.2     0.2
     0.0     0.1    -0.0    -0.3    -0.3     0.1     0.2     0.0     0.0     0.3
     0.3    -0.1    -0.3     0.0     0.0    -0.3    -0.2     0.2     0.3     0.1
    -0.1     0.1     0.1    -0.1    -0.3    -0.1     0.1     0.0    -0.1    -0.1
     0.2     0.3     0.0    -0.1    -0.1    -0.2    -0.1     0.0     0.2     0.1
    -0.0     0.1    -0.1    -0.3    -0.2     0.0     0.1    -0.0    -0.0     0.0
    -0.0     0.1    -0.2    -0.1     0.2    -0.0    -0.1    -0.1    -0.0     0.0
    -0.2    -0.1     0.3     0.3     0.1    -0.1    -0.2     0.0     0.1    -0.1
    -0.1     0.1     0.1     0.1     0.0    -0.2    -0.2     0.0     0.2     0.1
    -0.1    -0.0     0.0     0.0     0.2     0.1     0.1     0.1    -0.1    -0.3
    -0.1     0.2     0.0    -0.1     0.0     0.2     0.1    -0.2    -0.2     0.1
     0.1    -0.2    -0.1     0.2     0.3     0.2    -0.1    -0.1     0.1     0.0
    -0.0     0.0     0.0     0.1     0.2     0.3     0.2     0.0    -0.2    -0.3
    -0.0    -0.0    -0.1    -0.1    -0.1     0.1     0.3     0.2    -0.1    -0.1
    -0.0    -0.2    -0.2    -0.1     0.2     0.1     0.1     0.3     0.0    -0.1
    -0.1    -0.3     0.0    -0.0     0.0     0.3     0.2     0.2    -0.0    -0.1
    -0.1    -0.1    -0.1    -0.1     0.1     0.2     0.2    -0.0    -0.1     0.1
    -0.1    -0.2    -0.2     0.1     0.3     0.0    -0.2    -0.2    -0.0     0.3
     0.2    -0.2    -0.3    -0.1     0.1     0.2     0.2    -0.0     0.1     0.2
     0.0     0.1     0.1    -0.0    -0.0    -0.0    -0.0    -0.1     0.1     0.1
    -0.1    -0.2    -0.1    -0.1     0.1     0.0    -0.1    -0.1    -0.1     0.0
     0.3     0.3    -0.1    -0.3    -0.1     0.1     0.1    -0.2    -0.3     0.1
     0.4     0.2    -0.1    -0.1    -0.2    -0.0    -0.0    -0.1    -0.1    -0.1
     0.2     0.2    -0.1    -0.2    -0.0     0.1     0.1    -0.0    -0.2    -0.1
     0.1     0.2     0.1     0.1    -0.1    -0.2    -0.0     0.2     0.1     0.0
     0.1     0.1     0.0    -0.0     0.0     0.1    -0.1    -0.1    -0.0     0.1
     0.1    -0.0    -0.1     0.0     0.1     0.0    -0.1    -0.1    -0.1    -0.1
     0.0     0.0     0.0    -0.0    -0.0     0.0    -0.1    -0.1    -0.0     0.0
     0.0    -0.1    -0.2    -0.0     0.2     0.1     0.0    -0.0    -0.1     0.1
     0.1    -0.1    -0.0     0.2     0.0    -0.2    -0.1     0.1     0.1    -0.0
    -0.0    -0.1    -0.1    -0.0     0.1     0.1    -0.1    -0.1    -0.0     0.0
    -0.1    -0.1     0.0     0.0    -0.1    -0.1    -0.0     0.0    -0.0     0.0
     0.1    -0.1    -0.1    -0.0    -0.0    -0.0    -0.0    -0.1    -0.1    -0.1
     0.2     0.2     0.1    -0.0    -0.1    -0.1    -0.2    -0.0     0.2     0.2
     0.0    -0.0    -0.1    -0.1     0.0    -0.2    -0.1     0.2     0.1    -0.1
    -0.1     0.1     0.2     0.0    -0.2    -0.0     0.1    -0.1    -0.2    -0.1
    -0.1    -0.0     0.1     0.1     0.0     0.0     0.0    -0.1    -0.2    -0.2
     0.1     0.4     0.3    -0.0    -0.0     0.1     0.0    -0.1     0.0    -0.0
    -0.2    -0.2     0.0     0.3     0.2     0.1     0.1    -0.1    -0.2    -0.1
    -0.0     0.2    -0.0    -0.3    -0.1     0.3     0.2    -0.1    -0.1     0.1
    -0.0    -0.1    -0.0    -0.1     0.2     0.3    -0.0    -0.1     0.0     0.0
     0.1     0.1    -0.0    -0.1    -0.0     0.1     0.2    -0.0    -0.2    -0.0
     0.2     0.0    -0.2    -0.2     0.1     0.0    -0.1    -0.1     0.1     0.1
    -0.0     0.0     0.0    -0.0    -0.0     0.0     0.1     0.0    -0.0    -0.1
    -0.1    -0.0     0.1     0.2     0.1     0.0    -0.1    -0.1     0.1    -0.1
    -0.1     0.0     0.0    -0.0    -0.0     0.0    -0.2    -0.1     0.2     0.2
     0.1    -0.1    -0.1     0.0    -0.0     0.0     0.0     0.0     0.0     0.0
     0.0    -0.1     0.0    -0.0     0.0     0.3     0.1    -0.1    -0.2    -0.1
     0.1     0.1    -0.0    -0.1    -0.0    -0.1    -0.1    -0.1     0.1     0.0
    -0.2    -0.1     0.3     0.4     0.0    -0.5    -0.3     0.2     0.2    -0.1
    -0.0     0.4     0.4    -0.4    -0.7    -0.2     0.2     0.1    -0.1     0.2
     0.3    -0.0    -0.1    -0.0    -0.2    -0.2    -0.1     0.3     0.4    -0.1
    -0.2    -0.1    -0.2    -0.1     0.1     0.2     0.1    -0.2    -0.1     0.2
    -0.2    -0.2     0.1     0.5     0.2    -0.3    -0.2     0.1     0.3    -0.1
    -0.4    -0.1     0.0     0.2     0.4     0.1    -0.1    -0.0     0.2     0.1
    -0.4    -0.5    -0.1     0.3     0.2    -0.2    -0.2     0.2     0.0    -0.3
    -0.2     0.2     0.1    -0.2     0.1     0.1    -0.1     0.0     0.1     0.2
    -0.0    -0.5    -0.3     0.1     0.2     0.1    -0.0    -0.2    -0.2    -0.1
    -0.0     0.1    -0.0    -0.1     0.1     0.1    -0.1    -0.3    -0.2     0.0
     0.0    -0.0    -0.0     0.1     0.0    -0.2    -0.2    -0.0     0.1    -0.0
    -0.1    -0.1    -0.1    -0.1    -0.2    -0.0     0.0     0.0    -0.0     0.0
     0.1     0.1    -0.1    -0.1    -0.0     0.1    -0.1    -0.3    -0.3    -0.1
     0.0    -0.0     0.0    -0.0    -0.1    -0.1    -0.1     0.0     0.1    -0.0
    -0.0    -0.1    -0.3    -0.1     0.0     0.0     0.1     0.2     0.2     0.0
    -0.2    -0.1    -0.2    -0.1     0.0     0.1     0.1    -0.1    -0.0     0.0
    -0.2    -0.1     0.0     0.1    -0.1    -0.3    -0.2    -0.0     0.1    -0.1
    -0.1     0.1     0.0    -0.0     0.0    -0.1     0.1    -0.1    -0.3    -0.1
    -0.2    -0.2     0.1     0.3     0.1    -0.1     0.0     0.1    -0.1    -0.2
    -0.1    -0.1    -0.1    -0.1     0.1     0.2    -0.1    -0.2    -0.1    -0.1
    -0.0     0.1     0.3    -0.0    -0.4    -0.2     0.2     0.2    -0.1    -0.0
     0.1    -0.1    -0.2    -0.1     0.2     0.1     0.1     0.1    -0.1    -0.2
    -0.2    -0.0     0.2    -0.0     0.1     0.1    -0.2    -0.2    -0.1     0.1
    -0.1    -0.2    -0.0     0.0     0.0     0.0    -0.2    -0.3    -0.3    -0.1
     0.2     0.2     0.1    -0.1    -0.4    -0.2     0.1     0.2     0.0    -0.2
    -0.2    -0.1     0.1     0.2    -0.0    -0.1    -0.2    -0.1    -0.1    -0.3
    -0.3    -0.1    -0.0     0.1     0.3     0.1    -0.1    -0.1    -0.0     0.1
     0.0    -0.4    -0.3     0.1     0.1    -0.1    -0.1    -0.0    -0.1    -0.1
     0.1     0.0    -0.2    -0.1     0.0    -0.0    -0.0     0.1    -0.0    -0.2
    -0.3    -0.3     0.0     0.1     0.1     0.1     0.0    -0.0     0.0     0.0
    -0.0    -0.0     0.0    -0.1     0.1     0.1    -0.0     0.0    -0.3    -0.2
     0.1    -0.0    -0.1    -0.0    -0.0     0.0     0.0    -0.0     0.0     0.0
     0.0     0.0    -0.0     0.0     0.0     0.1     0.2     0.1    -0.1    -0.2
    -0.3    -0.1     0.1     0.1     0.1     0.1    -0.0    -0.1    -0.0     0.3
     0.2    -0.1    -0.1    -0.2    -0.3    -0.1    -0.1     0.1     0.2     0.1
     0.0    -0.1    -0.2    -0.2    -0.0     0.1     0.0    -0.1    -0.1     0.1
     0.0    -0.1    -0.0     0.1     0.1     0.3     0.1     0.0    -0.0    -0.1
    -0.2    -0.3    -0.3    -0.1     0.0     0.1     0.2     0.2    -0.0    -0.0
     0.0    -0.0     0.1     0.0    -0.2    -0.1    -0.1     0.1    -0.0    -0.2
    -0.0     0.2     0.2    -0.1    -0.2    -0.1     0.0     0.0    -0.0    -0.0
    -0.2    -0.1     0.1    -0.1    -0.2     0.0     0.1     0.1     0.1     0.2
     0.1    -0.1    -0.1    -0.1    -0.1     0.0     0.0    -0.1    -0.1     0.0
     0.0    -0.0     0.1     0.1     0.0     0.1     0.0    -0.1    -0.1    -0.1
    -0.1    -0.1     0.0     0.0    -0.1     0.0     0.1    -0.0    -0.0     0.0
     0.1     0.1     0.1     0.1    -0.0    -0.1    -0.0    -0.0    -0.1     0.0
     0.0     0.0     0.2     0.1    -0.1    -0.1     0.1     0.0    -0.0    -0.1
    -0.1    -0.2    -0.1     0.0     0.1     0.2     0.1     0.0     0.1     0.1
    -0.1    -0.3    -0.1     0.1    -0.1    -0.1    -0.1    -0.1     0.1     0.1
     0.2     0.2     0.2     0.2     0.1     0.0    -0.1    -0.1    -0.1    -0.2
     0.0     0.1     0.1     0.1     0.2     0.2    -0.1    -0.2    -0.1    -0.1
    -0.1     0.0     0.1     0.2     0.1    -0.0     0.0    -0.0    -0.0     0.0
    -0.0    -0.1    -0.2    -0.1    -0.0     0.0     0.1     0.2     0.2     0.2
     0.1    -0.1    -0.1    -0.2    -0.2    -0.1    -0.1    -0.1    -0.1     0.1
     0.2    -0.0    -0.1     0.0    -0.1    -0.1     0.0     0.0     0.1     0.0
     0.0     0.1    -0.0    -0.3    -0.3     0.0     0.1    -0.1    -0.1    -0.0
     0.1     0.0    -0.0     0.1    -0.0     0.1     0.2    -0.0    -0.0    -0.0
    -0.1    -0.1    -0.1    -0.1    -0.1     0.0     0.1     0.1     0.0    -0.0
    -0.0    -0.1     0.0     0.1    -0.0     0.1     0.1     0.0     0.1    -0.0
    -0.2    -0.1    -0.0    -0.1    -0.1    -0.1     0.1     0.1     0.0    -0.1
    -0.0    -0.0    -0.1    -0.1    -0.0     0.1     0.0     0.0     0.0    -0.1
    -0.0    -0.0    -0.0     0.0    -0.1    -0.1     0.0    -0.0     0.1     0.2
     0.0    -0.1    -0.0    -0.0    -0.1    -0.0     0.0     0.0     0.0    -0.0
    -0.1     0.1     0.1     0.1     0.0     0.0     0.1     0.1    -0.0    -0.1
    -0.1     0.0     0.1    -0.0    -0.1    -0.2    -0.1     0.1     0.0     0.1
     0.1     0.1     0.1     0.1     0.1     0.0    -0.0     0.0     0.0     0.1
     0.1     0.1     0.1    -0.1    -0.0    -0.0    -0.1     0.0     0.0     0.1
     0.1    -0.0    -0.1    -0.0     0.1     0.1     0.0    -0.1    -0.1     0.1
     0.1     0.0    -0.0     0.0    -0.0    -0.1     0.1    -0.1    -0.1     0.2
     0.2     0.1     0.1    -0.1    -0.1    -0.1    -0.1    -0.0    -0.0     0.0
     0.1    -0.0     0.0    -0.0    -0.1    -0.1    -0.0    -0.0    -0.0     0.1
     0.2     0.1    -0.1    -0.2    -0.0     0.0    -0.0    -0.0    -0.0    -0.1
    -0.1    -0.1    -0.0     0.1     0.0    -0.0    -0.0     0.1     0.0    -0.1
     0.0    -0.1    -0.1    -0.2    -0.1     0.2    -0.0    -0.1    -0.0    -0.0
     0.1     0.1     0.0    -0.1    -0.0    -0.1    -0.1    -0.0    -0.1     0.1
     0.0    -0.2    -0.1     0.0     0.1    -0.1    -0.1     0.1    -0.0    -0.1
    -0.1    -0.0     0.2     0.1     0.0     0.1     0.1     0.0    -0.1    -0.1
    -0.0    -0.0    -0.1    -0.1    -0.0     0.1    -0.1    -0.1    -0.1    -0.1
     0.1    -0.1    -0.2    -0.0     0.0    -0.0    -0.1    -0.1     0.0     0.1
     0.0    -0.0    -0.0    -0.1    -0.1    -0.0    -0.0     0.1    -0.0     0.0
     0.1    -0.0    -0.0    -0.0    -0.1    -0.1    -0.1    -0.1    -0.1     0.1
     0.1     0.0     0.1     0.1     0.1    -0.1    -0.2    -0.0     0.0     0.0
     0.0    -0.0     0.1     0.1     0.0    -0.0    -0.1     0.0     0.2    -0.0
    -0.1     0.0    -0.0    -0.1    -0.1    -0.2    -0.0    -0.0     0.0     0.1
    -0.1    -0.2    -0.0     0.1    -0.0    -0.0     0.1    -0.1    -0.1     0.0
     0.0    -0.0    -0.0     0.1     0.2     0.2     0.0    -0.1    -0.0    -0.1
    -0.2    -0.1    -0.1     0.1     0.3     0.1     0.1     0.1     0.1    -0.1
    -0.1    -0.1    -0.1    -0.0     0.1     0.1     0.0     0.0     0.2     0.1
    -0.2    -0.2    -0.1    -0.0    -0.1     0.0     0.1    -0.0     0.1    -0.1
    -0.1    -0.0    -0.1     0.0     0.0     0.1     0.1     0.0     0.1    -0.0
    -0.1    -0.2    -0.2     0.0    -0.1    -0.1     0.0     0.0     0.1    -0.0
    -0.1    -0.1    -0.2    -0.1    -0.1    -0.0     0.0     0.0     0.0     0.0
    -0.1    -0.2     0.0     0.1    -0.0     0.1     0.1    -0.0    -0.1     0.0
     0.0     0.0     0.1     0.0     0.0    -0.1    -0.0     0.1     0.0    -0.1
    -0.0    -0.0    -0.0     0.1     0.1    -0.1    -0.1    -0.1    -0.0     0.0
    -0.1    -0.1    -0.0     0.0     0.1     0.0     0.1     0.1    -0.1    -0.1
    -0.1    -0.1     0.1    -0.1    -0.0     0.0    -0.2    -0.0     0.1    -0.0
     0.0    -0.0     0.0     0.2     0.1     0.0    -0.0    -0.1     0.1    -0.0
    -0.1     0.0     0.1     0.1     0.1     0.1     0.1    -0.0    -0.1    -0.1
    -0.0     0.1     0.0     0.0     0.1     0.0    -0.1    -0.1     0.1     0.0
    -0.0    -0.0    -0.0    -0.0    -0.0    -0.0    -0.0     0.0     0.2     0.1
    -0.1    -0.1    -0.1    -0.1    -0.1    -0.1     0.0    -0.0    -0.1    -0.1
    -0.0     0.1    -0.0    -0.1    -0.0    -0.0     0.1     0.1     0.0    -0.0
    -0.0     0.0    -0.0    -0.0     0.1    -0.0    -0.0     0.0    -0.0     0.0
     0.2     0.1     0.1     0.1    -0.1    -0.1     0.0    -0.0    -0.2    -0.1
