Uncorrected accelerogram 20160214_001343_SUMS_20 GNS Science
Site SUMS      43 34 09S  172 45 24E     Basalt file:  20160214_001346_SUMS
Sumner
Instrument Basalt_2434
Resolution: 24-bit   Instr Period: 0.0050 s   Damping: 0.700
Accelerogram 20160214_001343_SUMS_20                 Processed 2016 February 22
11 km east of CHRISTCHURCH
2016 February 14         00:13:43 UT
Epicentre  43 29 50S 172 45 18E  Bearing N01W  Dist    8km  Depth    8km M  5.70
Number of points  38600    Duration 193.00 s
Raw readings in units of 1.00 mm/s/s  at intervals of 0.005 s
Data is unfiltered
Component N58W
Acceleration:  Peak  -1727.8 mm/s/s at  43.63 s     RMS    82.46 mm/s/s
Velocity record unevaluated
Displacement record unevaluated
    2016       2      14       0      13     430       0       0    2016       2
      43      29      50     172      45      18       8       0      14       0
      43      34       9     172      45      24     302     302     359       8
   38600       0       0   38600       0       0       0       0      13    6000
   200.0    0.70    0.00   0.000  0.0000   0.000   0.000   1.000     0.0    0.00
  43.569 172.757  43.497 172.755    5.70    0.00    0.00    0.00      0.      0.
  193.00    0.00    0.00  193.00  0.0050  0.0050      0.      0.      0.  9806.6
 -1727.8   43.63    82.5      0.      0.     0.0    0.00     0.0     0.0   0.000
    0.00    0.00    0.00    0.00   0.000    0.00    0.00    0.00    0.00   0.000
   0.000   0.000   0.000      0.      0.   0.000   0.000   0.000      0.      0.
    -0.3    -0.3    -0.2    -0.0     0.0     0.0     0.1     0.1    -0.0    -0.0
    -0.1    -0.1    -0.1    -0.2    -0.2    -0.3    -0.3    -0.3    -0.3    -0.3
    -0.3    -0.2    -0.2    -0.1    -0.1    -0.1    -0.0    -0.0    -0.1    -0.1
    -0.1    -0.1    -0.2    -0.3    -0.3    -0.2    -0.2    -0.2    -0.1    -0.0
     0.0    -0.0    -0.0    -0.1    -0.1    -0.2    -0.2    -0.2    -0.3    -0.3
    -0.2    -0.2    -0.2    -0.1    -0.1    -0.1    -0.1    -0.1    -0.1    -0.1
    -0.2    -0.2    -0.3    -0.3    -0.3    -0.2    -0.3    -0.2    -0.1    -0.1
    -0.1    -0.0    -0.0     0.0    -0.1    -0.1    -0.1    -0.2    -0.2    -0.2
    -0.2    -0.1    -0.1    -0.2    -0.2    -0.2    -0.3    -0.3    -0.2    -0.2
    -0.2    -0.2    -0.1    -0.1    -0.1    -0.1    -0.1    -0.2    -0.2    -0.2
    -0.2    -0.1    -0.1    -0.1    -0.0    -0.0    -0.1    -0.0    -0.0    -0.1
    -0.2    -0.2    -0.3    -0.3    -0.3    -0.3    -0.2    -0.2    -0.1    -0.1
    -0.1    -0.1     0.0     0.1    -0.0     0.0    -0.2    -0.3    -0.3    -0.5
    -0.4    -0.4    -0.4    -0.2    -0.1     0.0     0.0     0.1     0.1     0.1
     0.1    -0.2    -0.2    -0.2    -0.3    -0.3    -0.3    -0.2    -0.2    -0.1
    -0.1    -0.1    -0.1    -0.1    -0.1    -0.1    -0.2    -0.2    -0.2    -0.2
    -0.2    -0.2    -0.2    -0.1    -0.2    -0.2    -0.1    -0.2    -0.2    -0.2
    -0.2    -0.1    -0.1    -0.1    -0.1     0.0    -0.0    -0.1    -0.1    -0.1
    -0.1    -0.2    -0.2    -0.3    -0.3    -0.3    -0.3    -0.2    -0.2    -0.2
    -0.2    -0.2    -0.1    -0.1    -0.1    -0.1    -0.1    -0.1    -0.1    -0.1
    -0.1    -0.2    -0.2    -0.3    -0.3    -0.2    -0.3    -0.2    -0.1    -0.0
     0.0     0.0     0.1    -0.0    -0.1    -0.2    -0.2    -0.3    -0.3    -0.3
    -0.3    -0.2    -0.2    -0.2    -0.1    -0.1    -0.0    -0.0     0.0     0.0
    -0.1    -0.1    -0.2    -0.2    -0.3    -0.3    -0.2    -0.2    -0.1    -0.1
    -0.0    -0.0    -0.1    -0.1    -0.1    -0.0    -0.1    -0.1    -0.1    -0.2
    -0.3    -0.4    -0.3    -0.3    -0.3    -0.3    -0.3    -0.1    -0.1    -0.1
    -0.1    -0.1    -0.1    -0.1    -0.1    -0.0    -0.0    -0.1    -0.1    -0.1
    -0.1    -0.1    -0.2    -0.2    -0.2    -0.3    -0.3    -0.3    -0.3    -0.2
    -0.2    -0.2    -0.1    -0.1    -0.1    -0.1    -0.0    -0.0    -0.1    -0.1
    -0.1    -0.2    -0.2    -0.2    -0.2    -0.2    -0.2    -0.1    -0.0    -0.0
    -0.1    -0.1    -0.2    -0.2    -0.2    -0.3    -0.2    -0.2    -0.2    -0.2
    -0.2    -0.1    -0.2    -0.2    -0.1    -0.1    -0.1    -0.1    -0.1    -0.1
    -0.0    -0.1    -0.2    -0.2    -0.3    -0.3    -0.3    -0.2    -0.2    -0.2
    -0.1    -0.1    -0.1    -0.1    -0.1    -0.1    -0.1    -0.1    -0.1     0.0
    -0.0    -0.1    -0.1    -0.1    -0.2    -0.2    -0.2    -0.2    -0.2    -0.2
    -0.2    -0.2    -0.2    -0.2    -0.2    -0.1    -0.1    -0.1    -0.1    -0.1
    -0.1    -0.1    -0.1    -0.2    -0.1    -0.2    -0.2    -0.2    -0.2    -0.2
    -0.2    -0.2    -0.1    -0.1    -0.1    -0.1    -0.1    -0.0    -0.1    -0.1
    -0.2    -0.2    -0.3    -0.3    -0.2    -0.2    -0.2    -0.2    -0.2    -0.2
    -0.2    -0.2    -0.1    -0.1    -0.1    -0.1    -0.1    -0.1    -0.1    -0.1
    -0.2    -0.2    -0.2    -0.2    -0.1    -0.1    -0.0    -0.0    -0.0    -0.0
    -0.1    -0.1    -0.2    -0.2    -0.2    -0.3    -0.3    -0.3    -0.2    -0.2
    -0.3    -0.2    -0.1    -0.2    -0.1    -0.1    -0.1    -0.1    -0.1    -0.1
    -0.1    -0.1    -0.2    -0.2    -0.2    -0.2    -0.2    -0.2    -0.2    -0.1
    -0.1    -0.2    -0.0    -0.1    -0.1    -0.0    -0.0    -0.0    -0.2    -0.2
    -0.2    -0.2    -0.3    -0.3    -0.2    -0.3    -0.2    -0.2    -0.2    -0.1
    -0.1    -0.1    -0.2    -0.1    -0.1    -0.1    -0.1    -0.1    -0.1    -0.1
    -0.1    -0.1    -0.1    -0.1    -0.2    -0.1    -0.1    -0.2    -0.1    -0.1
    -0.2    -0.2    -0.3    -0.2    -0.2    -0.3    -0.2    -0.2    -0.2    -0.1
    -0.1    -0.1    -0.0    -0.1    -0.1    -0.1    -0.2    -0.1    -0.1    -0.1
    -0.1    -0.1    -0.1    -0.1    -0.1    -0.2    -0.2    -0.2    -0.2    -0.2
    -0.2    -0.2    -0.1    -0.1    -0.1    -0.1    -0.1    -0.1    -0.2    -0.2
    -0.1    -0.1    -0.1    -0.2    -0.1    -0.2    -0.2    -0.1    -0.1    -0.1
    -0.1    -0.1    -0.1    -0.2    -0.2    -0.2    -0.2    -0.2    -0.2    -0.1
    -0.1    -0.1    -0.1    -0.1    -0.1    -0.2    -0.2    -0.3    -0.3    -0.2
    -0.2    -0.2    -0.1    -0.2    -0.1    -0.1    -0.1    -0.0    -0.1    -0.1
    -0.1    -0.1    -0.1    -0.2    -0.2    -0.2    -0.2    -0.2    -0.2    -0.2
    -0.1    -0.1    -0.2    -0.1    -0.1    -0.2    -0.2    -0.2    -0.1    -0.1
    -0.2    -0.2    -0.2    -0.2    -0.2    -0.2    -0.1    -0.2    -0.2    -0.2
    -0.1    -0.1    -0.1    -0.1    -0.1    -0.1    -0.1    -0.1    -0.2    -0.1
    -0.2    -0.2    -0.1    -0.1    -0.1    -0.1    -0.1    -0.1    -0.2    -0.2
    -0.2    -0.2    -0.2    -0.2    -0.2    -0.3    -0.2    -0.3    -0.2    -0.1
    -0.1    -0.0    -0.0     0.0     0.1    -0.0    -0.0    -0.1    -0.2    -0.3
    -0.3    -0.3    -0.2    -0.2    -0.2    -0.2    -0.2    -0.1    -0.1    -0.2
    -0.1    -0.2    -0.2    -0.2    -0.2    -0.2    -0.2    -0.2    -0.1    -0.2
    -0.2    -0.2    -0.2    -0.1    -0.2    -0.1    -0.1    -0.1    -0.1    -0.2
    -0.1    -0.1    -0.1    -0.0    -0.1    -0.1    -0.2    -0.2    -0.2    -0.2
    -0.2    -0.2    -0.2    -0.2    -0.2    -0.2    -0.1    -0.1    -0.1    -0.1
    -0.2    -0.2    -0.2    -0.2    -0.2    -0.1    -0.1    -0.1    -0.1    -0.0
    -0.0    -0.1    -0.2    -0.1    -0.2    -0.2    -0.2    -0.2    -0.2    -0.2
    -0.2    -0.2    -0.1    -0.1    -0.1    -0.1    -0.1    -0.1    -0.2    -0.2
    -0.1    -0.1    -0.2    -0.2    -0.2    -0.2    -0.2    -0.2    -0.2    -0.1
    -0.1    -0.1    -0.1    -0.0    -0.1    -0.1    -0.2    -0.2    -0.2    -0.3
    -0.2    -0.2    -0.2    -0.2    -0.1    -0.0    -0.0    -0.1    -0.0    -0.1
    -0.1    -0.2    -0.3    -0.3    -0.3    -0.3    -0.2    -0.2    -0.1    -0.1
    -0.0     0.0     0.1    -0.0    -0.1    -0.1    -0.2    -0.2    -0.2    -0.2
    -0.2    -0.2    -0.2    -0.1    -0.1    -0.2    -0.2    -0.2    -0.2    -0.2
    -0.1    -0.1    -0.1    -0.0    -0.2    -0.1    -0.1    -0.2    -0.1    -0.2
    -0.2    -0.2    -0.3    -0.3    -0.3    -0.1    -0.0     0.0     0.1     0.0
    -0.1    -0.2    -0.2    -0.3    -0.4    -0.3    -0.3    -0.2    -0.1    -0.1
    -0.1    -0.0    -0.1    -0.1    -0.1    -0.1    -0.1    -0.1    -0.2    -0.1
    -0.1    -0.2    -0.1    -0.1    -0.2    -0.2    -0.2    -0.2    -0.2    -0.2
    -0.1    -0.1    -0.0    -0.1    -0.1    -0.1    -0.2    -0.2    -0.3    -0.2
    -0.2    -0.2    -0.1    -0.1    -0.0    -0.0    -0.1    -0.0    -0.1    -0.1
    -0.2    -0.2    -0.2    -0.3    -0.3    -0.3    -0.2    -0.2    -0.2    -0.1
    -0.1    -0.1    -0.1    -0.1    -0.0    -0.1    -0.1    -0.0    -0.1    -0.1
    -0.2    -0.2    -0.1    -0.3    -0.2    -0.3    -0.2    -0.3    -0.3    -0.2
    -0.2    -0.1    -0.1    -0.1    -0.0    -0.0     0.0    -0.1    -0.1    -0.1
    -0.2    -0.3    -0.3    -0.3    -0.2    -0.2    -0.1    -0.1     0.0     0.0
     0.0     0.0    -0.1    -0.2    -0.2    -0.2    -0.2    -0.3    -0.3    -0.2
    -0.2    -0.2    -0.1    -0.0    -0.1    -0.1    -0.1    -0.1    -0.1    -0.1
    -0.2    -0.1    -0.1    -0.1    -0.2    -0.2    -0.2    -0.2    -0.2    -0.2
    -0.1    -0.1    -0.1    -0.1    -0.1    -0.1    -0.1    -0.2    -0.2    -0.2
    -0.2    -0.1    -0.2    -0.2    -0.2    -0.3    -0.1    -0.1    -0.2    -0.1
    -0.1    -0.1    -0.2    -0.2    -0.1    -0.1    -0.2    -0.2    -0.2    -0.2
    -0.2    -0.2    -0.2    -0.1    -0.1    -0.1    -0.0    -0.0    -0.1    -0.2
    -0.2    -0.1    -0.2    -0.2    -0.3    -0.2    -0.3    -0.3    -0.1    -0.1
    -0.1    -0.1    -0.1    -0.1    -0.1    -0.1    -0.2    -0.2    -0.2    -0.2
    -0.1    -0.1    -0.1    -0.1    -0.1    -0.1    -0.1    -0.1    -0.2    -0.2
    -0.2    -0.1    -0.1    -0.1    -0.1    -0.2    -0.2    -0.2    -0.2    -0.2
    -0.2    -0.2    -0.1    -0.2    -0.1    -0.1    -0.1    -0.1    -0.1    -0.1
    -0.1    -0.1    -0.2    -0.2    -0.2    -0.2    -0.2    -0.2    -0.2    -0.1
    -0.2    -0.2    -0.1    -0.2    -0.1    -0.2    -0.2    -0.1    -0.1    -0.1
    -0.1    -0.1    -0.2    -0.2    -0.2    -0.2    -0.2    -0.2    -0.2    -0.2
    -0.2    -0.2    -0.2    -0.1    -0.1    -0.1    -0.1    -0.1    -0.1    -0.2
    -0.2    -0.2    -0.2    -0.2    -0.2    -0.1    -0.1    -0.1    -0.2    -0.1
    -0.2    -0.1    -0.1    -0.2    -0.1    -0.2    -0.1    -0.2    -0.1    -0.1
    -0.1    -0.1    -0.2    -0.2    -0.2    -0.2    -0.1    -0.2    -0.2    -0.2
    -0.1    -0.1    -0.1    -0.1    -0.1    -0.1    -0.2    -0.1    -0.2    -0.1
    -0.2    -0.2    -0.2    -0.2    -0.1    -0.2    -0.1    -0.1    -0.1    -0.1
    -0.1    -0.1    -0.1    -0.1    -0.2    -0.2    -0.2    -0.2    -0.2    -0.2
    -0.2    -0.2    -0.1    -0.1    -0.1    -0.1    -0.1    -0.1    -0.1    -0.1
    -0.2    -0.2    -0.2    -0.2    -0.2    -0.2    -0.1    -0.1    -0.2    -0.1
    -0.1    -0.1    -0.1    -0.2    -0.2    -0.2    -0.2    -0.2    -0.1    -0.2
    -0.2    -0.1    -0.2    -0.1    -0.2    -0.2    -0.1    -0.2    -0.1    -0.2
    -0.1    -0.1    -0.1    -0.1    -0.1    -0.0    -0.0    -0.2    -0.1    -0.1
    -0.3    -0.2    -0.3    -0.3    -0.2    -0.3    -0.1    -0.1    -0.2    -0.1
    -0.1    -0.1    -0.1    -0.1    -0.1    -0.1    -0.2    -0.2    -0.2    -0.2
    -0.2    -0.2    -0.2    -0.1    -0.1    -0.1    -0.1    -0.2    -0.1    -0.1
    -0.1    -0.1    -0.1    -0.2    -0.2    -0.2    -0.2    -0.2    -0.3    -0.3
    -0.2    -0.2    -0.1    -0.1    -0.1    -0.0    -0.0    -0.1    -0.0    -0.1
    -0.2    -0.2    -0.2    -0.2    -0.3    -0.3    -0.2    -0.2    -0.1    -0.1
    -0.1    -0.0    -0.1    -0.0    -0.1    -0.1    -0.1    -0.2    -0.2    -0.2
    -0.2    -0.2    -0.2    -0.2    -0.2    -0.2    -0.1    -0.1    -0.0     0.0
    -0.0    -0.0    -0.0    -0.1    -0.2    -0.2    -0.3    -0.3    -0.3    -0.3
    -0.2    -0.2    -0.2    -0.1    -0.1    -0.1    -0.2    -0.1    -0.0    -0.1
    -0.1    -0.1    -0.1    -0.1    -0.2    -0.2    -0.1    -0.1    -0.2    -0.1
    -0.1    -0.2    -0.2    -0.2    -0.2    -0.2    -0.2    -0.1    -0.2    -0.1
    -0.2    -0.1    -0.1    -0.2    -0.1    -0.1    -0.1    -0.1    -0.1    -0.1
    -0.1    -0.1    -0.2    -0.2    -0.2    -0.2    -0.2    -0.2    -0.1    -0.0
    -0.1    -0.2    -0.2    -0.2    -0.2    -0.2    -0.2    -0.1    -0.1    -0.1
    -0.1    -0.1    -0.1    -0.2    -0.1    -0.2    -0.2    -0.2    -0.3    -0.2
    -0.2    -0.3    -0.2    -0.2    -0.2    -0.2    -0.2    -0.1    -0.0    -0.0
    -0.1    -0.1    -0.1    -0.2    -0.2    -0.2    -0.1    -0.1    -0.2    -0.1
    -0.1    -0.1    -0.1    -0.2    -0.2    -0.2    -0.2    -0.3    -0.2    -0.3
    -0.2    -0.2    -0.2    -0.1    -0.1    -0.0    -0.0    -0.0    -0.0    -0.1
    -0.0    -0.1    -0.1    -0.2    -0.2    -0.2    -0.3    -0.3    -0.2    -0.2
    -0.2    -0.2    -0.1    -0.1    -0.0    -0.1    -0.1    -0.1    -0.1    -0.2
    -0.2    -0.1    -0.2    -0.2    -0.2    -0.2    -0.2    -0.2    -0.1    -0.1
    -0.1    -0.1    -0.2    -0.2    -0.2    -0.2    -0.2    -0.2    -0.1    -0.2
    -0.2    -0.1    -0.1    -0.1    -0.1    -0.1    -0.1    -0.1    -0.1    -0.2
    -0.1    -0.2    -0.2    -0.2    -0.2    -0.2    -0.2    -0.1    -0.1    -0.1
    -0.1    -0.1    -0.1    -0.1    -0.1    -0.2    -0.2    -0.3    -0.3    -0.3
    -0.3    -0.2    -0.2    -0.0    -0.0     0.0     0.0    -0.1    -0.0    -0.1
    -0.1    -0.2    -0.2    -0.2    -0.2    -0.2    -0.2    -0.1    -0.1    -0.2
    -0.2    -0.2    -0.2    -0.2    -0.2    -0.2    -0.2    -0.2    -0.1    -0.1
    -0.1    -0.0    -0.0    -0.0    -0.1    -0.1    -0.2    -0.2    -0.1    -0.2
    -0.2    -0.2    -0.2    -0.2    -0.2    -0.2    -0.1    -0.1    -0.1    -0.1
    -0.1    -0.2    -0.2    -0.2    -0.2    -0.2    -0.1    -0.2    -0.2    -0.1
    -0.2    -0.1    -0.1    -0.1    -0.1    -0.2    -0.2    -0.2    -0.2    -0.2
    -0.2    -0.1    -0.1    -0.1    -0.1    -0.1    -0.0    -0.1     0.0    -0.0
    -0.1    -0.1    -0.2    -0.2    -0.3    -0.3    -0.2    -0.2    -0.1    -0.1
    -0.2    -0.1    -0.1    -0.2    -0.2    -0.2    -0.2    -0.2    -0.2    -0.2
    -0.1    -0.1    -0.1    -0.1    -0.0     0.0    -0.1    -0.1    -0.1    -0.2
    -0.2    -0.2    -0.2    -0.2    -0.2    -0.2    -0.2    -0.1    -0.1    -0.2
    -0.1    -0.1    -0.2    -0.2    -0.2    -0.1    -0.1    -0.1    -0.1    -0.1
    -0.1    -0.1    -0.2    -0.2    -0.2    -0.3    -0.2    -0.2    -0.2    -0.1
    -0.1    -0.0    -0.1    -0.1    -0.1    -0.1    -0.2    -0.2    -0.2    -0.2
    -0.2    -0.3    -0.1    -0.2    -0.1    -0.1    -0.2    -0.1    -0.1    -0.2
    -0.2    -0.2    -0.2    -0.2    -0.2    -0.2    -0.2    -0.1    -0.1    -0.1
    -0.1    -0.0    -0.0    -0.1    -0.0    -0.1    -0.1    -0.1    -0.2    -0.2
    -0.2    -0.2    -0.2    -0.3    -0.3    -0.2    -0.2    -0.1    -0.1    -0.1
    -0.0    -0.0    -0.0    -0.1    -0.1    -0.1    -0.2    -0.2    -0.2    -0.2
    -0.2    -0.2    -0.2    -0.2    -0.1    -0.1    -0.2    -0.1    -0.2    -0.2
    -0.2    -0.2    -0.1    -0.1    -0.0     0.0    -0.0    -0.1    -0.1    -0.1
    -0.2    -0.2    -0.2    -0.3    -0.2    -0.2    -0.2    -0.1    -0.1    -0.1
    -0.1    -0.1    -0.1    -0.2    -0.2    -0.3    -0.2    -0.2    -0.2    -0.1
    -0.1    -0.1    -0.1    -0.1    -0.0    -0.1    -0.1    -0.1    -0.1    -0.1
    -0.2    -0.2    -0.1    -0.2    -0.1    -0.1    -0.2    -0.2    -0.2    -0.3
    -0.3    -0.3    -0.3    -0.2    -0.1    -0.1    -0.0    -0.0     0.0     0.0
     0.0    -0.1    -0.1    -0.1    -0.2    -0.2    -0.2    -0.2    -0.2    -0.3
    -0.1    -0.1    -0.1    -0.1    -0.1    -0.1    -0.2    -0.2    -0.3    -0.2
    -0.1    -0.2    -0.1    -0.1    -0.1    -0.1    -0.1    -0.1    -0.1    -0.2
    -0.2    -0.1    -0.1    -0.1    -0.1    -0.1    -0.1    -0.2    -0.2    -0.2
    -0.2    -0.2    -0.2    -0.1    -0.2    -0.1    -0.1    -0.1     0.0    -0.1
    -0.1    -0.1    -0.1    -0.2    -0.3    -0.3    -0.2    -0.2    -0.2    -0.2
    -0.1    -0.1    -0.1    -0.2    -0.1    -0.1    -0.1    -0.1    -0.1    -0.0
    -0.0    -0.0    -0.1    -0.1    -0.1    -0.2    -0.2    -0.2    -0.2    -0.3
    -0.2    -0.1    -0.2    -0.2    -0.1    -0.1    -0.2    -0.2    -0.1    -0.1
    -0.1    -0.2    -0.2    -0.1    -0.1    -0.1    -0.1    -0.1    -0.1    -0.1
    -0.1    -0.2    -0.1    -0.2    -0.2    -0.2    -0.2    -0.2    -0.2    -0.2
    -0.1    -0.2    -0.1    -0.1    -0.1    -0.2    -0.2    -0.2    -0.2    -0.1
    -0.2    -0.1    -0.1    -0.1    -0.1    -0.1    -0.2    -0.2    -0.3    -0.2
    -0.2    -0.2    -0.2    -0.2    -0.1    -0.1    -0.0    -0.0    -0.1     0.0
    -0.1    -0.1    -0.2    -0.3    -0.2    -0.3    -0.3    -0.2    -0.3    -0.2
    -0.2    -0.1    -0.0    -0.1    -0.1    -0.1    -0.1    -0.2    -0.1    -0.1
    -0.1    -0.1    -0.2    -0.1    -0.2    -0.3    -0.3    -0.3    -0.2    -0.2
    -0.2    -0.2    -0.1    -0.0    -0.1    -0.0    -0.0    -0.0    -0.1    -0.1
    -0.1    -0.2    -0.3    -0.3    -0.3    -0.2    -0.2    -0.1    -0.0    -0.1
    -0.1    -0.1    -0.1    -0.1    -0.2    -0.2    -0.2    -0.2    -0.2    -0.2
    -0.1    -0.1    -0.1    -0.2    -0.2    -0.1    -0.2    -0.2    -0.2    -0.2
    -0.2    -0.2    -0.1    -0.0    -0.1    -0.1    -0.0    -0.1    -0.1    -0.2
    -0.2    -0.2    -0.2    -0.3    -0.2    -0.2    -0.1    -0.1    -0.0     0.0
    -0.0    -0.1    -0.2    -0.2    -0.2    -0.3    -0.3    -0.3    -0.2    -0.1
    -0.1    -0.1     0.0    -0.0    -0.1    -0.1    -0.1    -0.1    -0.2    -0.1
    -0.2    -0.2    -0.1    -0.1    -0.1    -0.2    -0.2    -0.2    -0.2    -0.2
    -0.3    -0.2    -0.2    -0.2    -0.2    -0.2    -0.0    -0.0    -0.0    -0.0
    -0.1    -0.1    -0.2    -0.2    -0.2    -0.2    -0.2    -0.2    -0.2    -0.2
    -0.1    -0.1    -0.1    -0.0    -0.1    -0.2    -0.2    -0.1    -0.2    -0.2
    -0.2    -0.2    -0.2    -0.2    -0.1    -0.1    -0.1    -0.2    -0.2    -0.2
    -0.2    -0.2    -0.2    -0.1    -0.1    -0.1    -0.0    -0.0    -0.0    -0.0
    -0.1    -0.2    -0.2    -0.3    -0.3    -0.3    -0.2    -0.2    -0.1    -0.0
    -0.0    -0.0    -0.1    -0.1    -0.1    -0.2    -0.2    -0.3    -0.3    -0.2
    -0.2    -0.2    -0.1    -0.1    -0.1    -0.1    -0.1    -0.0    -0.1    -0.1
    -0.1    -0.1    -0.2    -0.2    -0.2    -0.1    -0.1    -0.1    -0.1    -0.0
    -0.1    -0.2    -0.2    -0.2    -0.2    -0.2    -0.2    -0.1    -0.1    -0.1
    -0.0    -0.1    -0.1    -0.1    -0.1    -0.2    -0.2    -0.3    -0.3    -0.2
    -0.2    -0.1    -0.1    -0.0    -0.0    -0.0    -0.0    -0.0     0.0    -0.1
    -0.2    -0.2    -0.2    -0.2    -0.3    -0.2    -0.2    -0.2    -0.1    -0.1
    -0.1    -0.1    -0.2    -0.2    -0.2    -0.2    -0.2    -0.2    -0.1    -0.1
    -0.1    -0.0    -0.0    -0.1    -0.2    -0.2    -0.2    -0.1    -0.2    -0.2
    -0.1    -0.1    -0.0     0.0    -0.1    -0.0    -0.0    -0.1    -0.2    -0.3
    -0.3    -0.4    -0.3    -0.3    -0.3    -0.2    -0.1    -0.0     0.0     0.1
     0.0     0.0    -0.0    -0.1    -0.1    -0.1    -0.2    -0.2    -0.2    -0.2
    -0.2    -0.2    -0.2    -0.1    -0.1    -0.1    -0.2    -0.1    -0.2    -0.2
    -0.1    -0.2    -0.1    -0.1    -0.1    -0.0    -0.1    -0.1    -0.1    -0.2
    -0.2    -0.3    -0.3    -0.3    -0.3    -0.1    -0.1     0.0     0.1     0.0
     0.0    -0.1    -0.1    -0.2    -0.2    -0.2    -0.3    -0.3    -0.2    -0.2
    -0.2    -0.1    -0.0    -0.1    -0.0    -0.0    -0.1    -0.2    -0.2    -0.2
    -0.2    -0.2    -0.3    -0.1    -0.1    -0.1     0.0    -0.0    -0.0    -0.0
    -0.1    -0.1    -0.2    -0.2    -0.2    -0.2    -0.2    -0.2    -0.1    -0.1
    -0.0    -0.1    -0.1    -0.0    -0.1    -0.1    -0.3    -0.3    -0.1    -0.2
    -0.1    -0.2    -0.1     0.0    -0.1    -0.0    -0.1    -0.1    -0.2    -0.3
    -0.2    -0.3    -0.2    -0.2    -0.1    -0.1    -0.1    -0.1    -0.1    -0.1
    -0.2    -0.2    -0.2    -0.2    -0.3    -0.3    -0.2    -0.1    -0.0    -0.0
     0.0     0.1     0.0    -0.1    -0.2    -0.2    -0.3    -0.2    -0.3    -0.2
    -0.2    -0.3    -0.2    -0.2    -0.0    -0.0    -0.1     0.0    -0.1    -0.1
