Uncorrected accelerogram 20160214_001343_KEKS_20 GNS Science
Site KEKS      41 57 20S  173 58 53E     Basalt file:  20160214_001416_KEKS
Kekerengu Valley Road
Instrument Basalt_1763
Resolution: 24-bit   Instr Period: 0.0050 s   Damping: 0.700
Accelerogram 20160214_001343_KEKS_20                 Processed 2016 February 22
11 km east of CHRISTCHURCH
2016 February 14         00:13:43 UT
Epicentre  43 29 50S 172 45 18E  Bearing S30W  Dist  199km  Depth    8km M  5.70
Number of points  32600    Duration 163.00 s
Raw readings in units of 1.00 mm/s/s  at intervals of 0.005 s
Data is unfiltered
Component N90W
Acceleration:  Peak     -5.0 mm/s/s at  73.03 s     RMS     0.98 mm/s/s
Velocity record unevaluated
Displacement record unevaluated
    2016       2      14       0      13     430       0       0    2016       2
      43      29      50     172      45      18       8       0      14       0
      41      57      20     173      58      53     270     270     210     199
   32600       0       0   32600       0       0       0       0      13   36000
   200.0    0.70    0.00   0.000  0.0000   0.000   0.000   1.000     0.0    0.00
  41.956 173.981  43.497 172.755    5.70    0.00    0.00    0.00      0.      0.
  163.00    0.00    0.00  163.00  0.0050  0.0050      0.      0.      0.  9806.6
    -5.0   73.03     1.0      0.      0.     0.0    0.00     0.0     0.0   0.000
    0.00    0.00    0.00    0.00   0.000    0.00    0.00    0.00    0.00   0.000
   0.000   0.000   0.000      0.      0.   0.000   0.000   0.000      0.      0.
    -0.0    -0.0    -0.0    -0.0    -0.0    -0.0    -0.0     0.0    -0.0    -0.0
    -0.0    -0.0    -0.0    -0.0     0.0    -0.0    -0.0     0.0    -0.1    -0.0
    -0.0    -0.0    -0.0    -0.0     0.0    -0.0     0.0    -0.0    -0.0    -0.0
    -0.0    -0.0    -0.1    -0.0    -0.0    -0.0    -0.0    -0.0    -0.0    -0.0
    -0.0    -0.0    -0.0     0.0    -0.0    -0.0    -0.0    -0.0    -0.0    -0.0
    -0.0    -0.0    -0.0    -0.0    -0.0    -0.0    -0.0    -0.0    -0.0    -0.0
    -0.0     0.0    -0.0    -0.0    -0.0    -0.0    -0.0    -0.0    -0.0    -0.1
    -0.0    -0.0    -0.0     0.0    -0.0    -0.0    -0.0    -0.0    -0.0    -0.0
    -0.0    -0.0    -0.0    -0.0    -0.0    -0.0    -0.0    -0.0     0.0    -0.1
    -0.0     0.0    -0.1     0.0    -0.0    -0.1    -0.0    -0.0    -0.0    -0.0
    -0.0    -0.0    -0.0    -0.0    -0.0    -0.0    -0.0    -0.0    -0.0    -0.0
    -0.0    -0.0    -0.0    -0.0    -0.0    -0.0    -0.0    -0.0    -0.0    -0.0
    -0.0    -0.0    -0.0    -0.0     0.0    -0.0    -0.1     0.0    -0.0    -0.0
     0.0    -0.0    -0.0    -0.0    -0.0    -0.0    -0.0    -0.0    -0.0     0.0
    -0.0    -0.0    -0.0    -0.1    -0.0    -0.0    -0.0    -0.0    -0.0    -0.0
    -0.0    -0.0    -0.0    -0.0    -0.0    -0.0    -0.0    -0.0    -0.0    -0.1
    -0.0    -0.0    -0.0     0.0    -0.1    -0.1    -0.0    -0.0    -0.0    -0.0
    -0.0    -0.0    -0.0    -0.0    -0.0    -0.0    -0.1    -0.0    -0.0    -0.0
    -0.0    -0.0    -0.0    -0.1    -0.0    -0.0    -0.0    -0.0    -0.0    -0.0
    -0.0    -0.0    -0.0    -0.0    -0.0    -0.0    -0.0    -0.0    -0.0    -0.0
    -0.1    -0.0    -0.0    -0.0    -0.0    -0.0    -0.0    -0.0    -0.0    -0.0
    -0.0    -0.0    -0.0    -0.0    -0.1    -0.0     0.0    -0.0    -0.0    -0.0
    -0.0    -0.0    -0.0    -0.0    -0.0    -0.0    -0.0    -0.0    -0.0    -0.0
    -0.0    -0.0    -0.0    -0.0    -0.0    -0.0    -0.0    -0.0    -0.0    -0.0
    -0.0    -0.0     0.0    -0.1     0.0    -0.0    -0.1     0.0    -0.0    -0.0
    -0.0    -0.0    -0.0    -0.0    -0.0    -0.1    -0.0    -0.0    -0.0    -0.0
    -0.0    -0.0    -0.0    -0.0    -0.0    -0.0    -0.0    -0.0    -0.0    -0.1
    -0.0     0.0    -0.0    -0.0     0.0    -0.0    -0.0     0.0    -0.0    -0.0
    -0.0    -0.0    -0.0    -0.0    -0.0    -0.0    -0.0    -0.0    -0.0    -0.0
    -0.0    -0.0    -0.0    -0.0    -0.0     0.0    -0.0    -0.0    -0.0    -0.0
    -0.0    -0.0    -0.0    -0.1    -0.0    -0.0    -0.0    -0.0    -0.1    -0.0
    -0.0    -0.0    -0.0    -0.0     0.0    -0.0    -0.0    -0.0    -0.0    -0.0
    -0.0    -0.0    -0.0    -0.0    -0.0    -0.0    -0.0    -0.0    -0.0    -0.0
     0.0    -0.0    -0.0     0.0    -0.0    -0.0    -0.0    -0.0    -0.0    -0.0
    -0.0     0.0     0.0    -0.0    -0.0    -0.0    -0.0    -0.0    -0.1     0.0
    -0.0    -0.0    -0.0    -0.0    -0.0    -0.0    -0.0    -0.1    -0.0     0.0
    -0.1    -0.0    -0.0    -0.0    -0.0    -0.0    -0.0    -0.0    -0.0    -0.0
    -0.0    -0.1    -0.0    -0.0    -0.1    -0.0    -0.1    -0.0    -0.0    -0.0
    -0.0    -0.0    -0.0    -0.0    -0.0    -0.0    -0.0    -0.0    -0.0    -0.0
    -0.1     0.0     0.0    -0.0    -0.0    -0.0    -0.0    -0.0    -0.0    -0.1
    -0.0    -0.0    -0.0    -0.0    -0.1    -0.0    -0.0    -0.1     0.0    -0.0
    -0.1     0.0    -0.0    -0.0    -0.0    -0.0    -0.0    -0.0    -0.0    -0.0
    -0.0    -0.0    -0.0    -0.0    -0.0    -0.0    -0.0    -0.0    -0.0    -0.0
    -0.0     0.0    -0.0    -0.0    -0.0    -0.0     0.0    -0.0    -0.0    -0.0
    -0.0    -0.0    -0.0    -0.0    -0.0    -0.0    -0.0     0.0    -0.0    -0.0
    -0.0    -0.0    -0.0    -0.0    -0.0    -0.0    -0.0    -0.0    -0.0     0.0
    -0.0    -0.0     0.0    -0.0    -0.0    -0.0    -0.0    -0.0    -0.0    -0.0
    -0.0    -0.0     0.0    -0.0    -0.0    -0.0    -0.1    -0.0    -0.0    -0.0
    -0.0    -0.0     0.0    -0.0     0.0    -0.0    -0.0     0.0    -0.1    -0.0
    -0.0    -0.0    -0.0    -0.0    -0.0    -0.0    -0.0    -0.1    -0.0    -0.0
    -0.0    -0.0    -0.0    -0.0    -0.0    -0.0    -0.0    -0.0    -0.0    -0.0
    -0.0     0.0    -0.1    -0.0    -0.0    -0.1     0.0    -0.0    -0.0    -0.0
    -0.1    -0.0    -0.0    -0.0    -0.0    -0.0    -0.0    -0.0    -0.0    -0.0
    -0.0    -0.0    -0.0    -0.0    -0.0    -0.0    -0.0     0.0    -0.0    -0.1
    -0.0    -0.0    -0.0    -0.0     0.0    -0.0    -0.0    -0.0    -0.0     0.0
    -0.0    -0.0     0.0    -0.0    -0.1    -0.0     0.0    -0.0    -0.0    -0.0
    -0.0    -0.0    -0.0    -0.0    -0.0    -0.0    -0.0    -0.0    -0.0    -0.0
    -0.0    -0.0    -0.0    -0.0    -0.0     0.0    -0.0    -0.0    -0.0    -0.0
    -0.0    -0.0    -0.0    -0.0    -0.0    -0.0    -0.0    -0.0    -0.0    -0.0
    -0.0    -0.0    -0.0    -0.0    -0.0    -0.1    -0.0    -0.0    -0.0    -0.0
    -0.0    -0.0    -0.0    -0.0    -0.0    -0.0    -0.0    -0.0    -0.0    -0.0
    -0.0    -0.0    -0.0    -0.0    -0.1    -0.0    -0.0    -0.0     0.0    -0.0
     0.0    -0.0    -0.0    -0.0    -0.1    -0.0    -0.0    -0.0    -0.0    -0.0
     0.0    -0.0    -0.1     0.0    -0.0    -0.0    -0.0    -0.0    -0.0    -0.0
    -0.0    -0.0    -0.0    -0.0    -0.0     0.0    -0.0    -0.0    -0.0    -0.1
     0.0    -0.0    -0.0    -0.0    -0.0    -0.0     0.0    -0.0    -0.0    -0.0
    -0.0    -0.0    -0.0    -0.0    -0.0    -0.0    -0.0    -0.0    -0.0    -0.0
    -0.0    -0.0    -0.0    -0.0    -0.0    -0.0    -0.0    -0.0    -0.0    -0.0
    -0.0    -0.0     0.0    -0.0    -0.0    -0.0    -0.0    -0.0    -0.0    -0.0
     0.0    -0.1    -0.0    -0.0    -0.1     0.0    -0.0    -0.1    -0.0    -0.0
    -0.0    -0.0    -0.0    -0.0    -0.0     0.0    -0.1    -0.0    -0.0    -0.0
    -0.0    -0.0    -0.0     0.0    -0.0    -0.0    -0.0    -0.0     0.0    -0.1
    -0.0    -0.0    -0.0    -0.0    -0.0    -0.0    -0.1    -0.0    -0.0    -0.0
    -0.0    -0.0     0.0    -0.0    -0.0    -0.0    -0.0    -0.0    -0.0    -0.0
     0.0    -0.0    -0.0    -0.0    -0.0    -0.0    -0.0     0.0    -0.0    -0.0
    -0.0    -0.1    -0.0    -0.0    -0.0    -0.0    -0.0    -0.0    -0.0     0.0
    -0.1    -0.0     0.0    -0.0    -0.0    -0.0    -0.0    -0.0    -0.0    -0.0
    -0.0    -0.0    -0.0    -0.0    -0.0    -0.1    -0.0    -0.0    -0.0    -0.0
    -0.0    -0.0    -0.0    -0.0    -0.0    -0.0    -0.0    -0.1     0.0    -0.0
    -0.0    -0.0    -0.0    -0.0    -0.0    -0.0    -0.0    -0.0    -0.0    -0.0
    -0.0    -0.0    -0.0    -0.0    -0.0    -0.0    -0.0    -0.0    -0.0    -0.0
    -0.0    -0.0    -0.0    -0.0    -0.0    -0.0    -0.0    -0.0    -0.0    -0.0
    -0.0     0.0    -0.0    -0.0    -0.0    -0.0    -0.0    -0.0     0.0    -0.1
    -0.0     0.0    -0.0    -0.0    -0.0    -0.0     0.0    -0.0    -0.0    -0.0
    -0.0    -0.0    -0.1    -0.0    -0.0    -0.1    -0.0    -0.0    -0.0    -0.0
    -0.0    -0.0    -0.0    -0.0    -0.0    -0.0     0.0    -0.0    -0.0     0.0
    -0.0    -0.0    -0.0    -0.1    -0.0    -0.0    -0.0    -0.0    -0.0    -0.0
    -0.0    -0.0     0.0    -0.0    -0.1    -0.0    -0.1    -0.0    -0.0    -0.0
    -0.0    -0.1    -0.0    -0.0    -0.0    -0.0    -0.0    -0.0    -0.0    -0.0
    -0.0     0.0    -0.0    -0.0    -0.0    -0.0    -0.0    -0.0     0.0    -0.0
    -0.0    -0.0    -0.1     0.0    -0.0    -0.0     0.0    -0.0    -0.0    -0.0
    -0.0    -0.0    -0.0    -0.0    -0.0     0.0    -0.1    -0.0    -0.0    -0.0
    -0.0    -0.0    -0.0    -0.0     0.0    -0.1    -0.0    -0.0    -0.0    -0.0
    -0.0    -0.0    -0.0    -0.0    -0.0    -0.0    -0.0    -0.1    -0.0    -0.0
    -0.0    -0.0    -0.0    -0.0    -0.0    -0.0    -0.0    -0.0    -0.0    -0.0
    -0.0    -0.0    -0.0    -0.0    -0.0    -0.0    -0.0    -0.0    -0.0    -0.0
    -0.0    -0.0    -0.0    -0.0    -0.0    -0.0    -0.0    -0.0    -0.1    -0.0
    -0.0    -0.1     0.0     0.0    -0.1    -0.0    -0.0    -0.0    -0.0    -0.1
    -0.0    -0.0    -0.0    -0.0    -0.0    -0.0    -0.1    -0.0    -0.0    -0.0
     0.0    -0.0    -0.0    -0.0    -0.0    -0.0    -0.0    -0.0    -0.0    -0.0
    -0.0    -0.1    -0.0    -0.0    -0.0    -0.0    -0.0    -0.0    -0.0    -0.0
    -0.0     0.0    -0.0    -0.0    -0.0    -0.0    -0.0    -0.0    -0.0    -0.0
    -0.1    -0.0    -0.0    -0.0    -0.0    -0.0    -0.0    -0.0    -0.0    -0.0
    -0.0     0.0    -0.0    -0.0    -0.0    -0.1    -0.0    -0.0    -0.0    -0.0
    -0.0    -0.0    -0.1    -0.0    -0.0    -0.0    -0.0    -0.0    -0.0    -0.0
    -0.0    -0.0    -0.0    -0.0    -0.0    -0.0    -0.0    -0.0    -0.0    -0.0
    -0.1     0.0    -0.0    -0.1    -0.0    -0.0    -0.0    -0.0    -0.0    -0.0
    -0.0    -0.0    -0.0    -0.0    -0.0    -0.0    -0.0    -0.1    -0.0    -0.0
    -0.0    -0.0    -0.0    -0.0    -0.1     0.0    -0.0    -0.1     0.0    -0.1
    -0.0     0.0    -0.0    -0.0    -0.0    -0.0    -0.0    -0.0    -0.0     0.0
    -0.1    -0.0     0.0    -0.1     0.0    -0.0    -0.1    -0.0    -0.0    -0.0
    -0.0    -0.0    -0.0    -0.0    -0.0    -0.0    -0.0    -0.0    -0.0    -0.0
    -0.0    -0.0    -0.0    -0.0     0.0    -0.1    -0.0    -0.0    -0.1    -0.0
    -0.0    -0.0    -0.0    -0.1    -0.0    -0.0    -0.1    -0.0    -0.0    -0.0
    -0.0    -0.0    -0.0    -0.0    -0.0    -0.0    -0.0     0.0    -0.0    -0.0
    -0.0    -0.0    -0.0    -0.0     0.0    -0.0    -0.0    -0.0    -0.0     0.0
    -0.1    -0.0    -0.0    -0.1     0.0    -0.0    -0.0    -0.0    -0.0    -0.0
    -0.0    -0.0    -0.0    -0.0     0.0    -0.0    -0.1    -0.0    -0.0    -0.0
    -0.0    -0.0    -0.0    -0.0    -0.0    -0.0     0.0    -0.0    -0.0    -0.0
    -0.0    -0.0    -0.0    -0.0    -0.0    -0.0     0.0    -0.0    -0.0    -0.0
    -0.0     0.0    -0.1    -0.0    -0.0    -0.0    -0.0    -0.0    -0.0    -0.0
    -0.0    -0.0    -0.0    -0.0    -0.0    -0.0    -0.0    -0.0    -0.0    -0.0
    -0.0    -0.0    -0.0    -0.0    -0.0    -0.0    -0.1     0.0    -0.0    -0.1
     0.0    -0.0    -0.0    -0.0    -0.0    -0.0    -0.1     0.0    -0.0    -0.0
    -0.0    -0.1    -0.0    -0.0    -0.0    -0.0    -0.1     0.0    -0.0    -0.1
     0.0    -0.1    -0.0    -0.0    -0.0    -0.0    -0.0    -0.0    -0.0    -0.0
    -0.1    -0.0     0.0    -0.0    -0.0    -0.0    -0.0    -0.0    -0.0    -0.0
    -0.0     0.0    -0.0    -0.0    -0.0    -0.1    -0.0    -0.0    -0.0    -0.0
    -0.1    -0.0    -0.0     0.0    -0.0    -0.0     0.0    -0.1    -0.0    -0.0
    -0.0     0.0    -0.0    -0.0    -0.0    -0.0    -0.0    -0.1    -0.0     0.0
    -0.1    -0.1     0.0    -0.0    -0.0    -0.0    -0.0    -0.0    -0.0    -0.0
    -0.0    -0.0    -0.0    -0.0    -0.0    -0.0    -0.0    -0.1    -0.0     0.0
    -0.1    -0.0    -0.0    -0.0    -0.0    -0.0    -0.0    -0.0    -0.0    -0.0
    -0.0    -0.0    -0.0     0.0    -0.1    -0.0     0.0    -0.0    -0.0    -0.0
    -0.0     0.0    -0.1    -0.0    -0.0    -0.0     0.0    -0.0    -0.0    -0.0
    -0.0    -0.0    -0.0    -0.0    -0.0     0.0    -0.0    -0.0     0.0    -0.1
     0.0     0.0    -0.1    -0.0    -0.0    -0.0     0.0    -0.0    -0.0    -0.0
    -0.0    -0.0    -0.0    -0.0    -0.0    -0.0    -0.0    -0.0    -0.0    -0.0
    -0.0    -0.0     0.0    -0.0    -0.0     0.0    -0.1     0.0    -0.1    -0.0
     0.0    -0.1     0.0    -0.0    -0.0     0.0    -0.0    -0.0    -0.0    -0.0
    -0.0    -0.0     0.0    -0.0    -0.0    -0.0    -0.0    -0.0    -0.0    -0.0
    -0.0    -0.0    -0.0    -0.0    -0.0    -0.0    -0.0    -0.0    -0.0     0.0
    -0.0    -0.0     0.0    -0.1    -0.0    -0.0    -0.0     0.0    -0.0     0.0
    -0.0    -0.0     0.0    -0.1    -0.0    -0.0    -0.0    -0.0    -0.0     0.0
    -0.0    -0.0    -0.0    -0.0    -0.0    -0.0    -0.0     0.0    -0.1    -0.0
    -0.0    -0.0    -0.0    -0.1    -0.0    -0.0    -0.1     0.0    -0.1    -0.0
    -0.0    -0.1    -0.0    -0.0    -0.0    -0.0     0.0    -0.0    -0.1    -0.0
    -0.0    -0.0    -0.0    -0.0    -0.0    -0.0    -0.0    -0.0    -0.1    -0.0
    -0.0    -0.0    -0.0    -0.1    -0.0     0.0    -0.0    -0.0    -0.0    -0.0
    -0.0    -0.0    -0.0    -0.0    -0.0    -0.0    -0.1     0.0    -0.0    -0.0
    -0.0    -0.0    -0.0    -0.0     0.0    -0.0    -0.0     0.0    -0.0    -0.0
     0.0    -0.0    -0.0     0.0    -0.0    -0.0    -0.0    -0.0    -0.0    -0.0
    -0.0    -0.0    -0.0    -0.0    -0.0    -0.0    -0.0    -0.0    -0.0    -0.0
    -0.0     0.0    -0.1    -0.0    -0.0    -0.0    -0.0    -0.0    -0.0    -0.0
    -0.0    -0.0    -0.0    -0.0    -0.0    -0.0    -0.1    -0.0    -0.0    -0.0
    -0.0    -0.1    -0.0     0.0    -0.1    -0.0     0.0    -0.0    -0.0    -0.0
    -0.0    -0.0    -0.0    -0.0     0.0    -0.0    -0.0    -0.0    -0.0    -0.0
    -0.0    -0.0    -0.0    -0.0    -0.0    -0.0    -0.0    -0.0     0.0    -0.0
    -0.0     0.0    -0.1     0.0     0.0    -0.1    -0.0    -0.0    -0.0    -0.1
    -0.0    -0.0    -0.0     0.0    -0.0    -0.0    -0.0    -0.0    -0.0    -0.0
    -0.0    -0.0     0.0    -0.1    -0.0    -0.0    -0.1    -0.0    -0.0    -0.0
    -0.0     0.0    -0.0    -0.0     0.0    -0.0    -0.0    -0.0    -0.0    -0.0
    -0.0    -0.0    -0.0    -0.0     0.0    -0.0    -0.0     0.0    -0.0    -0.0
    -0.0    -0.0    -0.0    -0.0    -0.0    -0.0    -0.0    -0.0    -0.0    -0.0
    -0.0    -0.0    -0.0    -0.0    -0.0    -0.0     0.0    -0.0    -0.0    -0.0
    -0.0    -0.0    -0.0     0.0    -0.0    -0.0    -0.0    -0.1     0.0    -0.1
     0.0     0.0    -0.1     0.0    -0.0    -0.0     0.0    -0.0    -0.0    -0.0
     0.0    -0.0     0.0    -0.0    -0.0    -0.0    -0.1     0.0    -0.0    -0.1
     0.0    -0.0    -0.1     0.0    -0.0    -0.0    -0.0    -0.0    -0.0    -0.0
    -0.0     0.0    -0.0    -0.0     0.0    -0.1    -0.0    -0.0    -0.0    -0.0
    -0.0    -0.0    -0.0    -0.0    -0.0    -0.0    -0.0    -0.0     0.0    -0.0
    -0.0    -0.0    -0.0    -0.0    -0.0    -0.0    -0.0    -0.0    -0.0    -0.0
    -0.0    -0.0    -0.0     0.0    -0.0    -0.0    -0.0    -0.0    -0.0    -0.1
    -0.0     0.0    -0.0    -0.0    -0.0    -0.0    -0.0    -0.0    -0.0    -0.0
    -0.0    -0.0    -0.0    -0.0    -0.0    -0.0    -0.0    -0.0    -0.0    -0.1
    -0.0    -0.0    -0.0    -0.0    -0.0    -0.0    -0.0    -0.0    -0.0    -0.0
    -0.0    -0.0    -0.0    -0.0    -0.0    -0.0    -0.0    -0.0    -0.0    -0.0
    -0.0    -0.0    -0.0     0.0    -0.0    -0.1    -0.0    -0.0    -0.0    -0.0
    -0.1     0.0    -0.0    -0.1     0.0    -0.0    -0.0    -0.0    -0.0     0.0
    -0.0    -0.0    -0.0    -0.0    -0.0    -0.0    -0.0    -0.0    -0.0    -0.0
    -0.0    -0.0    -0.0    -0.0    -0.0    -0.0    -0.0     0.0    -0.0    -0.1
    -0.0     0.0    -0.0    -0.0    -0.0    -0.1    -0.0     0.0    -0.0    -0.0
    -0.0    -0.0    -0.0    -0.0    -0.0    -0.0    -0.0    -0.0    -0.0    -0.0
    -0.0    -0.0    -0.0    -0.0    -0.0    -0.0    -0.0    -0.0    -0.0    -0.0
    -0.0    -0.0    -0.0    -0.0    -0.0    -0.0    -0.0    -0.0    -0.0    -0.0
    -0.0    -0.0    -0.0    -0.0     0.0    -0.0    -0.0     0.0    -0.1     0.0
    -0.0    -0.0    -0.0    -0.0     0.0    -0.0    -0.0    -0.0    -0.0    -0.0
    -0.0    -0.0    -0.0    -0.0    -0.0    -0.1    -0.0    -0.0    -0.1    -0.0
    -0.0    -0.0    -0.0    -0.0    -0.0    -0.0    -0.0    -0.0    -0.0     0.0
    -0.0     0.0    -0.0    -0.0    -0.0    -0.0     0.0    -0.1    -0.0     0.0
    -0.0    -0.0    -0.0    -0.0    -0.0    -0.1     0.0    -0.1    -0.0     0.0
    -0.1     0.0    -0.0    -0.0    -0.0    -0.0     0.0    -0.1    -0.0     0.0
    -0.0    -0.0    -0.0    -0.0    -0.0    -0.0    -0.0    -0.1    -0.0     0.0
    -0.0    -0.1     0.0    -0.0    -0.0    -0.0    -0.0     0.0    -0.0    -0.0
    -0.0    -0.0    -0.0    -0.0    -0.0    -0.0    -0.0     0.0    -0.0    -0.0
    -0.0    -0.1     0.0    -0.0    -0.0     0.0    -0.0    -0.0    -0.0    -0.0
    -0.0    -0.0    -0.0    -0.0    -0.0    -0.0    -0.0    -0.0    -0.0    -0.0
    -0.0    -0.0    -0.0    -0.0    -0.0    -0.0     0.0    -0.0    -0.0    -0.0
    -0.0    -0.0    -0.0    -0.0    -0.0    -0.0    -0.0     0.0    -0.0    -0.0
    -0.0    -0.0    -0.0    -0.0    -0.0    -0.0    -0.1    -0.0     0.0    -0.0
    -0.0    -0.0    -0.0    -0.0    -0.0    -0.0    -0.0    -0.0    -0.0    -0.0
    -0.0    -0.0    -0.0    -0.0    -0.0    -0.0     0.0    -0.0    -0.0     0.0
    -0.1    -0.0    -0.0    -0.0     0.0    -0.0    -0.0    -0.0    -0.0    -0.0
    -0.0     0.0    -0.0    -0.1    -0.0    -0.0    -0.0    -0.0    -0.0    -0.0
    -0.1     0.0    -0.0    -0.0    -0.0     0.0    -0.0    -0.0    -0.0    -0.0
     0.0    -0.0    -0.0    -0.0    -0.0    -0.0    -0.0    -0.0    -0.0    -0.0
    -0.1    -0.0    -0.0    -0.0     0.0    -0.0    -0.0    -0.0    -0.0    -0.0
    -0.0    -0.0    -0.1     0.0    -0.0    -0.0    -0.0     0.0     0.0    -0.0
    -0.0    -0.0    -0.0     0.0    -0.0    -0.0    -0.0    -0.0    -0.0    -0.0
    -0.0    -0.0    -0.0    -0.0    -0.0    -0.0    -0.0    -0.0     0.0    -0.0
    -0.1    -0.0     0.0    -0.0    -0.0    -0.0    -0.0    -0.1    -0.0    -0.0
    -0.1     0.0    -0.0    -0.0     0.0    -0.0    -0.0    -0.0    -0.0    -0.0
    -0.1    -0.0    -0.0    -0.0    -0.0    -0.0    -0.0    -0.0    -0.1    -0.0
    -0.0    -0.0     0.0    -0.1     0.0    -0.0    -0.1    -0.0    -0.0    -0.0
    -0.0     0.0    -0.0    -0.1    -0.0    -0.0    -0.0    -0.0    -0.0    -0.0
    -0.0    -0.0    -0.0     0.0    -0.0    -0.0    -0.0     0.0    -0.0    -0.1
     0.0    -0.0    -0.1    -0.0    -0.0    -0.0    -0.0    -0.0    -0.0    -0.0
    -0.0    -0.0    -0.0    -0.0    -0.0    -0.0    -0.0    -0.0    -0.0    -0.0
     0.0    -0.0    -0.0     0.0    -0.1    -0.0    -0.0    -0.0    -0.0    -0.0
    -0.0    -0.0     0.0    -0.1    -0.0     0.0    -0.1    -0.0    -0.1    -0.0
    -0.0    -0.0    -0.0    -0.0     0.0    -0.0    -0.0     0.0    -0.0    -0.0
    -0.0    -0.0    -0.0    -0.0    -0.0    -0.0    -0.0    -0.0    -0.0    -0.0
    -0.0    -0.0    -0.0    -0.0    -0.0    -0.0    -0.0    -0.0    -0.0    -0.1
    -0.0    -0.0    -0.1     0.0    -0.0    -0.0     0.0    -0.0    -0.0    -0.0
    -0.0    -0.0     0.0    -0.0    -0.0     0.0    -0.0    -0.0    -0.0    -0.0
    -0.0    -0.1     0.0    -0.1     0.0    -0.0    -0.1     0.0    -0.0    -0.0
     0.0    -0.0    -0.0    -0.0    -0.0    -0.0    -0.0    -0.0    -0.0    -0.0
