Uncorrected accelerogram 20160214_001343_WCSS_20 GNS Science
Site WCSS      43 27 28S  171 51 48E     Cusp file:  20160214_001357_WCSS
Whitecliffs
Instrument Cusp_42148
Resolution: 18-bit   Instr Period: 0.0050 s   Damping: 0.700
Accelerogram 20160214_001343_WCSS_20                 Processed 2016 February 22
11 km east of CHRISTCHURCH
2016 February 14         00:13:43 UT
Epicentre  43 29 50S 172 45 18E  Bearing S86E  Dist   72km  Depth    8km M  5.70
Number of points  35694    Duration 178.47 s
Raw readings in units of 1.00 mm/s/s  at intervals of 0.005 s
Data is unfiltered
Component S20W
Acceleration:  Peak    242.1 mm/s/s at  53.62 s     RMS    17.84 mm/s/s
Velocity record unevaluated
Displacement record unevaluated
    2016       2      14       0      13     430       0       0    2016       2
      43      29      50     172      45      18       8       0      14       0
      43      27      28     171      51      48     200     200      94      72
   35694       0       0   35694       0       0       0       0      13   17131
   200.0    0.70    0.00   0.000  0.0000   0.000   0.000   1.000     0.0    0.00
  43.458 171.863  43.497 172.755    5.70    0.00    0.00    0.00      0.      0.
  178.47    0.00    0.00  178.47  0.0050  0.0050      0.      0.      0.  9806.6
   242.1   53.62    17.8      0.      0.     0.0    0.00     0.0     0.0   0.000
    0.00    0.00    0.00    0.00   0.000    0.00    0.00    0.00    0.00   0.000
   0.000   0.000   0.000      0.      0.   0.000   0.000   0.000      0.      0.
    -0.0    -0.1    -0.2    -0.2    -0.0    -0.0    -0.2    -0.2    -0.0     0.0
     0.0    -0.1    -0.2    -0.2    -0.1    -0.1    -0.2    -0.2    -0.1     0.1
     0.0     0.2     0.2    -0.2    -0.2     0.0    -0.0    -0.1    -0.2    -0.2
     0.0    -0.0    -0.2    -0.2    -0.1    -0.0    -0.1    -0.2    -0.1    -0.2
    -0.1    -0.1    -0.3    -0.1    -0.1    -0.2    -0.0    -0.1    -0.1     0.1
     0.1    -0.2    -0.3    -0.1    -0.2    -0.2    -0.1    -0.1    -0.1    -0.0
    -0.2    -0.1     0.0    -0.1    -0.2    -0.1    -0.1    -0.1    -0.1    -0.0
    -0.1    -0.2    -0.1    -0.1     0.0     0.0    -0.3    -0.2    -0.1    -0.2
    -0.2    -0.2    -0.1     0.0    -0.2    -0.3    -0.1    -0.1    -0.2    -0.1
    -0.0    -0.0    -0.2    -0.3    -0.1    -0.1    -0.1    -0.1    -0.2    -0.1
    -0.2    -0.1     0.2     0.1    -0.1    -0.2    -0.0     0.1    -0.1    -0.0
    -0.2    -0.2    -0.1    -0.2    -0.2    -0.3    -0.2    -0.1    -0.3    -0.1
    -0.1    -0.3    -0.3    -0.2     0.0     0.0    -0.3    -0.2    -0.0    -0.1
    -0.0    -0.1    -0.0    -0.1    -0.2    -0.1    -0.1    -0.2    -0.1    -0.2
    -0.1    -0.1    -0.2    -0.2    -0.0    -0.2    -0.2     0.0    -0.0    -0.2
    -0.1    -0.1    -0.1    -0.1    -0.2    -0.1     0.1     0.1    -0.2    -0.2
    -0.1    -0.2    -0.2    -0.1    -0.1     0.1     0.1    -0.3    -0.1    -0.0
    -0.2    -0.2    -0.0     0.1    -0.0    -0.3    -0.3    -0.1    -0.1    -0.3
    -0.1     0.1    -0.1    -0.4    -0.2    -0.1    -0.2    -0.2     0.0     0.2
    -0.2    -0.2    -0.2    -0.2    -0.0    -0.2    -0.3    -0.1    -0.1    -0.2
    -0.1     0.0    -0.1    -0.1    -0.1    -0.1     0.1    -0.2    -0.2     0.0
     0.0    -0.2    -0.2    -0.1    -0.1    -0.2    -0.2    -0.2    -0.2    -0.1
    -0.2    -0.1     0.1    -0.2    -0.3    -0.2     0.0    -0.0    -0.3    -0.1
    -0.1    -0.2    -0.1    -0.1    -0.0    -0.2    -0.3    -0.2    -0.3    -0.2
    -0.3    -0.3     0.0     0.1    -0.1    -0.1    -0.1    -0.1    -0.3    -0.2
    -0.1    -0.2    -0.1    -0.2     0.0    -0.0    -0.3    -0.1     0.1     0.0
    -0.2    -0.3     0.0    -0.1    -0.2    -0.1    -0.0    -0.0    -0.2    -0.2
    -0.1    -0.1    -0.1    -0.2    -0.0    -0.0    -0.2    -0.0     0.2     0.1
    -0.2    -0.1     0.0    -0.1    -0.1    -0.1    -0.0    -0.0     0.0    -0.1
    -0.2    -0.1    -0.2    -0.2    -0.1    -0.3    -0.2    -0.1    -0.1    -0.2
    -0.3    -0.3    -0.2    -0.1    -0.1    -0.3    -0.2    -0.0    -0.0    -0.2
    -0.2    -0.0    -0.1    -0.2    -0.2    -0.1     0.1    -0.3    -0.2    -0.0
    -0.2    -0.2    -0.1    -0.2    -0.0    -0.2    -0.3    -0.0    -0.2    -0.3
    -0.1    -0.1    -0.1    -0.1    -0.1    -0.1    -0.2    -0.0    -0.1    -0.2
    -0.1    -0.3    -0.2    -0.0    -0.2    -0.2    -0.2    -0.3    -0.1    -0.1
    -0.1    -0.2    -0.2    -0.0    -0.2    -0.0     0.1    -0.1    -0.3    -0.4
    -0.1    -0.2    -0.3    -0.1    -0.1    -0.1    -0.2    -0.4    -0.2    -0.0
    -0.2    -0.3    -0.0    -0.1    -0.2    -0.1    -0.3    -0.1    -0.0    -0.2
    -0.0    -0.1    -0.1    -0.1    -0.1     0.1    -0.1    -0.2    -0.1    -0.0
    -0.1    -0.2    -0.0    -0.1    -0.2    -0.2    -0.1    -0.0    -0.1    -0.2
    -0.1    -0.1    -0.2    -0.2    -0.3    -0.1    -0.0    -0.2    -0.2     0.0
    -0.1    -0.3    -0.1     0.0    -0.1    -0.1     0.1    -0.0    -0.1    -0.2
    -0.2     0.0     0.1    -0.1    -0.0     0.1    -0.0    -0.2    -0.2    -0.0
     0.0    -0.2    -0.2     0.0     0.0    -0.0    -0.1    -0.0     0.0    -0.0
    -0.2    -0.1     0.0    -0.2    -0.2    -0.0    -0.0    -0.2    -0.1    -0.2
    -0.1     0.1    -0.0    -0.0     0.0    -0.1    -0.1    -0.1     0.0     0.0
    -0.2    -0.1     0.1     0.0    -0.1    -0.2    -0.1     0.0    -0.1    -0.1
     0.1     0.1    -0.0    -0.2    -0.2    -0.1    -0.2    -0.2    -0.0     0.1
    -0.1    -0.2    -0.0     0.0    -0.1    -0.1     0.0    -0.0    -0.1    -0.2
    -0.1     0.1    -0.1    -0.1    -0.1    -0.1     0.0    -0.0    -0.0    -0.1
    -0.1    -0.1    -0.2    -0.1    -0.1    -0.2    -0.1    -0.2    -0.0    -0.1
    -0.2     0.0    -0.1    -0.2    -0.0     0.0     0.0    -0.1    -0.1     0.1
     0.0    -0.1    -0.1    -0.0     0.1    -0.0    -0.0    -0.1    -0.1    -0.1
     0.1     0.1     0.0    -0.2    -0.2     0.1     0.2    -0.0    -0.1     0.0
     0.0    -0.1    -0.0     0.1     0.1     0.2    -0.1    -0.2    -0.1     0.0
    -0.0    -0.2     0.0     0.0    -0.2     0.0    -0.1    -0.1    -0.0    -0.2
     0.0     0.1    -0.2     0.0     0.0    -0.0    -0.0    -0.2    -0.1    -0.1
    -0.1    -0.1    -0.2    -0.2    -0.2    -0.1     0.0    -0.0    -0.1    -0.3
    -0.1     0.0    -0.0    -0.1    -0.1    -0.0    -0.1    -0.1     0.0     0.0
    -0.1    -0.1    -0.1    -0.2    -0.1    -0.1    -0.1     0.0     0.0    -0.1
    -0.0     0.1    -0.0    -0.2     0.1     0.1    -0.1    -0.2    -0.1     0.1
    -0.2    -0.3     0.0     0.1    -0.0    -0.1    -0.1     0.2    -0.1    -0.4
    -0.1    -0.3    -0.1    -0.0    -0.2     0.2     0.0    -0.2    -0.2    -0.1
    -0.1     0.0    -0.0    -0.1    -0.2    -0.2    -0.1    -0.0    -0.0    -0.0
    -0.2    -0.1    -0.0    -0.1    -0.1    -0.1    -0.0    -0.2    -0.3    -0.2
    -0.3    -0.3    -0.3    -0.2     0.0     0.0    -0.3    -0.2    -0.0    -0.1
    -0.1    -0.0    -0.1     0.1    -0.0    -0.1     0.1     0.1    -0.1    -0.1
    -0.0    -0.0    -0.1    -0.2    -0.2    -0.1    -0.0    -0.2    -0.2     0.0
    -0.0    -0.0     0.0    -0.1    -0.2    -0.2     0.0    -0.1    -0.3    -0.2
    -0.1    -0.1    -0.1    -0.1    -0.0     0.1    -0.1    -0.2     0.0    -0.1
    -0.2    -0.2    -0.1    -0.0    -0.1    -0.2    -0.1    -0.3    -0.2    -0.1
    -0.1     0.0     0.0    -0.2    -0.1    -0.2    -0.1     0.0    -0.1     0.0
     0.1    -0.2    -0.2    -0.2    -0.2    -0.1    -0.0    -0.1    -0.1     0.0
     0.1     0.0    -0.1    -0.1     0.1    -0.0    -0.2    -0.1     0.1    -0.0
    -0.2    -0.1    -0.1    -0.1    -0.0    -0.2    -0.2    -0.0    -0.2    -0.1
     0.0    -0.1     0.0    -0.1    -0.2    -0.1    -0.0    -0.1    -0.2    -0.1
    -0.1    -0.2    -0.1    -0.1    -0.1    -0.0    -0.1     0.1    -0.2    -0.3
     0.0    -0.1    -0.1    -0.0    -0.2     0.0    -0.2    -0.3    -0.1    -0.2
    -0.1    -0.1    -0.2    -0.0    -0.2    -0.3    -0.2    -0.0    -0.2    -0.2
    -0.0    -0.1    -0.1    -0.1    -0.3    -0.0     0.1    -0.1    -0.2    -0.1
     0.0    -0.2    -0.3    -0.1    -0.0    -0.2    -0.1     0.0    -0.2    -0.1
    -0.1    -0.1     0.1    -0.0    -0.1    -0.1    -0.0     0.1    -0.1    -0.2
     0.0     0.0     0.0    -0.0    -0.1    -0.1    -0.1     0.0    -0.1    -0.3
    -0.0     0.0    -0.2    -0.0    -0.0    -0.1     0.0     0.0    -0.1    -0.2
    -0.2    -0.0     0.1    -0.1    -0.2    -0.1    -0.3    -0.4    -0.0     0.0
    -0.2    -0.1    -0.1    -0.1    -0.1    -0.2    -0.1    -0.1    -0.1    -0.2
    -0.0     0.2    -0.0    -0.2    -0.1    -0.0    -0.1    -0.1     0.0    -0.1
    -0.1    -0.1    -0.1    -0.1    -0.2    -0.1    -0.0    -0.1     0.1     0.0
    -0.1    -0.1    -0.1    -0.0    -0.0    -0.0    -0.1    -0.1    -0.1    -0.1
     0.0    -0.0    -0.3    -0.2    -0.1    -0.1    -0.2    -0.1     0.0    -0.0
    -0.1    -0.0    -0.1    -0.1    -0.1    -0.1     0.0     0.2    -0.2    -0.2
     0.0     0.0    -0.0    -0.1    -0.0     0.1    -0.0    -0.0     0.1     0.1
    -0.1    -0.1    -0.0    -0.0    -0.1    -0.1     0.2     0.1    -0.2     0.1
     0.2     0.1     0.0     0.1     0.0    -0.2    -0.2    -0.1    -0.1     0.1
    -0.0    -0.0     0.0     0.0    -0.0    -0.2    -0.1    -0.1    -0.1    -0.0
     0.0     0.2     0.1    -0.0     0.1     0.1    -0.1    -0.2    -0.0    -0.0
    -0.1    -0.0    -0.3    -0.2     0.0    -0.1    -0.2    -0.1     0.1     0.1
    -0.1     0.0     0.1    -0.1    -0.2    -0.1     0.0    -0.1    -0.1     0.0
    -0.0    -0.1    -0.2    -0.1    -0.0    -0.1    -0.0     0.0    -0.0    -0.1
    -0.1    -0.0    -0.0     0.0    -0.1    -0.1    -0.0    -0.2    -0.2    -0.1
     0.1     0.1    -0.1     0.0     0.2    -0.1    -0.1    -0.1    -0.1    -0.1
    -0.2    -0.1     0.0    -0.1    -0.3    -0.1    -0.0    -0.1    -0.0    -0.1
    -0.0     0.1    -0.3    -0.3     0.0    -0.1    -0.2    -0.3    -0.2    -0.0
    -0.1     0.0     0.1     0.0    -0.0    -0.2    -0.0     0.1    -0.2    -0.2
    -0.1     0.0    -0.0    -0.0     0.1    -0.1     0.0     0.2    -0.0     0.1
    -0.0    -0.2     0.0     0.0    -0.1    -0.2    -0.2     0.1    -0.1    -0.3
     0.0     0.1    -0.1    -0.2    -0.2    -0.0     0.1    -0.2    -0.1     0.1
     0.1    -0.1    -0.3    -0.1     0.0    -0.2    -0.2    -0.0    -0.0    -0.1
    -0.3    -0.0     0.1    -0.2    -0.2    -0.0    -0.1    -0.2     0.0    -0.0
    -0.1    -0.1    -0.1    -0.0     0.0     0.1    -0.1     0.1     0.1    -0.2
    -0.0    -0.1    -0.2     0.0    -0.0    -0.0     0.0    -0.0    -0.3    -0.1
     0.2    -0.1    -0.1    -0.1    -0.0     0.0    -0.2     0.0     0.0     0.0
     0.1    -0.1    -0.1    -0.2    -0.1    -0.0    -0.1    -0.0    -0.1    -0.2
     0.1    -0.0    -0.1    -0.1    -0.1    -0.0    -0.2    -0.0     0.2     0.0
    -0.1    -0.0     0.1     0.0    -0.2    -0.2     0.0     0.1    -0.0    -0.1
    -0.0    -0.0    -0.1    -0.1     0.1     0.0    -0.1     0.0     0.0     0.1
    -0.0    -0.2     0.0    -0.0    -0.2    -0.2    -0.0     0.0     0.0    -0.0
    -0.1     0.1    -0.1    -0.2     0.1    -0.1     0.0     0.0    -0.2    -0.0
    -0.0    -0.1    -0.0    -0.0    -0.1    -0.1    -0.1     0.0     0.1    -0.1
    -0.2    -0.1    -0.2     0.0     0.1    -0.3    -0.2    -0.2    -0.2     0.0
    -0.0    -0.2    -0.1     0.0    -0.0    -0.1    -0.1    -0.0     0.0    -0.2
    -0.3    -0.2    -0.1    -0.2    -0.3    -0.2    -0.0    -0.0    -0.0    -0.1
     0.1     0.1     0.0     0.0     0.0    -0.1    -0.1    -0.0    -0.0    -0.1
    -0.2     0.0     0.1    -0.0    -0.1    -0.1     0.0     0.0    -0.1    -0.1
    -0.0    -0.0     0.0     0.2     0.2     0.1    -0.0    -0.1     0.0     0.0
    -0.1    -0.0     0.1     0.2     0.1    -0.1    -0.2    -0.1    -0.2    -0.1
    -0.0     0.1    -0.0    -0.2    -0.1    -0.1    -0.1    -0.1    -0.1     0.1
    -0.1    -0.3    -0.2    -0.0    -0.1    -0.2    -0.0    -0.0    -0.1     0.0
    -0.1    -0.0    -0.1    -0.2    -0.0     0.0    -0.1    -0.1    -0.1    -0.1
    -0.1    -0.1    -0.3    -0.2     0.0    -0.2    -0.2    -0.1    -0.1    -0.1
    -0.1    -0.1    -0.1    -0.0    -0.0    -0.1    -0.0    -0.2    -0.2    -0.1
    -0.0    -0.0    -0.1    -0.0     0.0    -0.0    -0.1    -0.2     0.1    -0.0
    -0.3    -0.2    -0.2    -0.2    -0.3    -0.3    -0.0    -0.1    -0.3    -0.1
     0.1    -0.1    -0.2    -0.2     0.1     0.1    -0.1     0.0    -0.0    -0.2
    -0.1    -0.0    -0.0    -0.1    -0.2    -0.1     0.0     0.1     0.0    -0.0
     0.2     0.0    -0.2    -0.1     0.1     0.2     0.0    -0.2    -0.0     0.1
     0.1    -0.1    -0.1    -0.2    -0.1     0.0    -0.0    -0.1    -0.3    -0.0
     0.1    -0.2    -0.0    -0.1    -0.1    -0.0    -0.1    -0.1    -0.1     0.1
    -0.0    -0.2    -0.1    -0.1    -0.1    -0.2    -0.2    -0.0    -0.2    -0.2
    -0.1    -0.1    -0.0    -0.1    -0.0    -0.1    -0.2    -0.2    -0.2    -0.1
    -0.1    -0.1    -0.1     0.0    -0.1    -0.3    -0.0     0.1    -0.2    -0.1
    -0.1    -0.0    -0.1    -0.2    -0.1    -0.2    -0.0     0.1    -0.1    -0.2
     0.0    -0.0    -0.1    -0.2    -0.1    -0.0    -0.2    -0.2     0.0    -0.0
    -0.1    -0.1    -0.1    -0.0    -0.2    -0.2     0.0    -0.1    -0.1    -0.1
    -0.1    -0.1    -0.2    -0.2    -0.2    -0.2    -0.2    -0.2    -0.2     0.1
    -0.2    -0.4    -0.1    -0.1    -0.1    -0.2    -0.3    -0.0    -0.1    -0.2
    -0.1    -0.1    -0.1    -0.2    -0.2     0.1     0.1    -0.0    -0.1    -0.0
    -0.0    -0.1    -0.1     0.0    -0.0    -0.2    -0.1    -0.1    -0.1    -0.2
    -0.2     0.0    -0.2    -0.1    -0.1    -0.2    -0.1    -0.2    -0.1     0.0
    -0.2    -0.1    -0.2    -0.2     0.1    -0.0    -0.2    -0.1     0.0    -0.1
    -0.1    -0.1    -0.1    -0.1    -0.2    -0.2    -0.1     0.0    -0.1    -0.0
    -0.0    -0.2    -0.2    -0.2    -0.1    -0.1    -0.3    -0.1     0.0     0.0
     0.0    -0.0    -0.1    -0.2    -0.2    -0.1    -0.1    -0.1    -0.1    -0.1
    -0.0    -0.0    -0.2    -0.2    -0.1    -0.1    -0.1    -0.2    -0.2    -0.1
    -0.0    -0.1    -0.0    -0.0    -0.2    -0.1    -0.0    -0.1    -0.2    -0.1
    -0.2    -0.2    -0.0     0.0    -0.2    -0.2     0.0    -0.0    -0.2    -0.1
    -0.1    -0.1    -0.1    -0.1    -0.2    -0.2    -0.0    -0.1    -0.1    -0.1
    -0.1     0.0    -0.2    -0.2     0.0    -0.1    -0.1    -0.1    -0.2    -0.2
    -0.0    -0.0    -0.1    -0.1    -0.2    -0.1    -0.1    -0.1     0.1    -0.1
    -0.1    -0.1    -0.4    -0.2     0.0    -0.1    -0.1    -0.3    -0.1     0.1
     0.0    -0.1    -0.1    -0.1    -0.0     0.0     0.0     0.0    -0.0    -0.2
    -0.1    -0.1    -0.2    -0.1    -0.2    -0.2    -0.0    -0.1    -0.3    -0.0
    -0.1    -0.1     0.0    -0.2    -0.0     0.1    -0.0     0.0    -0.1    -0.2
    -0.1     0.0     0.0     0.0    -0.1    -0.0     0.1    -0.0    -0.1    -0.3
    -0.3    -0.1    -0.2    -0.1    -0.1    -0.1    -0.0    -0.1    -0.1    -0.0
    -0.1    -0.1    -0.1    -0.2    -0.1    -0.1    -0.1     0.0    -0.2    -0.1
    -0.1    -0.3    -0.0    -0.0    -0.3    -0.1     0.0    -0.2    -0.1    -0.0
    -0.1    -0.2    -0.1     0.1    -0.1    -0.2    -0.1    -0.1     0.0    -0.0
    -0.1    -0.2    -0.2     0.1     0.1    -0.2    -0.2     0.0     0.1    -0.1
    -0.2    -0.0     0.0    -0.1    -0.0    -0.1    -0.1     0.0    -0.0    -0.1
    -0.2    -0.2    -0.0    -0.1    -0.2    -0.1    -0.0    -0.0    -0.0     0.1
    -0.0    -0.3    -0.2    -0.2    -0.1     0.0    -0.1    -0.1     0.0    -0.1
    -0.0    -0.0    -0.2    -0.2    -0.1     0.0     0.1    -0.1    -0.1    -0.0
     0.0    -0.1     0.0     0.2     0.0    -0.2    -0.1    -0.0     0.1    -0.1
    -0.2    -0.2    -0.0     0.2     0.0    -0.1    -0.1    -0.1    -0.2    -0.2
     0.0    -0.1    -0.2    -0.2    -0.2    -0.1    -0.2     0.0    -0.0    -0.1
    -0.1    -0.0     0.0    -0.2    -0.2    -0.1    -0.1    -0.1    -0.2    -0.1
    -0.1    -0.2    -0.1    -0.1    -0.0     0.0    -0.0    -0.1    -0.1    -0.0
    -0.1     0.0     0.0    -0.1    -0.0     0.1    -0.2    -0.2    -0.1    -0.2
     0.1     0.0     0.0    -0.0    -0.2    -0.1    -0.1    -0.1    -0.1    -0.3
    -0.1    -0.1    -0.2    -0.1    -0.2    -0.2     0.1     0.1    -0.1    -0.2
    -0.2    -0.0     0.0    -0.2    -0.2    -0.0     0.1     0.0    -0.1     0.0
     0.0    -0.2    -0.1     0.1    -0.1    -0.2    -0.2    -0.1     0.1    -0.0
    -0.1     0.1    -0.1    -0.2    -0.0    -0.0    -0.1    -0.2    -0.2    -0.1
    -0.1    -0.2    -0.1     0.0     0.1    -0.1    -0.2    -0.2    -0.1    -0.0
    -0.2     0.0     0.1     0.0    -0.1    -0.3    -0.0    -0.0    -0.2    -0.1
    -0.0     0.0    -0.2    -0.2     0.0    -0.0    -0.1    -0.1     0.2    -0.0
    -0.2    -0.1    -0.1    -0.1    -0.1    -0.1    -0.1    -0.2    -0.1    -0.1
    -0.1    -0.1    -0.1     0.1     0.0    -0.1    -0.2    -0.1     0.1     0.1
    -0.0    -0.2    -0.1     0.2    -0.2    -0.3    -0.1    -0.1    -0.0    -0.1
    -0.1     0.1    -0.1    -0.1     0.1    -0.0    -0.1    -0.2    -0.2     0.0
    -0.1    -0.2    -0.1    -0.1    -0.1     0.1    -0.0    -0.1     0.0     0.0
    -0.1    -0.1    -0.2    -0.3    -0.1     0.0    -0.0    -0.1    -0.0     0.1
     0.0    -0.1    -0.1     0.0    -0.0    -0.2    -0.3    -0.1    -0.1    -0.2
    -0.0    -0.0    -0.0    -0.2    -0.2     0.0    -0.0    -0.1     0.0     0.0
     0.1    -0.0    -0.1    -0.1    -0.0    -0.1    -0.3    -0.1    -0.1    -0.2
    -0.2    -0.2    -0.0    -0.1    -0.3    -0.2    -0.2    -0.1    -0.0    -0.2
    -0.2    -0.1    -0.2    -0.1     0.1     0.0    -0.1     0.0     0.2     0.0
    -0.2    -0.1    -0.0     0.1    -0.0    -0.3     0.1     0.3    -0.2    -0.2
    -0.0    -0.0    -0.0    -0.1    -0.0     0.1     0.1    -0.0    -0.1    -0.2
    -0.1     0.0     0.1     0.1     0.1    -0.1     0.0     0.1    -0.1    -0.1
    -0.1    -0.1     0.0    -0.1    -0.1    -0.1     0.0    -0.1    -0.1     0.2
    -0.1    -0.3     0.0     0.1    -0.0    -0.2    -0.2     0.0     0.0    -0.1
     0.0    -0.0    -0.1    -0.1    -0.2    -0.0     0.0    -0.1    -0.1     0.1
     0.2    -0.1    -0.1    -0.0    -0.0    -0.0    -0.1    -0.1    -0.1    -0.2
    -0.3    -0.1     0.1    -0.1    -0.2    -0.1    -0.1    -0.1    -0.2    -0.0
     0.1    -0.1    -0.1    -0.1    -0.2    -0.1    -0.2    -0.2    -0.2    -0.1
    -0.1    -0.1    -0.1    -0.3    -0.3    -0.0    -0.2    -0.1    -0.1    -0.4
    -0.1     0.0    -0.1     0.0    -0.1    -0.1    -0.1    -0.2    -0.1    -0.0
    -0.2    -0.0    -0.0    -0.0     0.0    -0.2     0.0     0.1    -0.1    -0.0
    -0.0    -0.1    -0.0    -0.2     0.0     0.1    -0.1    -0.1    -0.1     0.1
    -0.1    -0.2     0.0    -0.1    -0.2    -0.1    -0.1    -0.0    -0.1    -0.2
    -0.2    -0.0    -0.1    -0.3    -0.3    -0.2    -0.0    -0.0    -0.2    -0.0
     0.1    -0.1    -0.1    -0.1    -0.2    -0.2    -0.1    -0.0    -0.2    -0.3
    -0.1    -0.2    -0.1    -0.0    -0.2    -0.2     0.0    -0.1    -0.0     0.1
     0.0    -0.1    -0.1    -0.1    -0.2    -0.3    -0.1    -0.0    -0.0    -0.0
    -0.1    -0.1    -0.1    -0.2    -0.2    -0.2    -0.1    -0.1    -0.1    -0.1
    -0.1    -0.1    -0.2    -0.2    -0.1    -0.1    -0.1    -0.2    -0.2    -0.0
    -0.1    -0.2    -0.1    -0.1    -0.2    -0.1    -0.1     0.0    -0.2    -0.3
    -0.0    -0.1    -0.2    -0.1    -0.2    -0.1    -0.1    -0.2    -0.2    -0.2
    -0.3    -0.3    -0.1    -0.1    -0.3    -0.3    -0.2    -0.1    -0.2    -0.4
    -0.2     0.0    -0.1    -0.2    -0.1    -0.0    -0.2    -0.2    -0.2    -0.1
    -0.1    -0.2    -0.2    -0.1    -0.1    -0.2    -0.4    -0.2     0.1    -0.1
    -0.1    -0.0    -0.1    -0.0    -0.1    -0.1    -0.1    -0.1    -0.2    -0.1
     0.1    -0.1    -0.3    -0.0    -0.1    -0.2    -0.1    -0.2    -0.1    -0.1
    -0.2    -0.1    -0.1    -0.0    -0.1    -0.3     0.1     0.0    -0.2    -0.0
    -0.0    -0.1    -0.2    -0.1    -0.1    -0.3    -0.2    -0.1    -0.0     0.1
