Uncorrected accelerogram 20160214_001343_MORS_20 GNS Science
Site MORS      43 32 22S  172 37 17E     Cusp file:  20160214_001347_MORS
Moorhouse Ave Christchurch
Instrument Cusp_42147
Resolution: 18-bit   Instr Period: 0.0050 s   Damping: 0.700
Accelerogram 20160214_001343_MORS_20                 Processed 2016 February 22
11 km east of CHRISTCHURCH
2016 February 14         00:13:43 UT
Epicentre  43 29 50S 172 45 18E  Bearing N67E  Dist   12km  Depth    8km M  5.70
Number of points  36161    Duration 180.80 s
Raw readings in units of 1.00 mm/s/s  at intervals of 0.005 s
Data is unfiltered
Component N00E
Acceleration:  Peak    918.2 mm/s/s at  45.95 s     RMS    75.72 mm/s/s
Velocity record unevaluated
Displacement record unevaluated
    2016       2      14       0      13     430       0       0    2016       2
      43      29      50     172      45      18       8       0      14       0
      43      32      22     172      37      17       0       0      67      12
   36161       0       0   36161       0       0       0       0      13    7325
   200.0    0.70    0.00   0.000  0.0000   0.000   0.000   1.000     0.0    0.00
  43.539 172.621  43.497 172.755    5.70    0.00    0.00    0.00      0.      0.
  180.80    0.00    0.00  180.80  0.0050  0.0050      0.      0.      0.  9806.6
   918.2   45.95    75.7      0.      0.     0.0    0.00     0.0     0.0   0.000
    0.00    0.00    0.00    0.00   0.000    0.00    0.00    0.00    0.00   0.000
   0.000   0.000   0.000      0.      0.   0.000   0.000   0.000      0.      0.
     0.3     0.3     0.2     0.1     0.2     0.2    -0.2    -0.0    -0.1    -0.6
    -0.2    -0.0    -0.1     0.3     0.2     0.2     0.2    -0.1    -0.0     0.1
    -0.0     0.2     0.2     0.1     0.0    -0.3    -0.2     0.2     0.3     0.3
     0.2    -0.1    -0.3    -0.3    -0.1     0.0     0.2     0.3     0.1     0.3
    -0.0    -0.1     0.1    -0.3    -0.1    -0.2    -0.3    -0.0    -0.1     0.1
    -0.0    -0.1     0.1     0.2     0.4     0.2     0.1     0.1    -0.1     0.1
    -0.1    -0.1     0.1    -0.0     0.0     0.2     0.1     0.1    -0.0     0.1
    -0.1    -0.0     0.0    -0.1     0.1     0.2     0.1    -0.1    -0.2     0.2
     0.2     0.1    -0.1    -0.2    -0.1    -0.1    -0.1    -0.2    -0.1    -0.1
    -0.3     0.1    -0.1    -0.2    -0.1    -0.3    -0.0     0.0     0.2     0.4
     0.1     0.2    -0.0    -0.1     0.1     0.1     0.4     0.1    -0.0     0.0
    -0.1     0.0     0.0     0.0    -0.0    -0.0     0.3     0.1    -0.1    -0.1
    -0.1    -0.1    -0.1    -0.1    -0.1    -0.0    -0.1    -0.2    -0.2    -0.4
    -0.2    -0.1    -0.1     0.0     0.0     0.4     0.4     0.3     0.5     0.2
     0.0    -0.0    -0.0    -0.0    -0.1     0.0    -0.0     0.0     0.1    -0.2
     0.1     0.2     0.1     0.1    -0.1     0.1     0.0    -0.1     0.1    -0.1
     0.2    -0.0    -0.3    -0.1    -0.2     0.0     0.0    -0.2     0.1    -0.1
     0.1     0.2    -0.1     0.0    -0.2    -0.2    -0.0    -0.2    -0.0    -0.0
    -0.4    -0.3    -0.1    -0.1     0.2     0.2    -0.0     0.0    -0.4    -0.3
    -0.0    -0.3     0.0     0.0    -0.0     0.2     0.0     0.2     0.2    -0.1
    -0.0    -0.3    -0.5    -0.2    -0.3    -0.1     0.2     0.1    -0.0    -0.2
    -0.2     0.0    -0.1    -0.1     0.2     0.1     0.3     0.2    -0.1     0.4
     0.1     0.1     0.2    -0.4    -0.1     0.0    -0.1     0.2    -0.1     0.0
    -0.2    -0.3     0.1    -0.4     0.2     0.5    -0.3     0.2    -0.1    -0.3
    -0.0    -0.5     0.2     0.1    -0.0     0.4    -0.2     0.1     0.2    -0.0
     0.2     0.0     0.0    -0.0     0.0     0.3    -0.0    -0.1     0.1    -0.0
     0.0     0.0    -0.3     0.0     0.1    -0.0     0.3    -0.0    -0.2    -0.2
    -0.3     0.1    -0.1     0.0     0.1    -0.0     0.2    -0.0     0.1     0.1
    -0.0     0.2    -0.1     0.0     0.1    -0.0     0.3     0.1     0.1     0.2
    -0.0     0.3     0.0    -0.1     0.1    -0.2     0.0    -0.1     0.0     0.3
    -0.2    -0.0     0.0    -0.1     0.1    -0.3    -0.1    -0.0    -0.2     0.1
    -0.0     0.2     0.1    -0.2     0.0     0.0     0.0    -0.1    -0.1     0.1
    -0.1     0.0    -0.1    -0.0     0.1    -0.3     0.3     0.0    -0.1     0.3
    -0.4     0.1     0.2    -0.1     0.3    -0.1     0.2     0.1    -0.1     0.1
    -0.3    -0.0    -0.0    -0.0     0.2    -0.2    -0.1    -0.2    -0.1     0.0
    -0.2     0.2     0.1     0.1     0.1    -0.2     0.2    -0.1     0.1     0.2
    -0.2     0.2    -0.1     0.1     0.2    -0.1     0.2    -0.1     0.0     0.1
    -0.1     0.3    -0.1     0.0     0.2    -0.2    -0.1    -0.2    -0.0     0.3
    -0.0    -0.0    -0.0    -0.0    -0.0     0.1    -0.0    -0.1     0.1    -0.2
    -0.1    -0.0    -0.2    -0.2    -0.2     0.1     0.1     0.2     0.1     0.1
     0.5     0.2     0.1     0.3    -0.1     0.1    -0.0    -0.1    -0.1    -0.1
     0.2    -0.1    -0.1    -0.1    -0.4    -0.3    -0.3    -0.1    -0.1    -0.1
     0.1    -0.1     0.1    -0.2     0.1     0.3    -0.3     0.0    -0.2    -0.1
     0.2    -0.2    -0.0    -0.4    -0.4    -0.1    -0.3     0.1     0.0     0.1
     0.5     0.0     0.4     0.2    -0.2     0.2    -0.2    -0.1    -0.2    -0.3
    -0.0    -0.4    -0.2    -0.0    -0.1     0.0    -0.2    -0.1    -0.1    -0.1
     0.2     0.0     0.0     0.1     0.1     0.1    -0.2     0.1     0.1    -0.1
    -0.0    -0.1    -0.1    -0.2    -0.1    -0.0    -0.1     0.0    -0.1    -0.2
     0.0     0.0    -0.0     0.1     0.2     0.2     0.2    -0.0     0.1     0.0
    -0.5    -0.2    -0.2    -0.1    -0.0    -0.2     0.3     0.0    -0.2     0.2
    -0.2    -0.0     0.1    -0.1     0.4     0.2     0.1     0.2     0.1     0.1
    -0.2    -0.1     0.1    -0.0     0.1     0.1    -0.1    -0.1    -0.1     0.0
     0.1    -0.1    -0.2    -0.2    -0.3    -0.2    -0.2    -0.3    -0.1     0.1
     0.3     0.2     0.3     0.3     0.1     0.1    -0.1    -0.2    -0.1    -0.0
    -0.1     0.0     0.2     0.1     0.2     0.2    -0.1    -0.1    -0.0    -0.0
     0.1    -0.0     0.1     0.1    -0.1    -0.1    -0.0    -0.2     0.0     0.0
    -0.1     0.1     0.1    -0.1    -0.4    -0.3     0.2     0.1     0.1     0.2
     0.3     0.5     0.2     0.3     0.3     0.0     0.2    -0.0     0.2     0.2
    -0.2     0.1    -0.0    -0.2     0.1     0.0     0.2     0.2     0.0     0.2
    -0.0    -0.2    -0.2    -0.3    -0.2    -0.0    -0.1    -0.2    -0.3    -0.1
    -0.2    -0.1    -0.0    -0.2    -0.1    -0.3    -0.3     0.1    -0.1    -0.0
     0.2     0.1     0.1     0.0    -0.2    -0.0     0.1    -0.1     0.0     0.1
     0.1     0.1    -0.1     0.0     0.0    -0.1     0.1     0.0    -0.0     0.0
    -0.2    -0.0     0.1    -0.0     0.2    -0.1    -0.1    -0.1    -0.3     0.0
    -0.2    -0.1     0.1    -0.0     0.3     0.1     0.0     0.2    -0.0     0.1
    -0.2    -0.1     0.2    -0.2     0.2     0.2    -0.0     0.3    -0.1     0.0
    -0.0    -0.4     0.0    -0.2    -0.0     0.2    -0.0     0.3     0.1     0.1
     0.1    -0.3    -0.1    -0.4    -0.3    -0.0    -0.4     0.2     0.2    -0.1
     0.2    -0.0    -0.0     0.0    -0.0     0.1    -0.1     0.2     0.2    -0.1
     0.1     0.2     0.1     0.0    -0.1    -0.0    -0.1    -0.2     0.0    -0.0
     0.1     0.1    -0.1     0.1    -0.1    -0.1    -0.0    -0.3    -0.1    -0.4
    -0.4     0.1    -0.1     0.1     0.3     0.2     0.2    -0.1    -0.1    -0.2
    -0.1     0.0     0.0     0.2     0.0     0.2     0.3    -0.0    -0.0    -0.1
     0.0     0.0    -0.3    -0.1    -0.2    -0.1     0.1    -0.1     0.2     0.0
    -0.2    -0.0    -0.2     0.1    -0.0    -0.2     0.1    -0.1     0.3     0.1
    -0.2     0.2    -0.3    -0.1     0.0    -0.1     0.1    -0.1     0.1     0.1
     0.2     0.5     0.1     0.0    -0.2    -0.0     0.2    -0.2     0.0    -0.0
     0.1     0.4     0.0     0.1    -0.3    -0.2    -0.0    -0.3    -0.1    -0.3
    -0.3    -0.1    -0.2     0.1    -0.0     0.0     0.1    -0.1    -0.0    -0.1
    -0.1     0.0     0.0     0.2     0.1    -0.0     0.0     0.2     0.0     0.1
     0.3     0.3     0.3     0.0    -0.1    -0.0    -0.1    -0.0    -0.1    -0.0
     0.1     0.1    -0.0    -0.1    -0.0    -0.3    -0.3     0.1     0.1     0.0
     0.0    -0.0    -0.0     0.1    -0.1    -0.2     0.1     0.1     0.1     0.0
     0.2     0.3     0.1     0.3     0.0    -0.0     0.0    -0.1     0.1     0.0
    -0.0    -0.1    -0.0     0.2    -0.1     0.2     0.2    -0.0     0.1    -0.4
    -0.4    -0.4    -0.5    -0.1    -0.0     0.1    -0.0    -0.0     0.1     0.1
     0.1     0.0     0.1    -0.0     0.1     0.2    -0.1     0.1     0.0     0.0
     0.1     0.1     0.3    -0.0    -0.1     0.1     0.1     0.2     0.0    -0.0
     0.0     0.0    -0.0    -0.1    -0.1    -0.1    -0.0     0.0     0.0    -0.1
    -0.2    -0.2    -0.3    -0.2    -0.2    -0.0     0.2     0.0    -0.1    -0.0
    -0.0     0.0     0.1     0.1     0.0     0.1     0.2     0.1    -0.1    -0.2
    -0.0    -0.0     0.1     0.3     0.2     0.1    -0.2     0.0     0.4     0.1
     0.1    -0.1    -0.4    -0.5    -0.5    -0.4    -0.0     0.1     0.1     0.4
     0.3    -0.0    -0.0    -0.1    -0.3    -0.4    -0.3    -0.4    -0.4     0.0
     0.1     0.3     0.4     0.1     0.2     0.2     0.2     0.2    -0.0     0.2
     0.3     0.2     0.2    -0.0    -0.1    -0.1    -0.4    -0.3    -0.3    -0.4
    -0.0    -0.1    -0.1     0.1    -0.1    -0.1     0.2     0.1    -0.2    -0.0
     0.1    -0.0     0.1     0.2    -0.1     0.0     0.1    -0.1    -0.2    -0.3
    -0.3    -0.2    -0.1     0.0     0.0    -0.0    -0.1    -0.1     0.0     0.2
     0.1     0.0     0.1     0.2     0.1     0.2     0.2    -0.1    -0.1    -0.2
    -0.4    -0.3    -0.4    -0.3    -0.0    -0.1     0.1     0.3    -0.0    -0.1
    -0.0    -0.0     0.0    -0.1    -0.0    -0.0    -0.1     0.1    -0.1    -0.1
     0.0     0.0     0.2     0.1     0.0    -0.0    -0.2    -0.1    -0.1     0.0
     0.1     0.1     0.1     0.0    -0.1    -0.3    -0.3    -0.2    -0.2    -0.2
    -0.3    -0.2     0.1     0.1     0.4     0.2    -0.0     0.1    -0.1     0.0
     0.1     0.2     0.1     0.0     0.0    -0.2    -0.0     0.1    -0.1    -0.1
    -0.1    -0.2    -0.1    -0.0     0.0     0.2     0.2     0.1    -0.1    -0.1
    -0.1    -0.1    -0.2    -0.3    -0.1    -0.0     0.1     0.0    -0.1    -0.1
     0.1     0.2     0.1     0.1     0.3     0.2     0.2     0.3     0.1     0.1
    -0.1     0.0     0.1    -0.2     0.0     0.0     0.0     0.1    -0.1     0.3
     0.1     0.1     0.3    -0.0    -0.0    -0.1    -0.3    -0.2     0.0     0.1
    -0.3    -0.2     0.1     0.0     0.3     0.1    -0.1     0.1    -0.0    -0.1
    -0.1    -0.1     0.1     0.0     0.0    -0.1    -0.1    -0.0     0.0     0.1
    -0.0    -0.1     0.0     0.1     0.1     0.2     0.2     0.1     0.2     0.2
     0.1    -0.1    -0.3    -0.2    -0.1    -0.1    -0.2    -0.0    -0.1    -0.0
     0.1    -0.1    -0.2     0.1     0.1     0.1    -0.1    -0.0     0.0    -0.2
    -0.1     0.0    -0.0    -0.0    -0.1     0.1    -0.0    -0.0    -0.0    -0.2
    -0.0    -0.1    -0.2    -0.0    -0.2    -0.3     0.0     0.0    -0.0     0.0
     0.2     0.2    -0.0    -0.0     0.1    -0.0     0.2     0.3    -0.0     0.0
    -0.0    -0.2    -0.1    -0.3    -0.2     0.2    -0.0    -0.0     0.1    -0.1
     0.1     0.0     0.1     0.2    -0.0     0.1     0.0    -0.1    -0.1    -0.0
    -0.1    -0.1     0.0    -0.0     0.1     0.0    -0.3    -0.2    -0.3    -0.3
     0.1     0.3     0.5     0.4     0.3     0.4     0.5     0.2    -0.0    -0.2
    -0.3    -0.2    -0.1    -0.1    -0.0    -0.1    -0.2    -0.2     0.0     0.2
     0.1     0.1     0.3     0.2    -0.0    -0.1    -0.0    -0.1    -0.1    -0.0
    -0.0     0.1    -0.0    -0.1    -0.2    -0.2    -0.1    -0.2    -0.2    -0.0
    -0.1     0.0     0.2     0.3     0.3     0.2     0.2     0.2     0.0     0.1
     0.0    -0.2    -0.1     0.0    -0.0    -0.1    -0.1    -0.2    -0.2    -0.2
    -0.2    -0.2    -0.0     0.2     0.1    -0.1    -0.1    -0.0    -0.2    -0.1
     0.1    -0.0    -0.1    -0.1    -0.4    -0.2     0.1     0.1     0.1     0.1
    -0.1     0.1     0.2     0.3     0.2     0.0     0.4     0.3     0.0     0.1
     0.1     0.1     0.2    -0.0    -0.1     0.1     0.0     0.0     0.1    -0.2
    -0.1     0.1    -0.2    -0.3    -0.2    -0.3    -0.2    -0.1    -0.2     0.1
     0.1    -0.1     0.2     0.0     0.0     0.3     0.1     0.1     0.1    -0.0
    -0.1    -0.2    -0.2    -0.1     0.1     0.2    -0.0    -0.0     0.2     0.3
    -0.1     0.1     0.2    -0.2    -0.0    -0.2    -0.3    -0.0    -0.1    -0.1
     0.1     0.1     0.0     0.0    -0.1    -0.1     0.1    -0.0    -0.2    -0.1
    -0.1     0.1     0.0     0.1     0.3    -0.1    -0.1     0.2     0.1     0.2
     0.2     0.2     0.4     0.3     0.2    -0.0    -0.2    -0.2    -0.3    -0.2
    -0.1    -0.3    -0.2    -0.0    -0.2    -0.1     0.2     0.1    -0.0    -0.1
    -0.1    -0.1    -0.3    -0.0     0.2    -0.1    -0.1    -0.0    -0.1    -0.1
    -0.1     0.1     0.2     0.1     0.1     0.1     0.0     0.2     0.1    -0.0
     0.0     0.1     0.2     0.1     0.2     0.2     0.2     0.1    -0.1     0.1
     0.0    -0.2     0.2     0.1    -0.2    -0.3    -0.2    -0.2    -0.3    -0.0
     0.2     0.1    -0.1    -0.2    -0.2    -0.3    -0.4    -0.2    -0.2    -0.1
     0.1     0.1     0.3     0.3     0.3     0.6     0.3    -0.1    -0.3    -0.3
    -0.3    -0.2    -0.1    -0.1     0.1     0.1     0.1     0.2     0.1     0.0
    -0.1    -0.4    -0.5    -0.3    -0.0    -0.2    -0.2     0.1     0.2     0.4
     0.2     0.2     0.5     0.3     0.3     0.3     0.0    -0.1    -0.0    -0.0
     0.1     0.1     0.1     0.2     0.4     0.3     0.3     0.3     0.1     0.1
     0.1     0.0     0.0    -0.3    -0.3     0.0    -0.1    -0.3    -0.1    -0.1
    -0.1     0.2     0.1    -0.2    -0.1    -0.1    -0.1    -0.0    -0.2    -0.3
    -0.2    -0.0     0.2     0.3     0.1     0.0    -0.0    -0.0     0.1     0.0
    -0.1    -0.1    -0.1     0.0    -0.1    -0.2    -0.2    -0.1    -0.1     0.0
     0.1    -0.1    -0.1     0.0     0.0    -0.0    -0.1    -0.1    -0.1    -0.3
    -0.2    -0.1    -0.1     0.0     0.2     0.2     0.1     0.0     0.0     0.1
    -0.0    -0.0     0.1     0.0     0.0     0.1    -0.0    -0.1    -0.3    -0.3
     0.1     0.1     0.1     0.1     0.1     0.4     0.2     0.1     0.1    -0.2
    -0.2    -0.1    -0.1    -0.0    -0.1    -0.1    -0.1    -0.0     0.2     0.3
     0.2     0.3     0.3     0.2     0.3     0.1    -0.3    -0.3    -0.1    -0.0
     0.1     0.1     0.1     0.1    -0.0    -0.0    -0.2    -0.2    -0.1    -0.2
    -0.0    -0.0    -0.1     0.1     0.1     0.0     0.2     0.0    -0.2    -0.2
    -0.3    -0.2     0.2     0.0     0.0     0.1    -0.1     0.0     0.1     0.2
     0.3     0.2     0.2     0.0    -0.1    -0.1     0.0     0.2    -0.1     0.1
     0.4     0.2     0.4     0.3     0.2     0.3    -0.0    -0.1    -0.1    -0.1
    -0.1    -0.0     0.1    -0.0     0.0     0.0    -0.2    -0.0    -0.2    -0.2
     0.2     0.0     0.0     0.1     0.1     0.2    -0.1    -0.1     0.1    -0.1
    -0.1    -0.2    -0.1     0.2     0.1     0.1     0.2     0.1     0.1    -0.1
    -0.1     0.0    -0.1    -0.1     0.1     0.2    -0.0    -0.1    -0.1    -0.1
    -0.1    -0.1    -0.0    -0.0    -0.0     0.1    -0.0     0.0    -0.1    -0.0
     0.2    -0.1     0.0    -0.1    -0.3     0.0    -0.1    -0.0     0.2     0.3
     0.5     0.2    -0.0    -0.1    -0.2    -0.1    -0.1     0.2    -0.0    -0.1
     0.0    -0.3    -0.1    -0.1    -0.4    -0.3    -0.4    -0.3    -0.0    -0.1
    -0.0    -0.0    -0.1     0.1     0.2     0.1    -0.0    -0.0    -0.2    -0.2
    -0.0     0.1     0.2     0.2    -0.0    -0.0     0.0     0.1     0.1     0.1
     0.0     0.0     0.2     0.1    -0.0    -0.1    -0.1     0.0    -0.1    -0.2
    -0.3    -0.4    -0.1    -0.2    -0.4     0.0     0.1     0.1    -0.1    -0.1
    -0.0    -0.0     0.1     0.1    -0.0     0.1     0.2     0.2     0.3     0.2
     0.0     0.0     0.1     0.1    -0.2    -0.3     0.1     0.1    -0.0     0.1
     0.0    -0.1     0.1     0.1    -0.1    -0.0    -0.1    -0.2    -0.4    -0.3
    -0.1    -0.1    -0.1    -0.1    -0.3    -0.2    -0.3    -0.1     0.2     0.0
     0.1    -0.1    -0.2    -0.0    -0.2    -0.1     0.1     0.2    -0.0    -0.3
     0.0     0.1     0.0     0.1     0.2     0.0     0.1     0.2    -0.0     0.1
     0.1    -0.0    -0.0    -0.2    -0.2    -0.1     0.0    -0.2    -0.3    -0.2
    -0.1     0.1    -0.1    -0.3    -0.2    -0.2     0.0     0.1     0.2     0.2
     0.3     0.4     0.1     0.0    -0.1    -0.3    -0.1    -0.0    -0.2    -0.2
    -0.0     0.2     0.1    -0.1     0.1    -0.0    -0.2    -0.0    -0.1    -0.3
    -0.2    -0.2    -0.1    -0.1    -0.0     0.1     0.1     0.2     0.2     0.0
     0.1    -0.0    -0.0     0.2     0.0    -0.0     0.0     0.0     0.0    -0.1
    -0.2    -0.2    -0.2    -0.1    -0.1    -0.1     0.2     0.2    -0.0     0.2
     0.2     0.1     0.1     0.2     0.1    -0.1    -0.2    -0.2    -0.1     0.0
     0.0    -0.0     0.1     0.1     0.0    -0.0     0.0     0.1     0.4     0.1
    -0.2     0.1     0.1     0.2    -0.1    -0.3    -0.1    -0.1     0.1     0.2
     0.1     0.1     0.1     0.2     0.1    -0.2    -0.3    -0.4    -0.4     0.0
    -0.0     0.0     0.1    -0.2    -0.0    -0.3    -0.3    -0.1    -0.3    -0.1
    -0.2    -0.3     0.0    -0.1     0.0     0.1    -0.1     0.1     0.0    -0.1
    -0.1    -0.1     0.1    -0.0    -0.1     0.2     0.0     0.0    -0.0    -0.2
    -0.1     0.0    -0.0    -0.1     0.0     0.2     0.0    -0.1    -0.1    -0.1
     0.0    -0.1    -0.3    -0.3    -0.1     0.0    -0.1    -0.0    -0.1    -0.2
     0.1    -0.1    -0.0     0.1     0.2     0.1    -0.2     0.0     0.1    -0.1
     0.2    -0.1    -0.1     0.1    -0.2     0.1     0.1    -0.1     0.1    -0.1
    -0.1    -0.2    -0.4    -0.0    -0.2    -0.2     0.0    -0.1     0.1     0.1
    -0.0     0.1     0.0     0.0    -0.0    -0.1    -0.0    -0.1    -0.3    -0.2
    -0.1    -0.0    -0.0    -0.1    -0.1    -0.1    -0.0     0.2     0.1    -0.0
     0.2     0.1     0.3     0.3     0.1     0.4     0.3     0.1     0.2    -0.0
    -0.0    -0.0    -0.2     0.0    -0.3    -0.6    -0.3    -0.3    -0.1    -0.0
    -0.1     0.1    -0.1    -0.0     0.1    -0.2    -0.0     0.1    -0.0     0.2
     0.1     0.0     0.1     0.1     0.2    -0.0    -0.0     0.0     0.1    -0.0
    -0.1     0.1     0.0    -0.1    -0.0    -0.1    -0.0    -0.1     0.0    -0.0
    -0.2     0.1    -0.2    -0.1     0.0    -0.2    -0.0    -0.2    -0.3    -0.1
    -0.1     0.1     0.2     0.4     0.2    -0.1    -0.1    -0.1     0.2     0.2
     0.2     0.3    -0.1    -0.0    -0.0    -0.1     0.1    -0.0     0.1    -0.1
    -0.2    -0.1    -0.1     0.1     0.2    -0.0    -0.1    -0.2    -0.0     0.1
     0.1    -0.1    -0.3    -0.1     0.0     0.0     0.1    -0.1     0.0     0.3
     0.2     0.1    -0.0    -0.0     0.1     0.1     0.3     0.3     0.0     0.1
     0.0    -0.0    -0.0    -0.2    -0.2     0.2     0.4     0.2     0.0     0.0
    -0.2    -0.0     0.0    -0.4    -0.3    -0.1     0.1     0.2    -0.1    -0.1
    -0.0     0.1     0.5     0.4    -0.2    -0.4    -0.3     0.0     0.2     0.0
    -0.1    -0.0     0.1     0.2    -0.0    -0.2    -0.1    -0.1     0.1    -0.0
    -0.2    -0.1    -0.1    -0.1    -0.0    -0.1    -0.3    -0.2     0.0     0.1
     0.0    -0.1    -0.2    -0.3    -0.2    -0.0     0.0     0.1     0.2     0.0
     0.3     0.2     0.0     0.1    -0.1     0.1     0.1    -0.1     0.2     0.0
    -0.1     0.1    -0.1    -0.2    -0.1    -0.1     0.0    -0.1    -0.2    -0.2
    -0.3    -0.3     0.1    -0.0    -0.1     0.2     0.1    -0.1    -0.0    -0.0
    -0.0    -0.3    -0.4    -0.2    -0.2    -0.1     0.1     0.1    -0.0     0.1
     0.1    -0.0     0.1     0.1     0.1     0.3     0.3     0.0    -0.0     0.1
     0.1     0.0    -0.0     0.0     0.1    -0.1    -0.3    -0.1    -0.0     0.0
