Uncorrected accelerogram 20160214_001343_BWRS_20 GNS Science
Site BWRS      41 26 22S  173 54 18E     Basalt file:  20160214_001431_BWRS
Waikakaho Road
Instrument Basalt_492
Resolution: 24-bit   Instr Period: 0.0050 s   Damping: 0.700
Accelerogram 20160214_001343_BWRS_20                 Processed 2016 February 22
11 km east of CHRISTCHURCH
2016 February 14         00:13:43 UT
Epicentre  43 29 50S 172 45 18E  Bearing S22W  Dist  247km  Depth    8km M  5.70
Number of points  29800    Duration 149.00 s
Raw readings in units of 1.00 mm/s/s  at intervals of 0.005 s
Data is unfiltered
Component S62W
Acceleration:  Peak     -3.2 mm/s/s at  63.40 s     RMS     0.55 mm/s/s
Velocity record unevaluated
Displacement record unevaluated
    2016       2      14       0      13     430       0       0    2016       2
      43      29      50     172      45      18       8       0      14       0
      41      26      22     173      54      18     242     242     202     247
   29800       0       0   29800       0       0       0       0      13   51000
   200.0    0.70    0.00   0.000  0.0000   0.000   0.000   1.000     0.0    0.00
  41.440 173.905  43.497 172.755    5.70    0.00    0.00    0.00      0.      0.
  149.00    0.00    0.00  149.00  0.0050  0.0050      0.      0.      0.  9806.6
    -3.2   63.40     0.5      0.      0.     0.0    0.00     0.0     0.0   0.000
    0.00    0.00    0.00    0.00   0.000    0.00    0.00    0.00    0.00   0.000
   0.000   0.000   0.000      0.      0.   0.000   0.000   0.000      0.      0.
    -0.0     0.2     0.4     0.0    -0.1     0.2     0.2     0.2    -0.1     0.1
     0.4     0.1    -0.0     0.2     0.2     0.1     0.0     0.2     0.2     0.1
     0.1     0.1     0.3     0.1     0.0     0.1     0.1     0.3    -0.1     0.0
     0.4     0.0     0.0     0.2     0.2     0.2     0.1     0.1     0.2     0.3
     0.1     0.1     0.2     0.3     0.1     0.0     0.3     0.2     0.1    -0.0
     0.2     0.3     0.0     0.1     0.1     0.3     0.1    -0.1     0.2     0.2
     0.1     0.1     0.1     0.2     0.1     0.1     0.2     0.2     0.3     0.0
     0.1     0.3     0.2     0.1     0.0     0.3     0.3     0.0     0.0     0.2
     0.3     0.2    -0.0     0.2     0.3     0.0    -0.0     0.2     0.2     0.2
     0.0     0.1     0.3     0.1     0.0     0.1     0.3     0.2    -0.1     0.2
     0.3     0.1     0.1     0.0     0.3     0.3    -0.0     0.1     0.3     0.3
    -0.0     0.1     0.3     0.2     0.1     0.1     0.3     0.2     0.0     0.2
     0.2     0.3     0.2    -0.0     0.2     0.3     0.1     0.1     0.2     0.3
     0.2     0.1     0.1     0.3     0.2     0.0     0.3     0.2     0.2     0.1
     0.1     0.3     0.2     0.1     0.1     0.3     0.2     0.0    -0.0     0.3
     0.2    -0.0     0.2     0.1     0.3     0.0    -0.1     0.3     0.2     0.1
     0.0     0.2     0.3     0.0     0.1     0.1     0.2     0.2    -0.1     0.2
     0.2     0.1     0.1    -0.0     0.2     0.3    -0.0     0.1     0.2     0.2
     0.1     0.1     0.2     0.2    -0.0     0.0     0.3     0.3    -0.1     0.0
     0.3     0.2    -0.0     0.1     0.2     0.1     0.0     0.0     0.2     0.2
    -0.0     0.1     0.2     0.2     0.2    -0.1     0.2     0.3    -0.0     0.1
     0.1     0.3     0.1    -0.1     0.2     0.2     0.2     0.0     0.1     0.2
     0.2     0.2     0.0     0.3     0.3     0.0     0.1     0.3     0.2     0.0
     0.1     0.2     0.3     0.1    -0.0     0.2     0.3     0.2    -0.0     0.2
     0.3     0.0     0.1     0.1     0.3     0.2    -0.1     0.2     0.4     0.1
     0.0     0.2     0.3     0.1     0.0     0.2     0.2     0.2     0.0     0.0
     0.3     0.2    -0.0     0.2     0.2     0.2     0.1     0.1     0.3     0.2
     0.1     0.1     0.2     0.3    -0.0     0.0     0.3     0.3     0.1    -0.0
     0.2     0.3     0.1     0.0     0.2     0.3     0.1     0.0     0.1     0.3
     0.2    -0.1     0.1     0.3     0.2    -0.1     0.2     0.4     0.1     0.1
     0.2     0.2     0.2     0.1     0.2     0.2     0.2     0.1     0.1     0.2
     0.2     0.1     0.1     0.2     0.2     0.1    -0.0     0.3     0.3     0.0
     0.2     0.1     0.2     0.2     0.0     0.1     0.2     0.2     0.0     0.1
     0.3     0.1     0.0     0.1     0.3     0.2     0.0     0.0     0.3     0.3
    -0.1     0.1     0.2     0.1     0.2    -0.1     0.2     0.2    -0.0     0.2
     0.1     0.2     0.1    -0.0     0.3     0.3    -0.0     0.0     0.3     0.2
     0.0     0.1     0.2     0.2     0.2     0.0     0.0     0.4     0.2    -0.0
     0.1     0.2     0.2    -0.1     0.1     0.3     0.2    -0.1     0.1     0.3
     0.1     0.1     0.1     0.2     0.3    -0.1     0.1     0.3     0.2    -0.0
    -0.0     0.2     0.2     0.0     0.0     0.2     0.2     0.1    -0.0     0.2
     0.3     0.1     0.0     0.0     0.3     0.1     0.0     0.2     0.1     0.2
    -0.1     0.1     0.3     0.0     0.1     0.1     0.2     0.2    -0.0     0.1
     0.2     0.1     0.1     0.1     0.1     0.3     0.1    -0.0     0.2     0.2
     0.1     0.0     0.2     0.3     0.0     0.1     0.2     0.1     0.1     0.0
     0.1     0.2     0.1    -0.0     0.1     0.3     0.1    -0.0     0.2     0.2
     0.2     0.0     0.0     0.3     0.3    -0.0     0.1     0.4     0.2    -0.1
     0.2     0.2     0.2    -0.0    -0.0     0.4     0.1     0.0     0.1     0.2
     0.3    -0.0     0.1     0.2     0.2     0.1    -0.0     0.2     0.3     0.1
     0.0     0.2     0.3     0.1    -0.0     0.2     0.3     0.2    -0.1     0.1
     0.3     0.1     0.0     0.1     0.3     0.2    -0.1     0.1     0.3     0.2
    -0.0     0.1     0.3     0.1     0.1     0.0     0.3     0.3    -0.1     0.2
     0.2     0.2     0.1    -0.0     0.2     0.3     0.1    -0.0     0.1     0.3
     0.2    -0.1     0.1     0.4     0.1     0.0     0.1     0.2     0.2    -0.1
     0.2     0.2     0.1     0.0     0.0     0.3     0.2     0.1    -0.0     0.2
     0.3    -0.1     0.1     0.2     0.2     0.1     0.1     0.2     0.2     0.1
     0.0     0.3     0.2     0.1     0.1     0.2     0.3     0.1    -0.0     0.2
     0.3     0.1     0.1     0.2     0.2     0.3     0.0     0.0     0.3     0.2
     0.0    -0.0     0.2     0.3    -0.1     0.1     0.3     0.2     0.0    -0.1
     0.3     0.2    -0.1     0.1     0.1     0.3     0.1    -0.0     0.2     0.2
     0.1    -0.1     0.2     0.4     0.0     0.0     0.2     0.2     0.1     0.1
     0.1     0.2     0.2    -0.0     0.1     0.3     0.2     0.0     0.0     0.3
     0.2    -0.0     0.1     0.3     0.2    -0.1    -0.0     0.4     0.1    -0.0
     0.1     0.2     0.2     0.0     0.1     0.1     0.2     0.2    -0.1     0.2
     0.2    -0.0     0.0     0.2     0.1     0.1     0.0    -0.0     0.2     0.1
    -0.1     0.1     0.2     0.1    -0.0    -0.0     0.3     0.2    -0.1     0.1
     0.2     0.1     0.0     0.1     0.2     0.2     0.1    -0.0     0.1     0.3
     0.0    -0.0     0.1     0.2     0.1    -0.2     0.2     0.4    -0.0    -0.0
     0.2     0.3     0.1    -0.1     0.1     0.1     0.2    -0.1     0.1     0.3
     0.0     0.1     0.0     0.2     0.2    -0.0     0.1     0.2     0.2    -0.0
     0.0     0.2     0.2    -0.0     0.0     0.2     0.1     0.1     0.0     0.1
     0.2    -0.0     0.1     0.1     0.1     0.2    -0.1     0.1     0.3     0.1
     0.0     0.0     0.3     0.2    -0.2     0.2     0.2     0.0     0.1    -0.0
     0.2     0.2    -0.0    -0.0     0.3     0.2    -0.1     0.2     0.2     0.2
     0.1    -0.0     0.1     0.3     0.0    -0.1     0.3     0.2     0.0     0.1
     0.1     0.3     0.1    -0.0     0.3     0.2     0.1     0.0     0.1     0.3
     0.1    -0.0     0.1     0.2     0.2     0.1    -0.0     0.3     0.2    -0.1
     0.2     0.1     0.1     0.0    -0.0     0.3     0.0     0.0     0.1     0.1
     0.3    -0.1    -0.0     0.2     0.1     0.1     0.0     0.1     0.2     0.1
    -0.1     0.1     0.4    -0.0    -0.1     0.3     0.2     0.1     0.0     0.1
     0.3     0.1     0.0     0.0     0.2     0.3    -0.1     0.1     0.4     0.1
    -0.0     0.1     0.2     0.2     0.0    -0.1     0.3     0.3    -0.0     0.1
     0.1     0.3     0.1    -0.1     0.2     0.3     0.0    -0.0     0.2     0.3
     0.1     0.0     0.1     0.2     0.2     0.0     0.1     0.4    -0.1     0.1
     0.2     0.1     0.4    -0.2     0.0     0.4     0.1    -0.0     0.1     0.3
     0.2     0.0    -0.0     0.3     0.2    -0.0     0.1     0.2     0.3     0.0
    -0.0     0.3     0.2     0.1    -0.0     0.2     0.2    -0.1     0.1     0.1
     0.2     0.1    -0.1     0.2     0.2     0.1    -0.0     0.1     0.3     0.0
    -0.0     0.1     0.2     0.2    -0.0     0.1     0.2     0.1     0.0     0.1
     0.2     0.1     0.0     0.0     0.2     0.3    -0.0     0.0     0.2     0.3
     0.1    -0.1     0.1     0.2     0.1    -0.0     0.1     0.2     0.1    -0.0
     0.1     0.2     0.1    -0.1     0.0     0.3     0.2    -0.0     0.1     0.2
     0.2    -0.0    -0.0     0.3     0.2    -0.0     0.1     0.2     0.2     0.0
     0.0     0.1     0.3    -0.0    -0.0     0.2     0.2     0.1    -0.0     0.1
     0.3     0.1    -0.0     0.2     0.3     0.1    -0.0     0.2     0.3     0.2
    -0.0     0.0     0.3     0.1     0.1     0.0     0.3     0.2    -0.1     0.2
     0.1     0.2    -0.0    -0.1     0.4     0.1     0.1    -0.0     0.2     0.3
    -0.1     0.1     0.1     0.3     0.1    -0.1     0.3     0.2    -0.0     0.0
     0.2     0.2    -0.1     0.1     0.1     0.2     0.2    -0.1     0.2     0.2
     0.2     0.1    -0.1     0.3     0.1    -0.0     0.1     0.2     0.3    -0.1
     0.1     0.2     0.1     0.1    -0.1     0.3     0.2    -0.0     0.1     0.2
     0.3    -0.1     0.1     0.2     0.2     0.1    -0.1     0.3     0.2     0.1
     0.1     0.0     0.3     0.1    -0.0     0.1     0.3     0.2    -0.2     0.2
     0.3     0.1     0.1    -0.1     0.3     0.2    -0.2     0.2     0.1     0.2
     0.0    -0.0     0.3     0.1     0.1     0.0     0.1     0.3     0.0    -0.0
     0.1     0.2     0.1    -0.0     0.1     0.3     0.1     0.0     0.2     0.1
     0.2     0.0     0.1     0.1     0.1     0.2     0.0     0.2     0.2    -0.1
     0.1     0.3     0.1    -0.1     0.1     0.2     0.2     0.0    -0.1     0.3
     0.2    -0.1     0.2     0.1     0.2     0.1    -0.1     0.3     0.1     0.1
     0.1     0.1     0.2    -0.0     0.1     0.1     0.1     0.2    -0.0     0.1
     0.2     0.2    -0.1     0.1     0.3     0.1     0.0    -0.0     0.3     0.1
    -0.1     0.3     0.1     0.1     0.1     0.0     0.2     0.2     0.0    -0.1
     0.3     0.2    -0.0     0.1     0.1     0.2     0.1     0.0     0.2     0.1
     0.1     0.0     0.1     0.2     0.0    -0.0     0.1     0.2     0.0    -0.1
     0.2     0.2     0.1    -0.0     0.1     0.3     0.1    -0.1     0.2     0.1
     0.2     0.1    -0.1     0.3     0.2    -0.0    -0.0     0.3     0.2    -0.1
     0.2     0.1     0.1     0.1    -0.0     0.1     0.3     0.0    -0.1     0.3
     0.2     0.1     0.0     0.0     0.3     0.0    -0.1     0.2     0.1     0.1
     0.1     0.0     0.2     0.2    -0.0     0.1     0.3     0.1     0.1     0.0
     0.2     0.2     0.1     0.0     0.1     0.3    -0.0    -0.0     0.3     0.2
     0.1    -0.0     0.2     0.3    -0.1     0.0     0.2     0.2     0.1    -0.1
     0.2     0.2     0.1     0.0     0.1     0.2     0.1    -0.0     0.1     0.2
     0.0    -0.0     0.1     0.1     0.3     0.0    -0.1     0.3     0.2    -0.0
     0.0     0.2     0.0     0.1     0.1     0.0     0.2    -0.0    -0.1     0.2
     0.2     0.1    -0.0     0.0     0.4     0.0    -0.1     0.2     0.2     0.0
    -0.0     0.2     0.2     0.1    -0.0     0.0     0.3     0.0     0.0     0.1
     0.2     0.2    -0.1     0.1     0.1     0.1     0.0    -0.1     0.2     0.2
    -0.2    -0.0     0.2     0.1     0.0    -0.0     0.1     0.2    -0.0     0.0
     0.1     0.2     0.0     0.0     0.2     0.1     0.1    -0.0     0.1     0.3
     0.1    -0.0     0.2     0.2     0.0     0.1     0.1     0.2     0.3    -0.1
     0.1     0.3     0.1     0.1    -0.1     0.2     0.3    -0.1     0.1     0.2
     0.1     0.1     0.1     0.1     0.2     0.0    -0.1     0.2     0.2    -0.0
     0.1     0.2     0.3     0.1    -0.1     0.2     0.3     0.0     0.2     0.1
     0.3     0.2    -0.1     0.1     0.3     0.2    -0.0     0.1     0.3     0.1
     0.0     0.1     0.3     0.2     0.0     0.1     0.3     0.1     0.0     0.2
     0.1     0.2     0.2     0.0     0.2     0.2     0.1     0.0     0.0     0.3
     0.2    -0.1     0.1     0.2     0.2    -0.0     0.1     0.4     0.1     0.0
     0.2     0.2     0.2     0.0     0.1     0.2     0.3    -0.0     0.0     0.3
     0.2    -0.0     0.1     0.3     0.1     0.1     0.0     0.2     0.3    -0.1
     0.0     0.2     0.2     0.1    -0.1     0.1     0.3     0.1    -0.0     0.2
     0.2     0.1     0.0     0.0     0.3     0.1    -0.1     0.1     0.2     0.1
    -0.1     0.1     0.3     0.1    -0.0     0.1     0.0     0.2     0.1    -0.0
     0.2     0.1     0.1    -0.1     0.1     0.3    -0.1     0.0     0.1     0.2
     0.0    -0.1     0.2     0.2     0.0    -0.1     0.2     0.2    -0.1    -0.0
     0.1     0.2     0.0    -0.0     0.1     0.2     0.1    -0.1     0.1     0.2
     0.1    -0.0     0.0     0.2     0.1    -0.1     0.1     0.2     0.0     0.1
    -0.1     0.2     0.2    -0.1     0.0     0.2     0.2    -0.0     0.0     0.1
     0.1     0.2    -0.2     0.2     0.2    -0.0    -0.0    -0.0     0.3     0.0
    -0.1     0.2     0.0     0.1     0.0    -0.0     0.3     0.1    -0.1     0.0
     0.2     0.1    -0.1     0.1     0.2     0.1    -0.1    -0.0     0.2     0.2
     0.0    -0.1     0.2     0.2     0.0     0.1     0.1     0.1     0.1     0.1
     0.1     0.2     0.1    -0.0     0.2     0.2     0.0    -0.0     0.1     0.2
     0.2    -0.1     0.1     0.2     0.1     0.0    -0.1     0.3     0.2    -0.1
     0.0     0.1     0.3    -0.1    -0.0     0.3     0.1     0.0    -0.1     0.3
     0.2    -0.0     0.1     0.0     0.2     0.1    -0.1     0.1     0.3    -0.0
    -0.0     0.1     0.2     0.2    -0.2     0.1     0.3     0.0    -0.0    -0.0
     0.3     0.0    -0.1     0.1     0.2     0.2    -0.1    -0.0     0.2     0.2
    -0.1    -0.0     0.3     0.2     0.0    -0.1     0.1     0.3     0.0    -0.2
     0.2     0.2    -0.1    -0.0     0.1     0.1     0.2    -0.1     0.1     0.3
    -0.2     0.0     0.1     0.2     0.2    -0.1     0.2     0.1     0.1     0.1
    -0.1     0.3     0.2    -0.1     0.1     0.2     0.2     0.1     0.0     0.2
     0.2    -0.0     0.0     0.2     0.3     0.1    -0.0     0.3     0.3    -0.0
     0.0     0.2     0.3     0.1    -0.0     0.2     0.2     0.1    -0.0     0.1
     0.3     0.1    -0.0     0.1     0.3     0.1    -0.0     0.1     0.2     0.3
    -0.0     0.1     0.3     0.1     0.0     0.1     0.3     0.2    -0.0     0.1
     0.2     0.2     0.0     0.1     0.2     0.2     0.1    -0.0     0.2     0.2
     0.1     0.1     0.1     0.3     0.1     0.0     0.1     0.2     0.2     0.0
     0.1     0.3     0.1     0.1     0.1     0.2     0.2    -0.0     0.1     0.3
     0.1     0.0     0.1     0.2     0.2     0.0    -0.1     0.2     0.3     0.0
    -0.0     0.2     0.3    -0.0    -0.1     0.3     0.1     0.1    -0.0     0.2
     0.2     0.1     0.1    -0.0     0.3     0.2     0.0     0.1     0.2     0.2
    -0.1     0.1     0.3     0.1     0.1     0.1     0.2     0.3    -0.0     0.0
     0.3     0.1     0.1     0.1     0.1     0.3    -0.1     0.1     0.3     0.1
     0.2     0.0     0.1     0.3     0.1     0.0     0.2     0.3     0.1     0.0
     0.2     0.3     0.0     0.0     0.2     0.2     0.2     0.0     0.1     0.2
     0.2     0.1    -0.1     0.3     0.2    -0.0     0.2     0.2     0.1     0.1
     0.1     0.2     0.2     0.1     0.0     0.2     0.3     0.0    -0.0     0.2
     0.3     0.1     0.0     0.2     0.3     0.1    -0.1     0.3     0.2     0.1
     0.1     0.1     0.3     0.1     0.0     0.1     0.3     0.2     0.0     0.1
     0.2     0.2    -0.0     0.1     0.3     0.1     0.0     0.1     0.2     0.2
     0.1     0.1     0.2     0.3     0.0    -0.0     0.2     0.2     0.1    -0.0
     0.2     0.2     0.0     0.1     0.1     0.4     0.0    -0.1     0.3     0.2
     0.2    -0.0     0.2     0.3     0.1     0.1     0.0     0.4     0.1    -0.0
     0.2     0.1     0.2     0.0     0.0     0.3     0.2     0.0     0.1     0.2
     0.2     0.0     0.0     0.2     0.3    -0.0     0.1     0.3     0.1     0.1
     0.0     0.2     0.2    -0.0     0.1     0.0     0.2     0.2    -0.1     0.1
     0.2     0.2    -0.1     0.1     0.4    -0.1     0.1     0.1     0.2     0.2
    -0.1     0.1     0.2     0.1     0.1    -0.0     0.2     0.2     0.0    -0.0
     0.2     0.2     0.1    -0.0     0.1     0.3    -0.1     0.0     0.3     0.1
     0.1     0.1     0.1     0.3     0.1     0.0     0.1     0.3     0.2    -0.2
     0.1     0.3     0.1    -0.0     0.1     0.3     0.2     0.0     0.1     0.2
     0.3    -0.0    -0.1     0.4     0.2    -0.0     0.1     0.1     0.3     0.1
    -0.0     0.2     0.3     0.1    -0.1     0.3     0.2     0.0     0.1     0.0
     0.3     0.1     0.0     0.1     0.1     0.3    -0.1     0.1     0.3     0.1
     0.1     0.0     0.3     0.1     0.1     0.2     0.2     0.3    -0.0     0.1
     0.2     0.2     0.0    -0.1     0.4     0.1     0.1     0.1     0.1     0.4
    -0.0    -0.0     0.3     0.1     0.0     0.1     0.1     0.2     0.1     0.0
     0.1     0.3     0.1    -0.1     0.1     0.3     0.1     0.0     0.0     0.2
     0.2    -0.1     0.1     0.4     0.0     0.1     0.1     0.2     0.3    -0.1
     0.1     0.2     0.1     0.2    -0.1     0.2     0.3     0.0     0.0     0.1
     0.3     0.0    -0.1     0.2     0.2     0.1    -0.0     0.1     0.3     0.1
    -0.0     0.1     0.2     0.1     0.1     0.1     0.1     0.1    -0.0     0.1
     0.3     0.1    -0.0     0.1     0.2     0.1     0.1    -0.0     0.1     0.4
    -0.0    -0.0     0.2     0.2     0.1     0.0     0.1     0.3     0.2    -0.1
     0.2     0.3     0.1    -0.0     0.1     0.4     0.1     0.0     0.1     0.2
     0.2     0.0     0.0     0.3     0.2    -0.1     0.2     0.2     0.1     0.1
    -0.0     0.2     0.2    -0.0     0.0     0.3     0.1     0.0     0.0     0.2
     0.4    -0.1     0.0     0.3     0.1     0.2    -0.1     0.1     0.3     0.1
    -0.1     0.0     0.2     0.1    -0.0     0.0     0.3     0.0    -0.0     0.2
     0.2     0.1    -0.2     0.2     0.3     0.0     0.0     0.1     0.3     0.1
     0.0     0.1     0.2     0.2     0.1     0.0     0.1     0.3     0.0    -0.0
     0.3     0.2     0.0    -0.0     0.3     0.1     0.0     0.1     0.1     0.3
    -0.0    -0.0     0.3     0.1     0.1     0.0     0.1     0.3     0.2    -0.1
     0.1     0.2     0.2    -0.0     0.1     0.2     0.2    -0.1     0.0     0.3
     0.1    -0.0     0.1     0.2     0.2     0.0    -0.0     0.2     0.3     0.0
    -0.0     0.1     0.3    -0.0     0.0     0.2     0.1     0.1    -0.1     0.2
     0.2    -0.0     0.1     0.1     0.3     0.0    -0.0     0.2     0.1     0.1
     0.1     0.1     0.1     0.2     0.0     0.0     0.1     0.2     0.0    -0.0
     0.3     0.2    -0.1     0.0     0.1     0.2     0.0    -0.1     0.3     0.1
    -0.1     0.2    -0.0     0.2     0.1    -0.1     0.2     0.1     0.1    -0.1
     0.2     0.2    -0.0     0.0     0.0     0.2     0.1    -0.0     0.0     0.2
     0.2    -0.1     0.1     0.2     0.0     0.1    -0.0     0.2     0.2    -0.0
     0.0     0.0     0.3     0.0    -0.1     0.2     0.1     0.0     0.0     0.2
     0.2    -0.0    -0.0     0.2     0.2     0.0    -0.0     0.2     0.2     0.1
    -0.0     0.1     0.2     0.1     0.0     0.0     0.2     0.2    -0.1     0.1
     0.3     0.1    -0.1     0.2     0.1     0.1     0.1    -0.1     0.2     0.3
    -0.1    -0.0     0.2     0.2     0.1     0.0     0.1     0.2     0.1    -0.1
     0.1     0.3    -0.0    -0.0     0.2     0.2     0.0    -0.0     0.2     0.1
