Uncorrected accelerogram 20160214_001343_STKS_20 GNS Science
Site STKS      43 36 24S  172 38 42E     Cusp file:  20160214_001347_STKS
Sign of the Kiwi
Instrument Cusp_42281
Resolution: 18-bit   Instr Period: 0.0050 s   Damping: 0.700
Accelerogram 20160214_001343_STKS_20                 Processed 2016 February 22
11 km east of CHRISTCHURCH
2016 February 14         00:13:43 UT
Epicentre  43 29 50S 172 45 18E  Bearing N36E  Dist   15km  Depth    8km M  5.70
Number of points  35983    Duration 179.91 s
Raw readings in units of 1.00 mm/s/s  at intervals of 0.005 s
Data is unfiltered
Component S11W
Acceleration:  Peak    336.7 mm/s/s at  44.05 s     RMS    21.32 mm/s/s
Velocity record unevaluated
Displacement record unevaluated
    2016       2      14       0      13     430       0       0    2016       2
      43      29      50     172      45      18       8       0      14       0
      43      36      24     172      38      42     191     191      36      15
   35983       0       0   35983       0       0       0       0      13    7633
   200.0    0.70    0.00   0.000  0.0000   0.000   0.000   1.000     0.0    0.00
  43.607 172.645  43.497 172.755    5.70    0.00    0.00    0.00      0.      0.
  179.91    0.00    0.00  179.91  0.0050  0.0050      0.      0.      0.  9806.6
   336.7   44.05    21.3      0.      0.     0.0    0.00     0.0     0.0   0.000
    0.00    0.00    0.00    0.00   0.000    0.00    0.00    0.00    0.00   0.000
   0.000   0.000   0.000      0.      0.   0.000   0.000   0.000      0.      0.
    -0.1     0.0     0.0     0.0     0.1    -0.0    -0.0    -0.0    -0.2    -0.1
     0.1     0.1     0.1    -0.1    -0.0    -0.0    -0.1     0.1    -0.1    -0.0
    -0.0    -0.2     0.1     0.1     0.0    -0.0     0.0     0.2    -0.0    -0.1
     0.0    -0.1    -0.3    -0.2    -0.0    -0.0     0.2    -0.0    -0.0     0.2
    -0.1    -0.1     0.1    -0.0    -0.1     0.0     0.1    -0.1    -0.2    -0.0
     0.0    -0.1     0.0    -0.1    -0.3     0.1     0.1    -0.2     0.2     0.0
    -0.4    -0.1     0.1     0.1     0.2    -0.1    -0.3    -0.1    -0.0    -0.2
    -0.0     0.1    -0.1    -0.0    -0.1    -0.0     0.2     0.0    -0.1    -0.2
    -0.1     0.1    -0.3    -0.0     0.2    -0.1    -0.1    -0.1    -0.0     0.0
     0.0     0.0    -0.2    -0.2     0.0     0.0    -0.0    -0.0    -0.1    -0.2
    -0.2     0.2     0.2    -0.0    -0.0    -0.2    -0.2    -0.0    -0.1    -0.1
    -0.1    -0.1    -0.0    -0.1     0.1     0.2     0.1    -0.2    -0.1     0.2
    -0.1    -0.1     0.0    -0.1     0.0    -0.1     0.1     0.1    -0.3     0.0
    -0.1    -0.1     0.1    -0.2    -0.1     0.0    -0.2     0.0    -0.0    -0.1
     0.1     0.2     0.1    -0.1    -0.0    -0.1    -0.2    -0.1     0.1     0.1
    -0.2    -0.2    -0.1    -0.3    -0.2     0.1     0.1     0.1    -0.1    -0.2
    -0.1    -0.0     0.1     0.1    -0.3    -0.1     0.1    -0.2    -0.1    -0.0
     0.0     0.2     0.1     0.0     0.0     0.1     0.0     0.0     0.1     0.1
     0.2     0.0    -0.1     0.1     0.0    -0.0     0.2     0.1     0.0    -0.1
    -0.1    -0.0    -0.1    -0.1     0.2     0.3    -0.0     0.0     0.1     0.0
    -0.1    -0.1     0.0     0.0     0.1     0.1     0.1     0.1     0.1     0.0
    -0.1     0.0    -0.1    -0.0     0.2    -0.2    -0.1     0.2    -0.0     0.0
    -0.0    -0.1     0.1    -0.0    -0.0     0.1     0.1    -0.1    -0.0     0.1
    -0.2    -0.0    -0.0     0.0     0.2    -0.0    -0.1     0.0     0.1     0.0
     0.0    -0.0    -0.2     0.1     0.2    -0.0    -0.0     0.1    -0.1     0.1
     0.0    -0.1     0.0     0.2     0.3    -0.2    -0.1     0.1    -0.1     0.1
     0.2    -0.0     0.1     0.0     0.0     0.0    -0.0     0.0    -0.1     0.1
     0.0    -0.1     0.0    -0.2    -0.1     0.1    -0.0     0.1    -0.1    -0.1
    -0.2    -0.1     0.1    -0.0     0.0     0.1    -0.0    -0.0     0.1     0.0
     0.0    -0.0    -0.1     0.1     0.1    -0.1    -0.1    -0.0     0.1     0.1
     0.0    -0.0    -0.1     0.1    -0.0    -0.0     0.1    -0.1    -0.1    -0.0
     0.1    -0.0    -0.1     0.0    -0.2    -0.2     0.1     0.0     0.0    -0.1
     0.0     0.0    -0.2    -0.1    -0.2    -0.0    -0.0    -0.1    -0.1    -0.2
    -0.0    -0.0    -0.1    -0.0    -0.0     0.1     0.1    -0.0    -0.1     0.1
     0.1     0.0     0.1     0.0    -0.0    -0.0     0.1     0.1    -0.2    -0.1
     0.0    -0.2    -0.1     0.0     0.1    -0.0    -0.1     0.1    -0.1    -0.1
     0.1     0.0     0.1    -0.2    -0.1     0.2     0.1     0.1    -0.0     0.2
     0.3     0.0     0.1     0.1     0.1     0.3     0.3    -0.1    -0.2     0.1
     0.0     0.1     0.1    -0.0     0.0    -0.1     0.1     0.2    -0.2    -0.2
     0.0     0.1    -0.2    -0.1     0.2    -0.0    -0.1    -0.1    -0.1     0.1
    -0.0    -0.0    -0.1    -0.1    -0.2    -0.1     0.2     0.1     0.2     0.0
    -0.0     0.1     0.0     0.1     0.0    -0.1    -0.2    -0.2     0.1     0.1
     0.1    -0.1    -0.0     0.1    -0.1     0.0     0.1    -0.1    -0.1    -0.0
     0.0    -0.0    -0.0    -0.1     0.0     0.0    -0.1    -0.0     0.1    -0.0
    -0.1     0.2    -0.1    -0.1    -0.1    -0.1     0.3     0.1    -0.2     0.0
    -0.1    -0.0     0.0    -0.2    -0.0     0.1    -0.1    -0.0    -0.0    -0.1
     0.2     0.1    -0.2     0.0     0.2     0.0     0.1    -0.1    -0.1     0.2
     0.1     0.0     0.2     0.2     0.1     0.1     0.1     0.0     0.1    -0.1
    -0.2     0.1    -0.2    -0.2     0.1    -0.1    -0.1     0.1    -0.1     0.0
     0.0    -0.1    -0.0    -0.1    -0.2    -0.0     0.2    -0.1    -0.1    -0.0
    -0.2    -0.1    -0.1     0.1     0.0    -0.1     0.0    -0.0    -0.1     0.0
    -0.1    -0.1     0.0    -0.1    -0.0     0.0    -0.1     0.0    -0.1    -0.1
     0.1    -0.1    -0.1     0.2    -0.1    -0.0     0.2    -0.1    -0.0     0.1
    -0.0    -0.0    -0.0     0.0     0.1     0.1     0.0    -0.0    -0.0    -0.0
     0.0    -0.0    -0.1     0.0     0.0    -0.2     0.1     0.1    -0.1     0.3
     0.1     0.0     0.3    -0.1    -0.1     0.0    -0.0     0.2     0.0    -0.1
     0.2     0.0    -0.2    -0.0    -0.0    -0.0    -0.0     0.0     0.0     0.1
     0.2    -0.0    -0.0     0.0    -0.1    -0.0    -0.1    -0.1     0.2    -0.1
    -0.0     0.1     0.0     0.1     0.0     0.0     0.0    -0.1     0.0     0.0
    -0.1     0.1     0.1    -0.1     0.0     0.0    -0.2     0.1     0.1    -0.1
     0.0     0.0    -0.0    -0.0     0.0    -0.1    -0.1     0.1     0.1    -0.0
    -0.2    -0.2     0.0    -0.1    -0.3    -0.0    -0.0     0.0     0.1    -0.0
    -0.2    -0.1    -0.1    -0.2     0.0     0.0     0.0     0.1    -0.2    -0.2
    -0.0     0.1     0.0    -0.0     0.0    -0.0    -0.1    -0.1     0.1     0.2
     0.0    -0.0     0.0    -0.0     0.0     0.0     0.0     0.0     0.1     0.0
    -0.1    -0.1     0.1     0.1     0.1     0.1     0.0     0.0     0.1    -0.0
     0.0     0.0    -0.1     0.1     0.1    -0.0    -0.0     0.0     0.1     0.1
     0.1     0.0    -0.1     0.2     0.3     0.0    -0.1    -0.0     0.1     0.1
    -0.1    -0.1     0.2     0.0    -0.1     0.1     0.1     0.1     0.1    -0.1
    -0.3    -0.0     0.2    -0.1     0.0     0.2     0.0     0.1     0.1     0.1
     0.2     0.0    -0.1    -0.1    -0.1    -0.0     0.1     0.1    -0.1    -0.1
    -0.0     0.2     0.2    -0.0     0.1     0.1     0.1     0.0    -0.0    -0.1
    -0.1     0.1     0.0    -0.2    -0.0     0.2     0.1     0.2     0.2     0.1
     0.0    -0.2    -0.1     0.1     0.1     0.2     0.1    -0.0    -0.0     0.1
     0.1    -0.1     0.1    -0.0    -0.0     0.2     0.0    -0.1     0.0     0.0
     0.0    -0.0     0.0     0.1     0.2     0.2     0.0    -0.2     0.1     0.0
    -0.3    -0.0     0.1     0.0    -0.1    -0.1    -0.2     0.0     0.3    -0.2
    -0.2     0.1    -0.1     0.0    -0.0    -0.1    -0.0    -0.1     0.0     0.1
     0.0     0.0     0.1     0.0     0.1     0.1     0.1     0.3     0.2     0.1
     0.1    -0.0     0.1     0.2    -0.1    -0.2     0.1     0.3     0.2    -0.0
     0.0     0.2     0.2    -0.0    -0.0    -0.0    -0.1    -0.1     0.0     0.0
     0.1     0.2    -0.1    -0.3     0.0     0.2    -0.0    -0.1     0.0     0.1
     0.2     0.1    -0.1    -0.1     0.0     0.1    -0.3    -0.5     0.1     0.4
     0.1     0.2     0.1    -0.2    -0.0     0.0     0.1    -0.1    -0.0     0.4
     0.1    -0.1    -0.1    -0.1    -0.0     0.0     0.2     0.3     0.2    -0.1
    -0.3     0.1     0.1     0.0     0.1    -0.1    -0.0    -0.0    -0.1    -0.1
    -0.1    -0.1     0.1     0.1     0.0    -0.1    -0.3    -0.2     0.1     0.1
     0.0    -0.2    -0.0     0.1    -0.0    -0.1    -0.3     0.0     0.3    -0.0
     0.1     0.2    -0.1     0.1    -0.0    -0.1     0.1    -0.1    -0.2     0.0
    -0.1    -0.1     0.1     0.0    -0.0    -0.0     0.0     0.1    -0.2    -0.0
    -0.0    -0.2     0.1     0.1    -0.1    -0.0     0.0    -0.0    -0.0     0.1
    -0.1    -0.0     0.1    -0.1     0.1     0.2    -0.1    -0.1     0.1     0.1
     0.1     0.1     0.0    -0.1     0.1     0.1    -0.0     0.0    -0.0     0.0
     0.2     0.1    -0.1     0.0    -0.0    -0.1     0.0    -0.0    -0.0     0.1
     0.1     0.1    -0.1    -0.0    -0.1    -0.0     0.3     0.1     0.0     0.2
    -0.1    -0.1     0.0     0.0     0.0     0.0     0.1    -0.1    -0.1    -0.0
    -0.0     0.1    -0.1    -0.1     0.0    -0.0    -0.1    -0.0    -0.0    -0.0
     0.2     0.1    -0.1    -0.0    -0.0     0.1     0.3     0.1     0.1     0.1
    -0.1     0.1     0.2     0.0    -0.1    -0.1     0.1     0.0     0.2     0.4
    -0.0    -0.1    -0.0    -0.1     0.1     0.1     0.1     0.2     0.1     0.0
    -0.1     0.1     0.0    -0.2     0.2     0.2    -0.2    -0.1     0.0    -0.2
     0.1     0.0    -0.3    -0.1     0.1    -0.0     0.0     0.0    -0.1    -0.1
    -0.1     0.0     0.0     0.1     0.2    -0.3    -0.1     0.0    -0.2    -0.1
    -0.1    -0.1    -0.1    -0.2    -0.1    -0.0     0.1    -0.0    -0.1     0.2
    -0.1    -0.1     0.1    -0.0    -0.1     0.0    -0.0    -0.4    -0.2    -0.1
    -0.1     0.3     0.1    -0.2     0.0    -0.2    -0.3     0.0     0.3     0.2
     0.1     0.0    -0.3    -0.3    -0.0    -0.1    -0.0     0.2     0.1    -0.2
    -0.1     0.1    -0.1     0.0     0.1    -0.2    -0.1     0.1    -0.1    -0.1
    -0.1    -0.2    -0.2    -0.1    -0.1    -0.1     0.1     0.1     0.0    -0.0
    -0.1    -0.1     0.0    -0.1    -0.1     0.0    -0.1    -0.2    -0.1    -0.1
    -0.0    -0.1     0.2     0.1    -0.1     0.1    -0.2    -0.3    -0.1    -0.1
     0.1     0.2    -0.2    -0.4    -0.1    -0.0     0.0     0.1     0.1    -0.1
    -0.2    -0.0    -0.0    -0.2     0.1     0.0    -0.0     0.3     0.0    -0.1
     0.1    -0.0    -0.2     0.0     0.1    -0.1    -0.1    -0.1    -0.1     0.3
     0.2    -0.2    -0.2    -0.2    -0.1     0.3     0.2    -0.1    -0.2    -0.1
    -0.1    -0.1     0.0    -0.1    -0.2    -0.0    -0.2    -0.4    -0.2    -0.1
    -0.0     0.1    -0.0    -0.2    -0.1    -0.1    -0.1    -0.1    -0.1    -0.2
    -0.2     0.1    -0.1    -0.3     0.0    -0.1     0.0     0.2    -0.3    -0.1
     0.2    -0.2    -0.2    -0.0    -0.2    -0.2     0.2    -0.0    -0.3    -0.0
    -0.1    -0.1    -0.0    -0.2    -0.2     0.1     0.2    -0.1    -0.0     0.1
    -0.2    -0.1     0.2    -0.0     0.1     0.1    -0.3    -0.3    -0.1    -0.1
     0.1     0.1    -0.0    -0.3    -0.2    -0.0    -0.3     0.1     0.0    -0.4
     0.1    -0.1    -0.3    -0.0    -0.0    -0.0     0.1     0.1    -0.2    -0.2
     0.1    -0.1    -0.0     0.1    -0.3    -0.2     0.3     0.1    -0.1     0.1
    -0.2    -0.2     0.1    -0.1    -0.0     0.2    -0.2    -0.3    -0.1     0.0
     0.0     0.1    -0.1    -0.3     0.1    -0.1    -0.3     0.1    -0.1    -0.3
     0.0    -0.2    -0.1     0.3     0.1    -0.1     0.2    -0.1    -0.2     0.1
     0.0    -0.1     0.0     0.0    -0.1    -0.0    -0.0    -0.1    -0.0     0.1
    -0.2    -0.0     0.2    -0.4    -0.0     0.2    -0.2    -0.0     0.0    -0.3
    -0.1     0.1    -0.1    -0.1     0.2    -0.0    -0.2     0.1    -0.1    -0.2
     0.2    -0.1    -0.1    -0.0    -0.2    -0.1     0.1    -0.2    -0.3     0.0
    -0.1    -0.3     0.1    -0.1    -0.2     0.3    -0.1    -0.1     0.2    -0.1
    -0.3    -0.0     0.0    -0.1     0.3     0.1    -0.1     0.2     0.0    -0.2
     0.0     0.1    -0.1     0.0    -0.0    -0.3     0.0     0.0    -0.3     0.1
     0.1    -0.2     0.2     0.0    -0.2     0.2    -0.0    -0.2     0.3     0.0
    -0.2     0.1    -0.1    -0.3     0.3     0.2    -0.3     0.1    -0.0    -0.3
     0.1    -0.1    -0.2     0.3    -0.1    -0.2     0.2    -0.1    -0.3     0.1
    -0.2    -0.1     0.2    -0.2    -0.1     0.2    -0.1    -0.1     0.1    -0.3
    -0.2     0.2    -0.1     0.0     0.4    -0.2    -0.2     0.3     0.0    -0.1
     0.2    -0.1    -0.1     0.1    -0.2    -0.1     0.4    -0.2    -0.1     0.3
    -0.3    -0.1     0.3    -0.0     0.1     0.2    -0.0     0.2     0.2    -0.1
     0.1     0.2    -0.4     0.1     0.3    -0.2     0.1     0.1    -0.4     0.1
     0.2    -0.2     0.0    -0.0    -0.3     0.0    -0.2    -0.2     0.3    -0.1
    -0.2     0.3    -0.1     0.0     0.3    -0.0    -0.3     0.0    -0.0    -0.0
     0.3    -0.1    -0.1     0.3    -0.3     0.0     0.3    -0.4     0.0     0.2
    -0.4     0.0     0.2    -0.2     0.0    -0.0    -0.2     0.0     0.0    -0.1
     0.3     0.0    -0.4    -0.0    -0.3    -0.2     0.4    -0.0    -0.2     0.1
    -0.3    -0.0     0.2    -0.1     0.1     0.1    -0.4    -0.3     0.1    -0.1
     0.2     0.1    -0.4     0.1     0.1    -0.3     0.2     0.0    -0.3     0.2
     0.1    -0.2     0.1     0.1    -0.0     0.1     0.1    -0.1     0.0     0.0
     0.0     0.1    -0.0    -0.1     0.1     0.1     0.1     0.2     0.1    -0.1
     0.0    -0.1    -0.3     0.1     0.0    -0.2     0.1    -0.0    -0.0     0.1
    -0.1    -0.1    -0.1    -0.0    -0.0    -0.2    -0.0    -0.2    -0.2     0.1
    -0.1    -0.1     0.0    -0.1    -0.2    -0.1    -0.1     0.0     0.1    -0.1
    -0.1    -0.1    -0.1    -0.0     0.0     0.1     0.1     0.1     0.0    -0.2
    -0.1    -0.1    -0.1    -0.0    -0.1     0.0    -0.1    -0.1    -0.1    -0.1
    -0.0    -0.1     0.0     0.0    -0.2     0.0     0.1    -0.2    -0.1     0.1
    -0.0     0.2     0.2    -0.2    -0.2     0.2     0.0     0.0     0.2    -0.0
    -0.1     0.0    -0.0    -0.1     0.0     0.0    -0.1    -0.1    -0.1    -0.1
    -0.0     0.1    -0.2    -0.1     0.1    -0.2    -0.1    -0.1    -0.1     0.2
     0.0    -0.0     0.0    -0.1    -0.0    -0.1    -0.1     0.1    -0.1     0.0
    -0.1    -0.3    -0.1    -0.1    -0.1    -0.0     0.0     0.0     0.1     0.0
    -0.1     0.0    -0.1    -0.1     0.0     0.0    -0.2    -0.2     0.1    -0.0
    -0.3    -0.1    -0.1    -0.0    -0.0    -0.2    -0.0    -0.1    -0.1     0.0
    -0.0     0.0    -0.1    -0.1    -0.1     0.1     0.3     0.1     0.1    -0.2
    -0.3    -0.1    -0.1    -0.0    -0.0     0.1    -0.0    -0.1    -0.0     0.0
     0.1     0.1     0.1     0.1     0.1     0.1    -0.1    -0.1     0.2     0.1
    -0.1     0.1     0.0    -0.0     0.1     0.0     0.1     0.2     0.1    -0.0
    -0.1     0.0    -0.0    -0.0    -0.0     0.1     0.1     0.0     0.1    -0.0
     0.0     0.2    -0.1    -0.0     0.0     0.0     0.3     0.1    -0.1     0.1
    -0.0    -0.0    -0.1    -0.1     0.0    -0.1     0.1     0.0    -0.1     0.1
    -0.1    -0.1    -0.1    -0.1     0.3     0.2     0.0     0.0     0.1    -0.0
    -0.1     0.1     0.1     0.1     0.0    -0.1    -0.1     0.0     0.2    -0.0
    -0.1     0.1    -0.1    -0.1    -0.0    -0.0     0.1    -0.0    -0.0     0.0
    -0.1    -0.1    -0.0     0.1     0.0    -0.0     0.0    -0.0    -0.0    -0.1
    -0.1     0.0    -0.1    -0.1     0.0     0.1     0.1     0.0     0.1     0.2
     0.1     0.0     0.0     0.1     0.0     0.0     0.0    -0.1     0.0     0.1
    -0.1    -0.0     0.0    -0.0    -0.0    -0.2     0.1     0.2    -0.2    -0.1
     0.0    -0.0     0.0    -0.1     0.1     0.1    -0.1     0.0     0.0     0.0
     0.1     0.2     0.2    -0.0    -0.0    -0.1    -0.0     0.1     0.1     0.3
     0.2    -0.1    -0.0     0.2     0.2     0.2     0.1    -0.0    -0.1     0.0
     0.1     0.1    -0.0    -0.1    -0.1    -0.2     0.0     0.3     0.2     0.1
    -0.0     0.0     0.1    -0.1     0.0     0.1     0.1     0.1     0.1     0.1
    -0.0    -0.1     0.0     0.1     0.1     0.1     0.0     0.1     0.1     0.1
     0.1     0.1     0.1     0.0    -0.0     0.2     0.2     0.0     0.2     0.1
    -0.0     0.2     0.1     0.0     0.1     0.1     0.2     0.2     0.1    -0.1
     0.1     0.1    -0.1     0.1     0.2     0.2     0.1    -0.1     0.1     0.0
     0.1     0.1     0.1     0.3     0.1     0.0     0.1    -0.0     0.0    -0.0
    -0.1    -0.1     0.0    -0.0     0.1     0.0    -0.0     0.1     0.0     0.0
     0.1     0.1    -0.0    -0.0     0.0    -0.0     0.0     0.1     0.0     0.0
    -0.0     0.1     0.2     0.1     0.1     0.0    -0.1     0.1     0.2     0.0
    -0.1    -0.0    -0.1    -0.1     0.1    -0.0     0.0     0.0     0.0     0.2
     0.0     0.1     0.2     0.0     0.1     0.1    -0.0     0.0     0.1     0.1
     0.1     0.2    -0.0     0.1     0.1    -0.0     0.2     0.2     0.2     0.2
    -0.1    -0.1     0.1     0.0     0.1     0.1     0.1     0.0     0.0    -0.0
    -0.0     0.0    -0.0    -0.0     0.0     0.0    -0.0    -0.1     0.1     0.0
    -0.0     0.0    -0.1    -0.1    -0.0     0.1     0.1     0.1     0.1     0.2
     0.2    -0.1     0.0     0.2     0.1    -0.1    -0.1     0.0     0.2     0.1
     0.0     0.1     0.1    -0.0    -0.1     0.2     0.2     0.0     0.0     0.0
    -0.0     0.0     0.0    -0.0    -0.0     0.1     0.1    -0.1    -0.2    -0.1
     0.0     0.1     0.0     0.0    -0.1    -0.1     0.0    -0.0    -0.0     0.1
     0.2     0.1    -0.1     0.0    -0.0     0.1     0.1    -0.0     0.0    -0.0
    -0.1    -0.1     0.1     0.1    -0.0     0.1     0.0    -0.0     0.1     0.0
    -0.0     0.2     0.2    -0.0    -0.1    -0.0    -0.1    -0.1     0.0    -0.0
    -0.1     0.1     0.0    -0.1     0.0     0.1    -0.0     0.1     0.0    -0.0
     0.1    -0.0    -0.1    -0.1    -0.1     0.0     0.1     0.0    -0.0     0.0
     0.0    -0.2    -0.1     0.1     0.1     0.2     0.0    -0.1    -0.1    -0.1
    -0.1    -0.0    -0.0     0.0    -0.0     0.1     0.1    -0.1    -0.1    -0.2
    -0.1     0.1    -0.0     0.1     0.0    -0.1    -0.0    -0.0    -0.1    -0.1
    -0.0     0.1    -0.0     0.0     0.1     0.2     0.1    -0.0     0.1     0.1
     0.1     0.1     0.0     0.1    -0.0    -0.2    -0.1    -0.0     0.1     0.0
    -0.1    -0.1    -0.0     0.0    -0.1    -0.1    -0.2    -0.1     0.1    -0.1
    -0.1     0.1     0.0     0.1     0.1    -0.1    -0.2    -0.0     0.1     0.2
     0.1    -0.0     0.1     0.1     0.1     0.1    -0.1    -0.0     0.1     0.2
     0.1    -0.1    -0.0     0.0     0.0     0.1    -0.1     0.1     0.1    -0.1
    -0.0     0.1     0.1     0.1     0.0    -0.0     0.0    -0.1    -0.2    -0.1
     0.0     0.0    -0.0     0.0     0.1    -0.0     0.0     0.0    -0.1     0.1
     0.2     0.1     0.1     0.1     0.0    -0.1    -0.1    -0.1     0.0    -0.0
    -0.0     0.1    -0.1     0.0     0.2     0.1     0.1     0.0     0.2     0.1
    -0.1    -0.1    -0.1     0.0    -0.0     0.1     0.1    -0.1    -0.1     0.2
     0.1     0.1     0.0    -0.1    -0.1    -0.1     0.0     0.1     0.1     0.1
     0.1    -0.0     0.0     0.0    -0.1     0.0     0.2     0.0    -0.1     0.0
     0.1     0.0    -0.1    -0.0     0.0    -0.1     0.0     0.0    -0.1    -0.0
     0.0     0.1     0.1    -0.1    -0.1     0.0     0.0     0.1     0.1    -0.1
    -0.1     0.0     0.1    -0.0    -0.0     0.1     0.1     0.1     0.1    -0.0
    -0.0    -0.0     0.1     0.0     0.1     0.2     0.1    -0.1     0.0     0.0
    -0.1     0.1     0.1    -0.1     0.0    -0.1    -0.0     0.1    -0.1    -0.2
